{
{"STATE":"IL","ZIP":60622,"LATTITUDE":41.89761489305195,"ADDRESS":"905 N CALIFORNIA AVE  ","YEAR":2014,"DOING_BUSINESS_AS_NAME":"LOCO EXPRESS INC.","POP_AT_RISK":180268,"BUSINESS_TYPE":"License Manager","LEGAL_NAME":"LOCO EXPRESS INC.","LONGITUDE":-87.69660552456575},
{"STATE":"IL","ZIP":60644,"LATTITUDE":41.8832735212277,"ADDRESS":"151 N CICERO AVE  ","YEAR":2014,"DOING_BUSINESS_AS_NAME":"PEEPLE TRANS CAB INC.","POP_AT_RISK":632604,"BUSINESS_TYPE":"License Manager","LEGAL_NAME":"PEEPLE TRANS CAB INC.","LONGITUDE":-87.74523396526135},
{"STATE":"IL","ZIP":60616,"LATTITUDE":41.8451088467216,"ADDRESS":"2617 S WABASH AVE  ","YEAR":2014,"DOING_BUSINESS_AS_NAME":"CHICAGO ELITE CAB CORP.","POP_AT_RISK":354312,"BUSINESS_TYPE":"License Manager","LEGAL_NAME":"CHICAGO ELITE CAB CORP.","LONGITUDE":-87.62516554312204},
{"STATE":"IL","ZIP":60659,"LATTITUDE":41.9834252692414,"ADDRESS":"5606 N WESTERN AVE 1 ","YEAR":2014,"DOING_BUSINESS_AS_NAME":"24 SEVEN TAXI AFFILIATION","POP_AT_RISK":229700,"BUSINESS_TYPE":"License Manager","LEGAL_NAME":"24 SEVEN TAXI ASSN., INC","LONGITUDE":-87.68960548027884},
{"STATE":"IL","ZIP":60660,"LATTITUDE":41.996661552834716,"ADDRESS":"6306 N CLARK ST  ","YEAR":2014,"DOING_BUSINESS_AS_NAME":"AVENUE TRANSPORTATION INC","POP_AT_RISK":434685,"BUSINESS_TYPE":"License Manager","LEGAL_NAME":"AVENUE TRANSPORTATION INC","LONGITUDE":-87.67039884123452},
{"STATE":"IL","ZIP":60646,"LATTITUDE":41.992025442366575,"ADDRESS":"4020 W GLENLAKE AVE  ","YEAR":2014,"DOING_BUSINESS_AS_NAME":"CAB MANAGEMENT GROUP INC.","POP_AT_RISK":17974,"BUSINESS_TYPE":"License Manager","LEGAL_NAME":"CAB MANAGEMENT GROUP INC.","LONGITUDE":-87.72984048928724},
{"STATE":"IL","ZIP":60641,"LATTITUDE":41.94482073871164,"ADDRESS":"4626 W CORNELIA AVE  ","YEAR":2014,"DOING_BUSINESS_AS_NAME":"SUN FINANCIAL SERVICES, INC.","POP_AT_RISK":418896,"BUSINESS_TYPE":"License Manager","LEGAL_NAME":"SUN FINANCIAL SERVICES INC.","LONGITUDE":-87.74351231039856},
{"STATE":"IL","ZIP":60626,"LATTITUDE":42.00138489583853,"ADDRESS":"6550 N CLARK ST  ","YEAR":2014,"DOING_BUSINESS_AS_NAME":"Choice Taxi Association Inc.","POP_AT_RISK":71506,"BUSINESS_TYPE":"License Manager","LEGAL_NAME":"CHOICE TAXI ASSOCIATION, INC.","LONGITUDE":-87.67189776065382},
{"STATE":"IL","ZIP":60618,"LATTITUDE":41.946464369592555,"ADDRESS":"3351 W ADDISON ST 1 ","YEAR":2014,"DOING_BUSINESS_AS_NAME":"TAXI MEDALLION MANAGEMENT LLC","POP_AT_RISK":502736,"BUSINESS_TYPE":"License Manager","LEGAL_NAME":"TAXI MEDALLION MANAGEMENT LLC","LONGITUDE":-87.71233717594026},
{"STATE":"IL","ZIP":60661,"LATTITUDE":41.88326270465594,"ADDRESS":"724 W WASHINGTON BLVD  ","YEAR":2014,"DOING_BUSINESS_AS_NAME":"CHICAGO MEDALLION LEASING, INC.","POP_AT_RISK":419130,"BUSINESS_TYPE":"License Manager","LEGAL_NAME":"CHICAGO MEDALLION LEASING, INC.","LONGITUDE":-87.64649415136276},
{"STATE":"IL","ZIP":60647,"LATTITUDE":41.91166586404873,"ADDRESS":"2028 W CONCORD PL  ","YEAR":2014,"DOING_BUSINESS_AS_NAME":"CHICAGO TAXICAB MANAGEMENT, INC.","POP_AT_RISK":1188697,"BUSINESS_TYPE":"License Manager","LEGAL_NAME":"CHICAGO TAXICAB MANAGEMENT, INC.","LONGITUDE":-87.67838888182673},
{"STATE":"IL","ZIP":60656,"LATTITUDE":41.97331138411917,"ADDRESS":"9696 W FOSTER AVE  ","YEAR":2014,"DOING_BUSINESS_AS_NAME":"MASTERS MEDALLION MANAGEMENT, LLC","POP_AT_RISK":16526,"BUSINESS_TYPE":"License Manager","LEGAL_NAME":"MASTERS MEDALLION MANAGEMENT, LLC","LONGITUDE":-87.86672075423944},
{"STATE":"IL","ZIP":60612,"LATTITUDE":41.8866581728074,"ADDRESS":"2738 W FULTON ST  ","YEAR":2014,"DOING_BUSINESS_AS_NAME":"CHICAGO MEDALLION MANAGEMENT CORP.","POP_AT_RISK":323091,"BUSINESS_TYPE":"License Manager","LEGAL_NAME":"CHICAGO MEDALLION MANAGEMENT CORP.","LONGITUDE":-87.69543870163243},
}