{
{"STATE":"IL","ZIP":60609,"LATTITUDE":41.82956110961632,"ADDRESS":"3543 S ARCHER AVE 1 ","YEAR":2010,"DOING_BUSINESS_AS_NAME":"COMP-NET SOLUTIONS","POP_AT_RISK":91188,"BUSINESS_TYPE":"Retail Computing Center","LEGAL_NAME":"ADEL NASSAR","LONGITUDE":-87.67876881207133},
{"STATE":"IL","ZIP":60622,"LATTITUDE":41.90584332514768,"ADDRESS":"1321 N MILWAUKEE AVE 1ST ","YEAR":2010,"DOING_BUSINESS_AS_NAME":"COPY MAX","POP_AT_RISK":159858,"BUSINESS_TYPE":"Retail Computing Center","LEGAL_NAME":"JEONG S KIM","LONGITUDE":-87.67014702982526},
{"STATE":"IL","ZIP":60634,"LATTITUDE":41.95293379525561,"ADDRESS":"6011 W IRVING PARK RD  ","YEAR":2010,"DOING_BUSINESS_AS_NAME":"XINEF TECH","POP_AT_RISK":230695,"BUSINESS_TYPE":"Retail Computing Center","LEGAL_NAME":"JORGE GARCIA","LONGITUDE":-87.77722754978836},
{"STATE":"IL","ZIP":60628,"LATTITUDE":41.68558014591839,"ADDRESS":"580 E 115TH ST 1 ","YEAR":2010,"DOING_BUSINESS_AS_NAME":"PEACE AND POSH","POP_AT_RISK":43436,"BUSINESS_TYPE":"Retail Computing Center","LEGAL_NAME":"SAVANNA HINTON","LONGITUDE":-87.60832791378041},
{"STATE":"IL","ZIP":60615,"LATTITUDE":41.79535600927198,"ADDRESS":"1744 E 55TH ST  ","YEAR":2010,"DOING_BUSINESS_AS_NAME":"FUTUREWORLD","POP_AT_RISK":58412,"BUSINESS_TYPE":"Retail Computing Center","LEGAL_NAME":"FUTUREWORLD NFP","LONGITUDE":-87.58222060804295},
{"STATE":"IL","ZIP":60610,"LATTITUDE":41.898198096788455,"ADDRESS":"858 N ORLEANS ST 1ST A21","YEAR":2010,"DOING_BUSINESS_AS_NAME":"GOGOL CO","POP_AT_RISK":77821,"BUSINESS_TYPE":"Retail Computing Center","LEGAL_NAME":"KHALIF ALI ADEN","LONGITUDE":-87.63738015364876},
{"STATE":"IL","ZIP":60631,"LATTITUDE":41.981143964082634,"ADDRESS":"8550 W BRYN MAWR AVE 400 ","YEAR":2010,"DOING_BUSINESS_AS_NAME":"NH CHICAGO LLC","POP_AT_RISK":105845,"BUSINESS_TYPE":"Retail Computing Center","LEGAL_NAME":"NH CHICAGO, LLC","LONGITUDE":-87.84108737455419},
{"STATE":"IL","ZIP":60639,"LATTITUDE":41.921832355524785,"ADDRESS":"6303 - 6305 W GRAND AVE  ","YEAR":2010,"DOING_BUSINESS_AS_NAME":"GEORGINA'S  ENTERPRISE","POP_AT_RISK":99046,"BUSINESS_TYPE":"Retail Computing Center","LEGAL_NAME":"GEORGINA SERRANO","LONGITUDE":-87.78313705808097},
{"STATE":"IL","ZIP":60645,"LATTITUDE":42.01195388843777,"ADDRESS":"2801 W TOUHY AVE  ","YEAR":2010,"DOING_BUSINESS_AS_NAME":"OFFICE MART","POP_AT_RISK":38904,"BUSINESS_TYPE":"Retail Computing Center","LEGAL_NAME":"OFFICE MART INC.","LONGITUDE":-87.69983023199094},
{"STATE":"IL","ZIP":60623,"LATTITUDE":41.842403950499424,"ADDRESS":"2700 S RIDGEWAY AVE 1ST ","YEAR":2010,"DOING_BUSINESS_AS_NAME":"COMPUTERWOW, INC.","POP_AT_RISK":63898,"BUSINESS_TYPE":"Retail Computing Center","LEGAL_NAME":"COMPUTERWOW, INC.","LONGITUDE":-87.71855052411769},
{"STATE":"IL","ZIP":60632,"LATTITUDE":41.801114147503455,"ADDRESS":"5078 S ARCHER AVE 1ST ","YEAR":2010,"DOING_BUSINESS_AS_NAME":"BITS N BYTEZ, LTD.","POP_AT_RISK":33821,"BUSINESS_TYPE":"Retail Computing Center","LEGAL_NAME":"BITS N BYTEZ, LTD.","LONGITUDE":-87.72792013428698},
{"STATE":"IL","ZIP":60643,"LATTITUDE":41.69445854283245,"ADDRESS":"10931 S WESTERN AVE 1ST ","YEAR":2010,"DOING_BUSINESS_AS_NAME":"DCW TECHNICAL MECHANICS","POP_AT_RISK":151704,"BUSINESS_TYPE":"Retail Computing Center","LEGAL_NAME":"DCW TECH MECHS LLC","LONGITUDE":-87.68109494709279},
{"STATE":"IL","ZIP":60641,"LATTITUDE":41.95452907392424,"ADDRESS":"4055 N MILWAUKEE AVE 1 ","YEAR":2010,"DOING_BUSINESS_AS_NAME":"PC HERE","POP_AT_RISK":150894,"BUSINESS_TYPE":"Retail Computing Center","LEGAL_NAME":"MICHAEL R. INGLIMO","LONGITUDE":-87.74892490122396},
{"STATE":"IL","ZIP":60619,"LATTITUDE":41.751211574824836,"ADDRESS":"358 E 79TH ST 1 ","YEAR":2010,"DOING_BUSINESS_AS_NAME":"COMPUTERS BY THE HOUR & COPYING TOO","POP_AT_RISK":188570,"BUSINESS_TYPE":"Retail Computing Center","LEGAL_NAME":"KIERKEN CORPORATION","LONGITUDE":-87.61583018670413},
{"STATE":"IL","ZIP":60634,"LATTITUDE":41.94522171663337,"ADDRESS":"7105 W ADDISON ST  ","YEAR":2010,"DOING_BUSINESS_AS_NAME":"COMPUTER LOUNGE INC","POP_AT_RISK":228256,"BUSINESS_TYPE":"Retail Computing Center","LEGAL_NAME":"COMPUTER LOUNGE INC.","LONGITUDE":-87.80352484199379},
{"STATE":"IL","ZIP":60632,"LATTITUDE":41.82134431810515,"ADDRESS":"3982 S ARCHER AVE 1 ","YEAR":2010,"DOING_BUSINESS_AS_NAME":"CYBERK COMPUTEK INC.","POP_AT_RISK":56648,"BUSINESS_TYPE":"Retail Computing Center","LEGAL_NAME":"CYBERK COMPUTEK INC.","LONGITUDE":-87.69264968521705},
{"STATE":"IL","ZIP":60623,"LATTITUDE":41.844004597432054,"ADDRESS":"4379 W 26TH ST 1 ","YEAR":2010,"DOING_BUSINESS_AS_NAME":"CONECTA","POP_AT_RISK":45902,"BUSINESS_TYPE":"Retail Computing Center","LEGAL_NAME":"YESENIA I MONTES INC.","LONGITUDE":-87.73413154858753},
{"STATE":"IL","ZIP":60639,"LATTITUDE":41.91702447081299,"ADDRESS":"4101 W ARMITAGE AVE 1 1","YEAR":2010,"DOING_BUSINESS_AS_NAME":"CAFE INTERNET LATINO INC.","POP_AT_RISK":65442,"BUSINESS_TYPE":"Retail Computing Center","LEGAL_NAME":"CAFE INTERNET LATINO INC.","LONGITUDE":-87.72905885077195},
{"STATE":"IL","ZIP":60608,"LATTITUDE":41.85212641996553,"ADDRESS":"1819 W CERMAK RD 1 ","YEAR":2010,"DOING_BUSINESS_AS_NAME":"DEKACHE BODY WORK'S CORP.","POP_AT_RISK":36290,"BUSINESS_TYPE":"Retail Computing Center","LEGAL_NAME":"DEKACHE BODY WORK'S CORP.","LONGITUDE":-87.67174258992257},
{"STATE":"IL","ZIP":60616,"LATTITUDE":41.830986702567515,"ADDRESS":"329 E 35TH ST 1 ","YEAR":2010,"DOING_BUSINESS_AS_NAME":"CHICAGO COMPUTER CLUB","POP_AT_RISK":119036,"BUSINESS_TYPE":"Retail Computing Center","LEGAL_NAME":"CHICAGO COMPUTER CLUB, CORP.","LONGITUDE":-87.61807593164153},
{"STATE":"IL","ZIP":60616,"LATTITUDE":41.8382635962444,"ADDRESS":"215 E 31ST ST 1 ","YEAR":2010,"DOING_BUSINESS_AS_NAME":"BRONZEVILLE CORPORATIUM","POP_AT_RISK":118408,"BUSINESS_TYPE":"Retail Computing Center","LEGAL_NAME":"BRONZEVILLE CORPORATIUM, INC.","LONGITUDE":-87.62123336655749},
{"STATE":"IL","ZIP":60622,"LATTITUDE":41.91061444059618,"ADDRESS":"1934 - 1942 W NORTH AVE  ","YEAR":2010,"DOING_BUSINESS_AS_NAME":"CHEETAH GYM","POP_AT_RISK":192897,"BUSINESS_TYPE":"Retail Computing Center","LEGAL_NAME":"JUNGLE GYM FITNESS CORPORATION","LONGITUDE":-87.67633917507685},
{"STATE":"IL","ZIP":60661,"LATTITUDE":41.885814492017886,"ADDRESS":"608 W LAKE ST  ","YEAR":2010,"DOING_BUSINESS_AS_NAME":"FEDEX OFFICE AND PRINT SVCS, INC.","POP_AT_RISK":48612,"BUSINESS_TYPE":"Retail Computing Center","LEGAL_NAME":"FEDEX OFFICE AND PRINT SERVICES, INC.","LONGITUDE":-87.64319994224046},
{"STATE":"IL","ZIP":60637,"LATTITUDE":41.79135958090396,"ADDRESS":"1315 E 57TH ST  1","YEAR":2010,"DOING_BUSINESS_AS_NAME":"FEDEX OFFICE AND PRINT SVCS, INC.","POP_AT_RISK":294824,"BUSINESS_TYPE":"Retail Computing Center","LEGAL_NAME":"FEDEX OFFICE AND PRINT SERVICES, INC.","LONGITUDE":-87.59418728522255},
{"STATE":"IL","ZIP":60643,"LATTITUDE":41.72085847845069,"ADDRESS":"2311 W 95TH ST 1ST ","YEAR":2010,"DOING_BUSINESS_AS_NAME":"FEDEX OFFICE AND PRINT SVCS, INC.","POP_AT_RISK":70645,"BUSINESS_TYPE":"Retail Computing Center","LEGAL_NAME":"FEDEX OFFICE AND PRINT SERVICES, INC.","LONGITUDE":-87.68013701106217},
{"STATE":"IL","ZIP":60610,"LATTITUDE":41.90401954694065,"ADDRESS":"1201 N DEARBORN ST  1","YEAR":2010,"DOING_BUSINESS_AS_NAME":"FEDEX OFFICE AND PRINT SVCS, INC.","POP_AT_RISK":74829,"BUSINESS_TYPE":"Retail Computing Center","LEGAL_NAME":"FEDEX OFFICE AND PRINT SERVICES, INC.","LONGITUDE":-87.62984192085615},
{"STATE":"IL","ZIP":60619,"LATTITUDE":41.743567680303435,"ADDRESS":"33 E 83RD ST 1ST ","YEAR":2010,"DOING_BUSINESS_AS_NAME":"MATHER'S MORE THAN A CAFE","POP_AT_RISK":81714,"BUSINESS_TYPE":"Retail Computing Center","LEGAL_NAME":"MATHER LIFEWAYS COMMUNITY INITIATIVES","LONGITUDE":-87.6229553664139},
{"STATE":"IL","ZIP":60656,"LATTITUDE":41.98100034161097,"ADDRESS":"7134 W HIGGINS AVE 1ST ","YEAR":2010,"DOING_BUSINESS_AS_NAME":"MATHER'S MORE THAN A CAFE","POP_AT_RISK":177684,"BUSINESS_TYPE":"Retail Computing Center","LEGAL_NAME":"MATHER LIFEWAYS COMMUNITY INITIATIVES","LONGITUDE":-87.8059054660053},
{"STATE":"IL","ZIP":60639,"LATTITUDE":41.909687088617126,"ADDRESS":"4243 W NORTH AVE 2ND ","YEAR":2010,"DOING_BUSINESS_AS_NAME":"JOYFUL NOISE","POP_AT_RISK":194019,"BUSINESS_TYPE":"Retail Computing Center","LEGAL_NAME":"CHILDREN AND FAMILY MATTERS FOUNDATION CORPORATION","LONGITUDE":-87.73302403097847},
}