{
{"STATE":"IL","ZIP":60637,"LATTITUDE":41.78072554513874,"ADDRESS":"6250 S COTTAGE GROVE AVE 1ST ","YEAR":2011,"DOING_BUSINESS_AS_NAME":"COSMO JEWELRY","POP_AT_RISK":168645,"BUSINESS_TYPE":"Secondhand Dealer (Includes Valuable Objects)","LEGAL_NAME":"JINO PARK","LONGITUDE":-87.60608384712403},
{"STATE":"IL","ZIP":60617,"LATTITUDE":41.702938777167084,"ADDRESS":"10554 S EWING AVE 1 1","YEAR":2011,"DOING_BUSINESS_AS_NAME":"CASH FOR GOLD","POP_AT_RISK":104835,"BUSINESS_TYPE":"Secondhand Dealer (Includes Valuable Objects)","LEGAL_NAME":"SAMER ASHKAR","LONGITUDE":-87.53543056413862},
{"STATE":"IL","ZIP":60639,"LATTITUDE":41.90938084127726,"ADDRESS":"5936 W NORTH AVE  ","YEAR":2011,"DOING_BUSINESS_AS_NAME":"NORTH AVENUE GOLD & SILVER EXCHANGE","POP_AT_RISK":41044,"BUSINESS_TYPE":"Secondhand Dealer (Includes Valuable Objects)","LEGAL_NAME":"JOHN L. NOLEN","LONGITUDE":-87.7741816187019},
{"STATE":"IL","ZIP":60634,"LATTITUDE":41.95298420287931,"ADDRESS":"6500 W IRVING PARK RD 1ST ","YEAR":2011,"DOING_BUSINESS_AS_NAME":"JOSEPH'S JEWELERS","POP_AT_RISK":85578,"BUSINESS_TYPE":"Secondhand Dealer (Includes Valuable Objects)","LEGAL_NAME":"JOSEPH KENSKI","LONGITUDE":-87.78908383095457},
{"STATE":"IL","ZIP":60631,"LATTITUDE":42.012198711314255,"ADDRESS":"7214 N HARLEM AVE 1ST ","YEAR":2011,"DOING_BUSINESS_AS_NAME":"THE ANTIQUE & RESALE SHOPPE","POP_AT_RISK":53364,"BUSINESS_TYPE":"Secondhand Dealer (Includes Valuable Objects)","LEGAL_NAME":"SUZANNE LAZER","LONGITUDE":-87.80677987610609},
{"STATE":"IL","ZIP":60632,"LATTITUDE":41.817920989121255,"ADDRESS":"4155 S ARCHER AVE 1 ","YEAR":2011,"DOING_BUSINESS_AS_NAME":"UNIQUE FURNITURE","POP_AT_RISK":136104,"BUSINESS_TYPE":"Secondhand Dealer (Includes Valuable Objects)","LEGAL_NAME":"CONRAD CARRANO","LONGITUDE":-87.69775971346888},
{"STATE":"IL","ZIP":60636,"LATTITUDE":41.767328200940014,"ADDRESS":"6940 S ASHLAND AVE 1ST ","YEAR":2011,"DOING_BUSINESS_AS_NAME":"GAMESTOP #6098","POP_AT_RISK":124461,"BUSINESS_TYPE":"Secondhand Dealer (Includes Valuable Objects)","LEGAL_NAME":"GAMESTOP, INC.","LONGITUDE":-87.66400242735763},
{"STATE":"IL","ZIP":60643,"LATTITUDE":41.677591897397605,"ADDRESS":"1710 W 119TH ST 1ST ","YEAR":2011,"DOING_BUSINESS_AS_NAME":"GAMESTOP #6161","POP_AT_RISK":25454,"BUSINESS_TYPE":"Secondhand Dealer (Includes Valuable Objects)","LEGAL_NAME":"GAMESTOP, INC.","LONGITUDE":-87.66443188411463},
{"STATE":"IL","ZIP":60651,"LATTITUDE":41.89561531354531,"ADDRESS":"800 N KEDZIE AVE 1ST 112","YEAR":2011,"DOING_BUSINESS_AS_NAME":"GAMESTOP #6437","POP_AT_RISK":45315,"BUSINESS_TYPE":"Secondhand Dealer (Includes Valuable Objects)","LEGAL_NAME":"GAMESTOP, INC.","LONGITUDE":-87.70670532510552},
{"STATE":"IL","ZIP":60617,"LATTITUDE":41.72227962071084,"ADDRESS":"1725 E 95TH ST  ","YEAR":2011,"DOING_BUSINESS_AS_NAME":"Gamestop #2617","POP_AT_RISK":45052,"BUSINESS_TYPE":"Secondhand Dealer (Includes Valuable Objects)","LEGAL_NAME":"GAMESTOP, INC.","LONGITUDE":-87.58155143760337},
{"STATE":"IL","ZIP":60653,"LATTITUDE":41.80979548271692,"ADDRESS":"1400 E 47TH DR  B","YEAR":2011,"DOING_BUSINESS_AS_NAME":"GAMESTOP # 2674","POP_AT_RISK":70606,"BUSINESS_TYPE":"Secondhand Dealer (Includes Valuable Objects)","LEGAL_NAME":"GAMESTOP, INC.","LONGITUDE":-87.59237386663331},
{"STATE":"IL","ZIP":60628,"LATTITUDE":41.66248588927619,"ADDRESS":"12723 S HALSTED ST 1ST ","YEAR":2011,"DOING_BUSINESS_AS_NAME":"R & R COMPUTER SERVICES","POP_AT_RISK":47806,"BUSINESS_TYPE":"Secondhand Dealer (Includes Valuable Objects)","LEGAL_NAME":"ROCHELLE SMITH","LONGITUDE":-87.64124911070888},
{"STATE":"IL","ZIP":60617,"LATTITUDE":41.73261524185334,"ADDRESS":"8936 S COMMERCIAL AVE 1 ","YEAR":2011,"DOING_BUSINESS_AS_NAME":"LANDMARK LIQUIDATION","POP_AT_RISK":123914,"BUSINESS_TYPE":"Secondhand Dealer (Includes Valuable Objects)","LEGAL_NAME":"CHARLES MC GARY","LONGITUDE":-87.55146243246787},
{"STATE":"IL","ZIP":60608,"LATTITUDE":41.836468347729024,"ADDRESS":"3145 S ASHLAND AVE  ","YEAR":2011,"DOING_BUSINESS_AS_NAME":"BLOCKBUSTER VIDEO #17353","POP_AT_RISK":30028,"BUSINESS_TYPE":"Secondhand Dealer (Includes Valuable Objects)","LEGAL_NAME":"BLOCKBUSTER INC.","LONGITUDE":-87.66556690213167},
{"STATE":"IL","ZIP":60656,"LATTITUDE":41.963837023211276,"ADDRESS":"4626 N CUMBERLAND AVE  ","YEAR":2011,"DOING_BUSINESS_AS_NAME":"BLOCKBUSTER VIDEO #17370","POP_AT_RISK":68328,"BUSINESS_TYPE":"Secondhand Dealer (Includes Valuable Objects)","LEGAL_NAME":"BLOCKBUSTER INC.","LONGITUDE":-87.8368386547161},
{"STATE":"IL","ZIP":60623,"LATTITUDE":41.85918922054039,"ADDRESS":"3206 W 16TH ST  ","YEAR":2011,"DOING_BUSINESS_AS_NAME":"CELLULAR ZONE","POP_AT_RISK":109274,"BUSINESS_TYPE":"Secondhand Dealer (Includes Valuable Objects)","LEGAL_NAME":"CELLULAR ETC INC","LONGITUDE":-87.705793970407},
{"STATE":"IL","ZIP":60644,"LATTITUDE":41.865594598242566,"ADDRESS":"5916 W ROOSEVELT RD 1ST ","YEAR":2011,"DOING_BUSINESS_AS_NAME":"ROOSEVELT GOLD EXCHANGE II","POP_AT_RISK":367840,"BUSINESS_TYPE":"Secondhand Dealer (Includes Valuable Objects)","LEGAL_NAME":"MSR HOLDINGS LLC","LONGITUDE":-87.77247022949334},
{"STATE":"IL","ZIP":60624,"LATTITUDE":41.87987406249971,"ADDRESS":"3954 W MONROE ST 1 ","YEAR":2011,"DOING_BUSINESS_AS_NAME":"CASH MONEY BUYERS","POP_AT_RISK":36179,"BUSINESS_TYPE":"Secondhand Dealer (Includes Valuable Objects)","LEGAL_NAME":"RAYMOND A RAMSEY","LONGITUDE":-87.72536531804309},
{"STATE":"IL","ZIP":60638,"LATTITUDE":41.77764117266972,"ADDRESS":"6223 W 63RD ST 1 ","YEAR":2011,"DOING_BUSINESS_AS_NAME":"CASH 4 GOLD","POP_AT_RISK":44926,"BUSINESS_TYPE":"Secondhand Dealer (Includes Valuable Objects)","LEGAL_NAME":"CASH 4 GOLD, INC.","LONGITUDE":-87.7773012320788},
{"STATE":"IL","ZIP":60643,"LATTITUDE":41.70247387700024,"ADDRESS":"10507 S WESTERN AVE 1 1","YEAR":2011,"DOING_BUSINESS_AS_NAME":"CASH 4 GOLD","POP_AT_RISK":21523,"BUSINESS_TYPE":"Secondhand Dealer (Includes Valuable Objects)","LEGAL_NAME":"CASH 4 GOLD, INC.","LONGITUDE":-87.68134697203133},
{"STATE":"IL","ZIP":60638,"LATTITUDE":41.79218916857037,"ADDRESS":"6455 W ARCHER AVE  ","YEAR":2011,"DOING_BUSINESS_AS_NAME":"CHICAGO COIN CO INC","POP_AT_RISK":61450,"BUSINESS_TYPE":"Secondhand Dealer (Includes Valuable Objects)","LEGAL_NAME":"CHICAGO COIN CO INC","LONGITUDE":-87.7840169671266},
{"STATE":"IL","ZIP":60646,"LATTITUDE":42.01189420932856,"ADDRESS":"6141 W TOUHY AVE 1ST A","YEAR":2011,"DOING_BUSINESS_AS_NAME":"ASAYA SOLUTIONS, INC.","POP_AT_RISK":10753,"BUSINESS_TYPE":"Secondhand Dealer (Includes Valuable Objects)","LEGAL_NAME":"ASAYA SOLUTIONS INC.","LONGITUDE":-87.78085546874075},
{"STATE":"IL","ZIP":60629,"LATTITUDE":41.77836537425018,"ADDRESS":"4619 W 63RD ST 1ST ","YEAR":2011,"DOING_BUSINESS_AS_NAME":"CASH 4 GOLD","POP_AT_RISK":25513,"BUSINESS_TYPE":"Secondhand Dealer (Includes Valuable Objects)","LEGAL_NAME":"CASH 4 GOLD # 1, INC.","LONGITUDE":-87.73828431486696},
{"STATE":"IL","ZIP":60628,"LATTITUDE":41.66350259001352,"ADDRESS":"150 W 127TH ST 1 ","YEAR":2011,"DOING_BUSINESS_AS_NAME":"GET CASH FOR GOLD INC.,","POP_AT_RISK":15621,"BUSINESS_TYPE":"Secondhand Dealer (Includes Valuable Objects)","LEGAL_NAME":"GET CASH FOR GOLD INC.","LONGITUDE":-87.62650611188982},
{"STATE":"IL","ZIP":60649,"LATTITUDE":41.75149472725302,"ADDRESS":"1957 E 79TH ST 1 ","YEAR":2011,"DOING_BUSINESS_AS_NAME":"GET CASH FOR GOLD INC.,","POP_AT_RISK":44258,"BUSINESS_TYPE":"Secondhand Dealer (Includes Valuable Objects)","LEGAL_NAME":"GET CASH FOR GOLD INC.","LONGITUDE":-87.5761254017018},
{"STATE":"IL","ZIP":60621,"LATTITUDE":41.768949204090816,"ADDRESS":"766 W 69TH ST 1ST ","YEAR":2011,"DOING_BUSINESS_AS_NAME":"E Z CASH FOR GOLD","POP_AT_RISK":31579,"BUSINESS_TYPE":"Secondhand Dealer (Includes Valuable Objects)","LEGAL_NAME":"E Z CASH FOR GOLD INC.,","LONGITUDE":-87.64436818272317},
{"STATE":"IL","ZIP":60608,"LATTITUDE":41.85833745847759,"ADDRESS":"1710 S ASHLAND AVE 1 ","YEAR":2011,"DOING_BUSINESS_AS_NAME":"AUSTIN CASH 4 GOLD","POP_AT_RISK":83888,"BUSINESS_TYPE":"Secondhand Dealer (Includes Valuable Objects)","LEGAL_NAME":"AUSTIN CASH 4 GOLD, INC.","LONGITUDE":-87.66630958870986},
{"STATE":"IL","ZIP":60646,"LATTITUDE":41.997218561842885,"ADDRESS":"5413 W DEVON AVE 1ST ","YEAR":2011,"DOING_BUSINESS_AS_NAME":"MY SISTER'S CLOSET","POP_AT_RISK":17956,"BUSINESS_TYPE":"Secondhand Dealer (Includes Valuable Objects)","LEGAL_NAME":"MY SISTER'S CLOSET, LTD.","LONGITUDE":-87.7643229386157},
{"STATE":"IL","ZIP":60614,"LATTITUDE":41.92740673874206,"ADDRESS":"2471 N CLARK ST  ","YEAR":2011,"DOING_BUSINESS_AS_NAME":"STEVE QUICK JEWELERS","POP_AT_RISK":65458,"BUSINESS_TYPE":"Secondhand Dealer (Includes Valuable Objects)","LEGAL_NAME":"STEVE QUICK JEWELERS, INC.","LONGITUDE":-87.6414081991043},
{"STATE":"IL","ZIP":60616,"LATTITUDE":41.830986702567515,"ADDRESS":"329 E 35TH ST 1 ","YEAR":2011,"DOING_BUSINESS_AS_NAME":"CHICAGO COMPUTER CLUB","POP_AT_RISK":238072,"BUSINESS_TYPE":"Secondhand Dealer (Includes Valuable Objects)","LEGAL_NAME":"CHICAGO COMPUTER CLUB, CORP.","LONGITUDE":-87.61807593164153},
{"STATE":"IL","ZIP":60615,"LATTITUDE":41.795082096806134,"ADDRESS":"1521 E 55TH ST 1 ","YEAR":2011,"DOING_BUSINESS_AS_NAME":"CHICAGO COMPUTER CLUB","POP_AT_RISK":40389,"BUSINESS_TYPE":"Secondhand Dealer (Includes Valuable Objects)","LEGAL_NAME":"CHICAGO COMPUTER CLUB, CORP.","LONGITUDE":-87.58826812316532},
{"STATE":"IL","ZIP":60637,"LATTITUDE":41.76785685952764,"ADDRESS":"7000 S SOUTH CHICAGO AVE 1ST ","YEAR":2011,"DOING_BUSINESS_AS_NAME":"REO MOVERS & VAN LINES","POP_AT_RISK":34812,"BUSINESS_TYPE":"Secondhand Dealer (Includes Valuable Objects)","LEGAL_NAME":"REO MOVERS & VAN LINES, INC.","LONGITUDE":-87.60857315537989},
{"STATE":"IL","ZIP":60624,"LATTITUDE":41.866313672773465,"ADDRESS":"3902 W ROOSEVELT RD  ","YEAR":2011,"DOING_BUSINESS_AS_NAME":"ROOSEVELT FOOD & DOLLAR","POP_AT_RISK":45466,"BUSINESS_TYPE":"Secondhand Dealer (Includes Valuable Objects)","LEGAL_NAME":"ROOSEVELT FOOD & DOLLAR, INC.","LONGITUDE":-87.72287642386448},
{"STATE":"IL","ZIP":60643,"LATTITUDE":41.72124063361716,"ADDRESS":"1824 W 95TH ST  ","YEAR":2011,"DOING_BUSINESS_AS_NAME":"C F A O TECHNICAL SERVICES, INC.","POP_AT_RISK":23286,"BUSINESS_TYPE":"Secondhand Dealer (Includes Valuable Objects)","LEGAL_NAME":"C F A O TECHNICAL SERVICES, INC.","LONGITUDE":-87.66847425891076},
{"STATE":"IL","ZIP":60644,"LATTITUDE":41.880495475126516,"ADDRESS":"5134 W MADISON ST  ","YEAR":2011,"DOING_BUSINESS_AS_NAME":"MADISON STREET GOLD EXCHANGE INC","POP_AT_RISK":48029,"BUSINESS_TYPE":"Secondhand Dealer (Includes Valuable Objects)","LEGAL_NAME":"MADISON STREET GOLD EXCHANGE, INC.","LONGITUDE":-87.75403138255727},
}