{
{"STATE":"IL","ZIP":60644,"LATTITUDE":41.87493430097376,"ADDRESS":"4715 W VAN BUREN ST  ","YEAR":2011,"DOING_BUSINESS_AS_NAME":"DEVON DAVIS","POP_AT_RISK":37608,"BUSINESS_TYPE":"Street Performer","LEGAL_NAME":"DEVON DAVIS","LONGITUDE":-87.7432825231279},
{"STATE":"IL","ZIP":60643,"LATTITUDE":41.71936655550823,"ADDRESS":"9569 S SANGAMON ST 1 1","YEAR":2011,"DOING_BUSINESS_AS_NAME":"DARRYL BRAGG","POP_AT_RISK":54194,"BUSINESS_TYPE":"Street Performer","LEGAL_NAME":"DARRYL BRAGG","LONGITUDE":-87.64665995743465},
{"STATE":"IL","ZIP":60620,"LATTITUDE":41.723606888535194,"ADDRESS":"221 W 94TH ST  ","YEAR":2011,"DOING_BUSINESS_AS_NAME":"DAVID WALKER","POP_AT_RISK":168954,"BUSINESS_TYPE":"Street Performer","LEGAL_NAME":"DAVID WALKER","LONGITUDE":-87.62994404507812},
{"STATE":"IL","ZIP":60609,"LATTITUDE":41.79624808776697,"ADDRESS":"5347 S WOOD ST 1ST #","YEAR":2011,"DOING_BUSINESS_AS_NAME":"CECIL D LOCKE","POP_AT_RISK":244405,"BUSINESS_TYPE":"Street Performer","LEGAL_NAME":"CECIL D LOCKE","LONGITUDE":-87.66936060628221},
{"STATE":"IL","ZIP":60643,"LATTITUDE":41.70268036825839,"ADDRESS":"10500 S BELL AVE  ","YEAR":2011,"DOING_BUSINESS_AS_NAME":"SUSSAN NAVABI","POP_AT_RISK":44982,"BUSINESS_TYPE":"Street Performer","LEGAL_NAME":"SUSSAN NAVABI","LONGITUDE":-87.67800236263294},
{"STATE":"IL","ZIP":60645,"LATTITUDE":42.015060035775996,"ADDRESS":"7344 N ALBANY AVE 1 ","YEAR":2011,"DOING_BUSINESS_AS_NAME":"ERICK G. MATEO","POP_AT_RISK":31488,"BUSINESS_TYPE":"Street Performer","LEGAL_NAME":"ERICK G. MATEO","LONGITUDE":-87.70689724240283},
{"STATE":"IL","ZIP":60652,"LATTITUDE":41.74518171464233,"ADDRESS":"3614 W 81ST PL  ","YEAR":2011,"DOING_BUSINESS_AS_NAME":"EUGENE ROWLAND","POP_AT_RISK":88696,"BUSINESS_TYPE":"Street Performer","LEGAL_NAME":"EUGENE ROWLAND","LONGITUDE":-87.71278580731351},
{"STATE":"IL","ZIP":60647,"LATTITUDE":41.91523981933168,"ADDRESS":"3949 W CORTLAND ST 1ST REAR","YEAR":2011,"DOING_BUSINESS_AS_NAME":"ORLANDO TORRES","POP_AT_RISK":75471,"BUSINESS_TYPE":"Street Performer","LEGAL_NAME":"ORLANDO TORRES","LONGITUDE":-87.72605326205318},
{"STATE":"IL","ZIP":60629,"LATTITUDE":41.77517987291024,"ADDRESS":"3255 W 65TH ST  ","YEAR":2011,"DOING_BUSINESS_AS_NAME":"RUTH UNDERWOOD","POP_AT_RISK":306834,"BUSINESS_TYPE":"Street Performer","LEGAL_NAME":"RUTH UNDERWOOD","LONGITUDE":-87.70519245318236},
{"STATE":"IL","ZIP":60609,"LATTITUDE":41.82678523536487,"ADDRESS":"2228 W 37TH ST 1ST ","YEAR":2011,"DOING_BUSINESS_AS_NAME":"ANTHONY E MOSER","POP_AT_RISK":78884,"BUSINESS_TYPE":"Street Performer","LEGAL_NAME":"ANTHONY E MOSER","LONGITUDE":-87.68130317624059},
{"STATE":"IL","ZIP":60638,"LATTITUDE":41.79774203047244,"ADDRESS":"5218 S LATROBE AVE  ","YEAR":2011,"DOING_BUSINESS_AS_NAME":"CYNTHIA STANLEY","POP_AT_RISK":34758,"BUSINESS_TYPE":"Street Performer","LEGAL_NAME":"CYNTHIA STANLEY","LONGITUDE":-87.75403481989204},
{"STATE":"IL","ZIP":60644,"LATTITUDE":41.884124701486336,"ADDRESS":"5601 W WEST END AVE  ","YEAR":2011,"DOING_BUSINESS_AS_NAME":"KENYON WOODFORK","POP_AT_RISK":101386,"BUSINESS_TYPE":"Street Performer","LEGAL_NAME":"KENYON WOODFORK","LONGITUDE":-87.76508180093373},
{"STATE":"IL","ZIP":60827,"LATTITUDE":41.65714405548082,"ADDRESS":"13107 S LANGLEY AVE  ","YEAR":2011,"DOING_BUSINESS_AS_NAME":"MICHAEL SANDERS","POP_AT_RISK":12964,"BUSINESS_TYPE":"Street Performer","LEGAL_NAME":"MICHAEL SANDERS","LONGITUDE":-87.60498778863149},
{"STATE":"IL","ZIP":60628,"LATTITUDE":41.658146251542945,"ADDRESS":"629 W 129TH PL  ","YEAR":2011,"DOING_BUSINESS_AS_NAME":"EVIN R J RUSSELL","POP_AT_RISK":51760,"BUSINESS_TYPE":"Street Performer","LEGAL_NAME":"EVIN R J RUSSELL","LONGITUDE":-87.63761292903398},
{"STATE":"IL","ZIP":60617,"LATTITUDE":41.71100945109014,"ADDRESS":"10132 S EWING AVE  ","YEAR":2011,"DOING_BUSINESS_AS_NAME":"JOHN JOSEPH TAUS","POP_AT_RISK":98635,"BUSINESS_TYPE":"Street Performer","LEGAL_NAME":"JOHN JOSEPH TAUS","LONGITUDE":-87.5354279549906},
{"STATE":"IL","ZIP":60629,"LATTITUDE":41.7755330983029,"ADDRESS":"6437 S KILPATRICK AVE  ","YEAR":2011,"DOING_BUSINESS_AS_NAME":"LEONEL LOEZA JR.","POP_AT_RISK":117675,"BUSINESS_TYPE":"Street Performer","LEGAL_NAME":"LEONEL LOEZA JR.","LONGITUDE":-87.73961115561566},
{"STATE":"IL","ZIP":60636,"LATTITUDE":41.790506496717576,"ADDRESS":"5653 S HOYNE AVE  ","YEAR":2011,"DOING_BUSINESS_AS_NAME":"MICHAEL A TAYLOR","POP_AT_RISK":36765,"BUSINESS_TYPE":"Street Performer","LEGAL_NAME":"MICHAEL A TAYLOR","LONGITUDE":-87.67649327394847},
{"STATE":"IL","ZIP":60637,"LATTITUDE":41.781431130748054,"ADDRESS":"6230 S DORCHESTER AVE 210 ","YEAR":2011,"DOING_BUSINESS_AS_NAME":"JEAN L. DE SAVIEU","POP_AT_RISK":34749,"BUSINESS_TYPE":"Street Performer","LEGAL_NAME":"JEAN L. DE SAVIEU","LONGITUDE":-87.59152085323696},
{"STATE":"IL","ZIP":60628,"LATTITUDE":41.703684473874304,"ADDRESS":"739 E 105TH ST  ","YEAR":2011,"DOING_BUSINESS_AS_NAME":"LARRY LEE STEWART","POP_AT_RISK":101545,"BUSINESS_TYPE":"Street Performer","LEGAL_NAME":"LARRY LEE STEWART","LONGITUDE":-87.6047419252213},
{"STATE":"IL","ZIP":60628,"LATTITUDE":41.680381835902836,"ADDRESS":"11741 S YALE AVE  ","YEAR":2011,"DOING_BUSINESS_AS_NAME":"MICHELLE S HERRON","POP_AT_RISK":97572,"BUSINESS_TYPE":"Street Performer","LEGAL_NAME":"MICHELLE S HERRON","LONGITUDE":-87.62858932670186},
{"STATE":"IL","ZIP":60621,"LATTITUDE":41.77644440687478,"ADDRESS":"305 W 65TH ST  ","YEAR":2011,"DOING_BUSINESS_AS_NAME":"ERIC PHILIP MARTIN","POP_AT_RISK":56492,"BUSINESS_TYPE":"Street Performer","LEGAL_NAME":"ERIC PHILIP MARTIN","LONGITUDE":-87.63271792796627},
{"STATE":"IL","ZIP":60634,"LATTITUDE":41.9470765769282,"ADDRESS":"3707 N PAGE AVE  ","YEAR":2011,"DOING_BUSINESS_AS_NAME":"NINA MARIE PALUMBO","POP_AT_RISK":50748,"BUSINESS_TYPE":"Street Performer","LEGAL_NAME":"NINA MARIE PALUMBO","LONGITUDE":-87.82777084096243},
{"STATE":"IL","ZIP":60620,"LATTITUDE":41.73511231339348,"ADDRESS":"8720 S ASHLAND AVE 3 3B","YEAR":2011,"DOING_BUSINESS_AS_NAME":"VICTOR M WALKER JR","POP_AT_RISK":116403,"BUSINESS_TYPE":"Street Performer","LEGAL_NAME":"VICTOR M WALKER JR","LONGITUDE":-87.66319455689805},
{"STATE":"IL","ZIP":60630,"LATTITUDE":41.974907172017424,"ADDRESS":"5144 N KILBOURN AVE  ","YEAR":2011,"DOING_BUSINESS_AS_NAME":"CARMEN LILY ABELSON","POP_AT_RISK":25132,"BUSINESS_TYPE":"Street Performer","LEGAL_NAME":"CARMEN LILY ABELSON","LONGITUDE":-87.74080712064253},
{"STATE":"IL","ZIP":60628,"LATTITUDE":41.693982121732034,"ADDRESS":"11008 S NORMAL AVE  ","YEAR":2011,"DOING_BUSINESS_AS_NAME":"EUGENE S. LOGAN III","POP_AT_RISK":171465,"BUSINESS_TYPE":"Street Performer","LEGAL_NAME":"EUGENE S. LOGAN III","LONGITUDE":-87.63533329646631},
{"STATE":"MN","ZIP":55427,"LATTITUDE":41.99704975036067,"ADDRESS":"6411  OLYMPIA ST  ","YEAR":2011,"DOING_BUSINESS_AS_NAME":"MANKWE MONIKA NDOSI","POP_AT_RISK":81120,"BUSINESS_TYPE":"Street Performer","LEGAL_NAME":"MANKWE MONIKA NDOSI","LONGITUDE":-87.81869481858155},
{"STATE":"IN","ZIP":46408,"LATTITUDE":41.87086175134461,"ADDRESS":"3870  POLK ST  ","YEAR":2011,"DOING_BUSINESS_AS_NAME":"RASHON CHERO DAVIS","POP_AT_RISK":159604,"BUSINESS_TYPE":"Street Performer","LEGAL_NAME":"RASHON CHEROD DAVIS","LONGITUDE":-87.72275837834114},
{"STATE":"IL","ZIP":60608,"LATTITUDE":41.847581102628055,"ADDRESS":"2438 W 24TH PL  1R","YEAR":2011,"DOING_BUSINESS_AS_NAME":"STEPHEN PAUL SMOKER","POP_AT_RISK":44582,"BUSINESS_TYPE":"Street Performer","LEGAL_NAME":"STEPHEN PAUL SMOKER","LONGITUDE":-87.68704712413626},
{"STATE":"IL","ZIP":60645,"LATTITUDE":42.015606341452845,"ADDRESS":"2739 W JARVIS AVE  ","YEAR":2011,"DOING_BUSINESS_AS_NAME":"JAMAAL ANTHONY MILLER","POP_AT_RISK":43650,"BUSINESS_TYPE":"Street Performer","LEGAL_NAME":"JAMAAL ANTHONY MILLER","LONGITUDE":-87.69890329779751},
{"STATE":"IL","ZIP":60634,"LATTITUDE":41.93827877545118,"ADDRESS":"6742 W BELMONT AVE  ","YEAR":2011,"DOING_BUSINESS_AS_NAME":"BRADLEY FRANK MODJESKI","POP_AT_RISK":145914,"BUSINESS_TYPE":"Street Performer","LEGAL_NAME":"BRADLEY FRANK MODJESKI","LONGITUDE":-87.79500994134123},
{"STATE":"IL","ZIP":60656,"LATTITUDE":41.964432581175124,"ADDRESS":"4623 N CHESTER AVE  201","YEAR":2011,"DOING_BUSINESS_AS_NAME":"JERRY DANIEL HERNANDEZ","POP_AT_RISK":17082,"BUSINESS_TYPE":"Street Performer","LEGAL_NAME":"JERRY DANIEL HERNANDEZ","LONGITUDE":-87.83869227967783},
{"STATE":"IL","ZIP":60626,"LATTITUDE":42.0169871580824,"ADDRESS":"7411 N WINCHESTER AVE  ","YEAR":2011,"DOING_BUSINESS_AS_NAME":"JONATHAN M WINTERBURN","POP_AT_RISK":62574,"BUSINESS_TYPE":"Street Performer","LEGAL_NAME":"JONATHAN M. WINTERBURN","LONGITUDE":-87.67891161781962},
{"STATE":"IL","ZIP":60634,"LATTITUDE":41.95075861285278,"ADDRESS":"3857 N NEWCASTLE AVE  1","YEAR":2011,"DOING_BUSINESS_AS_NAME":"VLADIMIR STEVE ZUTEREK","POP_AT_RISK":36016,"BUSINESS_TYPE":"Street Performer","LEGAL_NAME":"VLADIMIR STEVE ZUTEREK","LONGITUDE":-87.79726126883155},
{"STATE":"IL","ZIP":60638,"LATTITUDE":41.77602750729383,"ADDRESS":"5811 W 64TH ST  ","YEAR":2011,"DOING_BUSINESS_AS_NAME":"DANIEL RAYMOND SHAUGHNESSY","POP_AT_RISK":49248,"BUSINESS_TYPE":"Street Performer","LEGAL_NAME":"DANIEL RAYMOND SHAUGHNESSY","LONGITUDE":-87.76703220744662},
}