{
{"STATE":"IL","ZIP":60616,"LATTITUDE":41.857792921043036,"ADDRESS":"1801 S WABASH AVE  ","YEAR":2012,"DOING_BUSINESS_AS_NAME":"THE STUDIOS","POP_AT_RISK":81396,"BUSINESS_TYPE":"Accessory Garage","LEGAL_NAME":"18TH & WABASH CORP","LONGITUDE":-87.62546236883539},
{"STATE":"IL","ZIP":60625,"LATTITUDE":41.96332407958265,"ADDRESS":"4501 N DAMEN AVE  ","YEAR":2012,"DOING_BUSINESS_AS_NAME":"STANDARD PARKING","POP_AT_RISK":675455,"BUSINESS_TYPE":"Accessory Garage","LEGAL_NAME":"SP PLUS CORPORATION","LONGITUDE":-87.67888358999184},
{"STATE":"IL","ZIP":60657,"LATTITUDE":41.939675644909386,"ADDRESS":"1333 W BELMONT AVE 1 ","YEAR":2012,"DOING_BUSINESS_AS_NAME":"STANDARD PARKING","POP_AT_RISK":622576,"BUSINESS_TYPE":"Accessory Garage","LEGAL_NAME":"SP PLUS CORPORATION","LONGITUDE":-87.66253481426286},
{"STATE":"IL","ZIP":60615,"LATTITUDE":41.808674171990155,"ADDRESS":"4800 S LAKE SHORE WEST DR  1","YEAR":2012,"DOING_BUSINESS_AS_NAME":"NEWPORT CONDOMINIUM GARAGE","POP_AT_RISK":106002,"BUSINESS_TYPE":"Accessory Garage","LEGAL_NAME":"SP PLUS CORPORATION","LONGITUDE":-87.58771708240786},
{"STATE":"IL","ZIP":60612,"LATTITUDE":41.86918399559772,"ADDRESS":"2108 W TAYLOR ST  ","YEAR":2012,"DOING_BUSINESS_AS_NAME":"MEDPARK MANAGEMENT INC","POP_AT_RISK":206406,"BUSINESS_TYPE":"Accessory Garage","LEGAL_NAME":"MEDPARK MANAGEMENT INC.","LONGITUDE":-87.67856708258655},
{"STATE":"IL","ZIP":60615,"LATTITUDE":41.7950752068089,"ADDRESS":"800 E 55TH ST 1 1","YEAR":2012,"DOING_BUSINESS_AS_NAME":"THE UNIVERSITY OF CHICAGO","POP_AT_RISK":228105,"BUSINESS_TYPE":"Accessory Garage","LEGAL_NAME":"THE UNIVERSITY OF CHICAGO","LONGITUDE":-87.60609660928338},
{"STATE":"IL","ZIP":60637,"LATTITUDE":41.78427789351328,"ADDRESS":"6054 S DREXEL AVE 1 1","YEAR":2012,"DOING_BUSINESS_AS_NAME":"THE UNIVERSITY OF CHICAGO","POP_AT_RISK":112251,"BUSINESS_TYPE":"Accessory Garage","LEGAL_NAME":"THE UNIVERSITY OF CHICAGO","LONGITUDE":-87.60454108253046},
{"STATE":"IL","ZIP":60612,"LATTITUDE":41.87250627198435,"ADDRESS":"711 S PAULINA ST  ","YEAR":2012,"DOING_BUSINESS_AS_NAME":"ABM Parking Services","POP_AT_RISK":27944,"BUSINESS_TYPE":"Accessory Garage","LEGAL_NAME":"ABM PARKING SERVICES, INC.","LONGITUDE":-87.66891530306154},
{"STATE":"IL","ZIP":60626,"LATTITUDE":42.003676220369776,"ADDRESS":"6700 N GREENVIEW AVE  ","YEAR":2012,"DOING_BUSINESS_AS_NAME":"AMPCO SYSTEM PARKING, INC.","POP_AT_RISK":508585,"BUSINESS_TYPE":"Accessory Garage","LEGAL_NAME":"ABM PARKING SERVICES, INC.","LONGITUDE":-87.66826025653212},
{"STATE":"IL","ZIP":60622,"LATTITUDE":41.91095788287151,"ADDRESS":"938 W NORTH AVE  ","YEAR":2012,"DOING_BUSINESS_AS_NAME":"CPS PARKING","POP_AT_RISK":250650,"BUSINESS_TYPE":"Accessory Garage","LEGAL_NAME":"CENTRAL PARKING SYSTEM, INC.","LONGITUDE":-87.65263526491894},
}