{
{"STATE":"IL","ZIP":60617,"LATTITUDE":41.736937028801535,"ADDRESS":"1945 E 87TH ST  ","YEAR":2005,"DOING_BUSINESS_AS_NAME":"FLOOD TESTING LABS INC","POP_AT_RISK":174286,"BUSINESS_TYPE":"Laboratories","LEGAL_NAME":"FLOOD TESTING LABS INC","LONGITUDE":-87.57636488078705},
{"STATE":"IL","ZIP":60625,"LATTITUDE":41.968527625160185,"ADDRESS":"3324 W LAWRENCE AVE  ","YEAR":2005,"DOING_BUSINESS_AS_NAME":"INTERSTATE BLOOD BANK INC","POP_AT_RISK":1288362,"BUSINESS_TYPE":"Laboratories","LEGAL_NAME":"INTERSTATE BLOOD BANK INC","LONGITUDE":-87.71200420196357},
{"STATE":"IL","ZIP":60630,"LATTITUDE":41.97806401247451,"ADDRESS":"5330 N ELSTON AVE 1ST ","YEAR":2005,"DOING_BUSINESS_AS_NAME":"METROMED LABORATORIES INC","POP_AT_RISK":142812,"BUSINESS_TYPE":"Laboratories","LEGAL_NAME":"METROMED LABORATORIES INC","LONGITUDE":-87.75656137533555},
{"STATE":"IL","ZIP":60623,"LATTITUDE":41.844417364515635,"ADDRESS":"3814 W 26TH ST  ","YEAR":2005,"DOING_BUSINESS_AS_NAME":"26TH ST MEDICAL SERVICE CORP","POP_AT_RISK":1077426,"BUSINESS_TYPE":"Laboratories","LEGAL_NAME":"26TH ST MEDICAL SERVICE CORP","LONGITUDE":-87.72037779520679},
{"STATE":"IL","ZIP":60622,"LATTITUDE":41.90774972772147,"ADDRESS":"1421 N ELSTON AVE  ","YEAR":2005,"DOING_BUSINESS_AS_NAME":"GABERIAL LABORATORIES LTD","POP_AT_RISK":703417,"BUSINESS_TYPE":"Laboratories","LEGAL_NAME":"GABRIEL LABORATORIES LIMITED","LONGITUDE":-87.66018219903053},
{"STATE":"IL","ZIP":60631,"LATTITUDE":41.99296730416471,"ADDRESS":"6191 N CANFIELD AVE 1ST ","YEAR":2005,"DOING_BUSINESS_AS_NAME":"LAB CORP","POP_AT_RISK":162240,"BUSINESS_TYPE":"Laboratories","LEGAL_NAME":"LABORATORY CORPORATION OF AMERICA","LONGITUDE":-87.82203572509015},
{"STATE":"IL","ZIP":60628,"LATTITUDE":41.68557088399864,"ADDRESS":"556 E 115TH ST 1ST ","YEAR":2005,"DOING_BUSINESS_AS_NAME":"CHICAGO FAMILY HEALTH CENTER","POP_AT_RISK":68725,"BUSINESS_TYPE":"Laboratories","LEGAL_NAME":"CHICAGO FAMILY HEALTH CENTER, INC.","LONGITUDE":-87.60933022434682},
{"STATE":"IL","ZIP":60617,"LATTITUDE":41.72945712008797,"ADDRESS":"9119 S EXCHANGE AVE  ","YEAR":2005,"DOING_BUSINESS_AS_NAME":"CHICAGO FAMILY MEDICAL CENTER","POP_AT_RISK":106212,"BUSINESS_TYPE":"Laboratories","LEGAL_NAME":"CHICAGO FAMILY HEALTH CENTER, INC.","LONGITUDE":-87.5524778181968},
{"STATE":"IL","ZIP":60645,"LATTITUDE":42.008856595849,"ADDRESS":"7006 N WESTERN AVE  1","YEAR":2005,"DOING_BUSINESS_AS_NAME":"AMERICAN SCIENTIFIC LAB. INC.","POP_AT_RISK":868387,"BUSINESS_TYPE":"Laboratories","LEGAL_NAME":"AMERICAN SCIENTIFIC LABORATORY, INC.","LONGITUDE":-87.69031557271916},
{"STATE":"IL","ZIP":60620,"LATTITUDE":41.72171669862721,"ADDRESS":"9435 S WESTERN AVE 1ST ","YEAR":2005,"DOING_BUSINESS_AS_NAME":"EVERGREEN CENTER","POP_AT_RISK":30900,"BUSINESS_TYPE":"Laboratories","LEGAL_NAME":"ADVOCATE HEALTH AND HOSPITALS CORPORATION","LONGITUDE":-87.68194316260319},
{"STATE":"IL","ZIP":60614,"LATTITUDE":41.92542239237476,"ADDRESS":"2400 N SHEFFIELD AVE 1ST ","YEAR":2005,"DOING_BUSINESS_AS_NAME":"LINCOLN PARK CENTER","POP_AT_RISK":1311342,"BUSINESS_TYPE":"Laboratories","LEGAL_NAME":"ADVOCATE HEALTH AND HOSPITALS CORPORATION","LONGITUDE":-87.6537605693497},
{"STATE":"IL","ZIP":60643,"LATTITUDE":41.714554470686906,"ADDRESS":"9831 S WESTERN AVE 1ST ","YEAR":2005,"DOING_BUSINESS_AS_NAME":"ADVOCATE MEDICAL GROUP","POP_AT_RISK":88472,"BUSINESS_TYPE":"Laboratories","LEGAL_NAME":"ADVOCATE HEALTH AND HOSPITALS CORPORATION","LONGITUDE":-87.68172059648889},
{"STATE":"IL","ZIP":60616,"LATTITUDE":41.84617748461005,"ADDRESS":"2545 S DR MARTIN LUTHER KING JR DR  ","YEAR":2005,"DOING_BUSINESS_AS_NAME":"ADVOCATE MEDICAL GROUP","POP_AT_RISK":452738,"BUSINESS_TYPE":"Laboratories","LEGAL_NAME":"ADVOCATE HEALTH AND HOSPITALS CORPORATION","LONGITUDE":-87.61716517711677},
}