{
{"STATE":"IL","ZIP":60655,"LATTITUDE":41.69151197333339,"ADDRESS":"3001 W 111TH ST 1 1","YEAR":2013,"DOING_BUSINESS_AS_NAME":"MYATT INC.","POP_AT_RISK":128358,"BUSINESS_TYPE":"Automatic Amusement Device Operator","LEGAL_NAME":"MYATT INC.","LONGITUDE":-87.69620755883692},
{"STATE":"IL","ZIP":60660,"LATTITUDE":41.99790427712424,"ADDRESS":"1751 W DEVON AVE 1 1","YEAR":2013,"DOING_BUSINESS_AS_NAME":"MAS SERVICES","POP_AT_RISK":153688,"BUSINESS_TYPE":"Automatic Amusement Device Operator","LEGAL_NAME":"MARTIN SALAMEA","LONGITUDE":-87.67395648797813},
{"STATE":"IL","ZIP":60608,"LATTITUDE":41.85402687423292,"ADDRESS":"916 W 21ST ST 1ST ","YEAR":2013,"DOING_BUSINESS_AS_NAME":"BINGO TIMES","POP_AT_RISK":510237,"BUSINESS_TYPE":"Automatic Amusement Device Operator","LEGAL_NAME":"BINGO TIMES INC.","LONGITUDE":-87.64890786515535},
{"STATE":"IL","ZIP":60626,"LATTITUDE":41.998144211866624,"ADDRESS":"6402 N CLARK ST 1ST ","YEAR":2013,"DOING_BUSINESS_AS_NAME":"DINOS GAMES","POP_AT_RISK":242490,"BUSINESS_TYPE":"Automatic Amusement Device Operator","LEGAL_NAME":"DSG AMUSEMENT, LTD.","LONGITUDE":-87.67076765338122},
{"STATE":"IL","ZIP":60609,"LATTITUDE":41.811016654761566,"ADDRESS":"4541 S ASHLAND AVE  ","YEAR":2013,"DOING_BUSINESS_AS_NAME":"VELASQUEZ AUTOMATIC","POP_AT_RISK":435000,"BUSINESS_TYPE":"Automatic Amusement Device Operator","LEGAL_NAME":"VELASQUEZ AUTOMATIC","LONGITUDE":-87.66488779685228},
{"STATE":"IL","ZIP":60617,"LATTITUDE":41.74641081851707,"ADDRESS":"8159 S SOUTH CHICAGO AVE 1 ","YEAR":2013,"DOING_BUSINESS_AS_NAME":"KING AMUSEMENTS, INC","POP_AT_RISK":294993,"BUSINESS_TYPE":"Automatic Amusement Device Operator","LEGAL_NAME":"KING AMUSEMENTS, INC","LONGITUDE":-87.57829415717804},
{"STATE":"IL","ZIP":60707,"LATTITUDE":41.92346911894463,"ADDRESS":"6869 W GRAND AVE  ","YEAR":2013,"DOING_BUSINESS_AS_NAME":"WM J HONQUEST & CO INC","POP_AT_RISK":452232,"BUSINESS_TYPE":"Automatic Amusement Device Operator","LEGAL_NAME":"WM. J. HONQUEST & CO.","LONGITUDE":-87.797818415272},
{"STATE":"IL","ZIP":60612,"LATTITUDE":41.89379308914981,"ADDRESS":"700 N SACRAMENTO BLVD  ","YEAR":2013,"DOING_BUSINESS_AS_NAME":"DIAL AMUSEMENT COMPANY","POP_AT_RISK":423400,"BUSINESS_TYPE":"Automatic Amusement Device Operator","LEGAL_NAME":"DIAL AMUSEMENT CO., INC.","LONGITUDE":-87.70229798303369},
{"STATE":"IL","ZIP":60618,"LATTITUDE":41.95369115107353,"ADDRESS":"3535 W IRVING PARK RD  ","YEAR":2013,"DOING_BUSINESS_AS_NAME":"C CAPPS JUKE BOX SERVICE","POP_AT_RISK":949185,"BUSINESS_TYPE":"Automatic Amusement Device Operator","LEGAL_NAME":"C CAPPS JUKEBOX SERV, INC","LONGITUDE":-87.71680418417465},
{"STATE":"IL","ZIP":60646,"LATTITUDE":41.98863254695654,"ADDRESS":"5906 N KNOX AVE  ","YEAR":2013,"DOING_BUSINESS_AS_NAME":"J NOMDEN & SONS CORP","POP_AT_RISK":62888,"BUSINESS_TYPE":"Automatic Amusement Device Operator","LEGAL_NAME":"J NOMDEN & SONS CORPORATION","LONGITUDE":-87.74550717849543},
{"STATE":"IL","ZIP":60606,"LATTITUDE":41.87856015362371,"ADDRESS":"233 S WACKER DR 84TH 8400","YEAR":2013,"DOING_BUSINESS_AS_NAME":"BABBA BOSTON & TOMMY PIZZA PUFF AMUSEMENTS INC.","POP_AT_RISK":281344,"BUSINESS_TYPE":"Automatic Amusement Device Operator","LEGAL_NAME":"BABBA BOSTON & TOMMY PIZZA PUFF AMUSEMENTS INC.","LONGITUDE":-87.63652387205532},
}