{
{"STATE":"IL","ZIP":60629,"LATTITUDE":41.78997318461856,"ADDRESS":"5646 S KARLOV AVE  ","YEAR":2005,"DOING_BUSINESS_AS_NAME":"ST TURIIBIUS","POP_AT_RISK":157124,"BUSINESS_TYPE":"Raffles","LEGAL_NAME":"ST TURIBIUS","LONGITUDE":-87.72567036677381},
{"STATE":"IL","ZIP":60614,"LATTITUDE":41.92723572899895,"ADDRESS":"2507 N GREENVIEW AVE  ","YEAR":2005,"DOING_BUSINESS_AS_NAME":"CHRISTOPHER HOUSE-","POP_AT_RISK":371903,"BUSINESS_TYPE":"Raffles","LEGAL_NAME":"CHRISTOPHER HOUSE","LONGITUDE":-87.66566093419765},
{"STATE":"IL","ZIP":60605,"LATTITUDE":41.865732312266495,"ADDRESS":"1300 S LAKE SHORE DR 1ST ","YEAR":2005,"DOING_BUSINESS_AS_NAME":"THE ADLER PLANETARIUM","POP_AT_RISK":69252,"BUSINESS_TYPE":"Raffles","LEGAL_NAME":"THE ADLER PLANETARIUM","LONGITUDE":-87.61966863731983},
{"STATE":"IL","ZIP":60623,"LATTITUDE":41.86026098144286,"ADDRESS":"1512 S PULASKI RD  ","YEAR":2005,"DOING_BUSINESS_AS_NAME":"BBF FAMILY SERVICES","POP_AT_RISK":606105,"BUSINESS_TYPE":"Raffles","LEGAL_NAME":"BETTER BOYS FOUNDATION","LONGITUDE":-87.72514260165443},
{"STATE":"IL","ZIP":60629,"LATTITUDE":41.780471717777914,"ADDRESS":"3721 W 62ND ST  ","YEAR":2005,"DOING_BUSINESS_AS_NAME":"ST NICHOLAS OF TOLENTINE","POP_AT_RISK":231828,"BUSINESS_TYPE":"Raffles","LEGAL_NAME":"ST NICHOLAS OF TOLENTINE","LONGITUDE":-87.71633291158312},
{"STATE":"IL","ZIP":60616,"LATTITUDE":41.83118026936929,"ADDRESS":"3455 S WABASH AVE  ","YEAR":2005,"DOING_BUSINESS_AS_NAME":"DE LA SALLE ALUMNI ASSOC.","POP_AT_RISK":661238,"BUSINESS_TYPE":"Raffles","LEGAL_NAME":"DE LA SALLE ALUMNI ASSOC.","LONGITUDE":-87.62501224861636},
{"STATE":"IL","ZIP":60622,"LATTITUDE":41.90863641895459,"ADDRESS":"2300 W LE MOYNE ST  ","YEAR":2005,"DOING_BUSINESS_AS_NAME":"ST. ALOYSIUS CHURCH","POP_AT_RISK":775170,"BUSINESS_TYPE":"Raffles","LEGAL_NAME":"CATHOLIC BISHOP OF CHICAGO","LONGITUDE":-87.68479695687923},
{"STATE":"IL","ZIP":60629,"LATTITUDE":41.7790727247982,"ADDRESS":"2609 W 63RD ST  ","YEAR":2005,"DOING_BUSINESS_AS_NAME":"SOUTHWEST ORGANIZING PROJECT","POP_AT_RISK":573023,"BUSINESS_TYPE":"Raffles","LEGAL_NAME":"SOUTHWEST ORGANIZING PROJECT","LONGITUDE":-87.68891743213281},
{"STATE":"IL","ZIP":60657,"LATTITUDE":41.93645016758182,"ADDRESS":"836 W WELLINGTON AVE  ","YEAR":2005,"DOING_BUSINESS_AS_NAME":"Advocate Charitable Foundation","POP_AT_RISK":1503318,"BUSINESS_TYPE":"Raffles","LEGAL_NAME":"ADVOCATE CHARITABLE FOUNDATION","LONGITUDE":-87.65055245204128},
{"STATE":"IL","ZIP":60612,"LATTITUDE":41.88246147349646,"ADDRESS":"1648 W WARREN BLVD  ","YEAR":2005,"DOING_BUSINESS_AS_NAME":"CHICAGO NEIGHBORS UNITED INC.","POP_AT_RISK":262759,"BUSINESS_TYPE":"Raffles","LEGAL_NAME":"CHICAGO NEIGHBORS UNITED, INC.","LONGITUDE":-87.66882199387946},
{"STATE":"IL","ZIP":60651,"LATTITUDE":41.895044142418,"ADDRESS":"5200 W CHICAGO AVE  ","YEAR":2005,"DOING_BUSINESS_AS_NAME":"CITIZENS LANDMARK PRESERVATION","POP_AT_RISK":575280,"BUSINESS_TYPE":"Raffles","LEGAL_NAME":"CITIZENS LANDMARK PRESERVATION","LONGITUDE":-87.75566532904773},
{"STATE":"IL","ZIP":60622,"LATTITUDE":41.89683129443179,"ADDRESS":"2238 W RICE ST  1","YEAR":2005,"DOING_BUSINESS_AS_NAME":"ST NICHOLAS UKRAINIAN CATHOLIC","POP_AT_RISK":170598,"BUSINESS_TYPE":"Raffles","LEGAL_NAME":"ST NICHOLAS UKRAINIAN CATHOLIC CATHEDRAL","LONGITUDE":-87.683542823358},
{"STATE":"IL","ZIP":60614,"LATTITUDE":41.91388230404145,"ADDRESS":"1734 N ORLEANS ST  ","YEAR":2005,"DOING_BUSINESS_AS_NAME":"FRIENDS OF LASALLE LANGUAGE ACADEMY, INC.","POP_AT_RISK":66423,"BUSINESS_TYPE":"Raffles","LEGAL_NAME":"FRIENDS OF LASALLE LANGUAGE ACADEMY, INC.","LONGITUDE":-87.63760107294058},
}