{
{"STATE":"IL","ZIP":60609,"LATTITUDE":41.79882174411404,"ADDRESS":"2027 W 52ND ST 2ND ","YEAR":2011,"DOING_BUSINESS_AS_NAME":"PAUL WHITE","POP_AT_RISK":140991,"BUSINESS_TYPE":"Peddler,food - (fruits and vegetables only) - special","LEGAL_NAME":"PAUL WHITE","LONGITUDE":-87.67554494061855},
{"STATE":"IL","ZIP":60647,"LATTITUDE":41.91938344890458,"ADDRESS":"2061 N CAMPBELL AVE 4 419","YEAR":2011,"DOING_BUSINESS_AS_NAME":"GLORIA ROIG","POP_AT_RISK":339054,"BUSINESS_TYPE":"Peddler,food - (fruits and vegetables only) - special","LEGAL_NAME":"GLORIA ROIG","LONGITUDE":-87.68907394160927},
{"STATE":"IL","ZIP":60630,"LATTITUDE":41.963183921265326,"ADDRESS":"4536 N ELSTON AVE  ","YEAR":2011,"DOING_BUSINESS_AS_NAME":"BYRON YABLON","POP_AT_RISK":414243,"BUSINESS_TYPE":"Peddler,food - (fruits and vegetables only) - special","LEGAL_NAME":"BYRON YABLON","LONGITUDE":-87.73318715325468},
{"STATE":"IL","ZIP":60622,"LATTITUDE":41.9134214150233,"ADDRESS":"1734 N PAULINA ST 10TH 1008","YEAR":2011,"DOING_BUSINESS_AS_NAME":"REGINO RAMOS","POP_AT_RISK":655875,"BUSINESS_TYPE":"Peddler,food - (fruits and vegetables only) - special","LEGAL_NAME":"REGINO RAMOS","LONGITUDE":-87.67035633233488},
{"STATE":"IL","ZIP":60623,"LATTITUDE":41.860668595413884,"ADDRESS":"3705 W 15TH ST  ","YEAR":2011,"DOING_BUSINESS_AS_NAME":"GEORGIA BRADY","POP_AT_RISK":147135,"BUSINESS_TYPE":"Peddler,food - (fruits and vegetables only) - special","LEGAL_NAME":"GEORGIA BRADY","LONGITUDE":-87.71793763422453},
{"STATE":"IL","ZIP":60608,"LATTITUDE":41.83342591889174,"ADDRESS":"3317 S LEAVITT ST  ","YEAR":2011,"DOING_BUSINESS_AS_NAME":"ISMAEL HUIZAR","POP_AT_RISK":206238,"BUSINESS_TYPE":"Peddler,food - (fruits and vegetables only) - special","LEGAL_NAME":"ISMAEL HUIZAR","LONGITUDE":-87.68010878644178},
{"STATE":"IL","ZIP":60612,"LATTITUDE":41.89122350049371,"ADDRESS":"529 1\/2 N KEDZIE AVE  ","YEAR":2011,"DOING_BUSINESS_AS_NAME":"NAZERE ASHLEY","POP_AT_RISK":118590,"BUSINESS_TYPE":"Peddler,food - (fruits and vegetables only) - special","LEGAL_NAME":"NAZERE ASHLEY","LONGITUDE":-87.70627764212301},
{"STATE":"IL","ZIP":60649,"LATTITUDE":41.755313468484346,"ADDRESS":"2603 E 77TH ST  ","YEAR":2011,"DOING_BUSINESS_AS_NAME":"RONALD HOLLIS","POP_AT_RISK":294183,"BUSINESS_TYPE":"Peddler,food - (fruits and vegetables only) - special","LEGAL_NAME":"RONALD HOLLIS","LONGITUDE":-87.56130065591925},
{"STATE":"IL","ZIP":60623,"LATTITUDE":41.84017289140799,"ADDRESS":"2809 S TRIPP AVE  ","YEAR":2011,"DOING_BUSINESS_AS_NAME":"BALTAZAR PEREZ","POP_AT_RISK":48808,"BUSINESS_TYPE":"Peddler,food - (fruits and vegetables only) - special","LEGAL_NAME":"BALTAZAR PEREZ","LONGITUDE":-87.73037481802437},
{"STATE":"IL","ZIP":60619,"LATTITUDE":41.74457342959597,"ADDRESS":"8242 S ELLIS AVE  ","YEAR":2011,"DOING_BUSINESS_AS_NAME":"CONNIE D BOGUS","POP_AT_RISK":72748,"BUSINESS_TYPE":"Peddler,food - (fruits and vegetables only) - special","LEGAL_NAME":"CONNIE D BOGUS","LONGITUDE":-87.60029092121401},
{"STATE":"IL","ZIP":60649,"LATTITUDE":41.77324235457403,"ADDRESS":"1643 E 67TH ST  1A","YEAR":2011,"DOING_BUSINESS_AS_NAME":"DORIS I. MOORE","POP_AT_RISK":358670,"BUSINESS_TYPE":"Peddler,food - (fruits and vegetables only) - special","LEGAL_NAME":"DORIS I. MOORE","LONGITUDE":-87.58459480292203},
{"STATE":"IL","ZIP":60623,"LATTITUDE":41.85129718248562,"ADDRESS":"4347 W CERMAK RD  ","YEAR":2011,"DOING_BUSINESS_AS_NAME":"FARRIS COLLINS","POP_AT_RISK":94418,"BUSINESS_TYPE":"Peddler,food - (fruits and vegetables only) - special","LEGAL_NAME":"FARRIS COLLINS","LONGITUDE":-87.7339578483408},
{"STATE":"IL","ZIP":60659,"LATTITUDE":41.984075769507854,"ADDRESS":"3222 W OLIVE AVE  ","YEAR":2011,"DOING_BUSINESS_AS_NAME":"JOSE A. TELLEZ","POP_AT_RISK":508870,"BUSINESS_TYPE":"Peddler,food - (fruits and vegetables only) - special","LEGAL_NAME":"JOSE A. TELLEZ","LONGITUDE":-87.70999154828564},
{"STATE":"IL","ZIP":60639,"LATTITUDE":41.925525977482536,"ADDRESS":"2449 N LOREL AVE  ","YEAR":2011,"DOING_BUSINESS_AS_NAME":"LONGINO GARCIA","POP_AT_RISK":438914,"BUSINESS_TYPE":"Peddler,food - (fruits and vegetables only) - special","LEGAL_NAME":"LONGINO GARCIA","LONGITUDE":-87.75974157732053},
{"STATE":"IL","ZIP":60630,"LATTITUDE":41.97233817937336,"ADDRESS":"5349 W WINNEMAC AVE  ","YEAR":2011,"DOING_BUSINESS_AS_NAME":"MARIA TALAVERA","POP_AT_RISK":304632,"BUSINESS_TYPE":"Peddler,food - (fruits and vegetables only) - special","LEGAL_NAME":"MARIA TALAVERA","LONGITUDE":-87.76213509965838},
{"STATE":"IL","ZIP":60610,"LATTITUDE":41.900432775078606,"ADDRESS":"171 W OAK ST  7R","YEAR":2011,"DOING_BUSINESS_AS_NAME":"PAUL W. WILLIS","POP_AT_RISK":1361616,"BUSINESS_TYPE":"Peddler,food - (fruits and vegetables only) - special","LEGAL_NAME":"PAUL W. WILLIS","LONGITUDE":-87.63419286634776},
{"STATE":"IL","ZIP":60620,"LATTITUDE":41.751452001297906,"ADDRESS":"7831 S RACINE AVE 1 1","YEAR":2011,"DOING_BUSINESS_AS_NAME":"SANDERS MARTIN","POP_AT_RISK":366096,"BUSINESS_TYPE":"Peddler,food - (fruits and vegetables only) - special","LEGAL_NAME":"SANDERS MARTIN","LONGITUDE":-87.65361521912222},
{"STATE":"IL","ZIP":60653,"LATTITUDE":41.81243031011323,"ADDRESS":"4524 S DREXEL BLVD 1 ","YEAR":2011,"DOING_BUSINESS_AS_NAME":"SHEILA HOLIDAY","POP_AT_RISK":470249,"BUSINESS_TYPE":"Peddler,food - (fruits and vegetables only) - special","LEGAL_NAME":"SHEILA HOLIDAY","LONGITUDE":-87.60458011755118},
{"STATE":"IL","ZIP":60636,"LATTITUDE":41.7683810439287,"ADDRESS":"1809 W 69TH ST  ","YEAR":2011,"DOING_BUSINESS_AS_NAME":"VINCENT SPARKS","POP_AT_RISK":89598,"BUSINESS_TYPE":"Peddler,food - (fruits and vegetables only) - special","LEGAL_NAME":"VINCENT SPARKS","LONGITUDE":-87.6691677971012},
{"STATE":"IL","ZIP":60647,"LATTITUDE":41.920095862919595,"ADDRESS":"3724 W SHAKESPEARE AVE  ","YEAR":2011,"DOING_BUSINESS_AS_NAME":"WILFREDO REYES","POP_AT_RISK":83069,"BUSINESS_TYPE":"Peddler,food - (fruits and vegetables only) - special","LEGAL_NAME":"WILFREDO REYES","LONGITUDE":-87.72033830154847},
{"STATE":"IL","ZIP":60651,"LATTITUDE":41.903544618573065,"ADDRESS":"4334 W CRYSTAL ST  ","YEAR":2011,"DOING_BUSINESS_AS_NAME":"HANDY L JOHNSON","POP_AT_RISK":47954,"BUSINESS_TYPE":"Peddler,food - (fruits and vegetables only) - special","LEGAL_NAME":"HANDY L JOHNSON","LONGITUDE":-87.73513097453957},
{"STATE":"IL","ZIP":60618,"LATTITUDE":41.94114480941955,"ADDRESS":"3604 W SCHOOL ST BSMT ","YEAR":2011,"DOING_BUSINESS_AS_NAME":"JOSE D. RAMIREZ","POP_AT_RISK":287495,"BUSINESS_TYPE":"Peddler,food - (fruits and vegetables only) - special","LEGAL_NAME":"JOSE D. RAMIREZ","LONGITUDE":-87.71770339196766},
{"STATE":"IL","ZIP":60632,"LATTITUDE":41.808625875492034,"ADDRESS":"4644 S TROY ST  ","YEAR":2011,"DOING_BUSINESS_AS_NAME":"MARIA CONTRERAS","POP_AT_RISK":143124,"BUSINESS_TYPE":"Peddler,food - (fruits and vegetables only) - special","LEGAL_NAME":"MARIA CONTRERAS","LONGITUDE":-87.70292445353302},
{"STATE":"IL","ZIP":60632,"LATTITUDE":41.79519551927019,"ADDRESS":"5355 S TRIPP AVE  ","YEAR":2011,"DOING_BUSINESS_AS_NAME":"REMBERTO FLORES","POP_AT_RISK":274386,"BUSINESS_TYPE":"Peddler,food - (fruits and vegetables only) - special","LEGAL_NAME":"REMBERTO FLORES","LONGITUDE":-87.72919729095125},
{"STATE":"IL","ZIP":60620,"LATTITUDE":41.73343751070247,"ADDRESS":"8820 S THROOP ST  ","YEAR":2011,"DOING_BUSINESS_AS_NAME":"THOMAS E TAYLOR","POP_AT_RISK":32079,"BUSINESS_TYPE":"Peddler,food - (fruits and vegetables only) - special","LEGAL_NAME":"THOMAS E TAYLOR","LONGITUDE":-87.65584506880892},
{"STATE":"IL","ZIP":60637,"LATTITUDE":41.771409093435935,"ADDRESS":"6750 S PRAIRIE AVE 1 1","YEAR":2011,"DOING_BUSINESS_AS_NAME":"ERNESTINE CONNOR","POP_AT_RISK":67318,"BUSINESS_TYPE":"Peddler,food - (fruits and vegetables only) - special","LEGAL_NAME":"ERNESTINE CONNOR","LONGITUDE":-87.6187785953207},
{"STATE":"IL","ZIP":60619,"LATTITUDE":41.72754546251406,"ADDRESS":"536 E 92ND ST  ","YEAR":2011,"DOING_BUSINESS_AS_NAME":"ERNESTINE MARTIN","POP_AT_RISK":22916,"BUSINESS_TYPE":"Peddler,food - (fruits and vegetables only) - special","LEGAL_NAME":"ERNESTINE MARTIN","LONGITUDE":-87.6103938277523},
{"STATE":"IL","ZIP":60619,"LATTITUDE":41.7489350021581,"ADDRESS":"8010 S VERNON AVE  1","YEAR":2011,"DOING_BUSINESS_AS_NAME":"HERBERT L TURNER","POP_AT_RISK":40841,"BUSINESS_TYPE":"Peddler,food - (fruits and vegetables only) - special","LEGAL_NAME":"HERBERT L TURNER","LONGITUDE":-87.61380136018731},
{"STATE":"IL","ZIP":60651,"LATTITUDE":41.908807506369094,"ADDRESS":"1537 N LEAMINGTON AVE  ","YEAR":2011,"DOING_BUSINESS_AS_NAME":"JAMES K. SAFFOLD","POP_AT_RISK":180748,"BUSINESS_TYPE":"Peddler,food - (fruits and vegetables only) - special","LEGAL_NAME":"JAMES K. SAFFOLD","LONGITUDE":-87.75455599812878},
{"STATE":"IL","ZIP":60636,"LATTITUDE":41.78358307039043,"ADDRESS":"6048 S THROOP ST 1 1","YEAR":2011,"DOING_BUSINESS_AS_NAME":"NATHAN C. ARNOLD","POP_AT_RISK":32797,"BUSINESS_TYPE":"Peddler,food - (fruits and vegetables only) - special","LEGAL_NAME":"NATHAN C. ARNOLD","LONGITUDE":-87.65717944267008},
{"STATE":"IL","ZIP":60707,"LATTITUDE":41.92888119882479,"ADDRESS":"2659 N MONT CLARE AVE  ","YEAR":2011,"DOING_BUSINESS_AS_NAME":"PAUL A. STAGNOLI","POP_AT_RISK":508130,"BUSINESS_TYPE":"Peddler,food - (fruits and vegetables only) - special","LEGAL_NAME":"PAUL A. STAGNOLI","LONGITUDE":-87.80383897234732},
{"STATE":"IL","ZIP":60621,"LATTITUDE":41.77754124097294,"ADDRESS":"6408 S MORGAN ST  ","YEAR":2011,"DOING_BUSINESS_AS_NAME":"ROBERT LUNDERMAN","POP_AT_RISK":67928,"BUSINESS_TYPE":"Peddler,food - (fruits and vegetables only) - special","LEGAL_NAME":"ROBERT LUNDERMAN","LONGITUDE":-87.64973296542712},
{"STATE":"IL","ZIP":60620,"LATTITUDE":41.73403894416261,"ADDRESS":"8803 S MORGAN ST  ","YEAR":2011,"DOING_BUSINESS_AS_NAME":"BARBARA A. WRIGHT","POP_AT_RISK":33311,"BUSINESS_TYPE":"Peddler,food - (fruits and vegetables only) - special","LEGAL_NAME":"BARBARA A. WRIGHT","LONGITUDE":-87.64829508959815},
{"STATE":"IL","ZIP":60629,"LATTITUDE":41.77851334839378,"ADDRESS":"6319 S WASHTENAW AVE 1 ","YEAR":2011,"DOING_BUSINESS_AS_NAME":"LUIS SOTO-DURAN","POP_AT_RISK":177747,"BUSINESS_TYPE":"Peddler,food - (fruits and vegetables only) - special","LEGAL_NAME":"LUIS SOTO - DURAN","LONGITUDE":-87.69079325777614},
{"STATE":"IL","ZIP":60641,"LATTITUDE":41.946259427544824,"ADDRESS":"4720 W ADDISON ST 3 3A","YEAR":2011,"DOING_BUSINESS_AS_NAME":"MARIA ANN DANIELS","POP_AT_RISK":206240,"BUSINESS_TYPE":"Peddler,food - (fruits and vegetables only) - special","LEGAL_NAME":"MARIA ANN DANIELS","LONGITUDE":-87.7453612921393},
{"STATE":"IL","ZIP":60609,"LATTITUDE":41.80808139072039,"ADDRESS":"4734 S SHIELDS AVE  ","YEAR":2011,"DOING_BUSINESS_AS_NAME":"CYNTHIA J. SPENCER","POP_AT_RISK":93330,"BUSINESS_TYPE":"Peddler,food - (fruits and vegetables only) - special","LEGAL_NAME":"CYNTHIA J. SPENCER","LONGITUDE":-87.63470237042348},
{"STATE":"IL","ZIP":60624,"LATTITUDE":41.87719440582637,"ADDRESS":"4002 W JACKSON BLVD  ","YEAR":2011,"DOING_BUSINESS_AS_NAME":"LESLA VERN HOPKINS","POP_AT_RISK":366377,"BUSINESS_TYPE":"Peddler,food - (fruits and vegetables only) - special","LEGAL_NAME":"LESLA VERN HOPKINS","LONGITUDE":-87.72574741719643},
{"STATE":"IL","ZIP":60608,"LATTITUDE":41.85762172122518,"ADDRESS":"1749 W 18TH ST 2FRONT ","YEAR":2011,"DOING_BUSINESS_AS_NAME":"MARIA CARMEN ARVIZO","POP_AT_RISK":192915,"BUSINESS_TYPE":"Peddler,food - (fruits and vegetables only) - special","LEGAL_NAME":"MARIA CARMEN ARVIZO","LONGITUDE":-87.67063892713637},
{"STATE":"IL","ZIP":60612,"LATTITUDE":41.87940092817677,"ADDRESS":"2628 W WILCOX ST  ","YEAR":2011,"DOING_BUSINESS_AS_NAME":"TERRIS EDWARD CLARK","POP_AT_RISK":314880,"BUSINESS_TYPE":"Peddler,food - (fruits and vegetables only) - special","LEGAL_NAME":"TERRIS EDWARD CLARK","LONGITUDE":-87.69253358081562},
{"STATE":"IL","ZIP":60637,"LATTITUDE":41.79194255756477,"ADDRESS":"5634 S DR MARTIN LUTHER KING JR DR 1 1","YEAR":2011,"DOING_BUSINESS_AS_NAME":"ALONZO HOWARD COATES","POP_AT_RISK":127404,"BUSINESS_TYPE":"Peddler,food - (fruits and vegetables only) - special","LEGAL_NAME":"ALONZO HOWARD COATES","LONGITUDE":-87.61605484659171},
{"STATE":"IL","ZIP":60638,"LATTITUDE":41.77522156421942,"ADDRESS":"6435 S CENTRAL AVE 1ST ","YEAR":2011,"DOING_BUSINESS_AS_NAME":"REYNALDO R. GUTIERREZ","POP_AT_RISK":40593,"BUSINESS_TYPE":"Peddler,food - (fruits and vegetables only) - special","LEGAL_NAME":"REYNALDO R. GUTERREZ","LONGITUDE":-87.76146684551247},
{"STATE":"IL","ZIP":60616,"LATTITUDE":41.83475726864901,"ADDRESS":"400 E 33RD ST  2214","YEAR":2011,"DOING_BUSINESS_AS_NAME":"JOSEPH T. VALLIER JR.","POP_AT_RISK":26561,"BUSINESS_TYPE":"Peddler,food - (fruits and vegetables only) - special","LEGAL_NAME":"JOSEPH T. VALLIER JR.","LONGITUDE":-87.6170103485163},
{"STATE":"IL","ZIP":60660,"LATTITUDE":41.98520448696692,"ADDRESS":"5657 N WAYNE AVE 1 ","YEAR":2011,"DOING_BUSINESS_AS_NAME":"LEOCADIO GARCIA ALDANA","POP_AT_RISK":1404540,"BUSINESS_TYPE":"Peddler,food - (fruits and vegetables only) - special","LEGAL_NAME":"LEOCADIO GARCIA ALDANA","LONGITUDE":-87.66345032212345},
}