{
{"STATE":"IL","ZIP":60617,"LATTITUDE":41.72775069205135,"ADDRESS":"9210 S COLFAX AVE  ","YEAR":2010,"DOING_BUSINESS_AS_NAME":"NAKIA HUGHES","POP_AT_RISK":52424,"BUSINESS_TYPE":"Peddler, food (fruits and vegtables only)","LEGAL_NAME":"NAKIA HUGHES","LONGITUDE":-87.56100720184969},
{"STATE":"IL","ZIP":60645,"LATTITUDE":41.998978196894655,"ADDRESS":"6450 N SACRAMENTO AVE  2","YEAR":2010,"DOING_BUSINESS_AS_NAME":"SILVIO MEJIA","POP_AT_RISK":185100,"BUSINESS_TYPE":"Peddler, food (fruits and vegtables only)","LEGAL_NAME":"SILVIO MEJIA","LONGITUDE":-87.7047176768623},
{"STATE":"IL","ZIP":60620,"LATTITUDE":41.73716911939938,"ADDRESS":"8613 S MARSHFIELD AVE 1 1","YEAR":2010,"DOING_BUSINESS_AS_NAME":"TENA M. SMITH","POP_AT_RISK":35686,"BUSINESS_TYPE":"Peddler, food (fruits and vegtables only)","LEGAL_NAME":"TENA M SMITH","LONGITUDE":-87.66417045649116},
{"STATE":"IL","ZIP":60628,"LATTITUDE":41.71235021753515,"ADDRESS":"10005 S YALE AVE 1 1","YEAR":2010,"DOING_BUSINESS_AS_NAME":"CARL E. LESLEY","POP_AT_RISK":65110,"BUSINESS_TYPE":"Peddler, food (fruits and vegtables only)","LEGAL_NAME":"CARL E.LESLEY","LONGITUDE":-87.62949908299717},
{"STATE":"IL","ZIP":60707,"LATTITUDE":41.92972324122959,"ADDRESS":"2725 N NEVA AVE  ","YEAR":2010,"DOING_BUSINESS_AS_NAME":"LUIGI ADDANTE","POP_AT_RISK":101626,"BUSINESS_TYPE":"Peddler, food (fruits and vegtables only)","LEGAL_NAME":"LUIGI ADDANTE","LONGITUDE":-87.80508781506443},
{"STATE":"IL","ZIP":60616,"LATTITUDE":41.84127346554119,"ADDRESS":"2920 S STATE ST 3 304","YEAR":2010,"DOING_BUSINESS_AS_NAME":"MARCUS FRISBY","POP_AT_RISK":375500,"BUSINESS_TYPE":"Peddler, food (fruits and vegtables only)","LEGAL_NAME":"MARCUS FRISBY","LONGITUDE":-87.62700508386631},
{"STATE":"IL","ZIP":60657,"LATTITUDE":41.93998328496912,"ADDRESS":"441 W BELMONT AVE  ","YEAR":2010,"DOING_BUSINESS_AS_NAME":"MAXWELL LEE MINOR","POP_AT_RISK":661311,"BUSINESS_TYPE":"Peddler, food (fruits and vegtables only)","LEGAL_NAME":"MAXWELL MINOR","LONGITUDE":-87.64118502063089},
{"STATE":"IL","ZIP":60653,"LATTITUDE":41.81752385910653,"ADDRESS":"4226 S MICHIGAN AVE  ","YEAR":2010,"DOING_BUSINESS_AS_NAME":"DEWAYNE TAYLOR","POP_AT_RISK":57702,"BUSINESS_TYPE":"Peddler, food (fruits and vegtables only)","LEGAL_NAME":"DEWAYNE TAYLOR","LONGITUDE":-87.62320186177121},
{"STATE":"IL","ZIP":60625,"LATTITUDE":41.96787728112339,"ADDRESS":"4748 N HARDING AVE  ","YEAR":2010,"DOING_BUSINESS_AS_NAME":"IRENIA ANTUNEZ","POP_AT_RISK":67391,"BUSINESS_TYPE":"Peddler, food (fruits and vegtables only)","LEGAL_NAME":"IRENIA ANTUNEZ","LONGITUDE":-87.72694929529115},
{"STATE":"IL","ZIP":60617,"LATTITUDE":41.70630204741836,"ADDRESS":"10400 S AVENUE L   ","YEAR":2010,"DOING_BUSINESS_AS_NAME":"ISAI F. PAGAZA","POP_AT_RISK":65859,"BUSINESS_TYPE":"Peddler, food (fruits and vegtables only)","LEGAL_NAME":"ISAI F. PAGAZA","LONGITUDE":-87.5366401357901},
{"STATE":"IL","ZIP":60609,"LATTITUDE":41.80208236728028,"ADDRESS":"5040 S ABERDEEN ST  ","YEAR":2010,"DOING_BUSINESS_AS_NAME":"SALVADOR SALAS","POP_AT_RISK":32510,"BUSINESS_TYPE":"Peddler, food (fruits and vegtables only)","LEGAL_NAME":"SALVADOR SALAS","LONGITUDE":-87.65279428091057},
{"STATE":"IN","ZIP":46327,"LATTITUDE":41.94733722300029,"ADDRESS":"3601  SHEFFIELD AVE  88","YEAR":2010,"DOING_BUSINESS_AS_NAME":"YADIRA RAMIREZ","POP_AT_RISK":958617,"BUSINESS_TYPE":"Peddler, food (fruits and vegtables only)","LEGAL_NAME":"YADIRA RAMIREZ","LONGITUDE":-87.65418633739488},
{"STATE":"IL","ZIP":60623,"LATTITUDE":41.8460938480936,"ADDRESS":"4306 W 25TH ST  ","YEAR":2010,"DOING_BUSINESS_AS_NAME":"GRISELDA FLORES","POP_AT_RISK":47984,"BUSINESS_TYPE":"Peddler, food (fruits and vegtables only)","LEGAL_NAME":"GRISELDA FLORES","LONGITUDE":-87.73143564909104},
{"STATE":"IL","ZIP":60643,"LATTITUDE":41.69784228023647,"ADDRESS":"1046 W 108TH ST  ","YEAR":2010,"DOING_BUSINESS_AS_NAME":"KEITH ERROL DYE","POP_AT_RISK":47760,"BUSINESS_TYPE":"Peddler, food (fruits and vegtables only)","LEGAL_NAME":"KEITH ERROL DYE","LONGITUDE":-87.64924173590215},
{"STATE":"IL","ZIP":60644,"LATTITUDE":41.87936385338038,"ADDRESS":"5572 W MONROE ST 2 206","YEAR":2010,"DOING_BUSINESS_AS_NAME":"LESLIE WILLIAMS","POP_AT_RISK":186532,"BUSINESS_TYPE":"Peddler, food (fruits and vegtables only)","LEGAL_NAME":"LESLIE WILLIAMS","LONGITUDE":-87.76460627389659},
{"STATE":"IL","ZIP":60621,"LATTITUDE":41.793701318659394,"ADDRESS":"5515 S PRINCETON AVE 1 ","YEAR":2010,"DOING_BUSINESS_AS_NAME":"TIM L. GATEWOOD","POP_AT_RISK":23926,"BUSINESS_TYPE":"Peddler, food (fruits and vegtables only)","LEGAL_NAME":"TIM L. GATEWOOD","LONGITUDE":-87.63283103972365},
{"STATE":"IL","ZIP":60608,"LATTITUDE":41.862632473766375,"ADDRESS":"1050 W 14TH PL  ","YEAR":2010,"DOING_BUSINESS_AS_NAME":"VALERIE JOHNSON","POP_AT_RISK":35551,"BUSINESS_TYPE":"Peddler, food (fruits and vegtables only)","LEGAL_NAME":"VALERIE JOHNSON","LONGITUDE":-87.65285871635315},
{"STATE":"IL","ZIP":60629,"LATTITUDE":41.76258640220072,"ADDRESS":"3416 W 72ND ST 1 ","YEAR":2010,"DOING_BUSINESS_AS_NAME":"WENDY M. CAUSEY","POP_AT_RISK":30822,"BUSINESS_TYPE":"Peddler, food (fruits and vegtables only)","LEGAL_NAME":"WENDY M. CAUSEY","LONGITUDE":-87.70838044647353},
{"STATE":"IL","ZIP":60619,"LATTITUDE":41.7406443241023,"ADDRESS":"1516 E 85TH ST 1 ","YEAR":2010,"DOING_BUSINESS_AS_NAME":"ANTHONY  MATTHEWS","POP_AT_RISK":91479,"BUSINESS_TYPE":"Peddler, food (fruits and vegtables only)","LEGAL_NAME":"ANTHONY MATTHEWS","LONGITUDE":-87.58723726359024},
{"STATE":"IL","ZIP":60617,"LATTITUDE":41.73587897062278,"ADDRESS":"8748 S MUSKEGON AVE  ","YEAR":2010,"DOING_BUSINESS_AS_NAME":"ASUNCION CABRERA","POP_AT_RISK":25210,"BUSINESS_TYPE":"Peddler, food (fruits and vegtables only)","LEGAL_NAME":"ASUNCION CABRERA","LONGITUDE":-87.55569467765706},
{"STATE":"IL","ZIP":60638,"LATTITUDE":41.78495693187364,"ADDRESS":"5908 S AUSTIN AVE  ","YEAR":2010,"DOING_BUSINESS_AS_NAME":"FAVIOLA APARICIO","POP_AT_RISK":42386,"BUSINESS_TYPE":"Peddler, food (fruits and vegtables only)","LEGAL_NAME":"FAVIOLA APARICIO","LONGITUDE":-87.77191699638644},
{"STATE":"IL","ZIP":60638,"LATTITUDE":41.79636515256535,"ADDRESS":"5254 S MOODY AVE 1 ","YEAR":2010,"DOING_BUSINESS_AS_NAME":"PATRICIA ALARCON","POP_AT_RISK":84546,"BUSINESS_TYPE":"Peddler, food (fruits and vegtables only)","LEGAL_NAME":"PATRICIA ALARCON","LONGITUDE":-87.77598195314998},
{"STATE":"IL","ZIP":60619,"LATTITUDE":41.73419069670633,"ADDRESS":"8814 S CALUMET AVE 1ST ","YEAR":2010,"DOING_BUSINESS_AS_NAME":"WILLIAM S MARTIN","POP_AT_RISK":173676,"BUSINESS_TYPE":"Peddler, food (fruits and vegtables only)","LEGAL_NAME":"WILLIAM S MARTIN","LONGITUDE":-87.61622754774335},
{"STATE":"IL","ZIP":60617,"LATTITUDE":41.72176508879081,"ADDRESS":"9544 S AVENUE L   ","YEAR":2010,"DOING_BUSINESS_AS_NAME":"JESSICA L. ABRAMS","POP_AT_RISK":13632,"BUSINESS_TYPE":"Peddler, food (fruits and vegtables only)","LEGAL_NAME":"JESSICA L. ABRAMS","LONGITUDE":-87.53664604799327},
{"STATE":"IL","ZIP":60623,"LATTITUDE":41.85943817837438,"ADDRESS":"1541 S KARLOV AVE  ","YEAR":2010,"DOING_BUSINESS_AS_NAME":"JOHNNIE L. WILSON","POP_AT_RISK":43731,"BUSINESS_TYPE":"Peddler, food (fruits and vegtables only)","LEGAL_NAME":"JOHNNIE L. WILSON","LONGITUDE":-87.72726688207686},
{"STATE":"IL","ZIP":60652,"LATTITUDE":41.73571339120002,"ADDRESS":"8629 S KENNETH AVE 1 ","YEAR":2010,"DOING_BUSINESS_AS_NAME":"LAURA NICOLE ZARO","POP_AT_RISK":39620,"BUSINESS_TYPE":"Peddler, food (fruits and vegtables only)","LEGAL_NAME":"LAURA NICOLE ZARO","LONGITUDE":-87.73224099889644},
{"STATE":"IL","ZIP":60643,"LATTITUDE":41.713904584941645,"ADDRESS":"1433 W 99TH ST  ","YEAR":2010,"DOING_BUSINESS_AS_NAME":"SHIRLEY ANN BROWN","POP_AT_RISK":54908,"BUSINESS_TYPE":"Peddler, food (fruits and vegtables only)","LEGAL_NAME":"SHIRLEY ANN BROWN","LONGITUDE":-87.65894649918634},
{"STATE":"IL","ZIP":60626,"LATTITUDE":42.01449251756229,"ADDRESS":"7306 N WINCHESTER AVE  ","YEAR":2010,"DOING_BUSINESS_AS_NAME":"ESPERANZA ESPINOZA","POP_AT_RISK":74190,"BUSINESS_TYPE":"Peddler, food (fruits and vegtables only)","LEGAL_NAME":"ESPERANZA ESPINOZA","LONGITUDE":-87.67922671173909},
{"STATE":"IL","ZIP":60653,"LATTITUDE":41.82400116460606,"ADDRESS":"3939 S LAKE PARK AVE # 802","YEAR":2010,"DOING_BUSINESS_AS_NAME":"JAMES J. JORDAN JR.","POP_AT_RISK":56000,"BUSINESS_TYPE":"Peddler, food (fruits and vegtables only)","LEGAL_NAME":"JAMES J.JORDAN JR.","LONGITUDE":-87.60312264009514},
{"STATE":"IL","ZIP":60653,"LATTITUDE":41.81063738991923,"ADDRESS":"4624 S ELLIS AVE 4 406","YEAR":2010,"DOING_BUSINESS_AS_NAME":"RONDA CAROL HIRSCH","POP_AT_RISK":115869,"BUSINESS_TYPE":"Peddler, food (fruits and vegtables only)","LEGAL_NAME":"RONDA CAROL HIRSCH","LONGITUDE":-87.60186884782422},
{"STATE":"IL","ZIP":60654,"LATTITUDE":41.89206949449362,"ADDRESS":"540 N STATE ST  ","YEAR":2010,"DOING_BUSINESS_AS_NAME":"ALLEN J. ROCHELLE","POP_AT_RISK":720171,"BUSINESS_TYPE":"Peddler, food (fruits and vegtables only)","LEGAL_NAME":"ALLEN JAMES ROCHELLE","LONGITUDE":-87.62822442829267},
{"STATE":"IL","ZIP":60630,"LATTITUDE":41.97761695566955,"ADDRESS":"5318 N LARAMIE AVE  ","YEAR":2010,"DOING_BUSINESS_AS_NAME":"JUAN MARTIN GONSALEZ","POP_AT_RISK":95208,"BUSINESS_TYPE":"Peddler, food (fruits and vegtables only)","LEGAL_NAME":"JUAN MARTIN GONSALEZ","LONGITUDE":-87.75798739173973},
{"STATE":"IL","ZIP":60640,"LATTITUDE":41.964753072298436,"ADDRESS":"4534 N HAZEL ST  ","YEAR":2010,"DOING_BUSINESS_AS_NAME":"PATRICIA A. WILLIAMS","POP_AT_RISK":64718,"BUSINESS_TYPE":"Peddler, food (fruits and vegtables only)","LEGAL_NAME":"PATRICIA A. WILLIAMS","LONGITUDE":-87.65253337811752},
{"STATE":"IL","ZIP":60610,"LATTITUDE":41.90827142339081,"ADDRESS":"1415 N DEARBORN ST 1 ","YEAR":2010,"DOING_BUSINESS_AS_NAME":"CHRISTINA A. KALLIRIS","POP_AT_RISK":318285,"BUSINESS_TYPE":"Peddler, food (fruits and vegtables only)","LEGAL_NAME":"CHRISTINA A. KALLIRIS","LONGITUDE":-87.62997092580711},
{"STATE":"IL","ZIP":60643,"LATTITUDE":41.674052619031144,"ADDRESS":"12056 S JUSTINE ST 1 ","YEAR":2010,"DOING_BUSINESS_AS_NAME":"ROBERT L. JOHNSON JR.","POP_AT_RISK":152160,"BUSINESS_TYPE":"Peddler, food (fruits and vegtables only)","LEGAL_NAME":"ROBERT L. JOHNSON, JR","LONGITUDE":-87.66020570250922},
{"STATE":"IL","ZIP":60637,"LATTITUDE":41.79491093541531,"ADDRESS":"5508 S HYDE PARK BLVD 1ST 1N","YEAR":2010,"DOING_BUSINESS_AS_NAME":"CHARLES RUDOLPH HAYNES","POP_AT_RISK":32458,"BUSINESS_TYPE":"Peddler, food (fruits and vegtables only)","LEGAL_NAME":"CHARLES RUDOLPH HAYNES","LONGITUDE":-87.58409087056911},
{"STATE":"IL","ZIP":60634,"LATTITUDE":41.95966347848037,"ADDRESS":"5632 W PENSACOLA AVE  ","YEAR":2010,"DOING_BUSINESS_AS_NAME":"EMPERATRIZ FRUIT","POP_AT_RISK":154497,"BUSINESS_TYPE":"Peddler, food (fruits and vegtables only)","LEGAL_NAME":"EMPERATRIZ M. MALDONADO","LONGITUDE":-87.76855204500197},
{"STATE":"IL","ZIP":60607,"LATTITUDE":41.8619488347298,"ADDRESS":"1458 S CANAL ST  ","YEAR":2010,"DOING_BUSINESS_AS_NAME":"ROYZELL LAMONT STAFFORD","POP_AT_RISK":32989,"BUSINESS_TYPE":"Peddler, food (fruits and vegtables only)","LEGAL_NAME":"ROYZELL LAMONT STAFFORD","LONGITUDE":-87.639221139667},
}