{
{"STATE":"IL","ZIP":60631,"LATTITUDE":41.99840430798829,"ADDRESS":"6448 N MILWAUKEE AVE 1ST ","YEAR":2014,"DOING_BUSINESS_AS_NAME":"ROMANS INN","POP_AT_RISK":20191,"BUSINESS_TYPE":"Tavern","LEGAL_NAME":"ROMAN MYTNIK","LONGITUDE":-87.78901421649417},
{"STATE":"IL","ZIP":60659,"LATTITUDE":41.99713414611455,"ADDRESS":"3935-3939 W DEVON AVE  1ST","YEAR":2014,"DOING_BUSINESS_AS_NAME":"MONASTERO'S RISTORANTE","POP_AT_RISK":40028,"BUSINESS_TYPE":"Tavern","LEGAL_NAME":"LA CANOPY INC","LONGITUDE":-87.72766362171252},
{"STATE":"IL","ZIP":60644,"LATTITUDE":41.87308976346563,"ADDRESS":"4701 W HARRISON ST  1","YEAR":2014,"DOING_BUSINESS_AS_NAME":"ANNIE MC KINNON","POP_AT_RISK":45640,"BUSINESS_TYPE":"Tavern","LEGAL_NAME":"ANNIE MCKINNON","LONGITUDE":-87.74268267165898},
{"STATE":"IL","ZIP":60707,"LATTITUDE":41.90909188377848,"ADDRESS":"6920 W NORTH AVE  ","YEAR":2014,"DOING_BUSINESS_AS_NAME":"KAT KLUB","POP_AT_RISK":48436,"BUSINESS_TYPE":"Tavern","LEGAL_NAME":"CHER-KATES INC","LONGITUDE":-87.79808995230711},
{"STATE":"IL","ZIP":60628,"LATTITUDE":41.662677267068084,"ADDRESS":"12717 S HALSTED ST 1ST ","YEAR":2014,"DOING_BUSINESS_AS_NAME":"JACK'S LOUNGE","POP_AT_RISK":23903,"BUSINESS_TYPE":"Tavern","LEGAL_NAME":"JACKSON GILBERT","LONGITUDE":-87.64125551351795},
{"STATE":"IL","ZIP":60634,"LATTITUDE":41.93791461326103,"ADDRESS":"7844 W BELMONT AVE 1ST ","YEAR":2014,"DOING_BUSINESS_AS_NAME":"CLUB BELMONT INC","POP_AT_RISK":40440,"BUSINESS_TYPE":"Tavern","LEGAL_NAME":"CLUB BELMONT INC","LONGITUDE":-87.82319954793846},
{"STATE":"IL","ZIP":60634,"LATTITUDE":41.95034769269968,"ADDRESS":"3848 N HARLEM AVE  ","YEAR":2014,"DOING_BUSINESS_AS_NAME":"P J'S BREWERY","POP_AT_RISK":29903,"BUSINESS_TYPE":"Tavern","LEGAL_NAME":"P J'S BREWERY INC","LONGITUDE":-87.80732944580947},
{"STATE":"IL","ZIP":60617,"LATTITUDE":41.72818926732291,"ADDRESS":"3201 E 92ND ST  ","YEAR":2014,"DOING_BUSINESS_AS_NAME":"LONCARS","POP_AT_RISK":17702,"BUSINESS_TYPE":"Tavern","LEGAL_NAME":"R & T CHICO, INC.","LONGITUDE":-87.54681785120488},
{"STATE":"IL","ZIP":60624,"LATTITUDE":41.87345680137812,"ADDRESS":"3601 W HARRISON ST 1ST ","YEAR":2014,"DOING_BUSINESS_AS_NAME":"SKYBOX SPORTS BAR","POP_AT_RISK":43363,"BUSINESS_TYPE":"Tavern","LEGAL_NAME":"G H W INCORPORATED","LONGITUDE":-87.7157776166529},
{"STATE":"IL","ZIP":60652,"LATTITUDE":41.740414814644055,"ADDRESS":"8406 S KEDZIE AVE 1ST ","YEAR":2014,"DOING_BUSINESS_AS_NAME":"VAN'S TAP","POP_AT_RISK":27818,"BUSINESS_TYPE":"Tavern","LEGAL_NAME":"HEART VENTURES INC","LONGITUDE":-87.70228446282108},
{"STATE":"IL","ZIP":60616,"LATTITUDE":41.831169482324235,"ADDRESS":"200-210 E 35TH ST 2ND ","YEAR":2014,"DOING_BUSINESS_AS_NAME":"GOOD TIMES SPORTS BAR","POP_AT_RISK":34354,"BUSINESS_TYPE":"Tavern","LEGAL_NAME":"ANDREA STEWART INC.","LONGITUDE":-87.62170520883589},
{"STATE":"IL","ZIP":60628,"LATTITUDE":41.69264879305761,"ADDRESS":"451 E 111TH ST  ","YEAR":2014,"DOING_BUSINESS_AS_NAME":"EXCALIBUR CLUB","POP_AT_RISK":104372,"BUSINESS_TYPE":"Tavern","LEGAL_NAME":"EXCALIBUR CLUB, INC.","LONGITUDE":-87.61137736871626},
{"STATE":"IL","ZIP":60707,"LATTITUDE":41.923755883896405,"ADDRESS":"7171-7173 W GRAND AVE  ","YEAR":2014,"DOING_BUSINESS_AS_NAME":"MISKA'S\/ EVA'S SPORTS BAR","POP_AT_RISK":51639,"BUSINESS_TYPE":"Tavern","LEGAL_NAME":"RICCHIO & SONS, INC.","LONGITUDE":-87.8053568587367},
{"STATE":"IL","ZIP":60628,"LATTITUDE":41.717541962365075,"ADDRESS":"9705 S HALSTED ST  1","YEAR":2014,"DOING_BUSINESS_AS_NAME":"9705 CORP","POP_AT_RISK":152004,"BUSINESS_TYPE":"Tavern","LEGAL_NAME":"THE 9705 CORPORATION","LONGITUDE":-87.64295866628888},
{"STATE":"IL","ZIP":60643,"LATTITUDE":41.67759689245113,"ADDRESS":"11848 S WESTERN AVE  ","YEAR":2014,"DOING_BUSINESS_AS_NAME":"SLACKERS TAP","POP_AT_RISK":38986,"BUSINESS_TYPE":"Tavern","LEGAL_NAME":"CHANDLER GEORGE, INC.","LONGITUDE":-87.6808588440903},
{"STATE":"IL","ZIP":60656,"LATTITUDE":41.97680539365502,"ADDRESS":"5342 N CUMBERLAND AVE 1ST ","YEAR":2014,"DOING_BUSINESS_AS_NAME":"NORTHWOODS LOUNGE","POP_AT_RISK":99732,"BUSINESS_TYPE":"Tavern","LEGAL_NAME":"NORTHWOODS LOUNGE INC","LONGITUDE":-87.83676096082264},
{"STATE":"IL","ZIP":60619,"LATTITUDE":41.72589431975462,"ADDRESS":"1008 E 93RD ST 1ST ","YEAR":2014,"DOING_BUSINESS_AS_NAME":"HIDIRI","POP_AT_RISK":37026,"BUSINESS_TYPE":"Tavern","LEGAL_NAME":"KENNY & HELEN ROBINSON","LONGITUDE":-87.5992976431851},
{"STATE":"IL","ZIP":60617,"LATTITUDE":41.74445686220236,"ADDRESS":"2020  -02022 E 83RD ST 1ST ","YEAR":2014,"DOING_BUSINESS_AS_NAME":"NEW CELEBRITY LOUNGE INC","POP_AT_RISK":111246,"BUSINESS_TYPE":"Tavern","LEGAL_NAME":"NEW CELEBRITY LOUNGE INC","LONGITUDE":-87.57491002150282},
{"STATE":"IL","ZIP":60643,"LATTITUDE":41.692637090930575,"ADDRESS":"11043 S ASHLAND AVE 1ST ","YEAR":2014,"DOING_BUSINESS_AS_NAME":"THE NEW SOME PLACE ELSE LOUNGE","POP_AT_RISK":26744,"BUSINESS_TYPE":"Tavern","LEGAL_NAME":"THE NEW SOME PLACE ELSE, INC.","LONGITUDE":-87.66171111252139},
{"STATE":"IL","ZIP":60629,"LATTITUDE":41.75912971390726,"ADDRESS":"7353 S CICERO AVE  ","YEAR":2014,"DOING_BUSINESS_AS_NAME":"RED COACH RESTAURANT","POP_AT_RISK":9438,"BUSINESS_TYPE":"Tavern","LEGAL_NAME":"RED COACHLIGHT RESTAURANT, INC.","LONGITUDE":-87.74155364936757},
{"STATE":"IL","ZIP":60644,"LATTITUDE":41.88023523529787,"ADDRESS":"5912  - 5914 W MADISON ST  1","YEAR":2014,"DOING_BUSINESS_AS_NAME":"WINNERS SPORT BAR & GRILL INC","POP_AT_RISK":46733,"BUSINESS_TYPE":"Tavern","LEGAL_NAME":"WINNERS SPORTS BAR & GRILL, INC.","LONGITUDE":-87.77232918177985},
}