{
{"STATE":"IL","ZIP":60643,"LATTITUDE":41.677685065833224,"ADDRESS":"1500 W 119TH ST  1ST F","YEAR":2007,"DOING_BUSINESS_AS_NAME":"THE LEARNING PLACE","POP_AT_RISK":25454,"BUSINESS_TYPE":"Day Care Center 2 - 6 Years","LEGAL_NAME":"THE LEARNING PLACE","LONGITUDE":-87.65901954921286},
{"STATE":"IL","ZIP":60623,"LATTITUDE":41.84685379534101,"ADDRESS":"2434 S KILDARE AVE  ","YEAR":2007,"DOING_BUSINESS_AS_NAME":"CARLOS H. CANTU CHILDREN AND FAMILY CENTER","POP_AT_RISK":148629,"BUSINESS_TYPE":"Day Care Center 2 - 6 Years","LEGAL_NAME":"EL VALOR CORPORATION","LONGITUDE":-87.73126778563196},
{"STATE":"IL","ZIP":60641,"LATTITUDE":41.95366789449532,"ADDRESS":"4300 W IRVING PARK RD 1ST ","YEAR":2007,"DOING_BUSINESS_AS_NAME":"LYDIA HOME ASSOCIATION DAY CARE","POP_AT_RISK":106856,"BUSINESS_TYPE":"Day Care Center 2 - 6 Years","LEGAL_NAME":"LYDIA HOME ASSOCIATION","LONGITUDE":-87.73550782535284},
{"STATE":"IL","ZIP":60631,"LATTITUDE":42.011776152755054,"ADDRESS":"7250 W TOUHY AVE  ","YEAR":2007,"DOING_BUSINESS_AS_NAME":"CHILDREN CAMPUS INC","POP_AT_RISK":38320,"BUSINESS_TYPE":"Day Care Center 2 - 6 Years","LEGAL_NAME":"CHILDREN'S CAMPUS, INC.","LONGITUDE":-87.80864354261232},
{"STATE":"IL","ZIP":60638,"LATTITUDE":41.812595077201664,"ADDRESS":"4410 S LAPORTE AVE  ","YEAR":2007,"DOING_BUSINESS_AS_NAME":"LE CLAIRE HEADSTART CENTER","POP_AT_RISK":9840,"BUSINESS_TYPE":"Day Care Center 2 - 6 Years","LEGAL_NAME":"HULL HOUSE  ASSOCIATION","LONGITUDE":-87.74721117371338},
{"STATE":"IL","ZIP":60646,"LATTITUDE":42.003175359269584,"ADDRESS":"6736 N LOLETA AVE  ","YEAR":2007,"DOING_BUSINESS_AS_NAME":"EDGEBROOK COMMUNITY CHURCH","POP_AT_RISK":11252,"BUSINESS_TYPE":"Day Care Center 2 - 6 Years","LEGAL_NAME":"EDGEBROOK COMMUNITY CHURCH","LONGITUDE":-87.77183707699314},
{"STATE":"IL","ZIP":60638,"LATTITUDE":41.7932347787373,"ADDRESS":"6287 S ARCHER AVE  1ST F","YEAR":2007,"DOING_BUSINESS_AS_NAME":"KID'Z COLONY DAYCARE, INC.","POP_AT_RISK":31161,"BUSINESS_TYPE":"Day Care Center 2 - 6 Years","LEGAL_NAME":"KID'Z COLONY DAYCARE. INC.","LONGITUDE":-87.77777643611029},
{"STATE":"IL","ZIP":60646,"LATTITUDE":41.99007385222976,"ADDRESS":"4600 W PETERSON AVE  1","YEAR":2007,"DOING_BUSINESS_AS_NAME":"SCHOOL FOR THE YOUNG YEARS","POP_AT_RISK":12207,"BUSINESS_TYPE":"Day Care Center 2 - 6 Years","LEGAL_NAME":"SAUGANASH COMMUNITY CHURCH","LONGITUDE":-87.74264395739979},
{"STATE":"IL","ZIP":60646,"LATTITUDE":41.995446645749816,"ADDRESS":"4008 W ROSEMONT AVE  1ST F","YEAR":2007,"DOING_BUSINESS_AS_NAME":"ALL ABOARD LEARNING EXPRESS","POP_AT_RISK":20014,"BUSINESS_TYPE":"Day Care Center 2 - 6 Years","LEGAL_NAME":"ALL ABOARD LEARNING EXPRESS","LONGITUDE":-87.72932153283107},
{"STATE":"IL","ZIP":60609,"LATTITUDE":41.81574158020701,"ADDRESS":"1653 W 43RD ST  ","YEAR":2007,"DOING_BUSINESS_AS_NAME":"PAULO FREIRE CENTER","POP_AT_RISK":37314,"BUSINESS_TYPE":"Day Care Center 2 - 6 Years","LEGAL_NAME":"CHICAGO COMMONS ASSOCIATION","LONGITUDE":-87.66734779620032},
{"STATE":"IL","ZIP":60634,"LATTITUDE":41.945064857019986,"ADDRESS":"7559 W ADDISON ST 1ST ","YEAR":2007,"DOING_BUSINESS_AS_NAME":"JOLLY FUN HOUSE PLAYSCHOOLS","POP_AT_RISK":75258,"BUSINESS_TYPE":"Day Care Center 2 - 6 Years","LEGAL_NAME":"JFH EDUCATIONAL ACADEMY INC","LONGITUDE":-87.81673402827133},
{"STATE":"IL","ZIP":60634,"LATTITUDE":41.93165821480086,"ADDRESS":"2820 N NARRAGANSETT AVE 1 ","YEAR":2007,"DOING_BUSINESS_AS_NAME":"Little Green Oak","POP_AT_RISK":54075,"BUSINESS_TYPE":"Day Care Center 2 - 6 Years","LEGAL_NAME":"LITTLE GREEN OAK INCORPORATED","LONGITUDE":-87.78585878124555},
{"STATE":"IL","ZIP":60609,"LATTITUDE":41.830358930906655,"ADDRESS":"1711 W 35TH ST  1ST F","YEAR":2007,"DOING_BUSINESS_AS_NAME":"LITTLE TYKES PRE-SCHOOL INC.","POP_AT_RISK":26182,"BUSINESS_TYPE":"Day Care Center 2 - 6 Years","LEGAL_NAME":"LITTLE TYKES PRE-SCHOOL, INC.","LONGITUDE":-87.66843553445109},
{"STATE":"IL","ZIP":60656,"LATTITUDE":41.9793096533148,"ADDRESS":"8622 W CATALPA AVE 1ST ","YEAR":2007,"DOING_BUSINESS_AS_NAME":"BRICKTON MONTESSORI SCHOOL","POP_AT_RISK":84676,"BUSINESS_TYPE":"Day Care Center 2 - 6 Years","LEGAL_NAME":"THE BRICKTON MONTESSORI SCHOOL","LONGITUDE":-87.84247838940561},
{"STATE":"IL","ZIP":60638,"LATTITUDE":41.79232955875624,"ADDRESS":"6640 W ARCHER AVE 1ST ","YEAR":2007,"DOING_BUSINESS_AS_NAME":"KIDDIE CORNER NURSERY SCHOOL","POP_AT_RISK":59230,"BUSINESS_TYPE":"Day Care Center 2 - 6 Years","LEGAL_NAME":"EARLY EDUCATION UNLIMITED, INC.","LONGITUDE":-87.7883153681136},
{"STATE":"IL","ZIP":60617,"LATTITUDE":41.718354119253824,"ADDRESS":"9725 S COMMERCIAL AVE 1ST FLOOR ","YEAR":2007,"DOING_BUSINESS_AS_NAME":"MARI'S BUMBLE BEE DAY CARE CORP.","POP_AT_RISK":17749,"BUSINESS_TYPE":"Day Care Center 2 - 6 Years","LEGAL_NAME":"MARI'S BUMBLE BEE DAY CARE CORP.","LONGITUDE":-87.55087407318614},
{"STATE":"IL","ZIP":60632,"LATTITUDE":41.816195369762184,"ADDRESS":"4235 S KEDZIE AVE  ","YEAR":2007,"DOING_BUSINESS_AS_NAME":"KIDDIE GARDEN LITTLE ANGELS","POP_AT_RISK":43636,"BUSINESS_TYPE":"Day Care Center 2 - 6 Years","LEGAL_NAME":"KIDDIE GARDEN LITTLE ANGELS CORP.","LONGITUDE":-87.70414872843075},
{"STATE":"IL","ZIP":60651,"LATTITUDE":41.896679619009724,"ADDRESS":"5900 W IOWA ST 1ST ","YEAR":2007,"DOING_BUSINESS_AS_NAME":"HOPE CHILD DEVELOPMENT CENTER","POP_AT_RISK":49255,"BUSINESS_TYPE":"Day Care Center 2 - 6 Years","LEGAL_NAME":"TRINITY RESOURCES UNLIMITED, INC.","LONGITUDE":-87.77249925688668},
{"STATE":"IL","ZIP":60643,"LATTITUDE":41.69189741625341,"ADDRESS":"2324 W 111TH ST  ","YEAR":2007,"DOING_BUSINESS_AS_NAME":"LITTLE HANDS LEARNING CENTER","POP_AT_RISK":18624,"BUSINESS_TYPE":"Day Care Center 2 - 6 Years","LEGAL_NAME":"LITTLE HANDS LEARNING CENTER, INC.","LONGITUDE":-87.67985620594332},
{"STATE":"IL","ZIP":60631,"LATTITUDE":41.98736048019242,"ADDRESS":"5849 N NINA AVE 1ST ","YEAR":2007,"DOING_BUSINESS_AS_NAME":"WHITE STEEPLE PRESCHOOL","POP_AT_RISK":20824,"BUSINESS_TYPE":"Day Care Center 2 - 6 Years","LEGAL_NAME":"PRESBYTERIAN CHURCH OF NORWOOD PARK","LONGITUDE":-87.80378597661188},
{"STATE":"IL","ZIP":60638,"LATTITUDE":41.77778201293689,"ADDRESS":"5923 W 63RD ST 1ST ","YEAR":2007,"DOING_BUSINESS_AS_NAME":"LITTLE LEARNERS DAYCARE","POP_AT_RISK":37876,"BUSINESS_TYPE":"Day Care Center 2 - 6 Years","LEGAL_NAME":"LITTLE LEARNERS DAYCARE INCORPORATED","LONGITUDE":-87.76997257726937},
{"STATE":"IL","ZIP":60631,"LATTITUDE":41.98857518279947,"ADDRESS":"7435 W TALCOTT AVE 1ST ","YEAR":2007,"DOING_BUSINESS_AS_NAME":"PRESENCE RESURRECTION MEDICAL CENTER","POP_AT_RISK":21744,"BUSINESS_TYPE":"Day Care Center 2 - 6 Years","LEGAL_NAME":"PRESENCE RESURRECTION MEDICAL CENTER","LONGITUDE":-87.81297791219501},
{"STATE":"IL","ZIP":60643,"LATTITUDE":41.705835153211794,"ADDRESS":"10317 S WESTERN AVE  ","YEAR":2007,"DOING_BUSINESS_AS_NAME":"SMALL STRIDE ACADEMY","POP_AT_RISK":27724,"BUSINESS_TYPE":"Day Care Center 2 - 6 Years","LEGAL_NAME":"SMALL STRIDE ON WESTERN AVENUE, INC.","LONGITUDE":-87.68145602363649},
{"STATE":"IL","ZIP":60661,"LATTITUDE":41.8806992461244,"ADDRESS":"500 W MONROE ST 1ST ","YEAR":2007,"DOING_BUSINESS_AS_NAME":"BRIGHT HORIZONS CHICAGO WEST LOOP","POP_AT_RISK":51696,"BUSINESS_TYPE":"Day Care Center 2 - 6 Years","LEGAL_NAME":"BRIGHT HORIZONS CHILDREN'S CENTERS LLC","LONGITUDE":-87.63972502663867},
{"STATE":"IL","ZIP":60617,"LATTITUDE":41.681053268167084,"ADDRESS":"3552 E 118TH ST  ","YEAR":2007,"DOING_BUSINESS_AS_NAME":"BRENDA'S KIDS CLUB DAYCARE CENTER","POP_AT_RISK":13690,"BUSINESS_TYPE":"Day Care Center 2 - 6 Years","LEGAL_NAME":"BRENDA'S KIDS CLUB DAY CARE CENTER INC.","LONGITUDE":-87.53683432709336},
{"STATE":"IL","ZIP":60617,"LATTITUDE":41.729228293694916,"ADDRESS":"9129 S BURLEY AVE  1ST F","YEAR":2007,"DOING_BUSINESS_AS_NAME":"OUR LADY OF GUADALUPE HEADSRT.","POP_AT_RISK":19777,"BUSINESS_TYPE":"Day Care Center 2 - 6 Years","LEGAL_NAME":"THE CATHOLIC CHARITIES OF THE ARCHDIOCESE OF CHICAGO","LONGITUDE":-87.54549011909151},
}