{
{"STATE":"IL","ZIP":60637,"LATTITUDE":41.78072554513874,"ADDRESS":"6250 S COTTAGE GROVE AVE 1ST ","YEAR":2009,"DOING_BUSINESS_AS_NAME":"COSMO JEWELRY","POP_AT_RISK":168645,"BUSINESS_TYPE":"Secondhand Dealer (Includes Valuable Objects)","LEGAL_NAME":"JINO PARK","LONGITUDE":-87.60608384712403},
{"STATE":"IL","ZIP":60609,"LATTITUDE":41.811851070860186,"ADDRESS":"4510 S ASHLAND AVE  ","YEAR":2009,"DOING_BUSINESS_AS_NAME":"NEREIDA NEW & RECONDITIONED APPLIANCES","POP_AT_RISK":34260,"BUSINESS_TYPE":"Secondhand Dealer (Includes Valuable Objects)","LEGAL_NAME":"MARIA CHAVEZ","LONGITUDE":-87.66520176293083},
{"STATE":"IL","ZIP":60607,"LATTITUDE":41.87743070168073,"ADDRESS":"310 S RACINE AVE 1-4 ","YEAR":2009,"DOING_BUSINESS_AS_NAME":"HELIX LIMITED-COLOR SERVICE- SPEEDOTRON CORP","POP_AT_RISK":39868,"BUSINESS_TYPE":"Secondhand Dealer (Includes Valuable Objects)","LEGAL_NAME":"HELIX LIMITED","LONGITUDE":-87.6571579846684},
{"STATE":"IL","ZIP":60631,"LATTITUDE":42.012198711314255,"ADDRESS":"7214 N HARLEM AVE 1ST ","YEAR":2009,"DOING_BUSINESS_AS_NAME":"THE ANTIQUE & RESALE SHOPPE","POP_AT_RISK":53364,"BUSINESS_TYPE":"Secondhand Dealer (Includes Valuable Objects)","LEGAL_NAME":"SUZANNE LAZER","LONGITUDE":-87.80677987610609},
{"STATE":"IL","ZIP":60609,"LATTITUDE":41.79440875533432,"ADDRESS":"5444 S DAMEN AVE 1ST ","YEAR":2009,"DOING_BUSINESS_AS_NAME":"ANOTHER MAN'S TREASURES","POP_AT_RISK":51227,"BUSINESS_TYPE":"Secondhand Dealer (Includes Valuable Objects)","LEGAL_NAME":"WILBURN GREEN","LONGITUDE":-87.6744635796009},
{"STATE":"IL","ZIP":60632,"LATTITUDE":41.817920989121255,"ADDRESS":"4155 S ARCHER AVE 1 ","YEAR":2009,"DOING_BUSINESS_AS_NAME":"UNIQUE FURNITURE","POP_AT_RISK":136104,"BUSINESS_TYPE":"Secondhand Dealer (Includes Valuable Objects)","LEGAL_NAME":"CONRAD CARRANO","LONGITUDE":-87.69775971346888},
{"STATE":"IL","ZIP":60607,"LATTITUDE":41.86580802350966,"ADDRESS":"1252 S CANAL ST  ","YEAR":2009,"DOING_BUSINESS_AS_NAME":"GAMESTOP #476","POP_AT_RISK":62314,"BUSINESS_TYPE":"Secondhand Dealer (Includes Valuable Objects)","LEGAL_NAME":"GAMESTOP, INC.","LONGITUDE":-87.6393486005042},
{"STATE":"IL","ZIP":60626,"LATTITUDE":42.01928647961978,"ADDRESS":"1751E W HOWARD ST  ","YEAR":2009,"DOING_BUSINESS_AS_NAME":"GAMESTOP #1568","POP_AT_RISK":62574,"BUSINESS_TYPE":"Secondhand Dealer (Includes Valuable Objects)","LEGAL_NAME":"GAMESTOP, INC.","LONGITUDE":-87.67461054986008},
{"STATE":"IL","ZIP":60636,"LATTITUDE":41.767328200940014,"ADDRESS":"6940 S ASHLAND AVE 1ST ","YEAR":2009,"DOING_BUSINESS_AS_NAME":"GAMESTOP #6098","POP_AT_RISK":82974,"BUSINESS_TYPE":"Secondhand Dealer (Includes Valuable Objects)","LEGAL_NAME":"GAMESTOP, INC.","LONGITUDE":-87.66400242735763},
{"STATE":"IL","ZIP":60643,"LATTITUDE":41.677591897397605,"ADDRESS":"1710 W 119TH ST 1ST ","YEAR":2009,"DOING_BUSINESS_AS_NAME":"GAMESTOP #6161","POP_AT_RISK":50908,"BUSINESS_TYPE":"Secondhand Dealer (Includes Valuable Objects)","LEGAL_NAME":"GAMESTOP, INC.","LONGITUDE":-87.66443188411463},
{"STATE":"IL","ZIP":60653,"LATTITUDE":41.80979548271692,"ADDRESS":"1400 E 47TH DR  B","YEAR":2009,"DOING_BUSINESS_AS_NAME":"GAMESTOP # 2674","POP_AT_RISK":141212,"BUSINESS_TYPE":"Secondhand Dealer (Includes Valuable Objects)","LEGAL_NAME":"GAMESTOP, INC.","LONGITUDE":-87.59237386663331},
{"STATE":"IL","ZIP":60621,"LATTITUDE":41.78724351391953,"ADDRESS":"5853 S HALSTED ST  ","YEAR":2009,"DOING_BUSINESS_AS_NAME":"LANDMARK LIQUIDATIONS","POP_AT_RISK":81405,"BUSINESS_TYPE":"Secondhand Dealer (Includes Valuable Objects)","LEGAL_NAME":"SHIRLEY MCGARY","LONGITUDE":-87.64482844631563},
{"STATE":"IL","ZIP":60620,"LATTITUDE":41.7562717189879,"ADDRESS":"7554 S HALSTED ST  ","YEAR":2009,"DOING_BUSINESS_AS_NAME":"A + CELLULAR","POP_AT_RISK":75976,"BUSINESS_TYPE":"Secondhand Dealer (Includes Valuable Objects)","LEGAL_NAME":"A+ CELLULAR # 4","LONGITUDE":-87.64433439896648},
{"STATE":"IL","ZIP":60619,"LATTITUDE":41.75889991801553,"ADDRESS":"7451 S COTTAGE GROVE AVE 1ST ","YEAR":2009,"DOING_BUSINESS_AS_NAME":"LANDMARK LIQUIDATIONS","POP_AT_RISK":31461,"BUSINESS_TYPE":"Secondhand Dealer (Includes Valuable Objects)","LEGAL_NAME":"CHARLES MC GARY","LONGITUDE":-87.60525865477217},
{"STATE":"IL","ZIP":60620,"LATTITUDE":41.74821708853622,"ADDRESS":"8018 S HALSTED ST  ","YEAR":2009,"DOING_BUSINESS_AS_NAME":"CRYSTAL THRIFT SHOP","POP_AT_RISK":118017,"BUSINESS_TYPE":"Secondhand Dealer (Includes Valuable Objects)","LEGAL_NAME":"WILLIE F. SHIPP","LONGITUDE":-87.64411876933347},
{"STATE":"IL","ZIP":60638,"LATTITUDE":41.795485520771,"ADDRESS":"5907 S ARCHER AVE  ","YEAR":2009,"DOING_BUSINESS_AS_NAME":"BLOCKBUSTER VIDEO #17320","POP_AT_RISK":23175,"BUSINESS_TYPE":"Secondhand Dealer (Includes Valuable Objects)","LEGAL_NAME":"BLOCKBUSTER INC.","LONGITUDE":-87.76312350643026},
{"STATE":"IL","ZIP":60608,"LATTITUDE":41.836468347729024,"ADDRESS":"3145 S ASHLAND AVE  ","YEAR":2009,"DOING_BUSINESS_AS_NAME":"BLOCKBUSTER VIDEO #17353","POP_AT_RISK":30028,"BUSINESS_TYPE":"Secondhand Dealer (Includes Valuable Objects)","LEGAL_NAME":"BLOCKBUSTER INC.","LONGITUDE":-87.66556690213167},
{"STATE":"IL","ZIP":60656,"LATTITUDE":41.963837023211276,"ADDRESS":"4626 N CUMBERLAND AVE  ","YEAR":2009,"DOING_BUSINESS_AS_NAME":"BLOCKBUSTER VIDEO #17370","POP_AT_RISK":68328,"BUSINESS_TYPE":"Secondhand Dealer (Includes Valuable Objects)","LEGAL_NAME":"BLOCKBUSTER INC.","LONGITUDE":-87.8368386547161},
{"STATE":"IL","ZIP":60638,"LATTITUDE":41.79232419633276,"ADDRESS":"6646 W ARCHER AVE 1 ","YEAR":2009,"DOING_BUSINESS_AS_NAME":"Zs Computer Services","POP_AT_RISK":29615,"BUSINESS_TYPE":"Secondhand Dealer (Includes Valuable Objects)","LEGAL_NAME":"Paula M Zurawski","LONGITUDE":-87.7885687422822},
{"STATE":"IL","ZIP":60638,"LATTITUDE":41.79218916857037,"ADDRESS":"6455 W ARCHER AVE  ","YEAR":2009,"DOING_BUSINESS_AS_NAME":"CHICAGO COIN CO INC","POP_AT_RISK":30725,"BUSINESS_TYPE":"Secondhand Dealer (Includes Valuable Objects)","LEGAL_NAME":"CHICAGO COIN CO INC","LONGITUDE":-87.7840169671266},
{"STATE":"IL","ZIP":60639,"LATTITUDE":41.90936705171328,"ADDRESS":"5255 W NORTH AVE  1","YEAR":2009,"DOING_BUSINESS_AS_NAME":"L.D.L. SALE","POP_AT_RISK":61029,"BUSINESS_TYPE":"Secondhand Dealer (Includes Valuable Objects)","LEGAL_NAME":"LAWRENCE D LE BLANC","LONGITUDE":-87.75771327745655},
{"STATE":"IL","ZIP":60646,"LATTITUDE":42.01189420932856,"ADDRESS":"6141 W TOUHY AVE 1ST A","YEAR":2009,"DOING_BUSINESS_AS_NAME":"ASAYA SOLUTIONS, INC.","POP_AT_RISK":10753,"BUSINESS_TYPE":"Secondhand Dealer (Includes Valuable Objects)","LEGAL_NAME":"ASAYA SOLUTIONS INC.","LONGITUDE":-87.78085546874075},
{"STATE":"IL","ZIP":60643,"LATTITUDE":41.71839819308241,"ADDRESS":"9623 S WESTERN AVE  ","YEAR":2009,"DOING_BUSINESS_AS_NAME":"FYE #447","POP_AT_RISK":47066,"BUSINESS_TYPE":"Secondhand Dealer (Includes Valuable Objects)","LEGAL_NAME":"RECORD TOWN USA, LLC","LONGITUDE":-87.68183836584416},
{"STATE":"IL","ZIP":60634,"LATTITUDE":41.93807663871034,"ADDRESS":"7462 W BELMONT AVE 1ST ","YEAR":2009,"DOING_BUSINESS_AS_NAME":"VENEZIA JEWELERS LLC","POP_AT_RISK":339064,"BUSINESS_TYPE":"Secondhand Dealer (Includes Valuable Objects)","LEGAL_NAME":"VENEZIA JEWELERS LLC","LONGITUDE":-87.81384730201974},
{"STATE":"IL","ZIP":60620,"LATTITUDE":41.72294343487872,"ADDRESS":"9401 S ASHLAND AVE  ","YEAR":2009,"DOING_BUSINESS_AS_NAME":"SELECT FURNITURE INC","POP_AT_RISK":29055,"BUSINESS_TYPE":"Secondhand Dealer (Includes Valuable Objects)","LEGAL_NAME":"SELECT FURNITURE INC.","LONGITUDE":-87.6625698449265},
{"STATE":"IL","ZIP":60707,"LATTITUDE":41.9091933829476,"ADDRESS":"6610 W NORTH AVE 1 1","YEAR":2009,"DOING_BUSINESS_AS_NAME":"1ST CHOICE ON EBAY","POP_AT_RISK":92445,"BUSINESS_TYPE":"Secondhand Dealer (Includes Valuable Objects)","LEGAL_NAME":"FIRST CHOICE 2000, INC.","LONGITUDE":-87.7905014840963},
{"STATE":"IL","ZIP":60646,"LATTITUDE":41.997218561842885,"ADDRESS":"5413 W DEVON AVE 1ST ","YEAR":2009,"DOING_BUSINESS_AS_NAME":"MY SISTER'S CLOSET","POP_AT_RISK":17956,"BUSINESS_TYPE":"Secondhand Dealer (Includes Valuable Objects)","LEGAL_NAME":"MY SISTER'S CLOSET, LTD.","LONGITUDE":-87.7643229386157},
{"STATE":"IL","ZIP":60614,"LATTITUDE":41.92740673874206,"ADDRESS":"2471 N CLARK ST  ","YEAR":2009,"DOING_BUSINESS_AS_NAME":"STEVE QUICK JEWELERS","POP_AT_RISK":65458,"BUSINESS_TYPE":"Secondhand Dealer (Includes Valuable Objects)","LEGAL_NAME":"STEVE QUICK JEWELERS, INC.","LONGITUDE":-87.6414081991043},
{"STATE":"IL","ZIP":60616,"LATTITUDE":41.830986702567515,"ADDRESS":"329 E 35TH ST 1 ","YEAR":2009,"DOING_BUSINESS_AS_NAME":"CHICAGO COMPUTER CLUB","POP_AT_RISK":29759,"BUSINESS_TYPE":"Secondhand Dealer (Includes Valuable Objects)","LEGAL_NAME":"CHICAGO COMPUTER CLUB, CORP.","LONGITUDE":-87.61807593164153},
{"STATE":"IL","ZIP":60615,"LATTITUDE":41.795082096806134,"ADDRESS":"1521 E 55TH ST 1 ","YEAR":2009,"DOING_BUSINESS_AS_NAME":"CHICAGO COMPUTER CLUB","POP_AT_RISK":40389,"BUSINESS_TYPE":"Secondhand Dealer (Includes Valuable Objects)","LEGAL_NAME":"CHICAGO COMPUTER CLUB, CORP.","LONGITUDE":-87.58826812316532},
{"STATE":"IL","ZIP":60637,"LATTITUDE":41.76785685952764,"ADDRESS":"7000 S SOUTH CHICAGO AVE 1ST ","YEAR":2009,"DOING_BUSINESS_AS_NAME":"REO MOVERS & VAN LINES","POP_AT_RISK":34812,"BUSINESS_TYPE":"Secondhand Dealer (Includes Valuable Objects)","LEGAL_NAME":"REO MOVERS & VAN LINES, INC.","LONGITUDE":-87.60857315537989},
{"STATE":"IL","ZIP":60617,"LATTITUDE":41.73752778543818,"ADDRESS":"8657 S COMMERCIAL AVE  ","YEAR":2009,"DOING_BUSINESS_AS_NAME":"HERE TODAY GONE TOMORROW, INC.","POP_AT_RISK":85845,"BUSINESS_TYPE":"Secondhand Dealer (Includes Valuable Objects)","LEGAL_NAME":"HERE TODAY GONE TOMORROW, INC.","LONGITUDE":-87.55128729565668},
{"STATE":"IL","ZIP":60644,"LATTITUDE":41.880495475126516,"ADDRESS":"5134 W MADISON ST  ","YEAR":2009,"DOING_BUSINESS_AS_NAME":"MADISON STREET GOLD EXCHANGE INC","POP_AT_RISK":288174,"BUSINESS_TYPE":"Secondhand Dealer (Includes Valuable Objects)","LEGAL_NAME":"MADISON STREET GOLD EXCHANGE, INC.","LONGITUDE":-87.75403138255727},
{"STATE":"IL","ZIP":60644,"LATTITUDE":41.86593374037215,"ADDRESS":"5000 W ROOSEVELT RD 1 ","YEAR":2009,"DOING_BUSINESS_AS_NAME":"BUSINESS ESSENTIALS SERVICE TEAM","POP_AT_RISK":146331,"BUSINESS_TYPE":"Secondhand Dealer (Includes Valuable Objects)","LEGAL_NAME":"BUSINESS ESSENTIALS SERVICE TEAM, LLC","LONGITUDE":-87.74970392608358},
{"STATE":"IL","ZIP":60652,"LATTITUDE":41.742816827820924,"ADDRESS":"8251 S KEDZIE AVE 1ST ","YEAR":2009,"DOING_BUSINESS_AS_NAME":"CHICAGO COMMUNITY COMPUTER SERVICE, INC.","POP_AT_RISK":27818,"BUSINESS_TYPE":"Secondhand Dealer (Includes Valuable Objects)","LEGAL_NAME":"CHICAGO COMMUNITY COMPUTER SERVICE, INC.","LONGITUDE":-87.70205961436888},
}