{
{"STATE":"IL","ZIP":60643,"LATTITUDE":41.67806457752376,"ADDRESS":"11830 S WESTERN AVE  ","YEAR":2006,"DOING_BUSINESS_AS_NAME":"WALGREENS # 06762","POP_AT_RISK":38986,"BUSINESS_TYPE":"Tobacco Retail Over Counter","LEGAL_NAME":"WALGREEN CO.","LONGITUDE":-87.68087534804658},
{"STATE":"IL","ZIP":60659,"LATTITUDE":41.99713137588713,"ADDRESS":"3949 W DEVON AVE 1ST ","YEAR":2006,"DOING_BUSINESS_AS_NAME":"EDENS # 2 INC","POP_AT_RISK":20014,"BUSINESS_TYPE":"Tobacco Retail Over Counter","LEGAL_NAME":"EDENS #2, INC.","LONGITUDE":-87.72831703541054},
{"STATE":"IL","ZIP":60631,"LATTITUDE":42.01834457260595,"ADDRESS":"7548 N MILWAUKEE AVE  ","YEAR":2006,"DOING_BUSINESS_AS_NAME":"CHICAGO 99 PLUS","POP_AT_RISK":48296,"BUSINESS_TYPE":"Tobacco Retail Over Counter","LEGAL_NAME":"ALEXANDER J. AVAKIAN","LONGITUDE":-87.80721227328164},
{"STATE":"IL","ZIP":60638,"LATTITUDE":41.77415695093783,"ADDRESS":"6316-6318 W 65TH ST 1ST ","YEAR":2006,"DOING_BUSINESS_AS_NAME":"LAST CALL LOUNGE","POP_AT_RISK":22742,"BUSINESS_TYPE":"Tobacco Retail Over Counter","LEGAL_NAME":"LAST CALL LOUNGE INC","LONGITUDE":-87.77940788571328},
{"STATE":"IL","ZIP":60646,"LATTITUDE":42.01189420932856,"ADDRESS":"6141 W TOUHY AVE  A","YEAR":2006,"DOING_BUSINESS_AS_NAME":"M & M PANTRY","POP_AT_RISK":10753,"BUSINESS_TYPE":"Tobacco Retail Over Counter","LEGAL_NAME":"D & S INDUSTRIES, LLC","LONGITUDE":-87.78085546874075},
{"STATE":"IL","ZIP":60707,"LATTITUDE":41.909134570904456,"ADDRESS":"6800 W NORTH AVE  ","YEAR":2006,"DOING_BUSINESS_AS_NAME":"7 - ELEVEN","POP_AT_RISK":28778,"BUSINESS_TYPE":"Tobacco Retail Over Counter","LEGAL_NAME":"SMOCK ENTERPRISES, INC.","LONGITUDE":-87.79492813078483},
{"STATE":"IL","ZIP":60827,"LATTITUDE":41.64881844574392,"ADDRESS":"13543 S INDIANA AVE  ","YEAR":2006,"DOING_BUSINESS_AS_NAME":"JZ'S FOOD","POP_AT_RISK":11254,"BUSINESS_TYPE":"Tobacco Retail Over Counter","LEGAL_NAME":"THE NEW STORE MART, INC.","LONGITUDE":-87.61707985605315},
{"STATE":"IL","ZIP":60652,"LATTITUDE":41.73524227693795,"ADDRESS":"8639 S CICERO AVE  ","YEAR":2006,"DOING_BUSINESS_AS_NAME":"CVS\/PHARMACY #2846","POP_AT_RISK":23923,"BUSINESS_TYPE":"Tobacco Retail Over Counter","LEGAL_NAME":"HIGHLAND PARK CVS, L.L.C.","LONGITUDE":-87.74084401681829},
{"STATE":"IL","ZIP":60646,"LATTITUDE":41.99637159702214,"ADDRESS":"6308 N CENTRAL AVE  ","YEAR":2006,"DOING_BUSINESS_AS_NAME":"2001 GAS CENTRAL","POP_AT_RISK":17956,"BUSINESS_TYPE":"Tobacco Retail Over Counter","LEGAL_NAME":"THOMAS'S MINIMART & GAS INC.","LONGITUDE":-87.76427703822098},
{"STATE":"IL","ZIP":60666,"LATTITUDE":41.98102104318452,"ADDRESS":"5600 N MANNHEIM RD 1 ","YEAR":2006,"DOING_BUSINESS_AS_NAME":"TRAVEL TRADERS #533","POP_AT_RISK":2681,"BUSINESS_TYPE":"Tobacco Retail Over Counter","LEGAL_NAME":"TRAVEL TRADERS HOTEL STORES, INC.","LONGITUDE":-87.87891190944552},
}