{
{"STATE":"IL","ZIP":60645,"LATTITUDE":42.01848842353082,"ADDRESS":"2850 W JEROME ST  ","YEAR":2007,"DOING_BUSINESS_AS_NAME":"ARIEL FADIDA","POP_AT_RISK":66064,"BUSINESS_TYPE":"Peddler, non-food","LEGAL_NAME":"ARIEL FADIDA","LONGITUDE":-87.70155500093841},
{"STATE":"IL","ZIP":60655,"LATTITUDE":41.7081148384795,"ADDRESS":"10201 S ARTESIAN AVE  ","YEAR":2007,"DOING_BUSINESS_AS_NAME":"DARVIA MUNOZ","POP_AT_RISK":48994,"BUSINESS_TYPE":"Peddler, non-food","LEGAL_NAME":"DARVIA MUNOZ","LONGITUDE":-87.6828051976356},
{"STATE":"IL","ZIP":60626,"LATTITUDE":42.014009165880516,"ADDRESS":"7319 N ROGERS AVE 102 ","YEAR":2007,"DOING_BUSINESS_AS_NAME":"DELORES BYRD","POP_AT_RISK":148380,"BUSINESS_TYPE":"Peddler, non-food","LEGAL_NAME":"DELORES BYRD","LONGITUDE":-87.67925721000411},
{"STATE":"IL","ZIP":60608,"LATTITUDE":41.836048540634124,"ADDRESS":"1009 W 32ND ST  ","YEAR":2007,"DOING_BUSINESS_AS_NAME":"JOAS VASQUEZ","POP_AT_RISK":83466,"BUSINESS_TYPE":"Peddler, non-food","LEGAL_NAME":"JOAS VASQUEZ","LONGITUDE":-87.65152165369688},
{"STATE":"IL","ZIP":60610,"LATTITUDE":41.88755787281287,"ADDRESS":"300 N STATE ST  5232","YEAR":2007,"DOING_BUSINESS_AS_NAME":"MARLOU MANAS","POP_AT_RISK":79257,"BUSINESS_TYPE":"Peddler, non-food","LEGAL_NAME":"MARLOU MANAS","LONGITUDE":-87.62815306467208},
{"STATE":"IL","ZIP":60707,"LATTITUDE":41.926432391857624,"ADDRESS":"2536 N NEVA AVE 1ST ","YEAR":2007,"DOING_BUSINESS_AS_NAME":"CURTIS M NEAL","POP_AT_RISK":47343,"BUSINESS_TYPE":"Peddler, non-food","LEGAL_NAME":"CURTIS M NEAL","LONGITUDE":-87.80526537102166},
{"STATE":"IL","ZIP":60656,"LATTITUDE":41.974858280777724,"ADDRESS":"5134 N NASHVILLE AVE  ","YEAR":2007,"DOING_BUSINESS_AS_NAME":"DAWN M. HYNES","POP_AT_RISK":55072,"BUSINESS_TYPE":"Peddler, non-food","LEGAL_NAME":"DAWN M. HYNES","LONGITUDE":-87.79167115323568},
{"STATE":"IL","ZIP":60628,"LATTITUDE":41.67179732313836,"ADDRESS":"118 E 122ND PL  ","YEAR":2007,"DOING_BUSINESS_AS_NAME":"LACHAUN VANCE","POP_AT_RISK":41816,"BUSINESS_TYPE":"Peddler, non-food","LEGAL_NAME":"LACHAUN VANCE","LONGITUDE":-87.61949544238014},
{"STATE":"IL","ZIP":60707,"LATTITUDE":41.9171319323781,"ADDRESS":"2030 N HARLEM AVE 1ST A-3","YEAR":2007,"DOING_BUSINESS_AS_NAME":"NICOLO RADOSTA","POP_AT_RISK":34367,"BUSINESS_TYPE":"Peddler, non-food","LEGAL_NAME":"NICOLO RADOSTA","LONGITUDE":-87.80618410223347},
{"STATE":"IL","ZIP":60631,"LATTITUDE":41.9894916087011,"ADDRESS":"5960 N ODELL AVE  GD","YEAR":2007,"DOING_BUSINESS_AS_NAME":"FRANK V. VICARI","POP_AT_RISK":99975,"BUSINESS_TYPE":"Peddler, non-food","LEGAL_NAME":"FRANK V. VICARI","LONGITUDE":-87.81023918636467},
{"STATE":"IL","ZIP":60634,"LATTITUDE":41.94666930034537,"ADDRESS":"5625 W PATTERSON AVE  ","YEAR":2007,"DOING_BUSINESS_AS_NAME":"HATEM IGHNEIM","POP_AT_RISK":56550,"BUSINESS_TYPE":"Peddler, non-food","LEGAL_NAME":"HATEM A.IGHNEIM","LONGITUDE":-87.76781543228488},
{"STATE":"IL","ZIP":60623,"LATTITUDE":41.83910207583703,"ADDRESS":"2845 S KOSTNER AVE  3","YEAR":2007,"DOING_BUSINESS_AS_NAME":"PABLO U.  POBLANO","POP_AT_RISK":36282,"BUSINESS_TYPE":"Peddler, non-food","LEGAL_NAME":"PABLO U POBLANO","LONGITUDE":-87.73399279818894},
{"STATE":"IL","ZIP":60606,"LATTITUDE":41.88265322526824,"ADDRESS":"27 N WACKER DR  522","YEAR":2007,"DOING_BUSINESS_AS_NAME":"ANITA V STEPHENS","POP_AT_RISK":50117,"BUSINESS_TYPE":"Peddler, non-food","LEGAL_NAME":"ANITA V STEPHENS","LONGITUDE":-87.63663662057596},
{"STATE":"IL","ZIP":60629,"LATTITUDE":41.77421417978823,"ADDRESS":"6522 S KILDARE AVE  ","YEAR":2007,"DOING_BUSINESS_AS_NAME":"MARIA O. RAMIREZ","POP_AT_RISK":36282,"BUSINESS_TYPE":"Peddler, non-food","LEGAL_NAME":"MARIA O. RAMIREZ","LONGITUDE":-87.73011453876767},
{"STATE":"IL","ZIP":60617,"LATTITUDE":41.68989866277236,"ADDRESS":"11303 S AVENUE O   ","YEAR":2007,"DOING_BUSINESS_AS_NAME":"MIGUEL A. CORONA","POP_AT_RISK":39180,"BUSINESS_TYPE":"Peddler, non-food","LEGAL_NAME":"MIGUEL A. CORONA","LONGITUDE":-87.53995562714965},
{"STATE":"IL","ZIP":60652,"LATTITUDE":41.74206050588323,"ADDRESS":"4536 W 83RD ST  ","YEAR":2007,"DOING_BUSINESS_AS_NAME":"NIKKOS","POP_AT_RISK":26052,"BUSINESS_TYPE":"Peddler, non-food","LEGAL_NAME":"STEVEN L. HARPER","LONGITUDE":-87.734751139143},
{"STATE":"IL","ZIP":60622,"LATTITUDE":41.89906499379528,"ADDRESS":"944 N DAMEN AVE 3 3","YEAR":2007,"DOING_BUSINESS_AS_NAME":"JOSE LUIS REFUGIO","POP_AT_RISK":63749,"BUSINESS_TYPE":"Peddler, non-food","LEGAL_NAME":"JOSE LUIS REFUGIO","LONGITUDE":-87.67728854387987},
{"STATE":"IL","ZIP":60643,"LATTITUDE":41.6803505901998,"ADDRESS":"11731 S THROOP ST  ","YEAR":2007,"DOING_BUSINESS_AS_NAME":"TOMMIE ELLIOT RAY","POP_AT_RISK":19451,"BUSINESS_TYPE":"Peddler, non-food","LEGAL_NAME":"TOMMIE ELLIOT RAY","LONGITUDE":-87.65402169454197},
{"STATE":"IL","ZIP":60644,"LATTITUDE":41.882765653290775,"ADDRESS":"119 N MASON AVE  H","YEAR":2007,"DOING_BUSINESS_AS_NAME":"SHIRLEY J. THOMPSON","POP_AT_RISK":42195,"BUSINESS_TYPE":"Peddler, non-food","LEGAL_NAME":"SHIRLEY J. THOMPSON","LONGITUDE":-87.77316202177117},
{"STATE":"IL","ZIP":60631,"LATTITUDE":42.01219322871207,"ADDRESS":"7715 W JARLATH ST  ","YEAR":2007,"DOING_BUSINESS_AS_NAME":"JOSE M TORRES SR.","POP_AT_RISK":78960,"BUSINESS_TYPE":"Peddler, non-food","LEGAL_NAME":"JOSE MANUEL TORRES SR.","LONGITUDE":-87.81948791220417},
{"STATE":"IL","ZIP":60638,"LATTITUDE":41.77502533729492,"ADDRESS":"6456 W 64TH PL 3S ","YEAR":2007,"DOING_BUSINESS_AS_NAME":"RICHARD  G.  LADD, JR.","POP_AT_RISK":22742,"BUSINESS_TYPE":"Peddler, non-food","LEGAL_NAME":"RICHARD   G.  LADD, JR.","LONGITUDE":-87.78340774656445},
{"STATE":"IL","ZIP":60632,"LATTITUDE":41.8216470518263,"ADDRESS":"3033 W 39TH PL 1 1","YEAR":2007,"DOING_BUSINESS_AS_NAME":"MARIA E. RAMIREZ BARBERI","POP_AT_RISK":43307,"BUSINESS_TYPE":"Peddler, non-food","LEGAL_NAME":"MARIA E. RAMIREZ BARBERI","LONGITUDE":-87.70091217956909},
}