{
{"STATE":"IL","ZIP":60638,"LATTITUDE":41.7920723897783,"ADDRESS":"6725 W ARCHER AVE  ","YEAR":2008,"DOING_BUSINESS_AS_NAME":"VIP POODLE SALON","POP_AT_RISK":29615,"BUSINESS_TYPE":"Animal Care Facility","LEGAL_NAME":"MARY JO KRUK","LONGITUDE":-87.79020446550868},
{"STATE":"IL","ZIP":60631,"LATTITUDE":42.00276925583087,"ADDRESS":"6702 N NORTHWEST HWY 1ST ","YEAR":2008,"DOING_BUSINESS_AS_NAME":"V I P ALBREED GROOMING","POP_AT_RISK":94590,"BUSINESS_TYPE":"Animal Care Facility","LEGAL_NAME":"CAPRICE SMITH","LONGITUDE":-87.81636646266041},
{"STATE":"IL","ZIP":60647,"LATTITUDE":41.90990118431161,"ADDRESS":"3519 W NORTH AVE 1 ","YEAR":2008,"DOING_BUSINESS_AS_NAME":"GROOMING PARLOR 2","POP_AT_RISK":67245,"BUSINESS_TYPE":"Animal Care Facility","LEGAL_NAME":"DANIELA MUNOZ","LONGITUDE":-87.71517831483239},
{"STATE":"IL","ZIP":60632,"LATTITUDE":41.82453433956464,"ADDRESS":"3789 S ARCHER AVE  ","YEAR":2008,"DOING_BUSINESS_AS_NAME":"BRIGHTON PARK ANIMAL HOSPITAL","POP_AT_RISK":500423,"BUSINESS_TYPE":"Animal Care Facility","LEGAL_NAME":"ERNESTO PEREZ","LONGITUDE":-87.68699720971264},
{"STATE":"IL","ZIP":60633,"LATTITUDE":41.65330346047707,"ADDRESS":"13311 S BRANDON AVE 1ST ","YEAR":2008,"DOING_BUSINESS_AS_NAME":"7 SEAS TROPAQUARIUM","POP_AT_RISK":40896,"BUSINESS_TYPE":"Animal Care Facility","LEGAL_NAME":"ROBERT ELLMAN","LONGITUDE":-87.54576881121099},
{"STATE":"IL","ZIP":60626,"LATTITUDE":42.010083703866634,"ADDRESS":"1775 W GREENLEAF AVE 1ST ","YEAR":2008,"DOING_BUSINESS_AS_NAME":"BARK PLACE","POP_AT_RISK":600616,"BUSINESS_TYPE":"Animal Care Facility","LEGAL_NAME":"BARK PLACE LLC","LONGITUDE":-87.67522250800238},
{"STATE":"IL","ZIP":60645,"LATTITUDE":42.01230251074065,"ADDRESS":"7206 N CALIFORNIA AVE  1","YEAR":2008,"DOING_BUSINESS_AS_NAME":"PUPPPY LUV","POP_AT_RISK":38904,"BUSINESS_TYPE":"Animal Care Facility","LEGAL_NAME":"BERNICE LESSER","LONGITUDE":-87.69986264790921},
{"STATE":"IL","ZIP":60616,"LATTITUDE":41.85843919371323,"ADDRESS":"1717 S STATE ST  ","YEAR":2008,"DOING_BUSINESS_AS_NAME":"DOGONE FUN INC","POP_AT_RISK":81396,"BUSINESS_TYPE":"Animal Care Facility","LEGAL_NAME":"DOGONE FUN INC","LONGITUDE":-87.62706390230666},
{"STATE":"IL","ZIP":60615,"LATTITUDE":41.8007445275756,"ADDRESS":"5210 S HARPER AVE  ","YEAR":2008,"DOING_BUSINESS_AS_NAME":"HYDE PARK PET INC.","POP_AT_RISK":534450,"BUSINESS_TYPE":"Animal Care Facility","LEGAL_NAME":"HYDE PARK INC.","LONGITUDE":-87.58922936512862},
{"STATE":"IL","ZIP":60641,"LATTITUDE":41.93888534188782,"ADDRESS":"4934 W BELMONT AVE 1ST ","YEAR":2008,"DOING_BUSINESS_AS_NAME":"MORGAN CANINE ACADEMY","POP_AT_RISK":694236,"BUSINESS_TYPE":"Animal Care Facility","LEGAL_NAME":"JAMES R MORGAN","LONGITUDE":-87.7508275072982},
{"STATE":"IL","ZIP":60638,"LATTITUDE":41.777771632322505,"ADDRESS":"5935 W 63RD ST  1","YEAR":2008,"DOING_BUSINESS_AS_NAME":"FEE FEE'S","POP_AT_RISK":56814,"BUSINESS_TYPE":"Animal Care Facility","LEGAL_NAME":"LAURIE BENNETT","LONGITUDE":-87.77048696136391},
{"STATE":"IL","ZIP":60630,"LATTITUDE":41.982698624815235,"ADDRESS":"5572 N ELSTON AVE BASEMENT AND 1ST FL ","YEAR":2008,"DOING_BUSINESS_AS_NAME":"UNIVERSAL DOG AND KITTY TOO","POP_AT_RISK":197624,"BUSINESS_TYPE":"Animal Care Facility","LEGAL_NAME":"MICHAEL MCNAIR","LONGITUDE":-87.76412331566713},
{"STATE":"IL","ZIP":60607,"LATTITUDE":41.86888971111206,"ADDRESS":"1101 S CANAL ST  ","YEAR":2008,"DOING_BUSINESS_AS_NAME":"PETSMART","POP_AT_RISK":32478,"BUSINESS_TYPE":"Animal Care Facility","LEGAL_NAME":"PETSMART, INC.","LONGITUDE":-87.63909892808796},
{"STATE":"IL","ZIP":60657,"LATTITUDE":41.933744310558,"ADDRESS":"2832 N BROADWAY   ","YEAR":2008,"DOING_BUSINESS_AS_NAME":"PETSMART  Store #1241","POP_AT_RISK":77909,"BUSINESS_TYPE":"Animal Care Facility","LEGAL_NAME":"PETSMART, INC.","LONGITUDE":-87.64474183878589},
{"STATE":"IL","ZIP":60610,"LATTITUDE":41.9086941456714,"ADDRESS":"1435 N WELLS ST 1ST ","YEAR":2008,"DOING_BUSINESS_AS_NAME":"COLLAR & LEASH","POP_AT_RISK":259556,"BUSINESS_TYPE":"Animal Care Facility","LEGAL_NAME":"BARBARA FLEMING","LONGITUDE":-87.63448689691725},
{"STATE":"IL","ZIP":60652,"LATTITUDE":41.744208291187135,"ADDRESS":"3537 W COLUMBUS AVE  1ST","YEAR":2008,"DOING_BUSINESS_AS_NAME":"Collar and Leash Inc","POP_AT_RISK":49338,"BUSINESS_TYPE":"Animal Care Facility","LEGAL_NAME":"BARBARA FLEMING","LONGITUDE":-87.71042911352212},
{"STATE":"IL","ZIP":60608,"LATTITUDE":41.851806334793636,"ADDRESS":"2733 W CERMAK RD 1 ","YEAR":2008,"DOING_BUSINESS_AS_NAME":"JOE'S PET SALON","POP_AT_RISK":847665,"BUSINESS_TYPE":"Animal Care Facility","LEGAL_NAME":"JOE'S PET SALON","LONGITUDE":-87.69434919225381},
{"STATE":"IL","ZIP":60624,"LATTITUDE":41.88995022534283,"ADDRESS":"500 N PULASKI RD  102","YEAR":2008,"DOING_BUSINESS_AS_NAME":"UNITED K-9 INC.","POP_AT_RISK":365250,"BUSINESS_TYPE":"Animal Care Facility","LEGAL_NAME":"UNITED K-9 INC.","LONGITUDE":-87.72607520391509},
{"STATE":"IL","ZIP":60655,"LATTITUDE":41.703470270354465,"ADDRESS":"10429 S KEDZIE AVE 1ST ","YEAR":2008,"DOING_BUSINESS_AS_NAME":"PARK PET SHOP INC","POP_AT_RISK":104644,"BUSINESS_TYPE":"Animal Care Facility","LEGAL_NAME":"PARK PET SHOP INC.","LONGITUDE":-87.70110404556713},
{"STATE":"IL","ZIP":60659,"LATTITUDE":41.99037818039852,"ADDRESS":"2449 W PETERSON AVE  ","YEAR":2008,"DOING_BUSINESS_AS_NAME":"COMPANIONABILITY","POP_AT_RISK":58967,"BUSINESS_TYPE":"Animal Care Facility","LEGAL_NAME":"COMPANIONABLITY LLC","LONGITUDE":-87.69164556774892},
{"STATE":"IL","ZIP":60655,"LATTITUDE":41.69137086814189,"ADDRESS":"11104 S KEDZIE AVE  ","YEAR":2008,"DOING_BUSINESS_AS_NAME":"POSH PET DAY SPA","POP_AT_RISK":72036,"BUSINESS_TYPE":"Animal Care Facility","LEGAL_NAME":"LYNN MARIA MULRENIN","LONGITUDE":-87.70096676099419},
{"STATE":"IL","ZIP":60647,"LATTITUDE":41.91347165926542,"ADDRESS":"1757 N KIMBALL AVE  ","YEAR":2008,"DOING_BUSINESS_AS_NAME":"FOR DOGS SAKE","POP_AT_RISK":58132,"BUSINESS_TYPE":"Animal Care Facility","LEGAL_NAME":"FOR DOG'S SAKE, INC.","LONGITUDE":-87.7116469589254},
{"STATE":"IL","ZIP":60607,"LATTITUDE":41.88042880551225,"ADDRESS":"1214 W MONROE ST 1 ","YEAR":2008,"DOING_BUSINESS_AS_NAME":"WHERE DOGS RULE, INC.","POP_AT_RISK":79278,"BUSINESS_TYPE":"Animal Care Facility","LEGAL_NAME":"WHERE DOGS RULE, INC.","LONGITUDE":-87.65775265544872},
{"STATE":"IL","ZIP":60653,"LATTITUDE":41.81678524448048,"ADDRESS":"450 E 43RD ST 1 ","YEAR":2008,"DOING_BUSINESS_AS_NAME":"HEAVEN ON EARTH DOG DAY CARE & SPA","POP_AT_RISK":872652,"BUSINESS_TYPE":"Animal Care Facility","LEGAL_NAME":"LEE LANEE INCORPORATED","LONGITUDE":-87.61447742711327},
{"STATE":"IL","ZIP":60617,"LATTITUDE":41.74520313210401,"ADDRESS":"8227 S STONY ISLAND AVE  ","YEAR":2008,"DOING_BUSINESS_AS_NAME":"PET SALON","POP_AT_RISK":248424,"BUSINESS_TYPE":"Animal Care Facility","LEGAL_NAME":"CECELIA S BROADUS-JONES","LONGITUDE":-87.5852403134437},
{"STATE":"IL","ZIP":60641,"LATTITUDE":41.94249061397192,"ADDRESS":"3358 N PULASKI RD  ","YEAR":2008,"DOING_BUSINESS_AS_NAME":"CENTRAL BARK DOGGY DAY CARE","POP_AT_RISK":106486,"BUSINESS_TYPE":"Animal Care Facility","LEGAL_NAME":"K & R ANIMAL CARE, INC.","LONGITUDE":-87.72743363975457},
{"STATE":"IL","ZIP":60660,"LATTITUDE":41.99028553512525,"ADDRESS":"5943 N BROADWAY  1 1","YEAR":2008,"DOING_BUSINESS_AS_NAME":"BARK BARK CLUB PET SERVICES","POP_AT_RISK":198594,"BUSINESS_TYPE":"Animal Care Facility","LEGAL_NAME":"THE BARK BARK CLUB, INC.","LONGITUDE":-87.66012791212042},
{"STATE":"IL","ZIP":60639,"LATTITUDE":41.91316403773453,"ADDRESS":"1760 N KILBOURN AVE  ","YEAR":2008,"DOING_BUSINESS_AS_NAME":"ALL FOR DOGGIES","POP_AT_RISK":444402,"BUSINESS_TYPE":"Animal Care Facility","LEGAL_NAME":"BEST FRIENDS PET CARE INC","LONGITUDE":-87.73883770160896},
{"STATE":"IL","ZIP":60625,"LATTITUDE":41.972773896647126,"ADDRESS":"5015 N WESTERN AVE  ","YEAR":2008,"DOING_BUSINESS_AS_NAME":"PAWS & CLAWS DAY CARE, INC","POP_AT_RISK":53703,"BUSINESS_TYPE":"Animal Care Facility","LEGAL_NAME":"PAWS & CLAWS DAY CARE, INC","LONGITUDE":-87.68889686334609},
{"STATE":"IL","ZIP":60610,"LATTITUDE":41.890341971280506,"ADDRESS":"440 N ORLEANS ST  ","YEAR":2008,"DOING_BUSINESS_AS_NAME":"PETCO #1965","POP_AT_RISK":131902,"BUSINESS_TYPE":"Animal Care Facility","LEGAL_NAME":"PETCO ANIMAL SUPPLIES STORES, INC.","LONGITUDE":-87.63714472645873},
}