{
{"STATE":"IL","ZIP":60646,"LATTITUDE":41.996914777223296,"ADDRESS":"6342 N CICERO AVE 1ST ","YEAR":2009,"DOING_BUSINESS_AS_NAME":"TECH CITY","POP_AT_RISK":18515,"BUSINESS_TYPE":"Electronic Equipment Repair","LEGAL_NAME":"DAHLIA INC.","LONGITUDE":-87.748490224715},
{"STATE":"IL","ZIP":60623,"LATTITUDE":41.83684064720227,"ADDRESS":"3102 S RIDGEWAY AVE  ","YEAR":2009,"DOING_BUSINESS_AS_NAME":"AIROS ELECTRONICS","POP_AT_RISK":53035,"BUSINESS_TYPE":"Electronic Equipment Repair","LEGAL_NAME":"AGUSTIN SORIA","LONGITUDE":-87.71839021854599},
{"STATE":"IL","ZIP":60617,"LATTITUDE":41.71748319099882,"ADDRESS":"9806 S EWING AVE 1ST ","YEAR":2009,"DOING_BUSINESS_AS_NAME":"AUTLAND ELECTRONICS","POP_AT_RISK":32754,"BUSINESS_TYPE":"Electronic Equipment Repair","LEGAL_NAME":"DIONISO GAMINO","LONGITUDE":-87.53542750254549},
{"STATE":"IL","ZIP":60609,"LATTITUDE":41.81944142629576,"ADDRESS":"4100 S ASHLAND AVE  ","YEAR":2009,"DOING_BUSINESS_AS_NAME":"JUAN G. ALATRIZ","POP_AT_RISK":20340,"BUSINESS_TYPE":"Electronic Equipment Repair","LEGAL_NAME":"JUAN G ALATRIZ","LONGITUDE":-87.6653755449091},
{"STATE":"IL","ZIP":60617,"LATTITUDE":41.73678099454392,"ADDRESS":"8719 S COMMERCIAL AVE 1ST ","YEAR":2009,"DOING_BUSINESS_AS_NAME":"A PRONTO RADIO & TV SERVICE","POP_AT_RISK":28615,"BUSINESS_TYPE":"Electronic Equipment Repair","LEGAL_NAME":"JUAN I. RIVERA","LONGITUDE":-87.55127079933065},
{"STATE":"IL","ZIP":60632,"LATTITUDE":41.79927517730882,"ADDRESS":"5310 S ARCHER AVE  1ST","YEAR":2009,"DOING_BUSINESS_AS_NAME":"ARCHER ELECTRONIC INC","POP_AT_RISK":29168,"BUSINESS_TYPE":"Electronic Equipment Repair","LEGAL_NAME":"LESZEK RABCZAK","LONGITUDE":-87.73990095453236},
{"STATE":"IL","ZIP":60628,"LATTITUDE":41.69646826664951,"ADDRESS":"10846 S HALSTED ST  ","YEAR":2009,"DOING_BUSINESS_AS_NAME":"R & R COMPUTER SERVICES","POP_AT_RISK":50500,"BUSINESS_TYPE":"Electronic Equipment Repair","LEGAL_NAME":"ROCHELLE SMITH","LONGITUDE":-87.64265412117399},
{"STATE":"IL","ZIP":60624,"LATTITUDE":41.875688749340995,"ADDRESS":"346 S PULASKI RD  1","YEAR":2009,"DOING_BUSINESS_AS_NAME":"BILLS RADIO & TV REPAIR","POP_AT_RISK":719457,"BUSINESS_TYPE":"Electronic Equipment Repair","LEGAL_NAME":"WILLIAM HUNTER","LONGITUDE":-87.7256458606552},
{"STATE":"IL","ZIP":60620,"LATTITUDE":41.7562717189879,"ADDRESS":"7554 S HALSTED ST  ","YEAR":2009,"DOING_BUSINESS_AS_NAME":"A + CELLULAR","POP_AT_RISK":151952,"BUSINESS_TYPE":"Electronic Equipment Repair","LEGAL_NAME":"A+ CELLULAR # 4","LONGITUDE":-87.64433439896648},
{"STATE":"IL","ZIP":60653,"LATTITUDE":41.83071125551249,"ADDRESS":"3509 S DR MARTIN LUTHER KING JR DR 2ND ","YEAR":2009,"DOING_BUSINESS_AS_NAME":"COMPUTER SOLUTIONS","POP_AT_RISK":31255,"BUSINESS_TYPE":"Electronic Equipment Repair","LEGAL_NAME":"DEWITT WILLIAMS","LONGITUDE":-87.61680142035637},
{"STATE":"IL","ZIP":60652,"LATTITUDE":41.73862454427184,"ADDRESS":"8457 S PULASKI RD  ","YEAR":2009,"DOING_BUSINESS_AS_NAME":"HIGH POWER INC.","POP_AT_RISK":25233,"BUSINESS_TYPE":"Electronic Equipment Repair","LEGAL_NAME":"HIGH POWER INC.","LONGITUDE":-87.72141660738357},
{"STATE":"IL","ZIP":60620,"LATTITUDE":41.72793858111568,"ADDRESS":"9116 S ASHLAND AVE 1ST ","YEAR":2009,"DOING_BUSINESS_AS_NAME":"PROFESSIONAL STEREO & TV","POP_AT_RISK":29296,"BUSINESS_TYPE":"Electronic Equipment Repair","LEGAL_NAME":"JAMES W RANKINS","LONGITUDE":-87.66298359358422},
{"STATE":"IL","ZIP":60707,"LATTITUDE":41.90905336260015,"ADDRESS":"7016 W NORTH AVE  1","YEAR":2009,"DOING_BUSINESS_AS_NAME":"SAV ELECTRONICS","POP_AT_RISK":41454,"BUSINESS_TYPE":"Electronic Equipment Repair","LEGAL_NAME":"SAV ELECTRONICS","LONGITUDE":-87.80104727544312},
{"STATE":"IL","ZIP":60623,"LATTITUDE":41.85918922054039,"ADDRESS":"3206 W 16TH ST  ","YEAR":2009,"DOING_BUSINESS_AS_NAME":"CELLULAR ZONE","POP_AT_RISK":109274,"BUSINESS_TYPE":"Electronic Equipment Repair","LEGAL_NAME":"CELLULAR ETC INC","LONGITUDE":-87.705793970407},
{"STATE":"IL","ZIP":60638,"LATTITUDE":41.79232419633276,"ADDRESS":"6646 W ARCHER AVE 1 ","YEAR":2009,"DOING_BUSINESS_AS_NAME":"Zs Computer Services","POP_AT_RISK":59230,"BUSINESS_TYPE":"Electronic Equipment Repair","LEGAL_NAME":"Paula M Zurawski","LONGITUDE":-87.7885687422822},
{"STATE":"IL","ZIP":60643,"LATTITUDE":41.69166723128615,"ADDRESS":"2355 W 111TH ST 1 1","YEAR":2009,"DOING_BUSINESS_AS_NAME":"E-Z COMPUTER INC.","POP_AT_RISK":108360,"BUSINESS_TYPE":"Electronic Equipment Repair","LEGAL_NAME":"E-Z COMPUTER INC.","LONGITUDE":-87.68090408274874},
{"STATE":"IL","ZIP":60608,"LATTITUDE":41.83342857697663,"ADDRESS":"3331 S HALSTED ST 1ST ","YEAR":2009,"DOING_BUSINESS_AS_NAME":"A B ELECTRONICS","POP_AT_RISK":38114,"BUSINESS_TYPE":"Electronic Equipment Repair","LEGAL_NAME":"MIGUEL A  BELTRAN","LONGITUDE":-87.64602187479579},
{"STATE":"IL","ZIP":60612,"LATTITUDE":41.882165578261116,"ADDRESS":"2532 W WARREN BLVD  ","YEAR":2009,"DOING_BUSINESS_AS_NAME":"TELESERVICE CORP","POP_AT_RISK":253160,"BUSINESS_TYPE":"Electronic Equipment Repair","LEGAL_NAME":"TELESERVICES CORP","LONGITUDE":-87.68980000092242},
{"STATE":"IL","ZIP":60636,"LATTITUDE":41.779806951166954,"ADDRESS":"6244 S DAMEN AVE 1ST ","YEAR":2009,"DOING_BUSINESS_AS_NAME":"REAL DEAL ELECTRONICS","POP_AT_RISK":193475,"BUSINESS_TYPE":"Electronic Equipment Repair","LEGAL_NAME":"BRANDEE A MCMASTERS","LONGITUDE":-87.67405919625807},
{"STATE":"IL","ZIP":60649,"LATTITUDE":41.76295219627869,"ADDRESS":"7269 S EXCHANGE AVE 1ST ","YEAR":2009,"DOING_BUSINESS_AS_NAME":"CBI COMPUTERS, INC.","POP_AT_RISK":28497,"BUSINESS_TYPE":"Electronic Equipment Repair","LEGAL_NAME":"CBI COMPUTERS, INC.","LONGITUDE":-87.56334548552576},
{"STATE":"IL","ZIP":60610,"LATTITUDE":41.90393760463335,"ADDRESS":"238 W DIVISION ST 1 ","YEAR":2009,"DOING_BUSINESS_AS_NAME":"SAMMY'S RED HOTS","POP_AT_RISK":79582,"BUSINESS_TYPE":"Electronic Equipment Repair","LEGAL_NAME":"DOG'S UNLIMITED LLC","LONGITUDE":-87.63621470016516},
{"STATE":"IL","ZIP":60632,"LATTITUDE":41.82134431810515,"ADDRESS":"3982 S ARCHER AVE 1 ","YEAR":2009,"DOING_BUSINESS_AS_NAME":"CYBERK COMPUTEK INC.","POP_AT_RISK":56648,"BUSINESS_TYPE":"Electronic Equipment Repair","LEGAL_NAME":"CYBERK COMPUTEK INC.","LONGITUDE":-87.69264968521705},
{"STATE":"IL","ZIP":60614,"LATTITUDE":41.93083301378749,"ADDRESS":"2650 N CLARK ST  ","YEAR":2009,"DOING_BUSINESS_AS_NAME":"BEST BUY","POP_AT_RISK":81141,"BUSINESS_TYPE":"Electronic Equipment Repair","LEGAL_NAME":"BEST BUY STORES, L.P.","LONGITUDE":-87.64413543645641},
{"STATE":"IL","ZIP":60623,"LATTITUDE":41.844004597432054,"ADDRESS":"4379 W 26TH ST 1 ","YEAR":2009,"DOING_BUSINESS_AS_NAME":"CONECTA","POP_AT_RISK":91804,"BUSINESS_TYPE":"Electronic Equipment Repair","LEGAL_NAME":"YESENIA I MONTES INC.","LONGITUDE":-87.73413154858753},
{"STATE":"IL","ZIP":60645,"LATTITUDE":42.016053205008,"ADDRESS":"7409 N WESTERN AVE  ","YEAR":2009,"DOING_BUSINESS_AS_NAME":"COMPUTECH SERVICES INC","POP_AT_RISK":45582,"BUSINESS_TYPE":"Electronic Equipment Repair","LEGAL_NAME":"COMPUTECH SERVICES INC","LONGITUDE":-87.69006386649397},
{"STATE":"IL","ZIP":60636,"LATTITUDE":41.7676107590257,"ADDRESS":"6930 S ASHLAND AVE 1ST A","YEAR":2009,"DOING_BUSINESS_AS_NAME":"RADIO SHACK #","POP_AT_RISK":71672,"BUSINESS_TYPE":"Electronic Equipment Repair","LEGAL_NAME":"RADIOSHACK CORPORATION","LONGITUDE":-87.66401069778658},
{"STATE":"IL","ZIP":60638,"LATTITUDE":41.79554052343161,"ADDRESS":"5897 S ARCHER AVE  ","YEAR":2009,"DOING_BUSINESS_AS_NAME":"RADIO SHACK #6582","POP_AT_RISK":23175,"BUSINESS_TYPE":"Electronic Equipment Repair","LEGAL_NAME":"RADIOSHACK CORPORATION","LONGITUDE":-87.76276028417233},
{"STATE":"IL","ZIP":60628,"LATTITUDE":41.68354217732462,"ADDRESS":"11613 S HALSTED ST  ","YEAR":2009,"DOING_BUSINESS_AS_NAME":"RADIO SHACK #6585","POP_AT_RISK":90624,"BUSINESS_TYPE":"Electronic Equipment Repair","LEGAL_NAME":"RADIOSHACK CORPORATION","LONGITUDE":-87.6419554902047},
{"STATE":"IL","ZIP":60649,"LATTITUDE":41.765189524327816,"ADDRESS":"7131 S JEFFERY BLVD 1ST #","YEAR":2009,"DOING_BUSINESS_AS_NAME":"RADIO SHACK #6597","POP_AT_RISK":43337,"BUSINESS_TYPE":"Electronic Equipment Repair","LEGAL_NAME":"RADIOSHACK CORPORATION","LONGITUDE":-87.57613310396634},
{"STATE":"IL","ZIP":60018,"LATTITUDE":41.9736361061225,"ADDRESS":"5212 N SHAPLAND AVE  ","YEAR":2009,"DOING_BUSINESS_AS_NAME":"ROCKWELL COLLINS","POP_AT_RISK":16526,"BUSINESS_TYPE":"Electronic Equipment Repair","LEGAL_NAME":"ROCKWELL COLLINS, INC.","LONGITUDE":-87.87114301436868},
{"STATE":"IL","ZIP":60631,"LATTITUDE":42.01803262230275,"ADDRESS":"7534 N MILWAUKEE AVE 1ST ","YEAR":2009,"DOING_BUSINESS_AS_NAME":"PC REPAIR & SALES","POP_AT_RISK":140395,"BUSINESS_TYPE":"Electronic Equipment Repair","LEGAL_NAME":"ELIZABETH & LARRY LIEGGI","LONGITUDE":-87.80693773851367},
{"STATE":"IL","ZIP":60608,"LATTITUDE":41.853857226621656,"ADDRESS":"2100 S PEORIA ST  ","YEAR":2009,"DOING_BUSINESS_AS_NAME":"CHICAGO COMMUNICATION LLC","POP_AT_RISK":41035,"BUSINESS_TYPE":"Electronic Equipment Repair","LEGAL_NAME":"CHICAGO COMMUNICATION LLC","LONGITUDE":-87.64831214729323},
{"STATE":"IL","ZIP":60634,"LATTITUDE":41.95270759569199,"ADDRESS":"6615 W IRVING PARK RD 201 #","YEAR":2009,"DOING_BUSINESS_AS_NAME":"PROCOM ENTERPRISES LTD","POP_AT_RISK":69480,"BUSINESS_TYPE":"Electronic Equipment Repair","LEGAL_NAME":"PROCOM ENTERPRISE LIMITED","LONGITUDE":-87.79210947400955},
{"STATE":"IL","ZIP":60622,"LATTITUDE":41.89731424517158,"ADDRESS":"860 N CALIFORNIA AVE 1ST ","YEAR":2009,"DOING_BUSINESS_AS_NAME":"EXPERT AUDIO CENTER","POP_AT_RISK":135201,"BUSINESS_TYPE":"Electronic Equipment Repair","LEGAL_NAME":"EXPERT AUDIO CENTER, CORP.","LONGITUDE":-87.69689117453584},
{"STATE":"IL","ZIP":60607,"LATTITUDE":41.869175484822186,"ADDRESS":"1523 W TAYLOR ST 1 1","YEAR":2009,"DOING_BUSINESS_AS_NAME":"CAMPUS MARKET","POP_AT_RISK":39709,"BUSINESS_TYPE":"Electronic Equipment Repair","LEGAL_NAME":"WORLD COMPUTER CENTER, INC.","LONGITUDE":-87.66506632408525},
{"STATE":"IL","ZIP":60615,"LATTITUDE":41.795082096806134,"ADDRESS":"1521 E 55TH ST 1 ","YEAR":2009,"DOING_BUSINESS_AS_NAME":"CHICAGO COMPUTER CLUB","POP_AT_RISK":40389,"BUSINESS_TYPE":"Electronic Equipment Repair","LEGAL_NAME":"CHICAGO COMPUTER CLUB, CORP.","LONGITUDE":-87.58826812316532},
{"STATE":"IL","ZIP":60707,"LATTITUDE":41.9238131215879,"ADDRESS":"7140 W GRAND AVE 1ST ","YEAR":2009,"DOING_BUSINESS_AS_NAME":"CHICAGO COMPUTER CENTER, INC.","POP_AT_RISK":46315,"BUSINESS_TYPE":"Electronic Equipment Repair","LEGAL_NAME":"CHICAGO COMPUTER CENTER, INC.","LONGITUDE":-87.8042787366181},
{"STATE":"IL","ZIP":60620,"LATTITUDE":41.7359306245932,"ADDRESS":"857-859 W 87TH ST  ","YEAR":2009,"DOING_BUSINESS_AS_NAME":"EXCLUSIVE COMMUNICATIONS","POP_AT_RISK":37406,"BUSINESS_TYPE":"Electronic Equipment Repair","LEGAL_NAME":"EXCLUSIVE COMMUNICATIONS INC.","LONGITUDE":-87.64592269403622},
{"STATE":"IL","ZIP":60637,"LATTITUDE":41.776870543389926,"ADDRESS":"6459 S COTTAGE GROVE AVE 1ST ","YEAR":2009,"DOING_BUSINESS_AS_NAME":"TECHMARK MULTI-SERVICES, INC.","POP_AT_RISK":153756,"BUSINESS_TYPE":"Electronic Equipment Repair","LEGAL_NAME":"TECHMARK MULTI-SERVICES, INC.","LONGITUDE":-87.60570501770475},
{"STATE":"IL","ZIP":60632,"LATTITUDE":41.812138754991516,"ADDRESS":"4440 S PULASKI RD 1ST ","YEAR":2009,"DOING_BUSINESS_AS_NAME":"CHICAGO TECHNICAL CENTERS LTD","POP_AT_RISK":17199,"BUSINESS_TYPE":"Electronic Equipment Repair","LEGAL_NAME":"CHICAGO TECHNICAL CENTERS LTD.","LONGITUDE":-87.72388884190333},
{"STATE":"IL","ZIP":60639,"LATTITUDE":41.909219664802585,"ADDRESS":"5725 W NORTH AVE 1ST ","YEAR":2009,"DOING_BUSINESS_AS_NAME":"NU LUUK COMPUTER SERVICES","POP_AT_RISK":54250,"BUSINESS_TYPE":"Electronic Equipment Repair","LEGAL_NAME":"NU LUUK COMPUTERS SERVICES, INC.","LONGITUDE":-87.7694214347033},
{"STATE":"IL","ZIP":60628,"LATTITUDE":41.69075019344447,"ADDRESS":"11201 S MICHIGAN AVE 1 1","YEAR":2009,"DOING_BUSINESS_AS_NAME":"APOLLO COMPUTER SERVICES","POP_AT_RISK":158370,"BUSINESS_TYPE":"Electronic Equipment Repair","LEGAL_NAME":"APOLLO COMPUTER SERVICES CORPORATION","LONGITUDE":-87.6208804369684},
{"STATE":"IL","ZIP":60652,"LATTITUDE":41.742816827820924,"ADDRESS":"8251 S KEDZIE AVE 1ST ","YEAR":2009,"DOING_BUSINESS_AS_NAME":"CHICAGO COMMUNITY COMPUTER SERVICE, INC.","POP_AT_RISK":27818,"BUSINESS_TYPE":"Electronic Equipment Repair","LEGAL_NAME":"CHICAGO COMMUNITY COMPUTER SERVICE, INC.","LONGITUDE":-87.70205961436888},
{"STATE":"IL","ZIP":60637,"LATTITUDE":41.769231013145316,"ADDRESS":"401 E 69TH ST 1ST ","YEAR":2009,"DOING_BUSINESS_AS_NAME":"A - Z COMPUTER SOLUTIONS AND OFFICE","POP_AT_RISK":33540,"BUSINESS_TYPE":"Electronic Equipment Repair","LEGAL_NAME":"A - Z COMPUTER SOLUTIONS AND OFFICE, INC.","LONGITUDE":-87.61529069900276},
{"STATE":"IL","ZIP":60626,"LATTITUDE":42.01928855008811,"ADDRESS":"1763 W HOWARD ST  ","YEAR":2009,"DOING_BUSINESS_AS_NAME":"U S CELLULAR","POP_AT_RISK":62574,"BUSINESS_TYPE":"Electronic Equipment Repair","LEGAL_NAME":"UNITED STATES CELLULAR OPERATING COMPANY OF CHICAGO, LLC","LONGITUDE":-87.67505850938775},
{"STATE":"IL","ZIP":60643,"LATTITUDE":41.713013336357946,"ADDRESS":"9920 S WESTERN AVE  ","YEAR":2009,"DOING_BUSINESS_AS_NAME":"U S CELLULAR","POP_AT_RISK":18818,"BUSINESS_TYPE":"Electronic Equipment Repair","LEGAL_NAME":"UNITED STATES CELLULAR OPERATING COMPANY OF CHICAGO, LLC","LONGITUDE":-87.68196971044577},
}