{
{"STATE":"IL","ZIP":60629,"LATTITUDE":41.78007664969607,"ADDRESS":"6210 S PULASKI RD  ","YEAR":2004,"DOING_BUSINESS_AS_NAME":"LIVT TAX SERVICES","POP_AT_RISK":48209,"BUSINESS_TYPE":"Limited Business License","LEGAL_NAME":"TRICIA DIAZ","LONGITUDE":-87.72294645379564},
{"STATE":"IL","ZIP":60651,"LATTITUDE":41.90121389720315,"ADDRESS":"1111 N PULASKI RD 1ST ","YEAR":2004,"DOING_BUSINESS_AS_NAME":"ROYAL CLEANERS","POP_AT_RISK":51377,"BUSINESS_TYPE":"Limited Business License","LEGAL_NAME":"GWANG H KWON","LONGITUDE":-87.7261133044823},
{"STATE":"IL","ZIP":60621,"LATTITUDE":41.787908894942774,"ADDRESS":"5843 S STATE ST  ","YEAR":2004,"DOING_BUSINESS_AS_NAME":"KENNEDYS HAIR SALON","POP_AT_RISK":45578,"BUSINESS_TYPE":"Limited Business License","LEGAL_NAME":"DOUGLAS GREER","LONGITUDE":-87.62538141329063},
{"STATE":"IL","ZIP":60646,"LATTITUDE":41.99444451918912,"ADDRESS":"6224 N PULASKI RD  ","YEAR":2004,"DOING_BUSINESS_AS_NAME":"TCS Tech","POP_AT_RISK":79470,"BUSINESS_TYPE":"Limited Business License","LEGAL_NAME":"Jong Youl Lee","LONGITUDE":-87.72903688733517},
{"STATE":"IL","ZIP":60636,"LATTITUDE":41.75935463965918,"ADDRESS":"1515 W 74TH ST  ","YEAR":2004,"DOING_BUSINESS_AS_NAME":"MO-RYAN, INC.","POP_AT_RISK":85890,"BUSINESS_TYPE":"Limited Business License","LEGAL_NAME":"MO-RYAN, INC.","LONGITUDE":-87.66268764848408},
{"STATE":"IL","ZIP":60615,"LATTITUDE":41.79958823080343,"ADDRESS":"1308 E 53RD ST  ","YEAR":2004,"DOING_BUSINESS_AS_NAME":"TONY'S SPORTS","POP_AT_RISK":80554,"BUSINESS_TYPE":"Limited Business License","LEGAL_NAME":"MUNEER MUSLEH","LONGITUDE":-87.5945993256038},
{"STATE":"IL","ZIP":60628,"LATTITUDE":41.70586718459289,"ADDRESS":"10335 S HALSTED ST  ","YEAR":2004,"DOING_BUSINESS_AS_NAME":"LARRY'S BARBER SHOP","POP_AT_RISK":61680,"BUSINESS_TYPE":"Limited Business License","LEGAL_NAME":"RASUN H. ROSS","LONGITUDE":-87.6426553748191},
{"STATE":"IL","ZIP":60617,"LATTITUDE":41.74292600284684,"ADDRESS":"8342 1\/2 S STONY ISLAND AVE  ","YEAR":2004,"DOING_BUSINESS_AS_NAME":"warren jones","POP_AT_RISK":97563,"BUSINESS_TYPE":"Limited Business License","LEGAL_NAME":"warren  jones","LONGITUDE":-87.58592801844412},
{"STATE":"IL","ZIP":60652,"LATTITUDE":41.75466012439374,"ADDRESS":"7601 S CICERO AVE  ","YEAR":2004,"DOING_BUSINESS_AS_NAME":"GREAT COLLECTIBLES","POP_AT_RISK":25822,"BUSINESS_TYPE":"Limited Business License","LEGAL_NAME":"ATIF T. JUNEJO","LONGITUDE":-87.74138475860521},
{"STATE":"IL","ZIP":60628,"LATTITUDE":41.72156299829742,"ADDRESS":"139 W 95TH ST 1ST 1ST","YEAR":2004,"DOING_BUSINESS_AS_NAME":"STUDIO 95 BEAUTY & BARBER SALON","POP_AT_RISK":58102,"BUSINESS_TYPE":"Limited Business License","LEGAL_NAME":"DUANE R ALSTON","LONGITUDE":-87.62776119481927},
{"STATE":"IL","ZIP":60619,"LATTITUDE":41.75886563994302,"ADDRESS":"1534 E 75TH ST # 1","YEAR":2004,"DOING_BUSINESS_AS_NAME":"BEAUTY EXPRESS","POP_AT_RISK":75562,"BUSINESS_TYPE":"Limited Business License","LEGAL_NAME":"L W & R TAYLOR","LONGITUDE":-87.58708075629605},
{"STATE":"IL","ZIP":60630,"LATTITUDE":41.98238585098475,"ADDRESS":"5540 N LONG AVE 1ST ","YEAR":2004,"DOING_BUSINESS_AS_NAME":"CUT- TO- SIZE","POP_AT_RISK":56464,"BUSINESS_TYPE":"Limited Business License","LEGAL_NAME":"CUT-TO-SIZE INC","LONGITUDE":-87.76362228400322},
{"STATE":"IL","ZIP":60620,"LATTITUDE":41.72715411547155,"ADDRESS":"9145 S ASHLAND AVE  ","YEAR":2004,"DOING_BUSINESS_AS_NAME":"ECHEZ'S DE SALON","POP_AT_RISK":33312,"BUSINESS_TYPE":"Limited Business License","LEGAL_NAME":"DETCIE MITCHELL","LONGITUDE":-87.66267100636746},
{"STATE":"IL","ZIP":60652,"LATTITUDE":41.747606107866986,"ADDRESS":"7975 S CICERO AVE  ","YEAR":2004,"DOING_BUSINESS_AS_NAME":"BIG VALUE WAREHOUSE","POP_AT_RISK":26720,"BUSINESS_TYPE":"Limited Business License","LEGAL_NAME":"HILCO WHOLESALE","LONGITUDE":-87.74115596125093},
{"STATE":"IL","ZIP":60628,"LATTITUDE":41.707127941735905,"ADDRESS":"135 E 103RD ST  ","YEAR":2004,"DOING_BUSINESS_AS_NAME":"NEW EDITION, INC.","POP_AT_RISK":50240,"BUSINESS_TYPE":"Limited Business License","LEGAL_NAME":"NEW EDITION INC","LONGITUDE":-87.6187178637625},
{"STATE":"IL","ZIP":60636,"LATTITUDE":41.786539473747425,"ADDRESS":"5901 S DAMEN AVE  ","YEAR":2004,"DOING_BUSINESS_AS_NAME":"Suitable","POP_AT_RISK":41389,"BUSINESS_TYPE":"Limited Business License","LEGAL_NAME":"FELICIA R. WILSON","LONGITUDE":-87.67394992922162},
{"STATE":"IL","ZIP":60645,"LATTITUDE":42.019374205799835,"ADDRESS":"2135 W HOWARD ST 1ST ","YEAR":2004,"DOING_BUSINESS_AS_NAME":"BURGH FURNITURE SHOP","POP_AT_RISK":283856,"BUSINESS_TYPE":"Limited Business License","LEGAL_NAME":"ARTHUR PIPERSBURGH","LONGITUDE":-87.68457114704462},
{"STATE":"IL","ZIP":60619,"LATTITUDE":41.75114871002019,"ADDRESS":"721 E 79TH ST  ","YEAR":2004,"DOING_BUSINESS_AS_NAME":"ROCK SHOP","POP_AT_RISK":38768,"BUSINESS_TYPE":"Limited Business License","LEGAL_NAME":"JACQUELYN HUCKABEE","LONGITUDE":-87.60675601966001},
{"STATE":"IL","ZIP":60656,"LATTITUDE":41.97341818560388,"ADDRESS":"9400 W FOSTER AVE  103","YEAR":2004,"DOING_BUSINESS_AS_NAME":"U.S.FINANCIAL LTD","POP_AT_RISK":28998,"BUSINESS_TYPE":"Limited Business License","LEGAL_NAME":"U.S. FINANCIAL LTD","LONGITUDE":-87.86237263940959},
{"STATE":"IL","ZIP":60637,"LATTITUDE":41.79142028209799,"ADDRESS":"5700 S LAKE SHORE DR  ","YEAR":2004,"DOING_BUSINESS_AS_NAME":"EVENT NETWORK - MONSTER TRUCKS","POP_AT_RISK":86478,"BUSINESS_TYPE":"Limited Business License","LEGAL_NAME":"EVENT NETWORK, INC.","LONGITUDE":-87.58014776868883},
{"STATE":"IL","ZIP":60638,"LATTITUDE":41.79624915577635,"ADDRESS":"5333 S LARAMIE AVE 2 203","YEAR":2004,"DOING_BUSINESS_AS_NAME":"MARCA MED MGMT","POP_AT_RISK":10247,"BUSINESS_TYPE":"Limited Business License","LEGAL_NAME":"MARCA INDUSTRIES INC","LONGITUDE":-87.75245264211209},
{"STATE":"IL","ZIP":60651,"LATTITUDE":41.90190174904368,"ADDRESS":"5939 W DIVISION ST 1ST ","YEAR":2004,"DOING_BUSINESS_AS_NAME":"SHEPORIA OF ELEGANCE","POP_AT_RISK":40933,"BUSINESS_TYPE":"Limited Business License","LEGAL_NAME":"SHEPORIA OG ELEGANCE","LONGITUDE":-87.77445819030886},
{"STATE":"IL","ZIP":60649,"LATTITUDE":41.75248540108896,"ADDRESS":"3026 E CHELTENHAM PL  1FL S","YEAR":2004,"DOING_BUSINESS_AS_NAME":"SMILEY GRIFFIN & SON CONTRACTO","POP_AT_RISK":66082,"BUSINESS_TYPE":"Limited Business License","LEGAL_NAME":"SMILEY GRIFFIN & SON","LONGITUDE":-87.55153856572254},
{"STATE":"IL","ZIP":60632,"LATTITUDE":41.801139341974086,"ADDRESS":"2700 W 51ST ST  ","YEAR":2004,"DOING_BUSINESS_AS_NAME":"FORTY-SEVENTH STREET CITGO","POP_AT_RISK":98532,"BUSINESS_TYPE":"Limited Business License","LEGAL_NAME":"TUXEDO JUNCTION INC.","LONGITUDE":-87.6916240486938},
{"STATE":"IL","ZIP":60623,"LATTITUDE":41.837039355647114,"ADDRESS":"3355 W 31ST ST  ","YEAR":2004,"DOING_BUSINESS_AS_NAME":"CROWN STEEL SALES INC","POP_AT_RISK":68003,"BUSINESS_TYPE":"Limited Business License","LEGAL_NAME":"CROWN STEEL SALES INC","LONGITUDE":-87.70947264318215},
{"STATE":"IL","ZIP":60639,"LATTITUDE":41.925898409984924,"ADDRESS":"2501 N CENTRAL AVE  ","YEAR":2004,"DOING_BUSINESS_AS_NAME":"MB AGENCY","POP_AT_RISK":72302,"BUSINESS_TYPE":"Limited Business License","LEGAL_NAME":"MICHAEL LESLIE BLEIER","LONGITUDE":-87.76591094768567},
{"STATE":"IL","ZIP":60609,"LATTITUDE":41.82776702806731,"ADDRESS":"3623 S LAFLIN PL 1ST ","YEAR":2004,"DOING_BUSINESS_AS_NAME":"SEE ALL INDUSTRIES INC","POP_AT_RISK":60890,"BUSINESS_TYPE":"Limited Business License","LEGAL_NAME":"SEE ALL INDUSTRIES INC","LONGITUDE":-87.66314641469017},
{"STATE":"IL","ZIP":60631,"LATTITUDE":41.99586185037211,"ADDRESS":"6323 N AVONDALE AVE  256","YEAR":2004,"DOING_BUSINESS_AS_NAME":"WEDGE INDUSTRIES INC","POP_AT_RISK":95712,"BUSINESS_TYPE":"Limited Business License","LEGAL_NAME":"WEDGE INDUSTRIES, INC.","LONGITUDE":-87.80793148327821},
{"STATE":"IL","ZIP":60655,"LATTITUDE":41.69793767496546,"ADDRESS":"10727 S PULASKI RD 1ST ","YEAR":2004,"DOING_BUSINESS_AS_NAME":"D.F.CURLEY SONS INC","POP_AT_RISK":160506,"BUSINESS_TYPE":"Limited Business License","LEGAL_NAME":"D. F. CURLEY SONS, INC.","LONGITUDE":-87.7204632123981},
{"STATE":"IL","ZIP":60637,"LATTITUDE":41.769382292341554,"ADDRESS":"230 E 69TH ST  ","YEAR":2004,"DOING_BUSINESS_AS_NAME":"Tatum Funeral Services","POP_AT_RISK":93105,"BUSINESS_TYPE":"Limited Business License","LEGAL_NAME":"TATUM ENTERPRISES, INC.","LONGITUDE":-87.61890509372986},
{"STATE":"IL","ZIP":60643,"LATTITUDE":41.70515144283417,"ADDRESS":"10340 S WESTERN AVE  2D","YEAR":2004,"DOING_BUSINESS_AS_NAME":"JIM ANDERSON & ASSOC INC","POP_AT_RISK":194068,"BUSINESS_TYPE":"Limited Business License","LEGAL_NAME":"JIM ANDERSON & ASSOC INC","LONGITUDE":-87.68172917412151},
{"STATE":"IL","ZIP":60617,"LATTITUDE":41.71960201782821,"ADDRESS":"9644 S COMMERCIAL AVE  ","YEAR":2004,"DOING_BUSINESS_AS_NAME":"REAL TIME ENVIROMENTAL INC.","POP_AT_RISK":17749,"BUSINESS_TYPE":"Limited Business License","LEGAL_NAME":"REALTIMEENVIROMENTAL INC","LONGITUDE":-87.55118267908664},
{"STATE":"IL","ZIP":60634,"LATTITUDE":41.94256835641735,"ADDRESS":"3431 N HARLEM AVE  ","YEAR":2004,"DOING_BUSINESS_AS_NAME":"TIME TO TAN & NAILS, INC.","POP_AT_RISK":214632,"BUSINESS_TYPE":"Limited Business License","LEGAL_NAME":"TIME TO TAN & NAILS, INC","LONGITUDE":-87.80676404747243},
{"STATE":"IL","ZIP":60647,"LATTITUDE":41.917186871584676,"ADDRESS":"3547 W ARMITAGE AVE  ","YEAR":2004,"DOING_BUSINESS_AS_NAME":"DISCOUNT PHONE CARD 2 INC","POP_AT_RISK":153472,"BUSINESS_TYPE":"Limited Business License","LEGAL_NAME":"DISCOUNT PHONE CARD 2 INC","LONGITUDE":-87.71544967676044},
{"STATE":"IL","ZIP":60656,"LATTITUDE":41.963944039487664,"ADDRESS":"4630 N CUMBERLAND AVE  1","YEAR":2004,"DOING_BUSINESS_AS_NAME":"KITCHEN  & BATH STUDIO INC","POP_AT_RISK":34164,"BUSINESS_TYPE":"Limited Business License","LEGAL_NAME":"KITCHEN & BATH STUDIO INC","LONGITUDE":-87.83683828629411},
{"STATE":"IL","ZIP":60616,"LATTITUDE":41.83133694955089,"ADDRESS":"3473 S DR MARTIN LUTHER KING JR DR  249","YEAR":2004,"DOING_BUSINESS_AS_NAME":"NET-TELLIGENCE GROUP INC","POP_AT_RISK":343805,"BUSINESS_TYPE":"Limited Business License","LEGAL_NAME":"NET-TELLIGENCE GROUP INC.","LONGITUDE":-87.61682312958803},
{"STATE":"IL","ZIP":60616,"LATTITUDE":41.84169281204351,"ADDRESS":"2907 S WABASH AVE # 203","YEAR":2004,"DOING_BUSINESS_AS_NAME":"LE-NA ENTERPRISES","POP_AT_RISK":33658,"BUSINESS_TYPE":"Limited Business License","LEGAL_NAME":"PHYLLIS NASH & EKEH LEWIS","LONGITUDE":-87.62508310182291},
{"STATE":"IL","ZIP":60641,"LATTITUDE":41.953486149905935,"ADDRESS":"4914 W IRVING PARK RD  1","YEAR":2004,"DOING_BUSINESS_AS_NAME":"SINGER FACTORY DISTRIBUTORS","POP_AT_RISK":50264,"BUSINESS_TYPE":"Limited Business License","LEGAL_NAME":"SINGER FACTORY DISTRIBUTOR","LONGITUDE":-87.7504863941478},
{"STATE":"IL","ZIP":60619,"LATTITUDE":41.754504307392594,"ADDRESS":"7701 S STATE ST  ","YEAR":2004,"DOING_BUSINESS_AS_NAME":"HALSTED ST SPARKLE CAR WAS","POP_AT_RISK":109548,"BUSINESS_TYPE":"Limited Business License","LEGAL_NAME":"HALSTED ST SPARKLE CAR WASH","LONGITUDE":-87.62449585083768},
{"STATE":"IL","ZIP":60632,"LATTITUDE":41.81548997763191,"ADDRESS":"3400 W 43RD ST  1","YEAR":2004,"DOING_BUSINESS_AS_NAME":"WESTERN INTERMODAL SVCS LTD","POP_AT_RISK":37053,"BUSINESS_TYPE":"Limited Business License","LEGAL_NAME":"WESTERN INTERMODAL SERVICES","LONGITUDE":-87.70922288323176},
{"STATE":"IL","ZIP":60617,"LATTITUDE":41.71994754835966,"ADDRESS":"9625 S COLFAX AVE 1ST ","YEAR":2004,"DOING_BUSINESS_AS_NAME":"ZEPEDA CONSTRUCTION SERVICE","POP_AT_RISK":44908,"BUSINESS_TYPE":"Limited Business License","LEGAL_NAME":"ZEPEDA CONSTRUCTION SERVICE","LONGITUDE":-87.5601625120486},
{"STATE":"IL","ZIP":60629,"LATTITUDE":41.77912969890745,"ADDRESS":"3042 W 63RD ST  ","YEAR":2004,"DOING_BUSINESS_AS_NAME":"PERSONALIZED KEEPSAKES INC.","POP_AT_RISK":375864,"BUSINESS_TYPE":"Limited Business License","LEGAL_NAME":"PERSONALIZED KEEPESAKES INC.","LONGITUDE":-87.6999694153253},
{"STATE":"IL","ZIP":60630,"LATTITUDE":41.977464175215516,"ADDRESS":"5342 N NORTHWEST HWY 1ST ","YEAR":2004,"DOING_BUSINESS_AS_NAME":"BAUMEISTER AUDIO VIDEO INTERIO","POP_AT_RISK":35554,"BUSINESS_TYPE":"Limited Business License","LEGAL_NAME":"BAUMEISTER AUDIO VIDEO INTERIO","LONGITUDE":-87.77274573784965},
{"STATE":"IL","ZIP":60609,"LATTITUDE":41.796234875219376,"ADDRESS":"5401 S WENTWORTH AVE  12","YEAR":2004,"DOING_BUSINESS_AS_NAME":"FOOTACTION USA #686","POP_AT_RISK":83536,"BUSINESS_TYPE":"Limited Business License","LEGAL_NAME":"GRAND BOULEVARD FOOTACTION,INC","LONGITUDE":-87.63040492438661},
{"STATE":"IL","ZIP":60622,"LATTITUDE":41.89722802800089,"ADDRESS":"849 N WESTERN AVE  ","YEAR":2004,"DOING_BUSINESS_AS_NAME":"NORTHWESTERN TRAVEL BUREAU INC","POP_AT_RISK":54514,"BUSINESS_TYPE":"Limited Business License","LEGAL_NAME":"NORTHWESTERN TRAVEL BUREAU INC","LONGITUDE":-87.68673216244567},
{"STATE":"IL","ZIP":60644,"LATTITUDE":41.86578219576032,"ADDRESS":"5410 W ROOSEVELT RD 3RD 308","YEAR":2004,"DOING_BUSINESS_AS_NAME":"SALAMANDER STUDIO CHICAGO","POP_AT_RISK":179280,"BUSINESS_TYPE":"Limited Business License","LEGAL_NAME":"SALAMANDER STUDIOS CHICAGO, INC.","LONGITUDE":-87.75982221163846},
{"STATE":"IL","ZIP":60638,"LATTITUDE":41.78058065043016,"ADDRESS":"6150 S LARAMIE AVE  ","YEAR":2004,"DOING_BUSINESS_AS_NAME":"JET AVIATION","POP_AT_RISK":12546,"BUSINESS_TYPE":"Limited Business License","LEGAL_NAME":"JET AVIATION FLIGHT SERVICES, INC.","LONGITUDE":-87.75268097816075},
{"STATE":"IL","ZIP":60628,"LATTITUDE":41.7218041410881,"ADDRESS":"9501 S DR MARTIN LUTHER KING JR DR  460","YEAR":2004,"DOING_BUSINESS_AS_NAME":"CHICAGO STATE UNIVERSITY BOOKSTORE","POP_AT_RISK":67710,"BUSINESS_TYPE":"Limited Business License","LEGAL_NAME":"FOLLETT HIGHER EDUCATION GROUP, INC","LONGITUDE":-87.61399411519453},
{"STATE":"IL","ZIP":60649,"LATTITUDE":41.75905514352224,"ADDRESS":"2222 E 75TH ST  ","YEAR":2004,"DOING_BUSINESS_AS_NAME":"A-OK JANITORIAL & CONSTRUCTION SERVICES INC.","POP_AT_RISK":87820,"BUSINESS_TYPE":"Limited Business License","LEGAL_NAME":"A-OK JANITORIAL & CONSTRUCTION SERVICES INC.","LONGITUDE":-87.57025265057769},
{"STATE":"IL","ZIP":60634,"LATTITUDE":41.95293923167138,"ADDRESS":"6005 W IRVING PARK RD  ","YEAR":2004,"DOING_BUSINESS_AS_NAME":"POLISH ARMY VETERANS ASSOCIATION OF AMERICA","POP_AT_RISK":92278,"BUSINESS_TYPE":"Limited Business License","LEGAL_NAME":"POLISH ARMY VETERANS ASSOCIATION OF AMERICA INC. POST 90 CHICAGO","LONGITUDE":-87.77698707767183},
}