{
{"STATE":"IL","ZIP":60609,"LATTITUDE":41.808780247267606,"ADDRESS":"1356 W 47TH ST  ","YEAR":2007,"DOING_BUSINESS_AS_NAME":"QUIK WASH #5","POP_AT_RISK":39265,"BUSINESS_TYPE":"Laundry, Late Hour","LEGAL_NAME":"TRKAM LLC","LONGITUDE":-87.65995685711123},
{"STATE":"IL","ZIP":60632,"LATTITUDE":41.80035417322028,"ADDRESS":"5141 S ARCHER AVE 1 ","YEAR":2007,"DOING_BUSINESS_AS_NAME":"CRAZY BUBBLES","POP_AT_RISK":254480,"BUSINESS_TYPE":"Laundry, Late Hour","LEGAL_NAME":"R. ROCHA LLC","LONGITUDE":-87.73141349738898},
{"STATE":"IL","ZIP":60620,"LATTITUDE":41.75011960289131,"ADDRESS":"2005 W 79TH ST  ","YEAR":2007,"DOING_BUSINESS_AS_NAME":"WASHLAND","POP_AT_RISK":33992,"BUSINESS_TYPE":"Laundry, Late Hour","LEGAL_NAME":"JOHN R. MEYER","LONGITUDE":-87.6733504515774},
{"STATE":"IL","ZIP":60614,"LATTITUDE":41.92521232759425,"ADDRESS":"1730 W FULLERTON AVE  29","YEAR":2007,"DOING_BUSINESS_AS_NAME":"RIVERPOINT","POP_AT_RISK":269710,"BUSINESS_TYPE":"Laundry, Late Hour","LEGAL_NAME":"JOHN R. MEYER","LONGITUDE":-87.67192542513618},
{"STATE":"IL","ZIP":60620,"LATTITUDE":41.75097456241203,"ADDRESS":"160 W 79TH ST  ","YEAR":2007,"DOING_BUSINESS_AS_NAME":"SPIN CYCLE \/ WASHLAND","POP_AT_RISK":127615,"BUSINESS_TYPE":"Laundry, Late Hour","LEGAL_NAME":"JOHN R. MEYER","LONGITUDE":-87.62948837135059},
{"STATE":"IL","ZIP":60641,"LATTITUDE":41.93954779849134,"ADDRESS":"3214 N PULASKI RD 1 ","YEAR":2007,"DOING_BUSINESS_AS_NAME":"SOAP BOX, INC","POP_AT_RISK":59447,"BUSINESS_TYPE":"Laundry, Late Hour","LEGAL_NAME":"SOAP BOX, INC","LONGITUDE":-87.72734535116106},
{"STATE":"IL","ZIP":60612,"LATTITUDE":41.86630596791001,"ADDRESS":"3147-59 W ROOSEVELT RD 1ST ","YEAR":2007,"DOING_BUSINESS_AS_NAME":"FAST WASH COIN LAUNDRY","POP_AT_RISK":41880,"BUSINESS_TYPE":"Laundry, Late Hour","LEGAL_NAME":"PANDI KAMENICA","LONGITUDE":-87.70501304307072},
{"STATE":"IL","ZIP":60628,"LATTITUDE":41.70699083676394,"ADDRESS":"201 W 103RD ST  ","YEAR":2007,"DOING_BUSINESS_AS_NAME":"WORLD OF SUDS II","POP_AT_RISK":127120,"BUSINESS_TYPE":"Laundry, Late Hour","LEGAL_NAME":"RICKY L. BOONE","LONGITUDE":-87.62835517689021},
{"STATE":"IL","ZIP":60618,"LATTITUDE":41.953860542894176,"ADDRESS":"2815 W IRVING PARK RD  ","YEAR":2007,"DOING_BUSINESS_AS_NAME":"MR. BUBBLE","POP_AT_RISK":170436,"BUSINESS_TYPE":"Laundry, Late Hour","LEGAL_NAME":"MR. BUBBLE, LLC","LONGITUDE":-87.69889323686358},
{"STATE":"IL","ZIP":60637,"LATTITUDE":41.77668883611632,"ADDRESS":"6501 S COTTAGE GROVE AVE  ","YEAR":2007,"DOING_BUSINESS_AS_NAME":"FAMILY WASH SPIN CYCLE","POP_AT_RISK":576585,"BUSINESS_TYPE":"Laundry, Late Hour","LEGAL_NAME":"FAMILY WASH INC.","LONGITUDE":-87.60570034929327},
{"STATE":"IL","ZIP":60639,"LATTITUDE":41.92937566449219,"ADDRESS":"2700 N AUSTIN AVE  ","YEAR":2007,"DOING_BUSINESS_AS_NAME":"2700 N AUSTIN CORP","POP_AT_RISK":111796,"BUSINESS_TYPE":"Laundry, Late Hour","LEGAL_NAME":"2700 N AUSTIN CORP","LONGITUDE":-87.77605228197332},
{"STATE":"IL","ZIP":60621,"LATTITUDE":41.783558051651426,"ADDRESS":"6049 S HALSTED ST  ","YEAR":2007,"DOING_BUSINESS_AS_NAME":"FLETCHER LAUNDRYWORLD I","POP_AT_RISK":315252,"BUSINESS_TYPE":"Laundry, Late Hour","LEGAL_NAME":"ALEXANDER FLETCHER","LONGITUDE":-87.64473538608424},
{"STATE":"IL","ZIP":60619,"LATTITUDE":41.75882789443388,"ADDRESS":"1346 E 75TH ST  ","YEAR":2007,"DOING_BUSINESS_AS_NAME":"FLETCHER LAUNDRYWORLD II","POP_AT_RISK":70042,"BUSINESS_TYPE":"Laundry, Late Hour","LEGAL_NAME":"ALEXANDER FLETCHER","LONGITUDE":-87.59136612676487},
{"STATE":"IL","ZIP":60623,"LATTITUDE":41.85152144233116,"ADDRESS":"2200 S PULASKI RD 1ST ","YEAR":2007,"DOING_BUSINESS_AS_NAME":"THE WASH TUB I","POP_AT_RISK":209775,"BUSINESS_TYPE":"Laundry, Late Hour","LEGAL_NAME":"THE WASH TUB I INC","LONGITUDE":-87.7249047867499},
{"STATE":"IL","ZIP":60625,"LATTITUDE":41.979352398054665,"ADDRESS":"5355 N LINCOLN AVE  A","YEAR":2007,"DOING_BUSINESS_AS_NAME":"SPIN CYCLE WASH & DRYER","POP_AT_RISK":267174,"BUSINESS_TYPE":"Laundry, Late Hour","LEGAL_NAME":"YOUNG 'S WASH, INC","LONGITUDE":-87.69253592254636},
{"STATE":"IL","ZIP":60624,"LATTITUDE":41.88075011866137,"ADDRESS":"4258 W MADISON ST  ","YEAR":2007,"DOING_BUSINESS_AS_NAME":"SPIN CYCLE","POP_AT_RISK":335670,"BUSINESS_TYPE":"Laundry, Late Hour","LEGAL_NAME":"ALL IN MADISON INC.","LONGITUDE":-87.73290463298663},
{"STATE":"IL","ZIP":60608,"LATTITUDE":41.85217043136012,"ADDRESS":"1707 W CERMAK RD  ","YEAR":2007,"DOING_BUSINESS_AS_NAME":"SPINCYCLE  LAUNDRY","POP_AT_RISK":322880,"BUSINESS_TYPE":"Laundry, Late Hour","LEGAL_NAME":"DON'S WASHLAND INC.","LONGITUDE":-87.66881183504428},
{"STATE":"IL","ZIP":60620,"LATTITUDE":41.735883858312064,"ADDRESS":"1015 W 87TH ST  UNIT","YEAR":2007,"DOING_BUSINESS_AS_NAME":"MR. BUBBLES","POP_AT_RISK":184470,"BUSINESS_TYPE":"Laundry, Late Hour","LEGAL_NAME":"JOSHBER CORPORATION","LONGITUDE":-87.64913691423969},
{"STATE":"IL","ZIP":60660,"LATTITUDE":41.98358188928506,"ADDRESS":"5602 N CLARK ST  ","YEAR":2007,"DOING_BUSINESS_AS_NAME":"BELLA'S LAUNDRY","POP_AT_RISK":77357,"BUSINESS_TYPE":"Laundry, Late Hour","LEGAL_NAME":"SILVA SERVICES INC.","LONGITUDE":-87.6689263098409},
{"STATE":"IL","ZIP":60622,"LATTITUDE":41.90458941380305,"ADDRESS":"1246-1248 N ASHLAND AVE 1ST ","YEAR":2007,"DOING_BUSINESS_AS_NAME":"SUDS LAUNDROMAT","POP_AT_RISK":353010,"BUSINESS_TYPE":"Laundry, Late Hour","LEGAL_NAME":"SUDZ LAUNDROMAT INC","LONGITUDE":-87.66767596550207},
{"STATE":"IL","ZIP":60623,"LATTITUDE":41.83678964298173,"ADDRESS":"3100 S PULASKI RD 1ST ","YEAR":2007,"DOING_BUSINESS_AS_NAME":"THE VILLAGE LAUNDRY","POP_AT_RISK":94900,"BUSINESS_TYPE":"Laundry, Late Hour","LEGAL_NAME":"THE VILLAGE LAUNDRY","LONGITUDE":-87.7244954651183},
{"STATE":"IL","ZIP":60609,"LATTITUDE":41.813966327139475,"ADDRESS":"4400-4406 S ASHLAND AVE 1ST ","YEAR":2007,"DOING_BUSINESS_AS_NAME":"EL RIO GRANDE","POP_AT_RISK":35642,"BUSINESS_TYPE":"Laundry, Late Hour","LEGAL_NAME":"OSA ENTERPRISE, INC.","LONGITUDE":-87.66525392868716},
{"STATE":"IL","ZIP":60622,"LATTITUDE":41.90103185035965,"ADDRESS":"1055 N WESTERN AVE  ","YEAR":2007,"DOING_BUSINESS_AS_NAME":"VILLAGE LAUNDRY \/ CLEANERS","POP_AT_RISK":56583,"BUSINESS_TYPE":"Laundry, Late Hour","LEGAL_NAME":"PHK ENTERPRISES, INC","LONGITUDE":-87.68682796098895},
{"STATE":"IL","ZIP":60626,"LATTITUDE":42.0043126288397,"ADDRESS":"6725 N CLARK ST  ","YEAR":2007,"DOING_BUSINESS_AS_NAME":"CLARK SPINCYCLE, INC.","POP_AT_RISK":329592,"BUSINESS_TYPE":"Laundry, Late Hour","LEGAL_NAME":"CLARK SPINCYCLE, INC.","LONGITUDE":-87.67260251830648},
{"STATE":"IL","ZIP":60647,"LATTITUDE":41.92888486519136,"ADDRESS":"2599 N ELSTON AVE 1ST ","YEAR":2007,"DOING_BUSINESS_AS_NAME":"ELSTON COIN LAUNDRY","POP_AT_RISK":144075,"BUSINESS_TYPE":"Laundry, Late Hour","LEGAL_NAME":"LAUNDRY PARTNERS, LLC","LONGITUDE":-87.68280838007405},
{"STATE":"IL","ZIP":60640,"LATTITUDE":41.97066946375275,"ADDRESS":"4857-59 N BROADWAY   ","YEAR":2007,"DOING_BUSINESS_AS_NAME":"BROADWAY SPIN CYCLE","POP_AT_RISK":776020,"BUSINESS_TYPE":"Laundry, Late Hour","LEGAL_NAME":"Yh & J MANAGEMENT INC","LONGITUDE":-87.6595680020605},
{"STATE":"IL","ZIP":60628,"LATTITUDE":41.6950298818316,"ADDRESS":"10940 S MICHIGAN AVE  ","YEAR":2007,"DOING_BUSINESS_AS_NAME":"KDM MANAGEMENT COMPANY","POP_AT_RISK":155180,"BUSINESS_TYPE":"Laundry, Late Hour","LEGAL_NAME":"KDM MANAGEMEMT COMPANY","LONGITUDE":-87.62091988684402},
{"STATE":"IL","ZIP":60612,"LATTITUDE":41.882832314409654,"ADDRESS":"100 N KEDZIE AVE  ","YEAR":2007,"DOING_BUSINESS_AS_NAME":"SOAP OPERA","POP_AT_RISK":100635,"BUSINESS_TYPE":"Laundry, Late Hour","LEGAL_NAME":"O & B ENTERPRISE, INC.","LONGITUDE":-87.70631821355352},
{"STATE":"IL","ZIP":60628,"LATTITUDE":41.66132050978263,"ADDRESS":"12800 S HALSTED ST GROUND ","YEAR":2007,"DOING_BUSINESS_AS_NAME":"WORLD OF SUDS","POP_AT_RISK":81390,"BUSINESS_TYPE":"Laundry, Late Hour","LEGAL_NAME":"RICKI L & STACEY BOONE","LONGITUDE":-87.64150297449095},
{"STATE":"IL","ZIP":60630,"LATTITUDE":41.97088668756526,"ADDRESS":"4926 N PULASKI RD 1ST ","YEAR":2007,"DOING_BUSINESS_AS_NAME":"TOP COIN LAUNDRY","POP_AT_RISK":821639,"BUSINESS_TYPE":"Laundry, Late Hour","LEGAL_NAME":"TOP COIN LAUNDRY, INC.","LONGITUDE":-87.72825142075187},
{"STATE":"IL","ZIP":60639,"LATTITUDE":41.924355928882214,"ADDRESS":"4748 W FULLERTON AVE  ","YEAR":2007,"DOING_BUSINESS_AS_NAME":"BUBBLELAND","POP_AT_RISK":66342,"BUSINESS_TYPE":"Laundry, Late Hour","LEGAL_NAME":"FULLERTON LAUNDRY, INC.","LONGITUDE":-87.74584951113542},
{"STATE":"IL","ZIP":60629,"LATTITUDE":41.771387204322814,"ADDRESS":"4314 W MARQUETTE RD  ","YEAR":2007,"DOING_BUSINESS_AS_NAME":"SU NUEVA LAVANDERIA","POP_AT_RISK":157330,"BUSINESS_TYPE":"Laundry, Late Hour","LEGAL_NAME":"HANCO ENTERPRISES, INC.","LONGITUDE":-87.73059006104569},
{"STATE":"IL","ZIP":60620,"LATTITUDE":41.75054541889094,"ADDRESS":"1364 W 79TH ST  ","YEAR":2007,"DOING_BUSINESS_AS_NAME":"WASH & RELAX","POP_AT_RISK":91546,"BUSINESS_TYPE":"Laundry, Late Hour","LEGAL_NAME":"J & L DEVELOPERS L.L.C.","LONGITUDE":-87.65790718447312},
{"STATE":"IL","ZIP":60647,"LATTITUDE":41.931852775217145,"ADDRESS":"3415 W DIVERSEY AVE 1ST ","YEAR":2007,"DOING_BUSINESS_AS_NAME":"SUPERWASH COIN LAUNDRY","POP_AT_RISK":150532,"BUSINESS_TYPE":"Laundry, Late Hour","LEGAL_NAME":"NEPTUNE ENTERPRISES INC","LONGITUDE":-87.71290124965446},
{"STATE":"IL","ZIP":60653,"LATTITUDE":41.80979548271692,"ADDRESS":"1400 E 47TH DR  ","YEAR":2007,"DOING_BUSINESS_AS_NAME":"SPIN CYCLE","POP_AT_RISK":529545,"BUSINESS_TYPE":"Laundry, Late Hour","LEGAL_NAME":"GEORGE HOMEYER (TRUSTEE)","LONGITUDE":-87.59237386663331},
{"STATE":"IL","ZIP":60659,"LATTITUDE":41.99418117711277,"ADDRESS":"6200 N WESTERN AVE  ","YEAR":2007,"DOING_BUSINESS_AS_NAME":"SPIN CYCLE","POP_AT_RISK":240180,"BUSINESS_TYPE":"Laundry, Late Hour","LEGAL_NAME":"GEORGE HOMEYER (TRUSTEE)","LONGITUDE":-87.68991421917929},
{"STATE":"IL","ZIP":60652,"LATTITUDE":41.74447216541511,"ADDRESS":"8145 S PULASKI RD  1","YEAR":2007,"DOING_BUSINESS_AS_NAME":"PULASKI LAUNDROMAT, INC.","POP_AT_RISK":82479,"BUSINESS_TYPE":"Laundry, Late Hour","LEGAL_NAME":"PULASKI LAUNDROMAT, INC.","LONGITUDE":-87.72160213082438},
{"STATE":"IL","ZIP":60639,"LATTITUDE":41.90983882913241,"ADDRESS":"4446 W NORTH AVE  ","YEAR":2007,"DOING_BUSINESS_AS_NAME":"BUBBLELAND","POP_AT_RISK":104362,"BUSINESS_TYPE":"Laundry, Late Hour","LEGAL_NAME":"NORTH AVENUE LAUNDRY, INC.","LONGITUDE":-87.73801062020294},
{"STATE":"IL","ZIP":60629,"LATTITUDE":41.772787199544396,"ADDRESS":"6621 S KEDZIE AVE  ","YEAR":2007,"DOING_BUSINESS_AS_NAME":"GRAND SUDZ ENTERPRISES, INC.","POP_AT_RISK":52865,"BUSINESS_TYPE":"Laundry, Late Hour","LEGAL_NAME":"GRAND SUDZ ENTERPRISES, INC.","LONGITUDE":-87.702848138},
{"STATE":"IL","ZIP":60652,"LATTITUDE":41.73668569909073,"ADDRESS":"8606 S KEDZIE AVE  ","YEAR":2007,"DOING_BUSINESS_AS_NAME":"WHITEWATER 24 HOUR LAUNDRY, INC","POP_AT_RISK":48782,"BUSINESS_TYPE":"Laundry, Late Hour","LEGAL_NAME":"WHITEWATER 24 HOUR LAUNDRY INC","LONGITUDE":-87.70219462920664},
{"STATE":"IL","ZIP":60649,"LATTITUDE":41.76550926574415,"ADDRESS":"7120-7128 S YATES BLVD  ","YEAR":2007,"DOING_BUSINESS_AS_NAME":"Aqua Wash Laundry","POP_AT_RISK":132708,"BUSINESS_TYPE":"Laundry, Late Hour","LEGAL_NAME":"Y & K LAUNDRY & CLEANERS, INC.","LONGITUDE":-87.56665105757953},
{"STATE":"IL","ZIP":60617,"LATTITUDE":41.72975572321562,"ADDRESS":"9108 S COMMERCIAL AVE STOREFRONT 1","YEAR":2007,"DOING_BUSINESS_AS_NAME":"BUBBLELAND","POP_AT_RISK":123914,"BUSINESS_TYPE":"Laundry, Late Hour","LEGAL_NAME":"COMMERCIAL AVENUE LAUNDRY, INC.","LONGITUDE":-87.55139587075662},
{"STATE":"IL","ZIP":60660,"LATTITUDE":41.9962924088467,"ADDRESS":"6266 N CLARK ST 1ST ","YEAR":2007,"DOING_BUSINESS_AS_NAME":"BRITE WASH COIN LAUNDRY","POP_AT_RISK":90922,"BUSINESS_TYPE":"Laundry, Late Hour","LEGAL_NAME":"JULIANA,DEMETRIO,JULIETA PASCUAL","LONGITUDE":-87.67036615105961},
{"STATE":"IL","ZIP":60632,"LATTITUDE":41.80669625375927,"ADDRESS":"3229 W 47TH PL  ","YEAR":2007,"DOING_BUSINESS_AS_NAME":"WASH AROUND THE CLOCK LAUNDRY","POP_AT_RISK":51997,"BUSINESS_TYPE":"Laundry, Late Hour","LEGAL_NAME":"WASH AROUND THE CLOCK OF ILLINOIS, INC.","LONGITUDE":-87.70504541453236},
}