{
{"STATE":"IL","ZIP":60639,"LATTITUDE":41.92669516716183,"ADDRESS":"2511 N PULASKI RD  ","YEAR":2014,"DOING_BUSINESS_AS_NAME":"ANDRES AUTO SERVICE","POP_AT_RISK":223383,"BUSINESS_TYPE":"Motor Vehicle Repair : Engine Only (Class II)","LEGAL_NAME":"INFINITY AUTO INC","LONGITUDE":-87.72668578797972},
{"STATE":"IL","ZIP":60639,"LATTITUDE":41.92400105152893,"ADDRESS":"5818 W FULLERTON AVE 1ST ","YEAR":2014,"DOING_BUSINESS_AS_NAME":"FAST AUTO REPAIRS","POP_AT_RISK":62369,"BUSINESS_TYPE":"Motor Vehicle Repair : Engine Only (Class II)","LEGAL_NAME":"ERAZO AUTO SERVICE","LONGITUDE":-87.77167511393641},
{"STATE":"IL","ZIP":60655,"LATTITUDE":41.6857048697285,"ADDRESS":"11400 S PULASKI RD  ","YEAR":2014,"DOING_BUSINESS_AS_NAME":"MCCARTHY FORD INC","POP_AT_RISK":117800,"BUSINESS_TYPE":"Motor Vehicle Repair : Engine Only (Class II)","LEGAL_NAME":"MCCARTHY FORD, INC","LONGITUDE":-87.72026357236545},
{"STATE":"IL","ZIP":60646,"LATTITUDE":41.98519613559732,"ADDRESS":"5705-07 N ELSTON AVE  ","YEAR":2014,"DOING_BUSINESS_AS_NAME":"MUFFLERS FOR LESS","POP_AT_RISK":212317,"BUSINESS_TYPE":"Motor Vehicle Repair : Engine Only (Class II)","LEGAL_NAME":"FRANCISCO VELASQUEZ","LONGITUDE":-87.76841872763002},
{"STATE":"IL","ZIP":60653,"LATTITUDE":41.81668404083808,"ADDRESS":"4256 S MICHIGAN AVE  ","YEAR":2014,"DOING_BUSINESS_AS_NAME":"QUICK AND FAIR AUTO","POP_AT_RISK":548169,"BUSINESS_TYPE":"Motor Vehicle Repair : Engine Only (Class II)","LEGAL_NAME":"S AND D SALES, INC.","LONGITUDE":-87.6231801307422},
{"STATE":"IL","ZIP":60639,"LATTITUDE":41.93126164350872,"ADDRESS":"5257 W DIVERSEY AVE  ","YEAR":2014,"DOING_BUSINESS_AS_NAME":"G & S AUTOMOTIVE INC","POP_AT_RISK":70750,"BUSINESS_TYPE":"Motor Vehicle Repair : Engine Only (Class II)","LEGAL_NAME":"G & S AUTOMOTIVE INC","LONGITUDE":-87.75867094291866},
{"STATE":"IL","ZIP":60639,"LATTITUDE":41.91081623087445,"ADDRESS":"4465 W GRAND AVE 1 1","YEAR":2014,"DOING_BUSINESS_AS_NAME":"BRIDGESTONE FIRESTONE","POP_AT_RISK":52181,"BUSINESS_TYPE":"Motor Vehicle Repair : Engine Only (Class II)","LEGAL_NAME":"SWIFT CAR CARE, INC.","LONGITUDE":-87.73847173178453},
{"STATE":"IL","ZIP":60641,"LATTITUDE":41.938809673118904,"ADDRESS":"4517-4525 W BELMONT AVE 1 1","YEAR":2014,"DOING_BUSINESS_AS_NAME":"NORTHWEST AUTOWORKS, INC.","POP_AT_RISK":254284,"BUSINESS_TYPE":"Motor Vehicle Repair : Engine Only (Class II)","LEGAL_NAME":"NORTHWEST AUTOWORKS, INC.","LONGITUDE":-87.74017742355942},
{"STATE":"IL","ZIP":60639,"LATTITUDE":41.90929181283871,"ADDRESS":"6226-6234 W NORTH AVE 1ST 1","YEAR":2014,"DOING_BUSINESS_AS_NAME":"SUPER-MAX MUFFLER & BRAKE, INC.","POP_AT_RISK":83402,"BUSINESS_TYPE":"Motor Vehicle Repair : Engine Only (Class II)","LEGAL_NAME":"CAR MAX MUFFLER & BRAKE INC","LONGITUDE":-87.78130576128011},
{"STATE":"IL","ZIP":60632,"LATTITUDE":41.82604051823581,"ADDRESS":"3711 S CALIFORNIA AVE 1ST ","YEAR":2014,"DOING_BUSINESS_AS_NAME":"BLUE LAKE COMPLETE AUTO REPAIR & MUFFLERS & BRAKES CORP","POP_AT_RISK":479450,"BUSINESS_TYPE":"Motor Vehicle Repair : Engine Only (Class II)","LEGAL_NAME":"BLUE LAKE COMPLETE AUTO REPAIR & MUFFLERS & BRAKES CORP.","LONGITUDE":-87.6945572924792},
}