{
{"STATE":"IL","ZIP":60633,"LATTITUDE":41.65194427975236,"ADDRESS":"13359 S BALTIMORE AVE 1 ","YEAR":2007,"DOING_BUSINESS_AS_NAME":"LEON'S AUTO SERVICE","POP_AT_RISK":27264,"BUSINESS_TYPE":"Motor Vehicle Repair : Engine Only (Class II)","LEGAL_NAME":"RAMON LEON","LONGITUDE":-87.54701057671743},
{"STATE":"IL","ZIP":60656,"LATTITUDE":41.97380160131165,"ADDRESS":"5103 N HARLEM AVE 1ST ","YEAR":2007,"DOING_BUSINESS_AS_NAME":"AUTOPOL INC","POP_AT_RISK":60504,"BUSINESS_TYPE":"Motor Vehicle Repair : Engine Only (Class II)","LEGAL_NAME":"AUTOPOL INC","LONGITUDE":-87.806920743958},
{"STATE":"IL","ZIP":60623,"LATTITUDE":41.85128969157083,"ADDRESS":"4401 W CERMAK RD  UNIT 2","YEAR":2007,"DOING_BUSINESS_AS_NAME":"CALVILLO AUTO REPAIR","POP_AT_RISK":47209,"BUSINESS_TYPE":"Motor Vehicle Repair : Engine Only (Class II)","LEGAL_NAME":"DANIEL GOMEZ","LONGITUDE":-87.73455439428103},
{"STATE":"IL","ZIP":60827,"LATTITUDE":41.64661613548738,"ADDRESS":"13701 S INDIANA AVE 1ST ","YEAR":2007,"DOING_BUSINESS_AS_NAME":"TRIANGLE SERVICE","POP_AT_RISK":17826,"BUSINESS_TYPE":"Motor Vehicle Repair : Engine Only (Class II)","LEGAL_NAME":"GUS KATSENIS","LONGITUDE":-87.61708342711016},
{"STATE":"IL","ZIP":60616,"LATTITUDE":41.83129607684527,"ADDRESS":"450 E 35TH ST  1","YEAR":2007,"DOING_BUSINESS_AS_NAME":"CAR X MUFFLER & BRAKE","POP_AT_RISK":60228,"BUSINESS_TYPE":"Motor Vehicle Repair : Engine Only (Class II)","LEGAL_NAME":"BYRON LINDSAY","LONGITUDE":-87.6149256833543},
{"STATE":"IL","ZIP":60649,"LATTITUDE":41.75175303175989,"ADDRESS":"2801 E 79TH ST  ","YEAR":2007,"DOING_BUSINESS_AS_NAME":"GOOD SAMARITAN AUTO REPAIR","POP_AT_RISK":87342,"BUSINESS_TYPE":"Motor Vehicle Repair : Engine Only (Class II)","LEGAL_NAME":"JACQUES EUGENE","LONGITUDE":-87.55648045726758},
{"STATE":"IL","ZIP":60645,"LATTITUDE":42.017450130876114,"ADDRESS":"7501 N WESTERN AVE 1 ","YEAR":2007,"DOING_BUSINESS_AS_NAME":"MIDAS","POP_AT_RISK":49835,"BUSINESS_TYPE":"Motor Vehicle Repair : Engine Only (Class II)","LEGAL_NAME":"WESTERN 4, INC.","LONGITUDE":-87.69004936866926},
{"STATE":"IL","ZIP":60628,"LATTITUDE":41.67055653836988,"ADDRESS":"12304 S MICHIGAN AVE 1ST ","YEAR":2007,"DOING_BUSINESS_AS_NAME":"D & H HAND CAR WASH & AUTO","POP_AT_RISK":26253,"BUSINESS_TYPE":"Motor Vehicle Repair : Engine Only (Class II)","LEGAL_NAME":"DONALD R. HARRIS","LONGITUDE":-87.62042761096458},
{"STATE":"IL","ZIP":60638,"LATTITUDE":41.774233101541256,"ADDRESS":"6146 W 65TH ST  ","YEAR":2007,"DOING_BUSINESS_AS_NAME":"G&M AUTO REPAIR","POP_AT_RISK":22742,"BUSINESS_TYPE":"Motor Vehicle Repair : Engine Only (Class II)","LEGAL_NAME":"ANTONIO MANDUJANO","LONGITUDE":-87.77566323830037},
{"STATE":"IL","ZIP":60655,"LATTITUDE":41.6857048697285,"ADDRESS":"11400 S PULASKI RD  ","YEAR":2007,"DOING_BUSINESS_AS_NAME":"MCCARTHY FORD INC","POP_AT_RISK":23560,"BUSINESS_TYPE":"Motor Vehicle Repair : Engine Only (Class II)","LEGAL_NAME":"MCCARTHY FORD, INC","LONGITUDE":-87.72026357236545},
{"STATE":"IL","ZIP":60637,"LATTITUDE":41.77304782188627,"ADDRESS":"6700 S COTTAGE GROVE AVE  ","YEAR":2007,"DOING_BUSINESS_AS_NAME":"CITGO FUEL & MINI MART","POP_AT_RISK":37162,"BUSINESS_TYPE":"Motor Vehicle Repair : Engine Only (Class II)","LEGAL_NAME":"COTTAGE CITGO, INC.","LONGITUDE":-87.6059130528716},
{"STATE":"IL","ZIP":60653,"LATTITUDE":41.81668404083808,"ADDRESS":"4256 S MICHIGAN AVE  ","YEAR":2007,"DOING_BUSINESS_AS_NAME":"QUICK AND FAIR AUTO","POP_AT_RISK":28851,"BUSINESS_TYPE":"Motor Vehicle Repair : Engine Only (Class II)","LEGAL_NAME":"S AND D SALES, INC.","LONGITUDE":-87.6231801307422},
{"STATE":"IL","ZIP":60631,"LATTITUDE":42.000104228399934,"ADDRESS":"6571 N OLMSTED AVE  ","YEAR":2007,"DOING_BUSINESS_AS_NAME":"E K AUTOMOTIVE  LTD","POP_AT_RISK":21690,"BUSINESS_TYPE":"Motor Vehicle Repair : Engine Only (Class II)","LEGAL_NAME":"EK AUTOMOTIVE LIMITED","LONGITUDE":-87.8132939597512},
{"STATE":"IL","ZIP":60649,"LATTITUDE":41.76779095632842,"ADDRESS":"7000 S STONY ISLAND AVE  1","YEAR":2007,"DOING_BUSINESS_AS_NAME":"PIT STOP 500","POP_AT_RISK":37197,"BUSINESS_TYPE":"Motor Vehicle Repair : Engine Only (Class II)","LEGAL_NAME":"NATIONAL LUBE SYSTEMS INC","LONGITUDE":-87.58651631889869},
{"STATE":"IL","ZIP":60652,"LATTITUDE":41.73628922702488,"ADDRESS":"8601 S CICERO AVE  ","YEAR":2007,"DOING_BUSINESS_AS_NAME":"MR. TRANSMISSIONS","POP_AT_RISK":23923,"BUSINESS_TYPE":"Motor Vehicle Repair : Engine Only (Class II)","LEGAL_NAME":"MIDWAY TRANSMISSIONS, INC.","LONGITUDE":-87.74078193737448},
{"STATE":"IL","ZIP":60610,"LATTITUDE":41.89170361132056,"ADDRESS":"158 W GRAND AVE 1ST ","YEAR":2007,"DOING_BUSINESS_AS_NAME":"MIDAS MUFFLER & BRAKES","POP_AT_RISK":74333,"BUSINESS_TYPE":"Motor Vehicle Repair : Engine Only (Class II)","LEGAL_NAME":"GANDOLF ENTERPRISES LIMITED","LONGITUDE":-87.63346118528574},
{"STATE":"IL","ZIP":60646,"LATTITUDE":41.996166547688986,"ADDRESS":"6301 N CENTRAL AVE  ","YEAR":2007,"DOING_BUSINESS_AS_NAME":"CENTRAL AND CALDWELL SERVICE","POP_AT_RISK":17956,"BUSINESS_TYPE":"Motor Vehicle Repair : Engine Only (Class II)","LEGAL_NAME":"CENTRAL AND CALDWELL SERVICE","LONGITUDE":-87.76404923745231},
{"STATE":"IL","ZIP":60628,"LATTITUDE":41.6969988773786,"ADDRESS":"10823 S LANGLEY AVE  ","YEAR":2007,"DOING_BUSINESS_AS_NAME":"DEAN'S AUTO BUS AND TRUCK","POP_AT_RISK":15589,"BUSINESS_TYPE":"Motor Vehicle Repair : Engine Only (Class II)","LEGAL_NAME":"DEAN'S AUTO BUS AND TRUCK INC.","LONGITUDE":-87.60593888565614},
{"STATE":"IL","ZIP":60631,"LATTITUDE":42.01180468633577,"ADDRESS":"7200 N HARLEM AVE  ","YEAR":2007,"DOING_BUSINESS_AS_NAME":"JIFFY LUBE #1160","POP_AT_RISK":35576,"BUSINESS_TYPE":"Motor Vehicle Repair : Engine Only (Class II)","LEGAL_NAME":"JIFFY LUBE INTERNATIONAL, INC.","LONGITUDE":-87.80678440617095},
{"STATE":"IL","ZIP":60623,"LATTITUDE":41.84751899202058,"ADDRESS":"4418 W OGDEN AVE 1ST ","YEAR":2007,"DOING_BUSINESS_AS_NAME":"STANDARD GENERATOR SERVICE INC","POP_AT_RISK":51250,"BUSINESS_TYPE":"Motor Vehicle Repair : Engine Only (Class II)","LEGAL_NAME":"STANDARD GENERATOR SERVICE INC","LONGITUDE":-87.73519589944601},
{"STATE":"IL","ZIP":60605,"LATTITUDE":41.86047126325852,"ADDRESS":"1550 S WABASH AVE  ","YEAR":2007,"DOING_BUSINESS_AS_NAME":"FIRESTONE","POP_AT_RISK":40698,"BUSINESS_TYPE":"Motor Vehicle Repair : Engine Only (Class II)","LEGAL_NAME":"BRIDGESTONE RETAIL OPERATIONS, LLC","LONGITUDE":-87.62581515314527},
{"STATE":"IL","ZIP":60613,"LATTITUDE":41.95439176162065,"ADDRESS":"939 W IRVING PARK RD 1 ","YEAR":2007,"DOING_BUSINESS_AS_NAME":"MOTOR CITY","POP_AT_RISK":82008,"BUSINESS_TYPE":"Motor Vehicle Repair : Engine Only (Class II)","LEGAL_NAME":"MOTOR CITY ACCESSORIES & REPAIR SHOP INC.","LONGITUDE":-87.65366931289527},
{"STATE":"IL","ZIP":60644,"LATTITUDE":41.88003805622556,"ADDRESS":"5827 W MADISON ST 1 ","YEAR":2007,"DOING_BUSINESS_AS_NAME":"AUTO REPAIR MUFFLERS & BRAKES FOR LESS","POP_AT_RISK":49686,"BUSINESS_TYPE":"Motor Vehicle Repair : Engine Only (Class II)","LEGAL_NAME":"AUTO REPAIR MUFFLERS & BRAKES FOR LESS, INC.","LONGITUDE":-87.77090308723896},
}