{
{"STATE":"IL","ZIP":60631,"LATTITUDE":41.98113454543051,"ADDRESS":"8600 W BRYN MAWR AVE 6 600NORTH","YEAR":2012,"DOING_BUSINESS_AS_NAME":"FMHC","POP_AT_RISK":105845,"BUSINESS_TYPE":"Expediter - Class A","LEGAL_NAME":"FMHC CORPORATION","LONGITUDE":-87.84163842292439},
{"STATE":"IL","ZIP":60622,"LATTITUDE":41.91187509218251,"ADDRESS":"1644 N HONORE ST 1ST 102","YEAR":2012,"DOING_BUSINESS_AS_NAME":"M SERVICES, INC.","POP_AT_RISK":307795,"BUSINESS_TYPE":"Expediter - Class A","LEGAL_NAME":"M SERVICES, INC.","LONGITUDE":-87.67398405950682},
{"STATE":"IL","ZIP":60611,"LATTITUDE":41.889465328771564,"ADDRESS":"405 N WABASH AVE  707","YEAR":2012,"DOING_BUSINESS_AS_NAME":"CYNTHIA INCH INC.","POP_AT_RISK":71895,"BUSINESS_TYPE":"Expediter - Class A","LEGAL_NAME":"CYNTHIA INCH INC.","LONGITUDE":-87.62650927363448},
{"STATE":"IL","ZIP":60647,"LATTITUDE":41.925352875586746,"ADDRESS":"2417 N CALIFORNIA AVE 1ST ","YEAR":2012,"DOING_BUSINESS_AS_NAME":"CHICAGO DESIGN LLC","POP_AT_RISK":651519,"BUSINESS_TYPE":"Expediter - Class A","LEGAL_NAME":"CHICAGO DESIGN LLC","LONGITUDE":-87.69728095191716},
{"STATE":"IL","ZIP":60647,"LATTITUDE":41.921093039214725,"ADDRESS":"2138 N CAMPBELL AVE 1 1","YEAR":2012,"DOING_BUSINESS_AS_NAME":"N&V DESIGNER, INC.","POP_AT_RISK":59063,"BUSINESS_TYPE":"Expediter - Class A","LEGAL_NAME":"N&V DESIGNER, INC.","LONGITUDE":-87.68942425477896},
{"STATE":"IL","ZIP":60641,"LATTITUDE":41.93851879009743,"ADDRESS":"5421 W BELMONT AVE 1 ","YEAR":2012,"DOING_BUSINESS_AS_NAME":"TAXPOL BELMONT CORP.","POP_AT_RISK":629688,"BUSINESS_TYPE":"Expediter - Class A","LEGAL_NAME":"TAXPOL BELMONT CORP.","LONGITUDE":-87.7624429424092},
{"STATE":"IL","ZIP":60610,"LATTITUDE":41.91093885000977,"ADDRESS":"1550 N CLARK ST 2ND ","YEAR":2012,"DOING_BUSINESS_AS_NAME":"BRW CONTRACTORS, LLC.","POP_AT_RISK":122466,"BUSINESS_TYPE":"Expediter - Class A","LEGAL_NAME":"BRW CONTRACTORS, LLC.","LONGITUDE":-87.63181201260736},
{"STATE":"IL","ZIP":60707,"LATTITUDE":41.91513575400795,"ADDRESS":"1925 N HARLEM AVE  104","YEAR":2012,"DOING_BUSINESS_AS_NAME":"KING DAVID CONSULTING","POP_AT_RISK":200358,"BUSINESS_TYPE":"Expediter - Class A","LEGAL_NAME":"KING DAVID MINES INC.","LONGITUDE":-87.80582621181154},
{"STATE":"IL","ZIP":60630,"LATTITUDE":41.96798330540541,"ADDRESS":"4507 W LAWRENCE AVE 1ST 107","YEAR":2012,"DOING_BUSINESS_AS_NAME":"J & K CONSULTANTS INC.","POP_AT_RISK":177952,"BUSINESS_TYPE":"Expediter - Class A","LEGAL_NAME":"J & K CONSULTANTS, INC","LONGITUDE":-87.74177611404262},
{"STATE":"IL","ZIP":60623,"LATTITUDE":41.84168682283825,"ADDRESS":"2727 S LAWNDALE AVE  ","YEAR":2012,"DOING_BUSINESS_AS_NAME":"PERMEX REMODELING INC.","POP_AT_RISK":548433,"BUSINESS_TYPE":"Expediter - Class A","LEGAL_NAME":"PERMEX REMODELING INC.","LONGITUDE":-87.71701278015497},
{"STATE":"IL","ZIP":60607,"LATTITUDE":41.88146302536488,"ADDRESS":"1301 W MADISON ST 6TH 608","YEAR":2012,"DOING_BUSINESS_AS_NAME":"PREMIER CONSULTING INC","POP_AT_RISK":41809,"BUSINESS_TYPE":"Expediter - Class A","LEGAL_NAME":"PREMIER CONSULTING INC","LONGITUDE":-87.65966034955883},
{"STATE":"IL","ZIP":60631,"LATTITUDE":41.99099978364831,"ADDRESS":"6041 N NAVARRE AVE 3 ","YEAR":2012,"DOING_BUSINESS_AS_NAME":"STERN GROUP CORPORATION","POP_AT_RISK":92284,"BUSINESS_TYPE":"Expediter - Class A","LEGAL_NAME":"STERN GROUP CORPORATION","LONGITUDE":-87.79392170400344},
{"STATE":"IL","ZIP":60626,"LATTITUDE":42.02002618860084,"ADDRESS":"7624 N EASTLAKE TER 3RD 3W","YEAR":2012,"DOING_BUSINESS_AS_NAME":"CULTURED CONSULTING INC.","POP_AT_RISK":92648,"BUSINESS_TYPE":"Expediter - Class A","LEGAL_NAME":"CULTURED CONSULTING INC.","LONGITUDE":-87.66494240063106},
{"STATE":"IL","ZIP":60612,"LATTITUDE":41.8737523219182,"ADDRESS":"2507 W HARRISON ST 1 1","YEAR":2012,"DOING_BUSINESS_AS_NAME":"IPERMIT CONSULTING, INC.","POP_AT_RISK":392238,"BUSINESS_TYPE":"Expediter - Class A","LEGAL_NAME":"IPERMIT CONSULTING, INC.","LONGITUDE":-87.68895175956841},
{"STATE":"IL","ZIP":60640,"LATTITUDE":41.965772878249275,"ADDRESS":"4619 N RAVENSWOOD AVE 3RD 301","YEAR":2012,"DOING_BUSINESS_AS_NAME":"NTP WIRELESS","POP_AT_RISK":593310,"BUSINESS_TYPE":"Expediter - Class A","LEGAL_NAME":"JAK  AND ASSOCIATES, LLC","LONGITUDE":-87.67394132827764},
{"STATE":"IL","ZIP":60614,"LATTITUDE":41.925115774743546,"ADDRESS":"1357 W FULLERTON AVE 1ST 1 F","YEAR":2012,"DOING_BUSINESS_AS_NAME":"DARA CONSULTING","POP_AT_RISK":811062,"BUSINESS_TYPE":"Expediter - Class A","LEGAL_NAME":"DARA CONSTRUCTION CO., INC.","LONGITUDE":-87.66279183527743},
{"STATE":"IL","ZIP":60641,"LATTITUDE":41.943197472168784,"ADDRESS":"5037 W NEWPORT AVE  ","YEAR":2012,"DOING_BUSINESS_AS_NAME":"S.V.A & DESIGN INCORPORATED","POP_AT_RISK":103942,"BUSINESS_TYPE":"Expediter - Class A","LEGAL_NAME":"S.V.A & DESIGN INCORPORATED","LONGITUDE":-87.7533716193576},
{"STATE":"IL","ZIP":60659,"LATTITUDE":41.997439624849804,"ADDRESS":"6357 N FAIRFIELD AVE 1ST ","YEAR":2012,"DOING_BUSINESS_AS_NAME":"MODERN ACCOUNTING & INS INC.","POP_AT_RISK":627165,"BUSINESS_TYPE":"Expediter - Class A","LEGAL_NAME":"MODERN ACCOUNTING & INS INC.","LONGITUDE":-87.6982688207981},
{"STATE":"IL","ZIP":60626,"LATTITUDE":42.010270842922104,"ADDRESS":"1327 W GREENLEAF AVE 1 GW","YEAR":2012,"DOING_BUSINESS_AS_NAME":"Square Block Consulting, Inc.","POP_AT_RISK":352032,"BUSINESS_TYPE":"Expediter - Class A","LEGAL_NAME":"Square Block Consulting, Inc.","LONGITUDE":-87.66357764811013},
{"STATE":"IL","ZIP":60652,"LATTITUDE":41.74908882943119,"ADDRESS":"4651 W 79TH ST  105","YEAR":2012,"DOING_BUSINESS_AS_NAME":"LIBERTY TAX SERVICE","POP_AT_RISK":186846,"BUSINESS_TYPE":"Expediter - Class A","LEGAL_NAME":"BASTE FINANCIAL SERVICES, INC.","LONGITUDE":-87.73842284749492},
{"STATE":"IL","ZIP":60616,"LATTITUDE":41.852939607413646,"ADDRESS":"238 W CERMAK RD 3RD C-D","YEAR":2012,"DOING_BUSINESS_AS_NAME":"CHINESE LANGUAGE SERVICES ASSOCIATES","POP_AT_RISK":374508,"BUSINESS_TYPE":"Expediter - Class A","LEGAL_NAME":"ONE ON ONE AGENT SERVICE CORP.","LONGITUDE":-87.63360748132806},
{"STATE":"IL","ZIP":60619,"LATTITUDE":41.76265826333098,"ADDRESS":"7240 S DR MARTIN LUTHER KING JR DR 1 B","YEAR":2012,"DOING_BUSINESS_AS_NAME":"ACCURATESITES","POP_AT_RISK":383340,"BUSINESS_TYPE":"Expediter - Class A","LEGAL_NAME":"UJAMAA VENTURES MANAGEMENT LLC","LONGITUDE":-87.61536627868524},
{"STATE":"IL","ZIP":60642,"LATTITUDE":41.89326015449359,"ADDRESS":"1481 W ERIE ST 2 2F","YEAR":2012,"DOING_BUSINESS_AS_NAME":"CHICAGO EXPEDITING SERVICES INC","POP_AT_RISK":78528,"BUSINESS_TYPE":"Expediter - Class A","LEGAL_NAME":"CHICAGO EXPEDITING SERVICES INC","LONGITUDE":-87.66549419490126},
{"STATE":"IL","ZIP":60640,"LATTITUDE":41.96916985510858,"ADDRESS":"1054 W LAWRENCE AVE 1ST ","YEAR":2012,"DOING_BUSINESS_AS_NAME":"ARELLANO'S PERMIT EXPEDITING, LLC","POP_AT_RISK":609435,"BUSINESS_TYPE":"Expediter - Class A","LEGAL_NAME":"ARELLANO'S PERMIT EXPEDITING, LLC","LONGITUDE":-87.65700377293834},
{"STATE":"IL","ZIP":60636,"LATTITUDE":41.791553560818635,"ADDRESS":"5621 S ASHLAND AVE 1ST ","YEAR":2012,"DOING_BUSINESS_AS_NAME":"INDELIBLE IMPRESSIONS CONSTRUCTION, INC.","POP_AT_RISK":814821,"BUSINESS_TYPE":"Expediter - Class A","LEGAL_NAME":"INDELIBLE IMPRESSIONS CONSTRUCTION, INC.","LONGITUDE":-87.66437441757314},
{"STATE":"IL","ZIP":60623,"LATTITUDE":41.85191341020999,"ADDRESS":"3052 W CERMAK RD 1ST ","YEAR":2012,"DOING_BUSINESS_AS_NAME":"VIOLETAS PERMIT & BUSINESS LICENSE L.L.C.","POP_AT_RISK":716408,"BUSINESS_TYPE":"Expediter - Class A","LEGAL_NAME":"VIOLETAS PERMIT & BUSINESS LICENSE L.L.C.","LONGITUDE":-87.70245782917193},
{"STATE":"IL","ZIP":60619,"LATTITUDE":41.73464783034891,"ADDRESS":"8759 S WABASH AVE 1ST ","YEAR":2012,"DOING_BUSINESS_AS_NAME":"CONTRACTOR'S FINANCE CENTRAL MANAGEMENT, INC.","POP_AT_RISK":265580,"BUSINESS_TYPE":"Expediter - Class A","LEGAL_NAME":"CONTRACTOR'S FINANCE CENTRAL MANAGEMENT, INC.","LONGITUDE":-87.62241352797052},
}