{
{"STATE":"IL","ZIP":60626,"LATTITUDE":42.01890350707934,"ADDRESS":"7541-7545 N CLARK ST 1ST ","YEAR":2015,"DOING_BUSINESS_AS_NAME":"HARD WATER BAR & GRILL","POP_AT_RISK":125148,"BUSINESS_TYPE":"Late Hour","LEGAL_NAME":"KEFALOS, INC.","LONGITUDE":-87.67595814790334},
{"STATE":"IL","ZIP":60613,"LATTITUDE":41.94852457422423,"ADDRESS":"3641 N HALSTED ST  ","YEAR":2015,"DOING_BUSINESS_AS_NAME":"CIRCUIT","POP_AT_RISK":76445,"BUSINESS_TYPE":"Late Hour","LEGAL_NAME":"MIKE MACHARELLO","LONGITUDE":-87.6493761225899},
{"STATE":"IL","ZIP":60638,"LATTITUDE":41.77792381411959,"ADDRESS":"5625 W 63RD ST 1ST ","YEAR":2015,"DOING_BUSINESS_AS_NAME":"MARIANNA'S PLACE","POP_AT_RISK":75752,"BUSINESS_TYPE":"Late Hour","LEGAL_NAME":"TROY LOGIC, INC","LONGITUDE":-87.76265938509499},
{"STATE":"IL","ZIP":60626,"LATTITUDE":41.998426385977595,"ADDRESS":"6412 N CLARK ST  ","YEAR":2015,"DOING_BUSINESS_AS_NAME":"TOUCHE'","POP_AT_RISK":404150,"BUSINESS_TYPE":"Late Hour","LEGAL_NAME":"NIGHT BEFORE INC.","LONGITUDE":-87.67087162992024},
{"STATE":"IL","ZIP":60616,"LATTITUDE":41.85395237977426,"ADDRESS":"2109-2111 S WABASH AVE  ","YEAR":2015,"DOING_BUSINESS_AS_NAME":"THE SHRINE - COUP D'ETAT","POP_AT_RISK":292800,"BUSINESS_TYPE":"Late Hour","LEGAL_NAME":"PROJECT WABASH LLC","LONGITUDE":-87.62537587283745},
{"STATE":"IL","ZIP":60613,"LATTITUDE":41.94736626113999,"ADDRESS":"3611 N ASHLAND AVE  ","YEAR":2015,"DOING_BUSINESS_AS_NAME":"TAI'S","POP_AT_RISK":74519,"BUSINESS_TYPE":"Late Hour","LEGAL_NAME":"TAI'S LOUNGE, INC.","LONGITUDE":-87.6687199756798},
{"STATE":"IL","ZIP":60618,"LATTITUDE":41.95019167345904,"ADDRESS":"3759 N KEDZIE AVE  1","YEAR":2015,"DOING_BUSINESS_AS_NAME":"CHRISTINA'S PLACE","POP_AT_RISK":349710,"BUSINESS_TYPE":"Late Hour","LEGAL_NAME":"WHERE'S PAPPA, INC","LONGITUDE":-87.70776827145029},
{"STATE":"IL","ZIP":60622,"LATTITUDE":41.895543708081156,"ADDRESS":"2801 W CHICAGO AVE 1&2 ","YEAR":2015,"DOING_BUSINESS_AS_NAME":"THE CONTINENTAL LOUNGE","POP_AT_RISK":339712,"BUSINESS_TYPE":"Late Hour","LEGAL_NAME":"WESTSIDE RAIL, INC.","LONGITUDE":-87.69676464023073},
{"STATE":"IL","ZIP":60612,"LATTITUDE":41.87748553469393,"ADDRESS":"1645 W JACKSON BLVD  ","YEAR":2015,"DOING_BUSINESS_AS_NAME":"PARK TAVERN CHICAGO","POP_AT_RISK":218169,"BUSINESS_TYPE":"Late Hour","LEGAL_NAME":"1645 W. JACKSON, INC.","LONGITUDE":-87.66852104233708},
{"STATE":"IL","ZIP":60613,"LATTITUDE":41.96135532131147,"ADDRESS":"1959 W MONTROSE AVE 1ST #","YEAR":2015,"DOING_BUSINESS_AS_NAME":"OAKWOOD '83","POP_AT_RISK":777300,"BUSINESS_TYPE":"Late Hour","LEGAL_NAME":"LILLIAN PROCHASKA INC","LONGITUDE":-87.67830515937477},
{"STATE":"IL","ZIP":60622,"LATTITUDE":41.91260282275408,"ADDRESS":"1675 N ELSTON AVE GROUND ","YEAR":2015,"DOING_BUSINESS_AS_NAME":"THE PROP HOUSE\/KONCRETE","POP_AT_RISK":51003,"BUSINESS_TYPE":"Late Hour","LEGAL_NAME":"C.S. PRODUCTIONS, INC.","LONGITUDE":-87.66338506444121},
{"STATE":"IL","ZIP":60623,"LATTITUDE":41.84066059466386,"ADDRESS":"2759 S PULASKI RD 1ST ","YEAR":2015,"DOING_BUSINESS_AS_NAME":"El Sinaloense","POP_AT_RISK":47450,"BUSINESS_TYPE":"Late Hour","LEGAL_NAME":"FAUSTO ENTERPRISES INC.","LONGITUDE":-87.7243059784339},
{"STATE":"IL","ZIP":60623,"LATTITUDE":41.84408106968191,"ADDRESS":"4153 W 26TH ST 1ST #","YEAR":2015,"DOING_BUSINESS_AS_NAME":"RESTAURANTE ALANIS LTD","POP_AT_RISK":149802,"BUSINESS_TYPE":"Late Hour","LEGAL_NAME":"RESTAURANTE ALANIS LTD.","LONGITUDE":-87.72907469267422},
{"STATE":"IL","ZIP":60639,"LATTITUDE":41.919526594497476,"ADDRESS":"5726 W GRAND AVE  ","YEAR":2015,"DOING_BUSINESS_AS_NAME":"JEREZ SPORT BAR AND GRILL","POP_AT_RISK":600787,"BUSINESS_TYPE":"Late Hour","LEGAL_NAME":"GRAND CENTRAL CORPORATION","LONGITUDE":-87.76937582701346},
{"STATE":"IL","ZIP":60622,"LATTITUDE":41.91058512655577,"ADDRESS":"1958 W NORTH AVE  1","YEAR":2015,"DOING_BUSINESS_AS_NAME":"THE TAVERN","POP_AT_RISK":70566,"BUSINESS_TYPE":"Late Hour","LEGAL_NAME":"MENETTI NORTH AVENUE, LLC","LONGITUDE":-87.67753276477028},
{"STATE":"IL","ZIP":60613,"LATTITUDE":41.949969437633726,"ADDRESS":"3726 N BROADWAY   ","YEAR":2015,"DOING_BUSINESS_AS_NAME":"CHARLIES CHICAGO","POP_AT_RISK":73222,"BUSINESS_TYPE":"Late Hour","LEGAL_NAME":"NASHVILLE MANAGEMENT, INC.","LONGITUDE":-87.64902099299884},
{"STATE":"IL","ZIP":60623,"LATTITUDE":41.846245643861586,"ADDRESS":"2501-2513 S KEDZIE AVE  ","YEAR":2015,"DOING_BUSINESS_AS_NAME":"CLUB VOLKAN","POP_AT_RISK":693260,"BUSINESS_TYPE":"Late Hour","LEGAL_NAME":"LITTLE VILLAGE CONCESSIONS, LLC","LONGITUDE":-87.70494537233583},
}