{
{"STATE":"IL","ZIP":60641,"LATTITUDE":41.942520018309686,"ADDRESS":"4315 W ROSCOE ST  ","YEAR":2009,"DOING_BUSINESS_AS_NAME":"JORGE PULLA","POP_AT_RISK":118660,"BUSINESS_TYPE":"Junk Peddler","LEGAL_NAME":"JORGE PULLA","LONGITUDE":-87.7352931906634},
{"STATE":"IL","ZIP":60618,"LATTITUDE":41.933108038790195,"ADDRESS":"2836 N CHRISTIANA AVE 1ST ","YEAR":2009,"DOING_BUSINESS_AS_NAME":"MARIO REYES","POP_AT_RISK":299344,"BUSINESS_TYPE":"Junk Peddler","LEGAL_NAME":"MARIO REYES","LONGITUDE":-87.71125265802594},
{"STATE":"IL","ZIP":60651,"LATTITUDE":41.89829414018907,"ADDRESS":"935 N HAMLIN AVE 2ND ","YEAR":2009,"DOING_BUSINESS_AS_NAME":"JAMES BRYANT","POP_AT_RISK":151605,"BUSINESS_TYPE":"Junk Peddler","LEGAL_NAME":"JAMES BRYANT","LONGITUDE":-87.72113839631236},
{"STATE":"IL","ZIP":60632,"LATTITUDE":41.80738568649377,"ADDRESS":"2447 W 47TH PL 1 ","YEAR":2009,"DOING_BUSINESS_AS_NAME":"JUAN ALVAREZ","POP_AT_RISK":127636,"BUSINESS_TYPE":"Junk Peddler","LEGAL_NAME":"JUAN ALVAREZ","LONGITUDE":-87.68633233787457},
{"STATE":"IL","ZIP":60617,"LATTITUDE":41.74006767448875,"ADDRESS":"8531 S EXCHANGE AVE  ","YEAR":2009,"DOING_BUSINESS_AS_NAME":"NOHEMI LOPEZ","POP_AT_RISK":28615,"BUSINESS_TYPE":"Junk Peddler","LEGAL_NAME":"NOHEMI LOPEZ","LONGITUDE":-87.5525570733546},
{"STATE":"IL","ZIP":60651,"LATTITUDE":41.90192358523146,"ADDRESS":"5901 W DIVISION ST  ","YEAR":2009,"DOING_BUSINESS_AS_NAME":"RAUL'S SCRAP METALS RECYCLING","POP_AT_RISK":328657,"BUSINESS_TYPE":"Junk Peddler","LEGAL_NAME":"RAUL LEDESMA","LONGITUDE":-87.77299574395475},
{"STATE":"IL","ZIP":60630,"LATTITUDE":41.96648292417893,"ADDRESS":"4707 N KEATING AVE 1ST ","YEAR":2009,"DOING_BUSINESS_AS_NAME":"ABEL APOLINAR","POP_AT_RISK":159816,"BUSINESS_TYPE":"Junk Peddler","LEGAL_NAME":"ABEL APOLINAR","LONGITUDE":-87.74634050773253},
{"STATE":"IL","ZIP":60632,"LATTITUDE":41.81915741416399,"ADDRESS":"3042 W 41ST ST  ","YEAR":2009,"DOING_BUSINESS_AS_NAME":"MARCO A. VELA","POP_AT_RISK":46625,"BUSINESS_TYPE":"Junk Peddler","LEGAL_NAME":"MARCO A. VELA","LONGITUDE":-87.70120232875702},
{"STATE":"IL","ZIP":60608,"LATTITUDE":41.85877508052758,"ADDRESS":"1131 W 17TH ST  ","YEAR":2009,"DOING_BUSINESS_AS_NAME":"LUIS A AGUILAR","POP_AT_RISK":538440,"BUSINESS_TYPE":"Junk Peddler","LEGAL_NAME":"LUIS A AGUILAR","LONGITUDE":-87.6546407075975},
{"STATE":"IL","ZIP":60620,"LATTITUDE":41.746127933636366,"ADDRESS":"8120 S LOOMIS BLVD 2ND ","YEAR":2009,"DOING_BUSINESS_AS_NAME":"NORMAN JACKSON","POP_AT_RISK":572078,"BUSINESS_TYPE":"Junk Peddler","LEGAL_NAME":"NORMAN JACKSON","LONGITUDE":-87.65862214165679},
{"STATE":"IL","ZIP":60612,"LATTITUDE":41.89488650610689,"ADDRESS":"2556 W SUPERIOR ST 2ND ","YEAR":2009,"DOING_BUSINESS_AS_NAME":"ARTURO ASCENCIO","POP_AT_RISK":635921,"BUSINESS_TYPE":"Junk Peddler","LEGAL_NAME":"ARTURO ASCENCIO","LONGITUDE":-87.6915470414869},
{"STATE":"IL","ZIP":60707,"LATTITUDE":41.92771744983967,"ADDRESS":"2615 N NEWCASTLE AVE 1ST ","YEAR":2009,"DOING_BUSINESS_AS_NAME":"MARIA ZACATENCO","POP_AT_RISK":106316,"BUSINESS_TYPE":"Junk Peddler","LEGAL_NAME":"MARIA ZACATENCO","LONGITUDE":-87.79644644789033},
{"STATE":"IL","ZIP":60617,"LATTITUDE":41.70528590158281,"ADDRESS":"10437 S AVENUE M   ","YEAR":2009,"DOING_BUSINESS_AS_NAME":"SALVADOR FLORES","POP_AT_RISK":65859,"BUSINESS_TYPE":"Junk Peddler","LEGAL_NAME":"SALVADOR FLORES","LONGITUDE":-87.53755946272092},
{"STATE":"IL","ZIP":60618,"LATTITUDE":41.95652490079494,"ADDRESS":"3227 W WARNER AVE 1 ","YEAR":2009,"DOING_BUSINESS_AS_NAME":"ALEXANDER CRESPO","POP_AT_RISK":128434,"BUSINESS_TYPE":"Junk Peddler","LEGAL_NAME":"ALEXANDER CRESPO","LONGITUDE":-87.70920866556703},
{"STATE":"IL","ZIP":60630,"LATTITUDE":41.97050594930822,"ADDRESS":"4915 N KEDVALE AVE 1ST ","YEAR":2009,"DOING_BUSINESS_AS_NAME":"A1 USED TIRES","POP_AT_RISK":49315,"BUSINESS_TYPE":"Junk Peddler","LEGAL_NAME":"ALEXANDER GARCIA","LONGITUDE":-87.73164715917876},
{"STATE":"IL","ZIP":60641,"LATTITUDE":41.94429402878794,"ADDRESS":"5142 W CORNELIA AVE  ","YEAR":2009,"DOING_BUSINESS_AS_NAME":"ANDRES G. DELGADO","POP_AT_RISK":49919,"BUSINESS_TYPE":"Junk Peddler","LEGAL_NAME":"ANDRES G. DELGADO","LONGITUDE":-87.7561786843443},
{"STATE":"IL","ZIP":60623,"LATTITUDE":41.843153193574864,"ADDRESS":"2643 S TRUMBULL AVE  ","YEAR":2009,"DOING_BUSINESS_AS_NAME":"CONSTANTINO GUZMAN","POP_AT_RISK":1156816,"BUSINESS_TYPE":"Junk Peddler","LEGAL_NAME":"CONSTANTINO GUZMAN","LONGITUDE":-87.71094587794926},
{"STATE":"IL","ZIP":60707,"LATTITUDE":41.92121164504666,"ADDRESS":"7108 W BELDEN AVE  ","YEAR":2009,"DOING_BUSINESS_AS_NAME":"MARCELINO CASTREJON","POP_AT_RISK":133806,"BUSINESS_TYPE":"Junk Peddler","LEGAL_NAME":"MARCELINO CASTREJON","LONGITUDE":-87.80291778669316},
{"STATE":"IL","ZIP":60609,"LATTITUDE":41.82765151170781,"ADDRESS":"3628 S HOYNE AVE  ","YEAR":2009,"DOING_BUSINESS_AS_NAME":"WE COLLECT SCRAP METAL","POP_AT_RISK":91188,"BUSINESS_TYPE":"Junk Peddler","LEGAL_NAME":"ARISTEO NAVARRETE SR.","LONGITUDE":-87.67779563231754},
{"STATE":"IL","ZIP":60619,"LATTITUDE":41.72909046883038,"ADDRESS":"9114 S HARPER AVE  ","YEAR":2009,"DOING_BUSINESS_AS_NAME":"TERENCE TOWAN HARRISON","POP_AT_RISK":132559,"BUSINESS_TYPE":"Junk Peddler","LEGAL_NAME":"TERENCE TOWAN HARRISON","LONGITUDE":-87.5868926121437},
}