{
{"STATE":"IL","ZIP":60623,"LATTITUDE":41.86425119395261,"ADDRESS":"1300 S PULASKI RD  300","YEAR":2005,"DOING_BUSINESS_AS_NAME":"NEW WEST HOMES LLC","POP_AT_RISK":580384,"BUSINESS_TYPE":"Residential Real Estate Developer","LEGAL_NAME":"NEW WEST HOMES LLC","LONGITUDE":-87.72526278969083},
{"STATE":"IL","ZIP":60647,"LATTITUDE":41.924807682885856,"ADDRESS":"3240 W FULLERTON AVE  ","YEAR":2005,"DOING_BUSINESS_AS_NAME":"2114 SPAULDING, LLC","POP_AT_RISK":1432809,"BUSINESS_TYPE":"Residential Real Estate Developer","LEGAL_NAME":"2114 SPAULDING, LLC","LONGITUDE":-87.70915536695307},
{"STATE":"IL","ZIP":60641,"LATTITUDE":41.95349152168879,"ADDRESS":"4006 N MILWAUKEE AVE  200","YEAR":2005,"DOING_BUSINESS_AS_NAME":"SEJ DEVELOPMENT INC.","POP_AT_RISK":653874,"BUSINESS_TYPE":"Residential Real Estate Developer","LEGAL_NAME":"SEJ DEVELOPMENT INC","LONGITUDE":-87.7476751325052},
{"STATE":"IL","ZIP":60622,"LATTITUDE":41.910055246645605,"ADDRESS":"1555 N SHEFFIELD AVE 2ND ","YEAR":2005,"DOING_BUSINESS_AS_NAME":"MCZ DEVELOPMENT CORP","POP_AT_RISK":153546,"BUSINESS_TYPE":"Residential Real Estate Developer","LEGAL_NAME":"MCZ DEVELOPMENT CORP","LONGITUDE":-87.65295878767697},
{"STATE":"IL","ZIP":60607,"LATTITUDE":41.879224321915544,"ADDRESS":"1040 W ADAMS ST  ","YEAR":2005,"DOING_BUSINESS_AS_NAME":"MCZ CENTRUM ADAMS LLC","POP_AT_RISK":203760,"BUSINESS_TYPE":"Residential Real Estate Developer","LEGAL_NAME":"MCZ CENTRUM ADAMS LLC","LONGITUDE":-87.65358421213601},
{"STATE":"IL","ZIP":60625,"LATTITUDE":41.96663165541289,"ADDRESS":"2611 W LELAND AVE  ","YEAR":2005,"DOING_BUSINESS_AS_NAME":"MIDTOWN REAL ESTATE LLC","POP_AT_RISK":1075692,"BUSINESS_TYPE":"Residential Real Estate Developer","LEGAL_NAME":"MIDTOWN REAL ESTATE LLC","LONGITUDE":-87.69419840898765},
{"STATE":"IL","ZIP":60612,"LATTITUDE":41.88113342988523,"ADDRESS":"2159 W MADISON ST  ","YEAR":2005,"DOING_BUSINESS_AS_NAME":"PATTISON ASSOCIATES LLC","POP_AT_RISK":221592,"BUSINESS_TYPE":"Residential Real Estate Developer","LEGAL_NAME":"PATTISON ASSOCIATES LLC","LONGITUDE":-87.68140265734412},
{"STATE":"IL","ZIP":60619,"LATTITUDE":41.731724870846456,"ADDRESS":"65 E 89TH PL  ","YEAR":2005,"DOING_BUSINESS_AS_NAME":"CITYSCAPE DEVELOPMENT LLC","POP_AT_RISK":184692,"BUSINESS_TYPE":"Residential Real Estate Developer","LEGAL_NAME":"THE CITYSCAPE GROUP LLC","LONGITUDE":-87.6214747472617},
{"STATE":"IL","ZIP":60616,"LATTITUDE":41.85865731695245,"ADDRESS":"1717 S PRAIRIE AVE  ","YEAR":2005,"DOING_BUSINESS_AS_NAME":"18TH AND PRAIRIE II, LLC","POP_AT_RISK":32900,"BUSINESS_TYPE":"Residential Real Estate Developer","LEGAL_NAME":"18TH AND PRAIRIE II, LLC","LONGITUDE":-87.62063750651437},
{"STATE":"IL","ZIP":60622,"LATTITUDE":41.915966651435504,"ADDRESS":"1657 W CORTLAND ST  ","YEAR":2005,"DOING_BUSINESS_AS_NAME":"2212 - 16 N. SEDGWICK LLC","POP_AT_RISK":52827,"BUSINESS_TYPE":"Residential Real Estate Developer","LEGAL_NAME":"2212 - 16 N. SEDGWICK LLC","LONGITUDE":-87.67012761957277},
{"STATE":"IL","ZIP":60619,"LATTITUDE":41.721684611400434,"ADDRESS":"115 E 95TH ST  ","YEAR":2005,"DOING_BUSINESS_AS_NAME":"C & S DEVELOPMENT I, INC.","POP_AT_RISK":98936,"BUSINESS_TYPE":"Residential Real Estate Developer","LEGAL_NAME":"C & S DEVELOPMENT I, INC.","LONGITUDE":-87.61987727570452},
{"STATE":"IL","ZIP":60628,"LATTITUDE":41.694397881479794,"ADDRESS":"11001 S MICHIGAN AVE  ","YEAR":2005,"DOING_BUSINESS_AS_NAME":"NHS NEIGHBORHOOD HOUSING SERVICE ROSELAND","POP_AT_RISK":155180,"BUSINESS_TYPE":"Residential Real Estate Developer","LEGAL_NAME":"NHS REDEVELOPMENT CORPORATION","LONGITUDE":-87.62064536425257},
{"STATE":"IL","ZIP":60624,"LATTITUDE":41.886269466960115,"ADDRESS":"3307 W FULTON BLVD  1ST","YEAR":2005,"DOING_BUSINESS_AS_NAME":"H&B MANAGEMENT CONSULTANTS INC.","POP_AT_RISK":297531,"BUSINESS_TYPE":"Residential Real Estate Developer","LEGAL_NAME":"H&B MANAGEMENT CONSULTANTS INC.","LONGITUDE":-87.70916418053521},
{"STATE":"IL","ZIP":60628,"LATTITUDE":41.68750695555543,"ADDRESS":"11343 S WALLACE ST  ","YEAR":2005,"DOING_BUSINESS_AS_NAME":"DANIELS\/DANIELS INVESTMENT CORP.","POP_AT_RISK":188730,"BUSINESS_TYPE":"Residential Real Estate Developer","LEGAL_NAME":"DANIELS\/DANIELS INVESTMENT CORP.","LONGITUDE":-87.63724055011113},
{"STATE":"IL","ZIP":60626,"LATTITUDE":42.00785217633035,"ADDRESS":"1225 W MORSE AVE  100","YEAR":2005,"DOING_BUSINESS_AS_NAME":"KAMBELS REAL ESTATE DEVELOPMENT, INC.","POP_AT_RISK":833266,"BUSINESS_TYPE":"Residential Real Estate Developer","LEGAL_NAME":"KAMBELS REAL ESTATE DEVELOPMENT, INC.","LONGITUDE":-87.6627470160783},
{"STATE":"IL","ZIP":60608,"LATTITUDE":41.84438880539615,"ADDRESS":"2722 S HILLOCK AVE  ","YEAR":2005,"DOING_BUSINESS_AS_NAME":"CONSTRUCTION BUILDING SERVICES","POP_AT_RISK":594272,"BUSINESS_TYPE":"Residential Real Estate Developer","LEGAL_NAME":"CONSTRUCTION BUILDING SERVICES, L.L.C.","LONGITUDE":-87.6585326202596},
{"STATE":"IL","ZIP":60605,"LATTITUDE":41.864140712078175,"ADDRESS":"30 W 14TH ST  ","YEAR":2005,"DOING_BUSINESS_AS_NAME":"BLAVVISE & BROWNE  INVESTMENT GROUP, INC.","POP_AT_RISK":48081,"BUSINESS_TYPE":"Residential Real Estate Developer","LEGAL_NAME":"BLAVVISE & BROWNE INVESTMENT GROUP , INC.","LONGITUDE":-87.62846349180944},
}