{
{"STATE":"IL","ZIP":60618,"LATTITUDE":41.940526030690236,"ADDRESS":"3278 N MILWAUKEE AVE 1ST ","YEAR":2015,"DOING_BUSINESS_AS_NAME":"ZANII","POP_AT_RISK":183474,"BUSINESS_TYPE":"Massage Establishment","LEGAL_NAME":"ZANII INC.","LONGITUDE":-87.72642981753616},
{"STATE":"IL","ZIP":60632,"LATTITUDE":41.82318948604133,"ADDRESS":"3872 S ARCHER AVE 1ST ","YEAR":2015,"DOING_BUSINESS_AS_NAME":"BODY HEALTH CENTER","POP_AT_RISK":363944,"BUSINESS_TYPE":"Massage Establishment","LEGAL_NAME":"MICHELLE YU","LONGITUDE":-87.6896467958713},
{"STATE":"IL","ZIP":60655,"LATTITUDE":41.69163646612976,"ADDRESS":"2557 W 111TH ST  ","YEAR":2015,"DOING_BUSINESS_AS_NAME":"TROPICAL SUNSATION","POP_AT_RISK":130032,"BUSINESS_TYPE":"Massage Establishment","LEGAL_NAME":"BOPPERS, INC.","LONGITUDE":-87.68570803207707},
{"STATE":"IL","ZIP":60618,"LATTITUDE":41.93637933112725,"ADDRESS":"3020 N KIMBALL AVE  ","YEAR":2015,"DOING_BUSINESS_AS_NAME":"GARRETT HYPNOSIS AND WELLNESS","POP_AT_RISK":191574,"BUSINESS_TYPE":"Massage Establishment","LEGAL_NAME":"LARRY GARRETT","LONGITUDE":-87.71254866327882},
{"STATE":"IL","ZIP":60646,"LATTITUDE":41.99834871292628,"ADDRESS":"6434 N CENTRAL AVE  ","YEAR":2015,"DOING_BUSINESS_AS_NAME":"THE FRENCH MANICURE","POP_AT_RISK":17956,"BUSINESS_TYPE":"Massage Establishment","LEGAL_NAME":"MARIA MATERNA","LONGITUDE":-87.76357981364337},
{"STATE":"IL","ZIP":60616,"LATTITUDE":41.85297382613197,"ADDRESS":"80 E CERMAK RD 1 A","YEAR":2015,"DOING_BUSINESS_AS_NAME":"RELAX MASSAGE","POP_AT_RISK":35264,"BUSINESS_TYPE":"Massage Establishment","LEGAL_NAME":"SEN GUANG CHEN","LONGITUDE":-87.6238956826966},
{"STATE":"IL","ZIP":60608,"LATTITUDE":41.83386789950954,"ADDRESS":"3310 S ARCHER AVE 1ST A","YEAR":2015,"DOING_BUSINESS_AS_NAME":"D & D SPA","POP_AT_RISK":52638,"BUSINESS_TYPE":"Massage Establishment","LEGAL_NAME":"AOB CORPORATION","LONGITUDE":-87.67220635773316},
{"STATE":"IL","ZIP":60612,"LATTITUDE":41.87075810919069,"ADDRESS":"819 S WESTERN AVE 1ST ","YEAR":2015,"DOING_BUSINESS_AS_NAME":"YUAN YUAN SPA","POP_AT_RISK":311292,"BUSINESS_TYPE":"Massage Establishment","LEGAL_NAME":"LIEH YUEN HWANG","LONGITUDE":-87.68600614866033},
{"STATE":"IL","ZIP":60617,"LATTITUDE":41.72803591373235,"ADDRESS":"9204 S COMMERCIAL AVE  306","YEAR":2015,"DOING_BUSINESS_AS_NAME":"CREATIONS TOUCH","POP_AT_RISK":123914,"BUSINESS_TYPE":"Massage Establishment","LEGAL_NAME":"BARBARA A GODINA","LONGITUDE":-87.55135785246874},
{"STATE":"IL","ZIP":60646,"LATTITUDE":41.98379765407652,"ADDRESS":"5631 N MILWAUKEE AVE  ","YEAR":2015,"DOING_BUSINESS_AS_NAME":"MASSAGE CLINIC","POP_AT_RISK":55094,"BUSINESS_TYPE":"Massage Establishment","LEGAL_NAME":"CHRISTOPHER HONG","LONGITUDE":-87.77497789097886},
{"STATE":"IL","ZIP":60618,"LATTITUDE":41.960992978909715,"ADDRESS":"3451 W MONTROSE AVE  ","YEAR":2015,"DOING_BUSINESS_AS_NAME":"ZEUS MASSAGE","POP_AT_RISK":163106,"BUSINESS_TYPE":"Massage Establishment","LEGAL_NAME":"VICTOR R. PELLOT","LONGITUDE":-87.71520945491297},
{"STATE":"IL","ZIP":60615,"LATTITUDE":41.807254392728545,"ADDRESS":"4800 S CHICAGO BEACH DR LOBBY 1000","YEAR":2015,"DOING_BUSINESS_AS_NAME":"WALTONS URBAN RETREAT","POP_AT_RISK":106002,"BUSINESS_TYPE":"Massage Establishment","LEGAL_NAME":"PATRICIA A WALTON","LONGITUDE":-87.5866743553796},
{"STATE":"IL","ZIP":60618,"LATTITUDE":41.96132968533657,"ADDRESS":"2956 W MONTROSE AVE  ","YEAR":2015,"DOING_BUSINESS_AS_NAME":"CHICAGO THERAPEUTIC MASSAGE","POP_AT_RISK":72064,"BUSINESS_TYPE":"Massage Establishment","LEGAL_NAME":"DANGUOLE  VILKIENE","LONGITUDE":-87.70315091130662},
{"STATE":"IL","ZIP":60616,"LATTITUDE":41.845601286354665,"ADDRESS":"262 W 26TH ST  ","YEAR":2015,"DOING_BUSINESS_AS_NAME":"WINNIE PEK HA CHAN","POP_AT_RISK":31392,"BUSINESS_TYPE":"Massage Establishment","LEGAL_NAME":"WINNIE PEK HA CHAN","LONGITUDE":-87.6342287947557},
{"STATE":"IL","ZIP":60707,"LATTITUDE":41.92370919344607,"ADDRESS":"7163 W GRAND AVE 1 ","YEAR":2015,"DOING_BUSINESS_AS_NAME":"P.S. Yoga","POP_AT_RISK":416835,"BUSINESS_TYPE":"Massage Establishment","LEGAL_NAME":"PERFECT SCIENCE INC.","LONGITUDE":-87.8050531174861},
{"STATE":"IL","ZIP":60641,"LATTITUDE":41.95309126784767,"ADDRESS":"5515 W IRVING PARK RD  ","YEAR":2015,"DOING_BUSINESS_AS_NAME":"XSPORT FITNESS","POP_AT_RISK":404082,"BUSINESS_TYPE":"Massage Establishment","LEGAL_NAME":"XTREME FITNESS, INC.","LONGITUDE":-87.76519556859185},
{"STATE":"IL","ZIP":60646,"LATTITUDE":41.99592392276426,"ADDRESS":"6310 N NAGLE AVE 1ST A","YEAR":2015,"DOING_BUSINESS_AS_NAME":"FOOT REFLEXOLOGY INC.","POP_AT_RISK":22437,"BUSINESS_TYPE":"Massage Establishment","LEGAL_NAME":"FOOT REFLEXOLOGY INC.","LONGITUDE":-87.78763799175523},
{"STATE":"IL","ZIP":60631,"LATTITUDE":42.01086108894005,"ADDRESS":"7132 N HARLEM AVE 1ST 109","YEAR":2015,"DOING_BUSINESS_AS_NAME":"IRYNA MARTYN","POP_AT_RISK":19160,"BUSINESS_TYPE":"Massage Establishment","LEGAL_NAME":"IRENE'S MASSAGE, INC.","LONGITUDE":-87.80679380310987},
{"STATE":"IL","ZIP":60626,"LATTITUDE":42.007782579829936,"ADDRESS":"6934 N GLENWOOD AVE 2 F","YEAR":2015,"DOING_BUSINESS_AS_NAME":"ROGERS PARK CENTER FOR MASSAGE THERAPY","POP_AT_RISK":202089,"BUSINESS_TYPE":"Massage Establishment","LEGAL_NAME":"KAREN MARGARET WERNER","LONGITUDE":-87.66632158333684},
{"STATE":"IL","ZIP":60646,"LATTITUDE":41.98881553278768,"ADDRESS":"5901 N CICERO AVE  G-11","YEAR":2015,"DOING_BUSINESS_AS_NAME":"MASSAGE MIRACLE","POP_AT_RISK":47166,"BUSINESS_TYPE":"Massage Establishment","LEGAL_NAME":"MARYNA MITSKO-SCHLITZ","LONGITUDE":-87.74817539211976},
{"STATE":"IL","ZIP":60609,"LATTITUDE":41.83005601941041,"ADDRESS":"3523 S HALSTED ST 1ST ","YEAR":2015,"DOING_BUSINESS_AS_NAME":"FOOT THERAPY SPOT INC.","POP_AT_RISK":65800,"BUSINESS_TYPE":"Massage Establishment","LEGAL_NAME":"FOOT THERAPY SPOT INC.","LONGITUDE":-87.64594464028859},
{"STATE":"IL","ZIP":60641,"LATTITUDE":41.953998240215675,"ADDRESS":"4034 N MILWAUKEE AVE  ","YEAR":2015,"DOING_BUSINESS_AS_NAME":"KINGSTON REFLEXOLOGY LLC","POP_AT_RISK":100596,"BUSINESS_TYPE":"Massage Establishment","LEGAL_NAME":"KINGSTON REFLEXOLOGY LLC","LONGITUDE":-87.74851265210143},
{"STATE":"IL","ZIP":60655,"LATTITUDE":41.6915538005651,"ADDRESS":"3502 W 111TH ST  ","YEAR":2015,"DOING_BUSINESS_AS_NAME":"FACE TO FACE","POP_AT_RISK":100080,"BUSINESS_TYPE":"Massage Establishment","LEGAL_NAME":"ANTONELLA FRANGELLA-QUINN","LONGITUDE":-87.70829980245604},
{"STATE":"IL","ZIP":60638,"LATTITUDE":41.79223321698213,"ADDRESS":"6842 W ARCHER AVE  ","YEAR":2015,"DOING_BUSINESS_AS_NAME":"THE BLOOMING LOTUS, CORP","POP_AT_RISK":75188,"BUSINESS_TYPE":"Massage Establishment","LEGAL_NAME":"THE BLOOMING LOTUS, CORP.","LONGITUDE":-87.7932838035596},
{"STATE":"IL","ZIP":60631,"LATTITUDE":42.01152752717812,"ADDRESS":"7646 W TOUHY AVE 1 ","YEAR":2015,"DOING_BUSINESS_AS_NAME":"BALANCE MASSAGE THERAPY INC.","POP_AT_RISK":19740,"BUSINESS_TYPE":"Massage Establishment","LEGAL_NAME":"BALANCE MASSAGE THERAPY INC.","LONGITUDE":-87.81818593992705},
{"STATE":"IL","ZIP":60620,"LATTITUDE":41.72814388801822,"ADDRESS":"9101 S WESTERN AVE  1 & 2","YEAR":2015,"DOING_BUSINESS_AS_NAME":"Serenity Spa and Wellness, Inc.","POP_AT_RISK":67605,"BUSINESS_TYPE":"Massage Establishment","LEGAL_NAME":"SERENITY SPA AND WELLNESS, INC.","LONGITUDE":-87.6821399005298},
{"STATE":"IL","ZIP":60608,"LATTITUDE":41.85340779273068,"ADDRESS":"2122 S ASHLAND AVE 1ST ","YEAR":2015,"DOING_BUSINESS_AS_NAME":"VERDE WELLNESS AND MASSAGE","POP_AT_RISK":41282,"BUSINESS_TYPE":"Massage Establishment","LEGAL_NAME":"VERDE WELLNESS AND MASSAGE, INC.","LONGITUDE":-87.66618173767567},
{"STATE":"IL","ZIP":60626,"LATTITUDE":42.01594471000577,"ADDRESS":"1445 W JARVIS AVE  ","YEAR":2015,"DOING_BUSINESS_AS_NAME":"LUMBAR LOUNGE","POP_AT_RISK":186888,"BUSINESS_TYPE":"Massage Establishment","LEGAL_NAME":"SUZEN COOK  MASSAGE THERAPY, INC.","LONGITUDE":-87.66789581133165},
}