{
{"STATE":"IL","ZIP":60619,"LATTITUDE":41.765690875014045,"ADDRESS":"100-102 E 71ST ST 1ST ","YEAR":2008,"DOING_BUSINESS_AS_NAME":"RODNEY'S COCKTAIL LOUNGE","POP_AT_RISK":106839,"BUSINESS_TYPE":"Music and Dance","LEGAL_NAME":"C B N INC","LONGITUDE":-87.62161560907718},
{"STATE":"IL","ZIP":60649,"LATTITUDE":41.7668180675386,"ADDRESS":"7041 S JEFFERY BLVD  ","YEAR":2008,"DOING_BUSINESS_AS_NAME":"JEFFERY PUB","POP_AT_RISK":130011,"BUSINESS_TYPE":"Music and Dance","LEGAL_NAME":"JAF, LTD.","LONGITUDE":-87.5761708282342},
{"STATE":"IL","ZIP":60636,"LATTITUDE":41.79029802503693,"ADDRESS":"5701 S ASHLAND AVE  ","YEAR":2008,"DOING_BUSINESS_AS_NAME":"WILLIAMS INN","POP_AT_RISK":152700,"BUSINESS_TYPE":"Music and Dance","LEGAL_NAME":"LULA'S INC.","LONGITUDE":-87.66434168191911},
{"STATE":"IL","ZIP":60621,"LATTITUDE":41.7871761020304,"ADDRESS":"700 W 59TH ST 1ST ","YEAR":2008,"DOING_BUSINESS_AS_NAME":"SANDERS LOUNGE","POP_AT_RISK":51190,"BUSINESS_TYPE":"Music and Dance","LEGAL_NAME":"O C SANDERS","LONGITUDE":-87.64259901750826},
{"STATE":"IL","ZIP":60633,"LATTITUDE":41.64940779309749,"ADDRESS":"13505 S BRAINARD AVE 1ST ","YEAR":2008,"DOING_BUSINESS_AS_NAME":"CLUB 505 INC","POP_AT_RISK":4206,"BUSINESS_TYPE":"Music and Dance","LEGAL_NAME":"CLUB 505 INC","LONGITUDE":-87.54691041707007},
{"STATE":"IL","ZIP":60632,"LATTITUDE":41.80120544865184,"ADDRESS":"2522-2524 W 51ST ST  1","YEAR":2008,"DOING_BUSINESS_AS_NAME":"STUDIO 51","POP_AT_RISK":199360,"BUSINESS_TYPE":"Music and Dance","LEGAL_NAME":"GORALKA,INC.","LONGITUDE":-87.68775219068961},
{"STATE":"IL","ZIP":60639,"LATTITUDE":41.92435237920002,"ADDRESS":"4754 W FULLERTON AVE 1ST ","YEAR":2008,"DOING_BUSINESS_AS_NAME":"BAXTER'S GIN MILL","POP_AT_RISK":398052,"BUSINESS_TYPE":"Music and Dance","LEGAL_NAME":"J.N.P., INC.","LONGITUDE":-87.74608614083766},
{"STATE":"IL","ZIP":60632,"LATTITUDE":41.79333004477491,"ADDRESS":"3401 W 55TH ST  ","YEAR":2008,"DOING_BUSINESS_AS_NAME":"LA SYRENA","POP_AT_RISK":108820,"BUSINESS_TYPE":"Music and Dance","LEGAL_NAME":"SYRENA, INC.","LONGITUDE":-87.70851340115165},
{"STATE":"IL","ZIP":60626,"LATTITUDE":42.01890350707934,"ADDRESS":"7541-7545 N CLARK ST 1ST ","YEAR":2008,"DOING_BUSINESS_AS_NAME":"HARD WATER BAR & GRILL","POP_AT_RISK":312870,"BUSINESS_TYPE":"Music and Dance","LEGAL_NAME":"KEFALOS, INC.","LONGITUDE":-87.67595814790334},
{"STATE":"IL","ZIP":60619,"LATTITUDE":41.75817409333064,"ADDRESS":"69 E 75TH ST  2","YEAR":2008,"DOING_BUSINESS_AS_NAME":"WILLA'S FIFTY YARD LINE","POP_AT_RISK":33712,"BUSINESS_TYPE":"Music and Dance","LEGAL_NAME":"WILLA JOHNSON","LONGITUDE":-87.62199444753409},
{"STATE":"IL","ZIP":60636,"LATTITUDE":41.75864352890194,"ADDRESS":"7432 S RACINE AVE 1ST ","YEAR":2008,"DOING_BUSINESS_AS_NAME":"HOT CITY LOUNGE","POP_AT_RISK":90300,"BUSINESS_TYPE":"Music and Dance","LEGAL_NAME":"HENRY L HOSKIN","LONGITUDE":-87.65409388721017},
{"STATE":"IL","ZIP":60641,"LATTITUDE":41.95324249980824,"ADDRESS":"5007-5009 W IRVING PARK RD  ","YEAR":2008,"DOING_BUSINESS_AS_NAME":"NITE CAP","POP_AT_RISK":47334,"BUSINESS_TYPE":"Music and Dance","LEGAL_NAME":"NITE CAP, INC.","LONGITUDE":-87.75253198482571},
{"STATE":"IL","ZIP":60623,"LATTITUDE":41.85012876458157,"ADDRESS":"2256 S ALBANY AVE  ","YEAR":2008,"DOING_BUSINESS_AS_NAME":"El Camino Club","POP_AT_RISK":129834,"BUSINESS_TYPE":"Music and Dance","LEGAL_NAME":"2256 CLUB, INC.","LONGITUDE":-87.70290236641058},
{"STATE":"IL","ZIP":60619,"LATTITUDE":41.73670525705425,"ADDRESS":"1249 E 87TH ST 1ST ","YEAR":2008,"DOING_BUSINESS_AS_NAME":"ARTIS KING LUDD","POP_AT_RISK":168290,"BUSINESS_TYPE":"Music and Dance","LEGAL_NAME":"ARTIS KING LUDD","LONGITUDE":-87.59302180019431},
{"STATE":"IL","ZIP":60622,"LATTITUDE":41.90286898429872,"ADDRESS":"1150 N DAMEN AVE  ","YEAR":2008,"DOING_BUSINESS_AS_NAME":"RAINBO CLUB INC","POP_AT_RISK":73181,"BUSINESS_TYPE":"Music and Dance","LEGAL_NAME":"RAINBO CLUB INC","LONGITUDE":-87.67739521542943},
{"STATE":"IL","ZIP":60638,"LATTITUDE":41.77792381411959,"ADDRESS":"5625 W 63RD ST 1ST ","YEAR":2008,"DOING_BUSINESS_AS_NAME":"MARIANNA'S PLACE","POP_AT_RISK":18938,"BUSINESS_TYPE":"Music and Dance","LEGAL_NAME":"TROY LOGIC, INC","LONGITUDE":-87.76265938509499},
{"STATE":"IL","ZIP":60609,"LATTITUDE":41.81979679814973,"ADDRESS":"4046 S WESTERN AVE  ","YEAR":2008,"DOING_BUSINESS_AS_NAME":"CONFESSION","POP_AT_RISK":454930,"BUSINESS_TYPE":"Music and Dance","LEGAL_NAME":"ADAME & RUIZ INC","LONGITUDE":-87.68488112119262},
{"STATE":"IL","ZIP":60634,"LATTITUDE":41.93815884821092,"ADDRESS":"7050 W BELMONT AVE 1ST ","YEAR":2008,"DOING_BUSINESS_AS_NAME":"AMBASSADOR","POP_AT_RISK":40062,"BUSINESS_TYPE":"Music and Dance","LEGAL_NAME":"AMBASSADOR, INC.","LONGITUDE":-87.80315795762327},
{"STATE":"IL","ZIP":60651,"LATTITUDE":41.90235347935294,"ADDRESS":"5206-5208 W DIVISION ST 1ST ","YEAR":2008,"DOING_BUSINESS_AS_NAME":"BERNARD & VANESSA'S LOUNGE","POP_AT_RISK":46210,"BUSINESS_TYPE":"Music and Dance","LEGAL_NAME":"ODESSA DICKERSON","LONGITUDE":-87.75611796429392},
{"STATE":"IL","ZIP":60634,"LATTITUDE":41.93848548281483,"ADDRESS":"6218 W BELMONT AVE  ","YEAR":2008,"DOING_BUSINESS_AS_NAME":"DI DI RAMINOV SHOW INC","POP_AT_RISK":106694,"BUSINESS_TYPE":"Music and Dance","LEGAL_NAME":"RAMINOV SHOW INC","LONGITUDE":-87.7818763141497},
{"STATE":"IL","ZIP":60626,"LATTITUDE":41.998426385977595,"ADDRESS":"6412 N CLARK ST  ","YEAR":2008,"DOING_BUSINESS_AS_NAME":"TOUCHE'","POP_AT_RISK":484980,"BUSINESS_TYPE":"Music and Dance","LEGAL_NAME":"NIGHT BEFORE INC.","LONGITUDE":-87.67087162992024},
{"STATE":"IL","ZIP":60642,"LATTITUDE":41.889975288186825,"ADDRESS":"439 N OGDEN AVE 1ST #","YEAR":2008,"DOING_BUSINESS_AS_NAME":"439 NIGHT CLUB INC","POP_AT_RISK":38563,"BUSINESS_TYPE":"Music and Dance","LEGAL_NAME":"439 NIGHT CLUB INC","LONGITUDE":-87.65976286576765},
{"STATE":"IL","ZIP":60649,"LATTITUDE":41.75201238603088,"ADDRESS":"2914-2916 E 79TH ST 1 ","YEAR":2008,"DOING_BUSINESS_AS_NAME":"BERNICE'S TWILIGHT ZONE","POP_AT_RISK":144476,"BUSINESS_TYPE":"Music and Dance","LEGAL_NAME":"BERNICE M. BLAKELY","LONGITUDE":-87.5534476155318},
{"STATE":"IL","ZIP":60643,"LATTITUDE":41.70486871150318,"ADDRESS":"10350 S WESTERN AVE  ","YEAR":2008,"DOING_BUSINESS_AS_NAME":"BREWBAKERS","POP_AT_RISK":194068,"BUSINESS_TYPE":"Music and Dance","LEGAL_NAME":"GORDON LOUNGE, INC","LONGITUDE":-87.68171958749872},
{"STATE":"IL","ZIP":60630,"LATTITUDE":41.97073187089087,"ADDRESS":"4953 N ELSTON AVE 1ST #","YEAR":2008,"DOING_BUSINESS_AS_NAME":"SUNNYDAY TAP","POP_AT_RISK":64186,"BUSINESS_TYPE":"Music and Dance","LEGAL_NAME":"SUNNYDAY TAP, INC.","LONGITUDE":-87.74419206627292},
{"STATE":"IL","ZIP":60612,"LATTITUDE":41.89198501120562,"ADDRESS":"600 N KEDZIE AVE 1ST ","YEAR":2008,"DOING_BUSINESS_AS_NAME":"007 LOUNGE","POP_AT_RISK":169910,"BUSINESS_TYPE":"Music and Dance","LEGAL_NAME":"CORNELIUS ALEXANDER","LONGITUDE":-87.70659548852609},
{"STATE":"IL","ZIP":60605,"LATTITUDE":41.87305557644521,"ADDRESS":"701 S STATE ST  ","YEAR":2008,"DOING_BUSINESS_AS_NAME":"SOUTH LOOP CLUB INC","POP_AT_RISK":128394,"BUSINESS_TYPE":"Music and Dance","LEGAL_NAME":"SOUTH LOOP CLUB INC","LONGITUDE":-87.62741781254495},
{"STATE":"IL","ZIP":60634,"LATTITUDE":41.93735506983236,"ADDRESS":"3119 N CENTRAL AVE  ","YEAR":2008,"DOING_BUSINESS_AS_NAME":"LA COSTA","POP_AT_RISK":59744,"BUSINESS_TYPE":"Music and Dance","LEGAL_NAME":"CATS & JAMMERS, INC.","LONGITUDE":-87.76630744539683},
{"STATE":"IL","ZIP":60617,"LATTITUDE":41.73204913540182,"ADDRESS":"8940-8942 S STONY ISLAND AVE  1","YEAR":2008,"DOING_BUSINESS_AS_NAME":"FAMILY DEN","POP_AT_RISK":18937,"BUSINESS_TYPE":"Music and Dance","LEGAL_NAME":"THE FAMILY DEN, INC.","LONGITUDE":-87.585689498895},
{"STATE":"IL","ZIP":60629,"LATTITUDE":41.78652676834002,"ADDRESS":"2748 W 59TH ST  ","YEAR":2008,"DOING_BUSINESS_AS_NAME":"RITCHIE'S","POP_AT_RISK":255420,"BUSINESS_TYPE":"Music and Dance","LEGAL_NAME":"RICK'S THAT'S IT, LTD.","LONGITUDE":-87.69311455891014},
{"STATE":"IL","ZIP":60640,"LATTITUDE":41.978291592499495,"ADDRESS":"1064 W BERWYN AVE  ","YEAR":2008,"DOING_BUSINESS_AS_NAME":"OLLIES","POP_AT_RISK":70452,"BUSINESS_TYPE":"Music and Dance","LEGAL_NAME":"BURTONS TAP & GRILL INC","LONGITUDE":-87.65764127563683},
{"STATE":"IL","ZIP":60659,"LATTITUDE":41.997535204364794,"ADDRESS":"3106 W DEVON AVE  ","YEAR":2008,"DOING_BUSINESS_AS_NAME":"DU SHONG RESTAURANT INC","POP_AT_RISK":169437,"BUSINESS_TYPE":"Music and Dance","LEGAL_NAME":"DU SHONG RESTAURANT INC","LONGITUDE":-87.70726013559047},
{"STATE":"IL","ZIP":60623,"LATTITUDE":41.84066059466386,"ADDRESS":"2759 S PULASKI RD 1ST ","YEAR":2008,"DOING_BUSINESS_AS_NAME":"El Sinaloense","POP_AT_RISK":47450,"BUSINESS_TYPE":"Music and Dance","LEGAL_NAME":"FAUSTO ENTERPRISES INC.","LONGITUDE":-87.7243059784339},
{"STATE":"IL","ZIP":60608,"LATTITUDE":41.84741323855181,"ADDRESS":"2435 S LEAVITT ST 1ST ","YEAR":2008,"DOING_BUSINESS_AS_NAME":"CLUB ESKANDALO","POP_AT_RISK":71538,"BUSINESS_TYPE":"Music and Dance","LEGAL_NAME":"LAPARA NIGHT CLUB, INC.","LONGITUDE":-87.68046885009277},
{"STATE":"IL","ZIP":60623,"LATTITUDE":41.84408106968191,"ADDRESS":"4153 W 26TH ST 1ST #","YEAR":2008,"DOING_BUSINESS_AS_NAME":"RESTAURANTE ALANIS LTD","POP_AT_RISK":49934,"BUSINESS_TYPE":"Music and Dance","LEGAL_NAME":"RESTAURANTE ALANIS LTD.","LONGITUDE":-87.72907469267422},
{"STATE":"IL","ZIP":60617,"LATTITUDE":41.74445686220236,"ADDRESS":"2020  -02022 E 83RD ST 1ST ","YEAR":2008,"DOING_BUSINESS_AS_NAME":"NEW CELEBRITY LOUNGE INC","POP_AT_RISK":37082,"BUSINESS_TYPE":"Music and Dance","LEGAL_NAME":"NEW CELEBRITY LOUNGE INC","LONGITUDE":-87.57491002150282},
{"STATE":"IL","ZIP":60607,"LATTITUDE":41.869411103369174,"ADDRESS":"1458 W TAYLOR ST  ","YEAR":2008,"DOING_BUSINESS_AS_NAME":"HAWKEYE'S BAR & GRILL INC","POP_AT_RISK":111444,"BUSINESS_TYPE":"Music and Dance","LEGAL_NAME":"HAWKEYE'S BAR & GRILL INC","LONGITUDE":-87.66401783425155},
{"STATE":"IL","ZIP":60634,"LATTITUDE":41.9379941491104,"ADDRESS":"7706 W BELMONT AVE  ","YEAR":2008,"DOING_BUSINESS_AS_NAME":"AS TIME GOES BY II LTD.","POP_AT_RISK":33920,"BUSINESS_TYPE":"Music and Dance","LEGAL_NAME":"AS TIME GOES BY II LIMITED","LONGITUDE":-87.81928311687304},
{"STATE":"IL","ZIP":60619,"LATTITUDE":41.75886431411593,"ADDRESS":"1530 E 75TH ST 1ST ","YEAR":2008,"DOING_BUSINESS_AS_NAME":"NEW BABY'O","POP_AT_RISK":75562,"BUSINESS_TYPE":"Music and Dance","LEGAL_NAME":"RUBY M. & RODOLTHAS BASKIN","LONGITUDE":-87.58721924748251},
{"STATE":"IL","ZIP":60625,"LATTITUDE":41.965113976146405,"ADDRESS":"4613 N KEDZIE AVE 1ST ","YEAR":2008,"DOING_BUSINESS_AS_NAME":"Governor's","POP_AT_RISK":223701,"BUSINESS_TYPE":"Music and Dance","LEGAL_NAME":"SHEBA MIDDLE EAST RESTAURANT","LONGITUDE":-87.70822196388058},
{"STATE":"IL","ZIP":60620,"LATTITUDE":41.75067640406119,"ADDRESS":"1004 W 79TH ST  1","YEAR":2008,"DOING_BUSINESS_AS_NAME":"STUDIO 79 DISCO LOUNGE INC","POP_AT_RISK":116505,"BUSINESS_TYPE":"Music and Dance","LEGAL_NAME":"STUDIO 79 DISCO LOUNGE, INC.","LONGITUDE":-87.64912082892886},
{"STATE":"IL","ZIP":60638,"LATTITUDE":41.77750758060504,"ADDRESS":"6539-6541 W 63RD ST  ","YEAR":2008,"DOING_BUSINESS_AS_NAME":"J & J LOUNG & BANQUET HALL INC","POP_AT_RISK":66651,"BUSINESS_TYPE":"Music and Dance","LEGAL_NAME":"J & J LOUNGE BANQUET HALL INC","LONGITUDE":-87.78530285418451},
{"STATE":"IL","ZIP":60643,"LATTITUDE":41.692637090930575,"ADDRESS":"11043 S ASHLAND AVE 1ST ","YEAR":2008,"DOING_BUSINESS_AS_NAME":"THE NEW SOME PLACE ELSE LOUNGE","POP_AT_RISK":133720,"BUSINESS_TYPE":"Music and Dance","LEGAL_NAME":"THE NEW SOME PLACE ELSE, INC.","LONGITUDE":-87.66171111252139},
{"STATE":"IL","ZIP":60652,"LATTITUDE":41.74051514320914,"ADDRESS":"8355 S PULASKI RD  ","YEAR":2008,"DOING_BUSINESS_AS_NAME":"GROUCHO'S BAR & GRILL","POP_AT_RISK":31842,"BUSINESS_TYPE":"Music and Dance","LEGAL_NAME":"PAUL AND MARC'S ENTERPRISES, LTD.","LONGITUDE":-87.72147836324686},
{"STATE":"IL","ZIP":60637,"LATTITUDE":41.78792148410527,"ADDRESS":"1212 E 59TH ST  1","YEAR":2008,"DOING_BUSINESS_AS_NAME":"UNIVERSITY OF CHICAGO CLOISTERS CLUB","POP_AT_RISK":767923,"BUSINESS_TYPE":"Music and Dance","LEGAL_NAME":"THE UNIVERSITY OF CHICAGO CLOISTERS CLUB","LONGITUDE":-87.59580626241898},
}