{
{"STATE":"IL","ZIP":60628,"LATTITUDE":41.69231673199835,"ADDRESS":"535 W 111TH ST 1ST ","YEAR":2003,"DOING_BUSINESS_AS_NAME":"RMR HEATING & BOILER CO","POP_AT_RISK":28071,"BUSINESS_TYPE":"Home Repair","LEGAL_NAME":"JAMES ROWLAND","LONGITUDE":-87.63647678396478},
{"STATE":"IL","ZIP":60624,"LATTITUDE":41.89217639277793,"ADDRESS":"612 N AVERS AVE  ","YEAR":2003,"DOING_BUSINESS_AS_NAME":"LINDA & COMPANY CONTRACTING","POP_AT_RISK":37342,"BUSINESS_TYPE":"Home Repair","LEGAL_NAME":"LINDA WILLIAMS","LONGITUDE":-87.72246480899616},
{"STATE":"IL","ZIP":60619,"LATTITUDE":41.75721391812998,"ADDRESS":"7539 S CALUMET AVE  ","YEAR":2003,"DOING_BUSINESS_AS_NAME":"RAINBOW PAINTING & DECORATING CO","POP_AT_RISK":468216,"BUSINESS_TYPE":"Home Repair","LEGAL_NAME":"JOANN CARMICKLE","LONGITUDE":-87.6165327830405},
{"STATE":"IL","ZIP":60634,"LATTITUDE":41.94581810831251,"ADDRESS":"6232 W ADDISON ST  ","YEAR":2003,"DOING_BUSINESS_AS_NAME":"SW CONSTRUCTION","POP_AT_RISK":528253,"BUSINESS_TYPE":"Home Repair","LEGAL_NAME":"WALDEMAR SAWICKI","LONGITUDE":-87.78270833812772},
{"STATE":"IL","ZIP":60651,"LATTITUDE":41.902611768419604,"ADDRESS":"3737 W DIVISION ST 1 FRONT ","YEAR":2003,"DOING_BUSINESS_AS_NAME":"J. L. CONSTRUCTION","POP_AT_RISK":491589,"BUSINESS_TYPE":"Home Repair","LEGAL_NAME":"JUNIOR M. LUCIANO","LONGITUDE":-87.72036557537714},
{"STATE":"IL","ZIP":60653,"LATTITUDE":41.82145019364007,"ADDRESS":"4000 S COTTAGE GROVE AVE  1","YEAR":2003,"DOING_BUSINESS_AS_NAME":"BOYLE EXTERIORS CO","POP_AT_RISK":478680,"BUSINESS_TYPE":"Home Repair","LEGAL_NAME":"BOYLE EXTERIORS CO.","LONGITUDE":-87.60697851693637},
{"STATE":"IL","ZIP":60624,"LATTITUDE":41.87139900900485,"ADDRESS":"4535 W LEXINGTON ST  ","YEAR":2003,"DOING_BUSINESS_AS_NAME":"GEOKAT","POP_AT_RISK":210485,"BUSINESS_TYPE":"Home Repair","LEGAL_NAME":"GEOKAT INCORPORATED","LONGITUDE":-87.73913170449727},
{"STATE":"IL","ZIP":60628,"LATTITUDE":41.68663005092809,"ADDRESS":"11409 S LOWE AVE  ","YEAR":2003,"DOING_BUSINESS_AS_NAME":"CASTLE HOME BUILDERS","POP_AT_RISK":64998,"BUSINESS_TYPE":"Home Repair","LEGAL_NAME":"STEVEN ANTHONY SNEED","LONGITUDE":-87.63842169868839},
{"STATE":"IL","ZIP":60641,"LATTITUDE":41.95171388974234,"ADDRESS":"3901 N KILBOURN AVE  ","YEAR":2003,"DOING_BUSINESS_AS_NAME":"ABILITY HEATING","POP_AT_RISK":495154,"BUSINESS_TYPE":"Home Repair","LEGAL_NAME":"JOHN LOUIS ANASTASIOU","LONGITUDE":-87.7407663414482},
{"STATE":"IL","ZIP":60641,"LATTITUDE":41.93533365394091,"ADDRESS":"2959 N PULASKI RD 1 ","YEAR":2003,"DOING_BUSINESS_AS_NAME":"F & G REMODELING","POP_AT_RISK":988260,"BUSINESS_TYPE":"Home Repair","LEGAL_NAME":"F & G REMODELING CO., INC.","LONGITUDE":-87.72693021132564},
{"STATE":"IL","ZIP":60614,"LATTITUDE":41.91824569146792,"ADDRESS":"910 W ARMITAGE AVE  ","YEAR":2003,"DOING_BUSINESS_AS_NAME":"SANITARY HEATING & COOLING","POP_AT_RISK":912628,"BUSINESS_TYPE":"Home Repair","LEGAL_NAME":"SANITARY HEATING & COOLING","LONGITUDE":-87.65142288644077},
{"STATE":"IL","ZIP":60624,"LATTITUDE":41.87175590003832,"ADDRESS":"3926 W LEXINGTON ST  ","YEAR":2003,"DOING_BUSINESS_AS_NAME":"C & L CONSTRUCTION ENTERPRISE","POP_AT_RISK":269521,"BUSINESS_TYPE":"Home Repair","LEGAL_NAME":"C & L CONSTRUCTION ENTERPRISE","LONGITUDE":-87.72403414334022},
{"STATE":"IL","ZIP":60617,"LATTITUDE":41.71481383024343,"ADDRESS":"9915 S CRANDON AVE  ","YEAR":2003,"DOING_BUSINESS_AS_NAME":"G & M ROOFING CONTRACTOR INC","POP_AT_RISK":60328,"BUSINESS_TYPE":"Home Repair","LEGAL_NAME":"G & M ROOFING CONTRACTORS, INC.","LONGITUDE":-87.56688094631463},
}