{
{"STATE":"IL","ZIP":60621,"LATTITUDE":41.779744243670564,"ADDRESS":"1118 W 63RD ST  ","YEAR":2006,"DOING_BUSINESS_AS_NAME":"C & H AUTO REPAIR","POP_AT_RISK":34278,"BUSINESS_TYPE":"Motor Vehicle Repair
{"STATE":"IL","ZIP":60637,"LATTITUDE":41.77561321968372,"ADDRESS":"6538 S COTTAGE GROVE AVE  ","YEAR":2006,"DOING_BUSINESS_AS_NAME":"J & S GLASS CO","POP_AT_RISK":39863,"BUSINESS_TYPE":"Motor Vehicle Repair
{"STATE":"IL","ZIP":60651,"LATTITUDE":41.902423639079714,"ADDRESS":"4932 W DIVISION ST 1ST ","YEAR":2006,"DOING_BUSINESS_AS_NAME":"PALOMOTIRE SHOP","POP_AT_RISK":100832,"BUSINESS_TYPE":"Motor Vehicle Repair
{"STATE":"IL","ZIP":60628,"LATTITUDE":41.694688042592915,"ADDRESS":"10952 S MICHIGAN AVE  1","YEAR":2006,"DOING_BUSINESS_AS_NAME":"4 ACES TIRES","POP_AT_RISK":93108,"BUSINESS_TYPE":"Motor Vehicle Repair
{"STATE":"IL","ZIP":60628,"LATTITUDE":41.678140717794385,"ADDRESS":"10 E 119TH ST 1ST ","YEAR":2006,"DOING_BUSINESS_AS_NAME":"JACKSON TIRE REPAIR","POP_AT_RISK":94464,"BUSINESS_TYPE":"Motor Vehicle Repair
{"STATE":"IL","ZIP":60612,"LATTITUDE":41.87116829298067,"ADDRESS":"2814 W POLK ST  ","YEAR":2006,"DOING_BUSINESS_AS_NAME":"CANDY SHOP CUSTOMS","POP_AT_RISK":157155,"BUSINESS_TYPE":"Motor Vehicle Repair
{"STATE":"IL","ZIP":60644,"LATTITUDE":41.86561698574138,"ADDRESS":"5838 W ROOSEVELT RD  ","YEAR":2006,"DOING_BUSINESS_AS_NAME":"ROOSEVELT TIRE SHOP","POP_AT_RISK":366926,"BUSINESS_TYPE":"Motor Vehicle Repair
{"STATE":"IL","ZIP":60640,"LATTITUDE":41.96683643050501,"ADDRESS":"4653 N CLARK ST 1ST ","YEAR":2006,"DOING_BUSINESS_AS_NAME":"MEDINAS TIRE SHOP","POP_AT_RISK":72533,"BUSINESS_TYPE":"Motor Vehicle Repair
{"STATE":"IL","ZIP":60622,"LATTITUDE":41.902806559345876,"ADDRESS":"2823 W DIVISION ST 1ST ","YEAR":2006,"DOING_BUSINESS_AS_NAME":"HUMBOLT TIRE & AUTO INC","POP_AT_RISK":59328,"BUSINESS_TYPE":"Motor Vehicle Repair
{"STATE":"IL","ZIP":60631,"LATTITUDE":42.00047578589979,"ADDRESS":"6544 N MILWAUKEE AVE 1ST ","YEAR":2006,"DOING_BUSINESS_AS_NAME":"R A S TIRE SALES","POP_AT_RISK":60573,"BUSINESS_TYPE":"Motor Vehicle Repair
{"STATE":"IL","ZIP":60637,"LATTITUDE":41.77038879849343,"ADDRESS":"6841 S KENWOOD AVE 1ST ","YEAR":2006,"DOING_BUSINESS_AS_NAME":"J W AUTO SALES & PARTS","POP_AT_RISK":66192,"BUSINESS_TYPE":"Motor Vehicle Repair
{"STATE":"IL","ZIP":60609,"LATTITUDE":41.81633161182101,"ADDRESS":"700 W 43RD ST  ","YEAR":2006,"DOING_BUSINESS_AS_NAME":"STOKES AUTO SERVICE","POP_AT_RISK":14040,"BUSINESS_TYPE":"Motor Vehicle Repair
{"STATE":"IL","ZIP":60634,"LATTITUDE":41.937851717173146,"ADDRESS":"7517 W BELMONT AVE 1ST ","YEAR":2006,"DOING_BUSINESS_AS_NAME":"ONCE OVER CAR DETAILING","POP_AT_RISK":211915,"BUSINESS_TYPE":"Motor Vehicle Repair
{"STATE":"IL","ZIP":60643,"LATTITUDE":41.684971438520385,"ADDRESS":"1448 W 115TH ST  1","YEAR":2006,"DOING_BUSINESS_AS_NAME":"PEE WEES TIRE REPAIR","POP_AT_RISK":93948,"BUSINESS_TYPE":"Motor Vehicle Repair
{"STATE":"IL","ZIP":60620,"LATTITUDE":41.73023756491855,"ADDRESS":"9018 S HALSTED ST  1ST","YEAR":2006,"DOING_BUSINESS_AS_NAME":"BEN'S TIRE SERVICE","POP_AT_RISK":64654,"BUSINESS_TYPE":"Motor Vehicle Repair
{"STATE":"IL","ZIP":60657,"LATTITUDE":41.935190843813075,"ADDRESS":"2911 N CLARK ST  ","YEAR":2006,"DOING_BUSINESS_AS_NAME":"THE SOUND ADVANTAGE","POP_AT_RISK":79422,"BUSINESS_TYPE":"Motor Vehicle Repair
{"STATE":"IL","ZIP":60620,"LATTITUDE":41.752747620891796,"ADDRESS":"7749 S CARPENTER ST 1ST ","YEAR":2006,"DOING_BUSINESS_AS_NAME":"ODUM'S GARAGE","POP_AT_RISK":66306,"BUSINESS_TYPE":"Motor Vehicle Repair
{"STATE":"IL","ZIP":60617,"LATTITUDE":41.71997451296936,"ADDRESS":"9647 S EWING AVE  ","YEAR":2006,"DOING_BUSINESS_AS_NAME":"CITYWIDE RIMS & SOUNDS","POP_AT_RISK":13632,"BUSINESS_TYPE":"Motor Vehicle Repair
{"STATE":"IL","ZIP":60639,"LATTITUDE":41.92196596948968,"ADDRESS":"6315 W GRAND AVE  1","YEAR":2006,"DOING_BUSINESS_AS_NAME":"DEVILLE AUTO REPAIR","POP_AT_RISK":49523,"BUSINESS_TYPE":"Motor Vehicle Repair
{"STATE":"IL","ZIP":60629,"LATTITUDE":41.77082263808896,"ADDRESS":"6717 S PULASKI RD  ","YEAR":2006,"DOING_BUSINESS_AS_NAME":"JS SOUND SHOP","POP_AT_RISK":81210,"BUSINESS_TYPE":"Motor Vehicle Repair
{"STATE":"IL","ZIP":60659,"LATTITUDE":41.9957758897753,"ADDRESS":"6300 N LINCOLN AVE 1ST ","YEAR":2006,"DOING_BUSINESS_AS_NAME":"MOBILE HI-FI INC","POP_AT_RISK":70136,"BUSINESS_TYPE":"Motor Vehicle Repair
{"STATE":"IL","ZIP":60639,"LATTITUDE":41.91963992911631,"ADDRESS":"5811 W GRAND AVE  ","YEAR":2006,"DOING_BUSINESS_AS_NAME":"ROMANS TIRE SHOP","POP_AT_RISK":47203,"BUSINESS_TYPE":"Motor Vehicle Repair
{"STATE":"IL","ZIP":60632,"LATTITUDE":41.800358082137066,"ADDRESS":"5101 S KOLMAR AVE  ","YEAR":2006,"DOING_BUSINESS_AS_NAME":"PACHECO TIRE SHOP","POP_AT_RISK":94764,"BUSINESS_TYPE":"Motor Vehicle Repair
{"STATE":"IL","ZIP":60619,"LATTITUDE":41.75135153398388,"ADDRESS":"1447 E 79TH ST  ","YEAR":2006,"DOING_BUSINESS_AS_NAME":"VELASQUEZ MUFFLERS & BRAKES","POP_AT_RISK":205545,"BUSINESS_TYPE":"Motor Vehicle Repair
{"STATE":"IL","ZIP":60624,"LATTITUDE":41.86633553946428,"ADDRESS":"3824 W ROOSEVELT RD  ","YEAR":2006,"DOING_BUSINESS_AS_NAME":"EXPRESS TIRES","POP_AT_RISK":272796,"BUSINESS_TYPE":"Motor Vehicle Repair
{"STATE":"IL","ZIP":60629,"LATTITUDE":41.77905562837101,"ADDRESS":"3240 W 63RD ST  ","YEAR":2006,"DOING_BUSINESS_AS_NAME":"J & J ELECTRONIC","POP_AT_RISK":62644,"BUSINESS_TYPE":"Motor Vehicle Repair
{"STATE":"IL","ZIP":60630,"LATTITUDE":41.982409756101816,"ADDRESS":"5584 N NORTHWEST HWY  ","YEAR":2006,"DOING_BUSINESS_AS_NAME":"NEMETH GLASS INC.","POP_AT_RISK":55480,"BUSINESS_TYPE":"Motor Vehicle Repair
{"STATE":"IL","ZIP":60617,"LATTITUDE":41.72693654649227,"ADDRESS":"9262 S SOUTH CHICAGO AVE 1ST ","YEAR":2006,"DOING_BUSINESS_AS_NAME":"R. C. B._TIRESHOP","POP_AT_RISK":43666,"BUSINESS_TYPE":"Motor Vehicle Repair
{"STATE":"IL","ZIP":60653,"LATTITUDE":41.816863888355286,"ADDRESS":"636 E 43RD ST 1ST ","YEAR":2006,"DOING_BUSINESS_AS_NAME":"PAUL JONES TIRE REPAIR","POP_AT_RISK":714348,"BUSINESS_TYPE":"Motor Vehicle Repair
{"STATE":"IL","ZIP":60615,"LATTITUDE":41.794777232849405,"ADDRESS":"48 E 55TH BLVD  1","YEAR":2006,"DOING_BUSINESS_AS_NAME":"ADAMS SERV STA INC","POP_AT_RISK":75354,"BUSINESS_TYPE":"Motor Vehicle Repair
{"STATE":"IL","ZIP":60612,"LATTITUDE":41.89090861853842,"ADDRESS":"2036 W GRAND AVE  ","YEAR":2006,"DOING_BUSINESS_AS_NAME":"QUIROGA'S DETAIL AND CAR WASH","POP_AT_RISK":91464,"BUSINESS_TYPE":"Motor Vehicle Repair
{"STATE":"IL","ZIP":60632,"LATTITUDE":41.80458486588437,"ADDRESS":"4877 S ARCHER AVE  ","YEAR":2006,"DOING_BUSINESS_AS_NAME":"JALLOWAY'S GLASS CO.","POP_AT_RISK":60442,"BUSINESS_TYPE":"Motor Vehicle Repair
{"STATE":"IL","ZIP":60622,"LATTITUDE":41.893644225167506,"ADDRESS":"641 N ASHLAND AVE 1ST ","YEAR":2006,"DOING_BUSINESS_AS_NAME":"ORLANDO AUTO TOP","POP_AT_RISK":46623,"BUSINESS_TYPE":"Motor Vehicle Repair
{"STATE":"IL","ZIP":60640,"LATTITUDE":41.975705819728354,"ADDRESS":"5137 N BROADWAY  1ST ","YEAR":2006,"DOING_BUSINESS_AS_NAME":"SUPERIOR SOUND","POP_AT_RISK":70049,"BUSINESS_TYPE":"Motor Vehicle Repair
{"STATE":"IL","ZIP":60608,"LATTITUDE":41.85418618090425,"ADDRESS":"2040-2042 S HALSTED ST  ","YEAR":2006,"DOING_BUSINESS_AS_NAME":"WE WASH CAR WASH INC","POP_AT_RISK":49706,"BUSINESS_TYPE":"Motor Vehicle Repair
{"STATE":"IL","ZIP":60614,"LATTITUDE":41.93083301378749,"ADDRESS":"2650 N CLARK ST  ","YEAR":2006,"DOING_BUSINESS_AS_NAME":"BEST BUY","POP_AT_RISK":81141,"BUSINESS_TYPE":"Motor Vehicle Repair
{"STATE":"IL","ZIP":60634,"LATTITUDE":41.95292498763521,"ADDRESS":"6027 W IRVING PARK RD  1","YEAR":2006,"DOING_BUSINESS_AS_NAME":"L P ELECTRONICS","POP_AT_RISK":276834,"BUSINESS_TYPE":"Motor Vehicle Repair
{"STATE":"IL","ZIP":60638,"LATTITUDE":41.77628457780426,"ADDRESS":"6358 S CENTRAL AVE  1ST","YEAR":2006,"DOING_BUSINESS_AS_NAME":"DAYTON AUTO UPHOLSTERY","POP_AT_RISK":13531,"BUSINESS_TYPE":"Motor Vehicle Repair
{"STATE":"IL","ZIP":60623,"LATTITUDE":41.844011645517114,"ADDRESS":"4369 W 26TH ST 1ST 1","YEAR":2006,"DOING_BUSINESS_AS_NAME":"EXPRESS AUTOMOTIVE INC","POP_AT_RISK":45902,"BUSINESS_TYPE":"Motor Vehicle Repair
{"STATE":"IL","ZIP":60644,"LATTITUDE":41.88003666620055,"ADDRESS":"5829 W MADISON ST  ","YEAR":2006,"DOING_BUSINESS_AS_NAME":"ONE STOP TIRE SHOP, INC","POP_AT_RISK":347802,"BUSINESS_TYPE":"Motor Vehicle Repair
{"STATE":"IL","ZIP":60643,"LATTITUDE":41.7089983869755,"ADDRESS":"10134 S WESTERN AVE  ","YEAR":2006,"DOING_BUSINESS_AS_NAME":"SPEEDWAY EXPRESS LUBE","POP_AT_RISK":24497,"BUSINESS_TYPE":"Motor Vehicle Repair
{"STATE":"IL","ZIP":60608,"LATTITUDE":41.863691227493106,"ADDRESS":"1347  -01349 S ASHLAND AVE 1ST ","YEAR":2006,"DOING_BUSINESS_AS_NAME":"ASHLAND AUTO GLASS","POP_AT_RISK":36695,"BUSINESS_TYPE":"Motor Vehicle Repair
{"STATE":"IL","ZIP":60636,"LATTITUDE":41.77170799847017,"ADDRESS":"6715 S ASHLAND AVE  ","YEAR":2006,"DOING_BUSINESS_AS_NAME":"MARQUETTE AUTO GLASS, INC.","POP_AT_RISK":74604,"BUSINESS_TYPE":"Motor Vehicle Repair
{"STATE":"IL","ZIP":60610,"LATTITUDE":41.89876740903396,"ADDRESS":"875 N ORLEANS ST  ","YEAR":2006,"DOING_BUSINESS_AS_NAME":"GOLD COAST HAND CAR WASH","POP_AT_RISK":158946,"BUSINESS_TYPE":"Motor Vehicle Repair
{"STATE":"IL","ZIP":60619,"LATTITUDE":41.73671612151011,"ADDRESS":"644 E 87TH ST  ","YEAR":2006,"DOING_BUSINESS_AS_NAME":"GEE'S SOUNDS & SECURITY INC.","POP_AT_RISK":69922,"BUSINESS_TYPE":"Motor Vehicle Repair
{"STATE":"IL","ZIP":60620,"LATTITUDE":41.727488176485615,"ADDRESS":"9132 S ASHLAND AVE 1ST ","YEAR":2006,"DOING_BUSINESS_AS_NAME":"RELIABLE ALARM SYSTEM","POP_AT_RISK":58592,"BUSINESS_TYPE":"Motor Vehicle Repair
{"STATE":"IL","ZIP":60638,"LATTITUDE":41.792603240395486,"ADDRESS":"5635 W 55TH ST 1ST ","YEAR":2006,"DOING_BUSINESS_AS_NAME":"A-1    SMART START OF GREATER CHICAGO","POP_AT_RISK":68475,"BUSINESS_TYPE":"Motor Vehicle Repair
{"STATE":"IL","ZIP":60616,"LATTITUDE":41.83806671096745,"ADDRESS":"349 W 31ST ST 1ST ","YEAR":2006,"DOING_BUSINESS_AS_NAME":"J & J SOFT CAR WASH INC","POP_AT_RISK":294000,"BUSINESS_TYPE":"Motor Vehicle Repair
{"STATE":"IL","ZIP":60634,"LATTITUDE":41.952530291787475,"ADDRESS":"7413 W IRVING PARK RD  ","YEAR":2006,"DOING_BUSINESS_AS_NAME":"IRVING PARK HAND CARWASH, INC.","POP_AT_RISK":130580,"BUSINESS_TYPE":"Motor Vehicle Repair
{"STATE":"IL","ZIP":60621,"LATTITUDE":41.77887155124792,"ADDRESS":"6339 S WENTWORTH AVE  ","YEAR":2006,"DOING_BUSINESS_AS_NAME":"FRANKS AUTO GLASS","POP_AT_RISK":29225,"BUSINESS_TYPE":"Motor Vehicle Repair
{"STATE":"IL","ZIP":60652,"LATTITUDE":41.73638928135282,"ADDRESS":"3949 W COLUMBUS AVE 1ST ","YEAR":2006,"DOING_BUSINESS_AS_NAME":"WILLIAM J CASSIDY TIRE SUPPLY","POP_AT_RISK":50466,"BUSINESS_TYPE":"Motor Vehicle Repair
}