{
{"STATE":"IL","ZIP":60623,"LATTITUDE":41.84432191601632,"ADDRESS":"3435 1\/2 W 26TH ST 1ST ","YEAR":2012,"DOING_BUSINESS_AS_NAME":"EL ARCA DE NOE","POP_AT_RISK":1265688,"BUSINESS_TYPE":"Animal Care License","LEGAL_NAME":"AGUSTIN MARIN","LONGITUDE":-87.7112736592086},
{"STATE":"IL","ZIP":60631,"LATTITUDE":42.011790966822375,"ADDRESS":"7236 W TOUHY AVE 1ST ","YEAR":2012,"DOING_BUSINESS_AS_NAME":"PAW & CLAW CAT GROOMING","POP_AT_RISK":76640,"BUSINESS_TYPE":"Animal Care License","LEGAL_NAME":"DIANA DEMPSEY","LONGITUDE":-87.8080824261318},
{"STATE":"IL","ZIP":60634,"LATTITUDE":41.945295393932916,"ADDRESS":"7340 W ADDISON ST 1ST ","YEAR":2012,"DOING_BUSINESS_AS_NAME":"THE DOG ROOM","POP_AT_RISK":459160,"BUSINESS_TYPE":"Animal Care License","LEGAL_NAME":"YURI HENNELLY","LONGITUDE":-87.81104071776409},
{"STATE":"IL","ZIP":60622,"LATTITUDE":41.909670581269694,"ADDRESS":"1535 N DAYTON ST 1ST ","YEAR":2012,"DOING_BUSINESS_AS_NAME":"UNLEASHED, LLC","POP_AT_RISK":50038,"BUSINESS_TYPE":"Animal Care License","LEGAL_NAME":"UNLEASHED, LLC","LONGITUDE":-87.6493194867136},
{"STATE":"IL","ZIP":60629,"LATTITUDE":41.77704369077446,"ADDRESS":"6352 S PULASKI RD N\/A ","YEAR":2012,"DOING_BUSINESS_AS_NAME":"Mr.'s Doggies Pet Grooming Salon","POP_AT_RISK":604472,"BUSINESS_TYPE":"Animal Care License","LEGAL_NAME":"Hector M Valdez","LONGITUDE":-87.72286709745119},
{"STATE":"IL","ZIP":60613,"LATTITUDE":41.9540055084986,"ADDRESS":"3945 N SHERIDAN RD 1ST ","YEAR":2012,"DOING_BUSINESS_AS_NAME":"THE HOUNDRYS","POP_AT_RISK":338900,"BUSINESS_TYPE":"Animal Care License","LEGAL_NAME":"SANDRA FERNANDEZ","LONGITUDE":-87.65438451736664},
{"STATE":"IL","ZIP":60618,"LATTITUDE":41.961117505420496,"ADDRESS":"3800 W MONTROSE AVE 1 1","YEAR":2012,"DOING_BUSINESS_AS_NAME":"DIAMOND DOGS, LTD.","POP_AT_RISK":505416,"BUSINESS_TYPE":"Animal Care License","LEGAL_NAME":"DIAMOND DOGS, LTD.","LONGITUDE":-87.72299357641774},
{"STATE":"IL","ZIP":60622,"LATTITUDE":41.89563034854132,"ADDRESS":"2403 W CHICAGO AVE 1ST ","YEAR":2012,"DOING_BUSINESS_AS_NAME":"LIZ'S PET SHOP","POP_AT_RISK":112666,"BUSINESS_TYPE":"Animal Care License","LEGAL_NAME":"ELIZABETH M VARELA","LONGITUDE":-87.68703920845005},
{"STATE":"IL","ZIP":60618,"LATTITUDE":41.93901283171222,"ADDRESS":"3927 W BELMONT AVE  ","YEAR":2012,"DOING_BUSINESS_AS_NAME":"PREMIER VETERINARY GROUP","POP_AT_RISK":457170,"BUSINESS_TYPE":"Animal Care License","LEGAL_NAME":"MATT H. TOMPKINS, DVM","LONGITUDE":-87.72486590413378},
{"STATE":"IL","ZIP":60707,"LATTITUDE":41.90913139554721,"ADDRESS":"6804 W NORTH AVE  ","YEAR":2012,"DOING_BUSINESS_AS_NAME":"ONE LUCKY PUPPY, INC.","POP_AT_RISK":172668,"BUSINESS_TYPE":"Animal Care License","LEGAL_NAME":"ONE LUCKY PUPPY, INC.","LONGITUDE":-87.79516676645979},
{"STATE":"IL","ZIP":60657,"LATTITUDE":41.941192828724716,"ADDRESS":"3241 N DAYTON ST 1 ","YEAR":2012,"DOING_BUSINESS_AS_NAME":"URBAN OUT SITTERS,INC","POP_AT_RISK":1201460,"BUSINESS_TYPE":"Animal Care License","LEGAL_NAME":"URBAN OUT SITTERS, INC.","LONGITUDE":-87.65049296070559},
{"STATE":"IL","ZIP":60612,"LATTITUDE":41.88525623250263,"ADDRESS":"1804 W LAKE ST  ","YEAR":2012,"DOING_BUSINESS_AS_NAME":"BARK CHICAGO SOUTH, INC.","POP_AT_RISK":39271,"BUSINESS_TYPE":"Animal Care License","LEGAL_NAME":"BARK CHICAGO SOUTH, INC.","LONGITUDE":-87.67213165766262},
{"STATE":"IL","ZIP":60646,"LATTITUDE":41.99021854392249,"ADDRESS":"4054 W PETERSON AVE  1","YEAR":2012,"DOING_BUSINESS_AS_NAME":"BEST FRIENDS VETERINARY CENTER","POP_AT_RISK":71896,"BUSINESS_TYPE":"Animal Care License","LEGAL_NAME":"ELIZABETH B SURGI DVM PC","LONGITUDE":-87.73080815750058},
{"STATE":"IL","ZIP":60626,"LATTITUDE":42.00067466621544,"ADDRESS":"6526 N CLARK ST 1 ","YEAR":2012,"DOING_BUSINESS_AS_NAME":"D'ART OF GROOMING PET SPA","POP_AT_RISK":155802,"BUSINESS_TYPE":"Animal Care License","LEGAL_NAME":"D'ART OF GROOMING PET SPA","LONGITUDE":-87.67164548448788},
{"STATE":"IL","ZIP":60640,"LATTITUDE":41.976475060831305,"ADDRESS":"5208 N CLARK ST 1 ","YEAR":2012,"DOING_BUSINESS_AS_NAME":"Jameson Loves Danger","POP_AT_RISK":531776,"BUSINESS_TYPE":"Animal Care License","LEGAL_NAME":"Jameson Loves Danger, Inc.","LONGITUDE":-87.66856251042974},
{"STATE":"IL","ZIP":60612,"LATTITUDE":41.88398219633057,"ADDRESS":"2945 W LAKE ST 1ST ","YEAR":2012,"DOING_BUSINESS_AS_NAME":"K9 UNIVERSITY CHICAGO, INC.","POP_AT_RISK":83508,"BUSINESS_TYPE":"Animal Care License","LEGAL_NAME":"K9 UNIVERSITY CHICAGO, INC.","LONGITUDE":-87.70062660392372},
{"STATE":"IL","ZIP":60622,"LATTITUDE":41.91597585541928,"ADDRESS":"1643 W CORTLAND ST  ","YEAR":2012,"DOING_BUSINESS_AS_NAME":"MY VET ANIMAL HOSPITAL, LLC","POP_AT_RISK":51131,"BUSINESS_TYPE":"Animal Care License","LEGAL_NAME":"MY VET ANIMAL HOSPITAL, LLC","LONGITUDE":-87.66953711998401},
{"STATE":"IL","ZIP":60649,"LATTITUDE":41.75182172827668,"ADDRESS":"2320 E 79TH ST 1ST ","YEAR":2012,"DOING_BUSINESS_AS_NAME":"SOUTH SHORE ANIMAL CLINIC","POP_AT_RISK":400970,"BUSINESS_TYPE":"Animal Care License","LEGAL_NAME":"SOUTH SHORE ANIMAL CLINIC INC","LONGITUDE":-87.56776651199185},
{"STATE":"IL","ZIP":60626,"LATTITUDE":42.01594338357489,"ADDRESS":"1447 W JARVIS AVE  ","YEAR":2012,"DOING_BUSINESS_AS_NAME":"ROGERS BARK PET SALON","POP_AT_RISK":62296,"BUSINESS_TYPE":"Animal Care License","LEGAL_NAME":"ROGERS BARK PET SERVICES, INC.","LONGITUDE":-87.66796786700539},
{"STATE":"IL","ZIP":60625,"LATTITUDE":41.968463488354,"ADDRESS":"2559 W LAWRENCE AVE 1 1","YEAR":2012,"DOING_BUSINESS_AS_NAME":"JACK AND GINGER'S DOGCARE, INC.","POP_AT_RISK":189828,"BUSINESS_TYPE":"Animal Care License","LEGAL_NAME":"JACK AND GINGER'S DOGCARE, INC.","LONGITUDE":-87.6936605940906},
{"STATE":"IL","ZIP":60646,"LATTITUDE":41.99721824029716,"ADDRESS":"5301 W DEVON AVE  ","YEAR":2012,"DOING_BUSINESS_AS_NAME":"Chicago Cat Clinic","POP_AT_RISK":35912,"BUSINESS_TYPE":"Animal Care License","LEGAL_NAME":"John D. Nordwall, Jr. DVM, P.C.","LONGITUDE":-87.76082958451794},
{"STATE":"IL","ZIP":60647,"LATTITUDE":41.92372019907236,"ADDRESS":"2344 N MILWAUKEE AVE 1ST ","YEAR":2012,"DOING_BUSINESS_AS_NAME":"Temple of the Dog & Meow Lounge","POP_AT_RISK":349075,"BUSINESS_TYPE":"Animal Care License","LEGAL_NAME":"Temple of the Dog & Meow Lounge","LONGITUDE":-87.69891657803828},
{"STATE":"IL","ZIP":60630,"LATTITUDE":41.97656654197997,"ADDRESS":"5268-5278 N ELSTON AVE  ","YEAR":2012,"DOING_BUSINESS_AS_NAME":"CHICAGO CANINE FOUNDATION","POP_AT_RISK":112625,"BUSINESS_TYPE":"Animal Care License","LEGAL_NAME":"CHICAGO CANINE RESCUE FOUNDATION","LONGITUDE":-87.75412047445681},
{"STATE":"IL","ZIP":60610,"LATTITUDE":41.90791055539471,"ADDRESS":"1407 N WELLS ST  GW","YEAR":2012,"DOING_BUSINESS_AS_NAME":"ANIMALSENSE CANINE TRAINING AND BEHAVIOR, INC.","POP_AT_RISK":431830,"BUSINESS_TYPE":"Animal Care License","LEGAL_NAME":"ANIMALSENSE CANINE TRAINING AND BEHAVIOR, INC.","LONGITUDE":-87.63446505875015},
}