{
{"STATE":"IL","ZIP":60620,"LATTITUDE":41.736283818930694,"ADDRESS":"510 W 87TH ST  ","YEAR":1995,"DOING_BUSINESS_AS_NAME":"H TIMS INC.","POP_AT_RISK":228789,"BUSINESS_TYPE":"Limited Business License","LEGAL_NAME":"H TIMS INC","LONGITUDE":-87.63680211063802},
{"STATE":"IL","ZIP":60623,"LATTITUDE":41.844269467701885,"ADDRESS":"4306 W 26TH ST  1ST","YEAR":1995,"DOING_BUSINESS_AS_NAME":"EL ARCA DE NOE","POP_AT_RISK":321314,"BUSINESS_TYPE":"Limited Business License","LEGAL_NAME":"AGUSTIN MARIN","LONGITUDE":-87.73135934149565},
{"STATE":"IL","ZIP":60634,"LATTITUDE":41.95243739681394,"ADDRESS":"7547 W IRVING PARK RD 1ST ","YEAR":1995,"DOING_BUSINESS_AS_NAME":"F.T. JAMES COMPANY","POP_AT_RISK":154584,"BUSINESS_TYPE":"Limited Business License","LEGAL_NAME":"FRANK DZIEKAN","LONGITUDE":-87.81649552747085},
{"STATE":"IL","ZIP":60611,"LATTITUDE":41.90330816476852,"ADDRESS":"22 E ELM ST  1ST","YEAR":1995,"DOING_BUSINESS_AS_NAME":"GROOMIES","POP_AT_RISK":149658,"BUSINESS_TYPE":"Limited Business License","LEGAL_NAME":"GROOMIES,INC.","LONGITUDE":-87.6277132132827},
{"STATE":"IL","ZIP":60652,"LATTITUDE":41.74983720593105,"ADDRESS":"2635 W 79TH ST 1ST ","YEAR":1995,"DOING_BUSINESS_AS_NAME":"DOUBLE OR NOTHIN HAIR CREATION","POP_AT_RISK":174408,"BUSINESS_TYPE":"Limited Business License","LEGAL_NAME":"MAURY GRESHAM","LONGITUDE":-87.68909993743682},
{"STATE":"IL","ZIP":60651,"LATTITUDE":41.89498950497205,"ADDRESS":"5430 W CHICAGO AVE 1ST ","YEAR":1995,"DOING_BUSINESS_AS_NAME":"CHICAGO_CITY SPORTSWEAR","POP_AT_RISK":507096,"BUSINESS_TYPE":"Limited Business License","LEGAL_NAME":"JUNG HEE CHANG","LONGITUDE":-87.76190288499161},
{"STATE":"IL","ZIP":60618,"LATTITUDE":41.95403596563116,"ADDRESS":"2015 W IRVING PARK RD  ","YEAR":1995,"DOING_BUSINESS_AS_NAME":"GALGANO RECORDS","POP_AT_RISK":1120020,"BUSINESS_TYPE":"Limited Business License","LEGAL_NAME":"GALGANO RECORDS","LONGITUDE":-87.6795064784822},
{"STATE":"IL","ZIP":60639,"LATTITUDE":41.924706626403555,"ADDRESS":"2414 N CICERO AVE  1","YEAR":1995,"DOING_BUSINESS_AS_NAME":"T & D AUTO REPAIR AUTO SALES","POP_AT_RISK":1061472,"BUSINESS_TYPE":"Limited Business License","LEGAL_NAME":"T STEF & D STEF","LONGITUDE":-87.74646376487003},
{"STATE":"IL","ZIP":60638,"LATTITUDE":41.777908376505295,"ADDRESS":"6118 W 63RD ST  1","YEAR":1995,"DOING_BUSINESS_AS_NAME":"EXPERIENCE","POP_AT_RISK":112315,"BUSINESS_TYPE":"Limited Business License","LEGAL_NAME":"LORNA A D'ANGELO","LONGITUDE":-87.7748291475443},
{"STATE":"IL","ZIP":60641,"LATTITUDE":41.9608610226257,"ADDRESS":"4700 W MONTROSE AVE 1ST ","YEAR":1995,"DOING_BUSINESS_AS_NAME":"THE HIRK COMPANY","POP_AT_RISK":189460,"BUSINESS_TYPE":"Limited Business License","LEGAL_NAME":"THE HIRK COMPANY","LONGITUDE":-87.74516953363977},
{"STATE":"IL","ZIP":60609,"LATTITUDE":41.83026039370572,"ADDRESS":"2045 W 35TH ST  2","YEAR":1995,"DOING_BUSINESS_AS_NAME":"TALL GRASS PROS INC","POP_AT_RISK":145554,"BUSINESS_TYPE":"Limited Business License","LEGAL_NAME":"TALL GRASS PROS INC","LONGITUDE":-87.67706688189844},
{"STATE":"IL","ZIP":60647,"LATTITUDE":41.91252444607185,"ADDRESS":"2225 W WABANSIA AVE 1ST ","YEAR":1995,"DOING_BUSINESS_AS_NAME":"A-1 SHOCK ABSORBER CO INC","POP_AT_RISK":325510,"BUSINESS_TYPE":"Limited Business License","LEGAL_NAME":"A-1 SHOCK ABSORBER CO","LONGITUDE":-87.68351184437063},
{"STATE":"IL","ZIP":60614,"LATTITUDE":41.93041200959479,"ADDRESS":"2630 N CLARK ST  1ST","YEAR":1995,"DOING_BUSINESS_AS_NAME":"APIDISTRA BOOKSHOP INC","POP_AT_RISK":995088,"BUSINESS_TYPE":"Limited Business License","LEGAL_NAME":"ASPIDISTRA BOOKSHOP INC","LONGITUDE":-87.6438865291044},
{"STATE":"IL","ZIP":60623,"LATTITUDE":41.83724225631168,"ADDRESS":"3414 W 31ST ST 1ST ","YEAR":1995,"DOING_BUSINESS_AS_NAME":"FAME INTERNATIONAL CORP","POP_AT_RISK":204009,"BUSINESS_TYPE":"Limited Business License","LEGAL_NAME":"FAME INTERNATIONAL CORP","LONGITUDE":-87.7104158430409},
{"STATE":"IL","ZIP":60619,"LATTITUDE":41.736709681902944,"ADDRESS":"1307 E 87TH ST 1ST ","YEAR":1995,"DOING_BUSINESS_AS_NAME":"STAFF FINDERS HOME CARE","POP_AT_RISK":341528,"BUSINESS_TYPE":"Limited Business License","LEGAL_NAME":"STAFF FINDERS HOME CARE","LONGITUDE":-87.59266052726623},
{"STATE":"IL","ZIP":60623,"LATTITUDE":41.844437504987866,"ADDRESS":"3101 W 26TH ST 1ST ","YEAR":1995,"DOING_BUSINESS_AS_NAME":"PRO-TECH PEST CONTROL CO","POP_AT_RISK":197037,"BUSINESS_TYPE":"Limited Business License","LEGAL_NAME":"PRO-TECH PEST CONTROL CO","LONGITUDE":-87.70262831394477},
{"STATE":"IL","ZIP":60614,"LATTITUDE":41.92138380456824,"ADDRESS":"2146 N HALSTED ST 1ST ","YEAR":1995,"DOING_BUSINESS_AS_NAME":"SATURDAY'S CHILD LTD","POP_AT_RISK":158733,"BUSINESS_TYPE":"Limited Business License","LEGAL_NAME":"SATURDAY'S CHILD LIMITED","LONGITUDE":-87.64876738315839},
{"STATE":"IL","ZIP":60608,"LATTITUDE":41.845357760799374,"ADDRESS":"2542 S WESTERN AVE 1ST ","YEAR":1995,"DOING_BUSINESS_AS_NAME":"UNIVERSAL AUTOMOTIVE INC","POP_AT_RISK":141270,"BUSINESS_TYPE":"Limited Business License","LEGAL_NAME":"UNIVERSAL AUTOMOTIVE INC","LONGITUDE":-87.68560845692359},
{"STATE":"IL","ZIP":60656,"LATTITUDE":41.98055638519873,"ADDRESS":"7044 W HIGGINS AVE  1ST","YEAR":1995,"DOING_BUSINESS_AS_NAME":"CLASS ACT HAIR DESIGNERS","POP_AT_RISK":177684,"BUSINESS_TYPE":"Limited Business License","LEGAL_NAME":"GAIL KWAIT & SHEILA AHERN","LONGITUDE":-87.80386812085787},
{"STATE":"IL","ZIP":60630,"LATTITUDE":41.968189860661056,"ADDRESS":"4606 W LAWRENCE AVE 1ST ","YEAR":1995,"DOING_BUSINESS_AS_NAME":"VAN KAMPEN DECORATING INC","POP_AT_RISK":74504,"BUSINESS_TYPE":"Limited Business License","LEGAL_NAME":"VAN KAMPEN DECORATING INC","LONGITUDE":-87.74317842165861},
{"STATE":"IL","ZIP":60644,"LATTITUDE":41.88020253400151,"ADDRESS":"5359 W MADISON ST  ","YEAR":1995,"DOING_BUSINESS_AS_NAME":"ROCK ANTHONY'S BEAUTY SUPPLY","POP_AT_RISK":283872,"BUSINESS_TYPE":"Limited Business License","LEGAL_NAME":"ANTHONY & SANDRA BALLENGER","LONGITUDE":-87.75978400378037},
{"STATE":"IL","ZIP":60647,"LATTITUDE":41.91352418971625,"ADDRESS":"1750 N CAMPBELL AVE  ","YEAR":1995,"DOING_BUSINESS_AS_NAME":"J P CUSTOMS METAL","POP_AT_RISK":248844,"BUSINESS_TYPE":"Limited Business License","LEGAL_NAME":"J P CUSTOM METAL FINISHING","LONGITUDE":-87.68989363460372},
{"STATE":"IL","ZIP":60601,"LATTITUDE":41.88729448068244,"ADDRESS":"321 N MICHIGAN AVE 1ST ","YEAR":1995,"DOING_BUSINESS_AS_NAME":"BOUCHARD'S SPORTSWEAR","POP_AT_RISK":220080,"BUSINESS_TYPE":"Limited Business License","LEGAL_NAME":"MILWAUKEE MARKETING GROUP INC","LONGITUDE":-87.62440153673961},
{"STATE":"IL","ZIP":60618,"LATTITUDE":41.93950090239686,"ADDRESS":"2804 W BELMONT AVE  ","YEAR":1995,"DOING_BUSINESS_AS_NAME":"CONSUMER MORTGAGE OF AMERICA","POP_AT_RISK":102756,"BUSINESS_TYPE":"Limited Business License","LEGAL_NAME":"CONSUMER MORTAGE OF AMERICA IN","LONGITUDE":-87.6981489851435},
{"STATE":"IL","ZIP":60707,"LATTITUDE":41.93083391523972,"ADDRESS":"6525 W DIVERSEY AVE 1ST ","YEAR":1995,"DOING_BUSINESS_AS_NAME":"MONTGOMERY WARD HAIRSTYLISTS","POP_AT_RISK":540750,"BUSINESS_TYPE":"Limited Business License","LEGAL_NAME":"HAIRSTYLISTS MANAGEMENT SYSTEM","LONGITUDE":-87.78913378754397},
{"STATE":"IL","ZIP":60618,"LATTITUDE":41.93946086507116,"ADDRESS":"3058 W BELMONT AVE  1","YEAR":1995,"DOING_BUSINESS_AS_NAME":"STAGEN'S MARTIAL ARTS","POP_AT_RISK":246688,"BUSINESS_TYPE":"Limited Business License","LEGAL_NAME":"STAGENS ACADEMY OF MARTIAL ART","LONGITUDE":-87.70515774218995},
}