{
{"STATE":"IL","ZIP":60639,"LATTITUDE":41.9168850621269,"ADDRESS":"4545 W ARMITAGE AVE  ","YEAR":2013,"DOING_BUSINESS_AS_NAME":"A&D CANDY, INC.","POP_AT_RISK":785764,"BUSINESS_TYPE":"Tobacco Dealer Wholesale","LEGAL_NAME":"A&D CANDY, INC.","LONGITUDE":-87.74054791065527},
{"STATE":"IL","ZIP":60625,"LATTITUDE":41.96817360434256,"ADDRESS":"3823 W LAWRENCE AVE 1 ","YEAR":2013,"DOING_BUSINESS_AS_NAME":"PAK DISCOUNT INC.","POP_AT_RISK":355600,"BUSINESS_TYPE":"Tobacco Dealer Wholesale","LEGAL_NAME":"PAK DISCOUNT INC.","LONGITUDE":-87.72414945415306},
{"STATE":"IL","ZIP":60618,"LATTITUDE":41.94993755652151,"ADDRESS":"3761 N ELSTON AVE  ","YEAR":2013,"DOING_BUSINESS_AS_NAME":"ELSTON SELF SERVICE","POP_AT_RISK":534690,"BUSINESS_TYPE":"Tobacco Dealer Wholesale","LEGAL_NAME":"ELSTON SELF SERVICE","LONGITUDE":-87.7134548280642},
{"STATE":"WI","ZIP":53545,"LATTITUDE":42.007667271543255,"ADDRESS":"1733  MORSE ST  ","YEAR":2013,"DOING_BUSINESS_AS_NAME":"CHAMBERS & OWEN, INC.","POP_AT_RISK":1308082,"BUSINESS_TYPE":"Tobacco Dealer Wholesale","LEGAL_NAME":"CHAMBERS & OWEN, INC.","LONGITUDE":-87.67360153961387},
{"STATE":"IL","ZIP":60637,"LATTITUDE":41.76602560513521,"ADDRESS":"7047 S STATE ST  1ST","YEAR":2013,"DOING_BUSINESS_AS_NAME":"L & P WHOLESALE CANDY","POP_AT_RISK":249249,"BUSINESS_TYPE":"Tobacco Dealer Wholesale","LEGAL_NAME":"L & P WHOLESALE CANDY","LONGITUDE":-87.624776325687},
{"STATE":"IL","ZIP":60641,"LATTITUDE":41.960791551266986,"ADDRESS":"4159 W MONTROSE AVE 1ST ","YEAR":2013,"DOING_BUSINESS_AS_NAME":"PULASKI DISCOUNT INC.","POP_AT_RISK":117614,"BUSINESS_TYPE":"Tobacco Dealer Wholesale","LEGAL_NAME":"PULASKI DISCOUNT INC.","LONGITUDE":-87.73189889940458},
{"STATE":"IL","ZIP":60620,"LATTITUDE":41.7417050755653,"ADDRESS":"41 W 84TH ST  1ST","YEAR":2013,"DOING_BUSINESS_AS_NAME":"MIDWAY WHOLESALERS","POP_AT_RISK":33409,"BUSINESS_TYPE":"Tobacco Dealer Wholesale","LEGAL_NAME":"MIDWAY WHOLESALERS, INC.","LONGITUDE":-87.62597631099247},
{"STATE":"IL","ZIP":60521,"LATTITUDE":41.85209967532158,"ADDRESS":"1901 W 22ND ST  1ST","YEAR":2013,"DOING_BUSINESS_AS_NAME":"COSTCO WHOLESALE","POP_AT_RISK":113271,"BUSINESS_TYPE":"Tobacco Dealer Wholesale","LEGAL_NAME":"COSTCO WHOLESALE CORPORATION","LONGITUDE":-87.67351036046561},
{"STATE":"IL","ZIP":60629,"LATTITUDE":41.76037749872514,"ADDRESS":"7300 S CICERO AVE  381","YEAR":2013,"DOING_BUSINESS_AS_NAME":"COSTCO WHOLESALE # 381","POP_AT_RISK":18876,"BUSINESS_TYPE":"Tobacco Dealer Wholesale","LEGAL_NAME":"COSTCO WHOLESALE CORPORATION","LONGITUDE":-87.74192003165926},
{"STATE":"IL","ZIP":60614,"LATTITUDE":41.93102100579779,"ADDRESS":"2746 N CLYBOURN AVE  ","YEAR":2013,"DOING_BUSINESS_AS_NAME":"Costco Wholesale # 380","POP_AT_RISK":660804,"BUSINESS_TYPE":"Tobacco Dealer Wholesale","LEGAL_NAME":"COSTCO WHOLESALE CORPORATION","LONGITUDE":-87.6768640181342},
{"STATE":"IL","ZIP":60623,"LATTITUDE":41.858868389257495,"ADDRESS":"4310 W 16TH ST 1ST ","YEAR":2013,"DOING_BUSINESS_AS_NAME":"STOP N LOOK FOOD & DELI","POP_AT_RISK":570388,"BUSINESS_TYPE":"Tobacco Dealer Wholesale","LEGAL_NAME":"STOP N LOOK FOOD & DELI INC.","LONGITUDE":-87.73277498059485},
{"STATE":"IL","ZIP":60608,"LATTITUDE":41.84699099769368,"ADDRESS":"2455 S DAMEN AVE 1ST ","YEAR":2013,"DOING_BUSINESS_AS_NAME":"DEARBORN MARKETPLACE","POP_AT_RISK":67438,"BUSINESS_TYPE":"Tobacco Dealer Wholesale","LEGAL_NAME":"DEARBORN WHOLESALE GROCERS LP","LONGITUDE":-87.67555861123635},
{"STATE":"IL","ZIP":60620,"LATTITUDE":41.75016167702497,"ADDRESS":"1841 W 79TH ST 1 #","YEAR":2013,"DOING_BUSINESS_AS_NAME":"DEARBORN WHOLESALE GROCER LP","POP_AT_RISK":267318,"BUSINESS_TYPE":"Tobacco Dealer Wholesale","LEGAL_NAME":"DEARBORN WHOLESALE GROCERS LP","LONGITUDE":-87.66988951666725},
{"STATE":"IL","ZIP":60624,"LATTITUDE":41.880460999176385,"ADDRESS":"4525 W MADISON ST 1 #","YEAR":2013,"DOING_BUSINESS_AS_NAME":"DEARBORN WHOLESALE GROCER LP","POP_AT_RISK":368280,"BUSINESS_TYPE":"Tobacco Dealer Wholesale","LEGAL_NAME":"DEARBORN WHOLESALE GROCERS LP","LONGITUDE":-87.73889657725695},
{"STATE":"IL","ZIP":60613,"LATTITUDE":41.96190984490327,"ADDRESS":"918 W MONTROSE AVE 1ST #","YEAR":2013,"DOING_BUSINESS_AS_NAME":"DEARBORN WHOLESALE GROCERS INC","POP_AT_RISK":1572220,"BUSINESS_TYPE":"Tobacco Dealer Wholesale","LEGAL_NAME":"DEARBORN WHOLESALE GROCERS LP","LONGITUDE":-87.65312737854316},
{"STATE":"IL","ZIP":60619,"LATTITUDE":41.75371285104864,"ADDRESS":"7729 S STATE ST 1ST 1NORTH","YEAR":2013,"DOING_BUSINESS_AS_NAME":"EXPRESS WHOLESALE GROCERS INC","POP_AT_RISK":73032,"BUSINESS_TYPE":"Tobacco Dealer Wholesale","LEGAL_NAME":"EXPRESS WHOLESALE GROCERS INC","LONGITUDE":-87.62447915530512},
{"STATE":"IL","ZIP":60647,"LATTITUDE":41.91742276227435,"ADDRESS":"2577 W ARMITAGE AVE 1ST ","YEAR":2013,"DOING_BUSINESS_AS_NAME":"CASH & CARRY WHOLESALE","POP_AT_RISK":1495759,"BUSINESS_TYPE":"Tobacco Dealer Wholesale","LEGAL_NAME":"MIDWESTERN CASH AND CARRY, LLC","LONGITUDE":-87.69221180721557},
}