{
{"STATE":"IL","ZIP":60622,"LATTITUDE":41.903170995317026,"ADDRESS":"1741 W DIVISION ST  ","YEAR":1999,"DOING_BUSINESS_AS_NAME":"AK GENERAL CONSTRUCTION","POP_AT_RISK":432803,"BUSINESS_TYPE":"Limited Business License","LEGAL_NAME":"ANDY KOLASA","LONGITUDE":-87.6714769131315},
{"STATE":"IL","ZIP":60601,"LATTITUDE":41.884595743948594,"ADDRESS":"24 W RANDOLPH ST  1ST","YEAR":1999,"DOING_BUSINESS_AS_NAME":"FORD CENTER FOR PERFORMING ART","POP_AT_RISK":130772,"BUSINESS_TYPE":"Limited Business License","LEGAL_NAME":"LIVE NATION","LONGITUDE":-87.62879500536263},
{"STATE":"IL","ZIP":60640,"LATTITUDE":41.9652564959598,"ADDRESS":"1818 W WILSON AVE  1","YEAR":1999,"DOING_BUSINESS_AS_NAME":"CHICAGO COPIER BUSINESS","POP_AT_RISK":842145,"BUSINESS_TYPE":"Limited Business License","LEGAL_NAME":"WON YOO KIM","LONGITUDE":-87.67545143165653},
{"STATE":"IL","ZIP":60615,"LATTITUDE":41.79943587962592,"ADDRESS":"1507 E 53RD ST  ","YEAR":1999,"DOING_BUSINESS_AS_NAME":"GSC DESIGN INC","POP_AT_RISK":623024,"BUSINESS_TYPE":"Limited Business License","LEGAL_NAME":"GSC DESIGN INC","LONGITUDE":-87.58881066253633},
{"STATE":"IL","ZIP":60653,"LATTITUDE":41.81678524448048,"ADDRESS":"450 E 43RD ST 1ST ","YEAR":1999,"DOING_BUSINESS_AS_NAME":"THOMPSON RESALES","POP_AT_RISK":872652,"BUSINESS_TYPE":"Limited Business License","LEGAL_NAME":"JAMES THOMPSON","LONGITUDE":-87.61447742711327},
{"STATE":"IL","ZIP":60621,"LATTITUDE":41.77955958059941,"ADDRESS":"1015 W 63RD ST 1ST ","YEAR":1999,"DOING_BUSINESS_AS_NAME":"D & R VARIETY INC","POP_AT_RISK":704196,"BUSINESS_TYPE":"Limited Business License","LEGAL_NAME":"D & R VARIETY INC","LONGITUDE":-87.65033959384193},
{"STATE":"IL","ZIP":60617,"LATTITUDE":41.71880597649187,"ADDRESS":"9704 S MARQUETTE AVE 1ST ","YEAR":1999,"DOING_BUSINESS_AS_NAME":"K & M ELECTRIC CO","POP_AT_RISK":82890,"BUSINESS_TYPE":"Limited Business License","LEGAL_NAME":"K & M ELECTRIC CO","LONGITUDE":-87.55810185510022},
{"STATE":"IL","ZIP":60623,"LATTITUDE":41.83703693542729,"ADDRESS":"3104 S HOMAN AVE 1ST ","YEAR":1999,"DOING_BUSINESS_AS_NAME":"AAA MOVING & STORAGE INC","POP_AT_RISK":1020045,"BUSINESS_TYPE":"Limited Business License","LEGAL_NAME":"AAA MOVING & STORAGE","LONGITUDE":-87.70986146428905},
{"STATE":"IL","ZIP":60638,"LATTITUDE":41.79624915577635,"ADDRESS":"5333 S LARAMIE AVE 2 203","YEAR":1999,"DOING_BUSINESS_AS_NAME":"MARCA MED MGMT","POP_AT_RISK":40988,"BUSINESS_TYPE":"Limited Business License","LEGAL_NAME":"MARCA INDUSTRIES INC","LONGITUDE":-87.75245264211209},
{"STATE":"IL","ZIP":60607,"LATTITUDE":41.886697122870025,"ADDRESS":"300 N ELIZABETH ST 1ST ","YEAR":1999,"DOING_BUSINESS_AS_NAME":"MSA PRINTING COMPANY","POP_AT_RISK":125913,"BUSINESS_TYPE":"Limited Business License","LEGAL_NAME":"MSA PRINTING COMPANY","LONGITUDE":-87.65903963714334},
{"STATE":"IL","ZIP":60618,"LATTITUDE":41.96111627753211,"ADDRESS":"3802 W MONTROSE AVE 1ST ","YEAR":1999,"DOING_BUSINESS_AS_NAME":"KOEHLER BINDERY INC","POP_AT_RISK":947655,"BUSINESS_TYPE":"Limited Business License","LEGAL_NAME":"KOEHLER BINDERY, INC.","LONGITUDE":-87.72307865691988},
{"STATE":"IL","ZIP":60607,"LATTITUDE":41.886900308169,"ADDRESS":"820 W FULTON MARKET   1","YEAR":1999,"DOING_BUSINESS_AS_NAME":"PARAGON RECORDING STUDIOS","POP_AT_RISK":43074,"BUSINESS_TYPE":"Limited Business License","LEGAL_NAME":"PARAGON RECORDING STUDIOS","LONGITUDE":-87.64844177753477},
{"STATE":"IL","ZIP":60618,"LATTITUDE":41.94954757881268,"ADDRESS":"2640 W BRADLEY PL 1ST ","YEAR":1999,"DOING_BUSINESS_AS_NAME":"WESLEY-JESSEN CORPORATION","POP_AT_RISK":647517,"BUSINESS_TYPE":"Limited Business License","LEGAL_NAME":"WESLEY-JESSEN CORPORATION","LONGITUDE":-87.69482094906847},
{"STATE":"IL","ZIP":60642,"LATTITUDE":41.90124750767204,"ADDRESS":"1070 N MILWAUKEE AVE  ","YEAR":1999,"DOING_BUSINESS_AS_NAME":"GURHY KEANEY BUILDERS INC","POP_AT_RISK":49196,"BUSINESS_TYPE":"Limited Business License","LEGAL_NAME":"GURHY & KEANEY BUILDERS INC","LONGITUDE":-87.66342658956465},
{"STATE":"IL","ZIP":60641,"LATTITUDE":41.94581562071612,"ADDRESS":"5429 W ADDISON ST 1ST ","YEAR":1999,"DOING_BUSINESS_AS_NAME":"PRO-WAY CONSTRUCTION COMPANY","POP_AT_RISK":418404,"BUSINESS_TYPE":"Limited Business License","LEGAL_NAME":"PRO-WAY CONSTRUCTION COMPANY","LONGITUDE":-87.76300153583801},
{"STATE":"IL","ZIP":60660,"LATTITUDE":41.99364030233287,"ADDRESS":"6145  -6147 N SHERIDAN RD  1","YEAR":1999,"DOING_BUSINESS_AS_NAME":"TIARA HOMEOWNERS ASSOCIATION","POP_AT_RISK":965090,"BUSINESS_TYPE":"Limited Business License","LEGAL_NAME":"TIARA HOME OWNERS ASSOCIATION","LONGITUDE":-87.65535121744797},
}