{
{"STATE":"IL","ZIP":60625,"LATTITUDE":41.96139887311322,"ADDRESS":"4406 N KEDZIE AVE  ","YEAR":2011,"DOING_BUSINESS_AS_NAME":"ASSIST, INC.","POP_AT_RISK":1338138,"BUSINESS_TYPE":"Day Labor Agency","LEGAL_NAME":"ASSIST, INC.","LONGITUDE":-87.70840260526055},
{"STATE":"IL","ZIP":60639,"LATTITUDE":41.917045522183265,"ADDRESS":"4019 W ARMITAGE AVE  ","YEAR":2011,"DOING_BUSINESS_AS_NAME":"ALL WORK, INC","POP_AT_RISK":222555,"BUSINESS_TYPE":"Day Labor Agency","LEGAL_NAME":"ALL-WORK  INC.","LONGITUDE":-87.7274427108034},
{"STATE":"IL","ZIP":60641,"LATTITUDE":41.958488691641136,"ADDRESS":"4255 N MILWAUKEE AVE 1ST ","YEAR":2011,"DOING_BUSINESS_AS_NAME":"ANDREW'S STAFFING","POP_AT_RISK":113112,"BUSINESS_TYPE":"Day Labor Agency","LEGAL_NAME":"ALLSTAFF, INC.","LONGITUDE":-87.75244686450957},
{"STATE":"IL","ZIP":60641,"LATTITUDE":41.93630787916192,"ADDRESS":"3031 N PULASKI RD  ","YEAR":2011,"DOING_BUSINESS_AS_NAME":"CLEARSTAFF, INC.","POP_AT_RISK":136460,"BUSINESS_TYPE":"Day Labor Agency","LEGAL_NAME":"STAFF ONE, INC","LONGITUDE":-87.72695732800902},
{"STATE":"IL","ZIP":60647,"LATTITUDE":41.91904739502842,"ADDRESS":"2084 N MILWAUKEE AVE 1ST ","YEAR":2011,"DOING_BUSINESS_AS_NAME":"SURESTAFF, INC.","POP_AT_RISK":189951,"BUSINESS_TYPE":"Day Labor Agency","LEGAL_NAME":"SURESTAFF, INC.","LONGITUDE":-87.6912677744319},
{"STATE":"IL","ZIP":60641,"LATTITUDE":41.94998644266635,"ADDRESS":"3806 N CICERO AVE 1ST ","YEAR":2011,"DOING_BUSINESS_AS_NAME":"PRIME STAFFING INC","POP_AT_RISK":100380,"BUSINESS_TYPE":"Day Labor Agency","LEGAL_NAME":"PRIME STAFFING INC","LONGITUDE":-87.74736810737075},
{"STATE":"IL","ZIP":60623,"LATTITUDE":41.84403422163486,"ADDRESS":"4333 W 26TH ST  ","YEAR":2011,"DOING_BUSINESS_AS_NAME":"TEMPS PDQ","POP_AT_RISK":45902,"BUSINESS_TYPE":"Day Labor Agency","LEGAL_NAME":"TEMPS  P.D.Q., INC","LONGITUDE":-87.73234207594318},
{"STATE":"IL","ZIP":60608,"LATTITUDE":41.857860498679294,"ADDRESS":"1157 W 18TH ST 1 ","YEAR":2011,"DOING_BUSINESS_AS_NAME":"LABOR TEMPS","POP_AT_RISK":489576,"BUSINESS_TYPE":"Day Labor Agency","LEGAL_NAME":"LABOR TEMPS II, LLC","LONGITUDE":-87.65542558893371},
{"STATE":"IL","ZIP":60647,"LATTITUDE":41.921210945593764,"ADDRESS":"2147 N WESTERN AVE 1 ","YEAR":2011,"DOING_BUSINESS_AS_NAME":"LABOR TEMPS","POP_AT_RISK":102264,"BUSINESS_TYPE":"Day Labor Agency","LEGAL_NAME":"LABOR TEMPS II, LLC","LONGITUDE":-87.68738061501521},
{"STATE":"IL","ZIP":60623,"LATTITUDE":41.84242320635649,"ADDRESS":"2700 S LAWNDALE AVE 1ST ","YEAR":2011,"DOING_BUSINESS_AS_NAME":"CUSTOM STAFFING INC","POP_AT_RISK":63898,"BUSINESS_TYPE":"Day Labor Agency","LEGAL_NAME":"CUSTOM STAFFING, INC","LONGITUDE":-87.71732389772104},
{"STATE":"IL","ZIP":60631,"LATTITUDE":41.98121020982407,"ADDRESS":"8430 W BRYN MAWR AVE  250","YEAR":2011,"DOING_BUSINESS_AS_NAME":"FURST STAFFING","POP_AT_RISK":161688,"BUSINESS_TYPE":"Day Labor Agency","LEGAL_NAME":"FURST SERVICES COMPANY","LONGITUDE":-87.83801331542305},
{"STATE":"IL","ZIP":60647,"LATTITUDE":41.91728464388116,"ADDRESS":"3215 W ARMITAGE AVE  ","YEAR":2011,"DOING_BUSINESS_AS_NAME":"ELITE LABOR SERVICES, LTD.","POP_AT_RISK":149282,"BUSINESS_TYPE":"Day Labor Agency","LEGAL_NAME":"ELITE LABOR SERVICES, LTD.","LONGITUDE":-87.7076145512335},
{"STATE":"IL","ZIP":60617,"LATTITUDE":41.70373450399325,"ADDRESS":"10526 S EWING AVE 1ST ","YEAR":2011,"DOING_BUSINESS_AS_NAME":"PRONTO STAFFING SERVICES INC","POP_AT_RISK":109765,"BUSINESS_TYPE":"Day Labor Agency","LEGAL_NAME":"PRONTO STAFFING SERVICES INC","LONGITUDE":-87.53543154188513},
{"STATE":"IL","ZIP":60608,"LATTITUDE":41.85772967449894,"ADDRESS":"2134 W 18TH ST 1 ","YEAR":2011,"DOING_BUSINESS_AS_NAME":"PREMIER STAFFING SERVICES","POP_AT_RISK":74420,"BUSINESS_TYPE":"Day Labor Agency","LEGAL_NAME":"PREMIER MANAGEMENT SYSTEMS CORP.","LONGITUDE":-87.6798174685405},
{"STATE":"IL","ZIP":60609,"LATTITUDE":41.80860618877574,"ADDRESS":"1237 W 47TH ST 1 ","YEAR":2011,"DOING_BUSINESS_AS_NAME":"STAFFING NETWORK","POP_AT_RISK":410189,"BUSINESS_TYPE":"Day Labor Agency","LEGAL_NAME":"STAFFING NETWORK HOLDINGS, L.L.C.","LONGITUDE":-87.65660836045107},
{"STATE":"IL","ZIP":60632,"LATTITUDE":41.800403946655685,"ADDRESS":"5101 S KEELER AVE 1 ","YEAR":2011,"DOING_BUSINESS_AS_NAME":"STAFFING NETWORK","POP_AT_RISK":33821,"BUSINESS_TYPE":"Day Labor Agency","LEGAL_NAME":"STAFFING NETWORK HOLDINGS, L.L.C.","LONGITUDE":-87.72812154018446},
{"STATE":"IL","ZIP":60632,"LATTITUDE":41.793596916417194,"ADDRESS":"3244-3248 W 55TH ST 1ST ","YEAR":2011,"DOING_BUSINESS_AS_NAME":"ELITE LABOR SERVICES ON 55TH, LTD.","POP_AT_RISK":380401,"BUSINESS_TYPE":"Day Labor Agency","LEGAL_NAME":"ELITE LABOR SERVICES ON 55TH, LTD.","LONGITUDE":-87.70531638023938},
{"STATE":"IL","ZIP":60629,"LATTITUDE":41.782029369500506,"ADDRESS":"4555 W 61ST ST 1ST ","YEAR":2011,"DOING_BUSINESS_AS_NAME":"STAFF RIGHT, LLC","POP_AT_RISK":181974,"BUSINESS_TYPE":"Day Labor Agency","LEGAL_NAME":"LABOR SOLUTIONS - STAFF RIGHT,  LLC","LONGITUDE":-87.73719002628322},
{"STATE":"IL","ZIP":60647,"LATTITUDE":41.9247309637217,"ADDRESS":"3520 W FULLERTON AVE 1ST ","YEAR":2011,"DOING_BUSINESS_AS_NAME":"P.A. STAFFING SERVICES OF ILLINOIS, INC.","POP_AT_RISK":79174,"BUSINESS_TYPE":"Day Labor Agency","LEGAL_NAME":"P.A. STAFFING SERVICES OF ILLINOIS, INC.","LONGITUDE":-87.71552003804352},
{"STATE":"IL","ZIP":60632,"LATTITUDE":41.80772111499567,"ADDRESS":"4117 W 47TH ST  106","YEAR":2011,"DOING_BUSINESS_AS_NAME":"DEBBIE'S CUSTOMIZED STAFFING","POP_AT_RISK":22894,"BUSINESS_TYPE":"Day Labor Agency","LEGAL_NAME":"DEBBIE'S CUSTOMIZED STAFFING, INCORPORATED","LONGITUDE":-87.72682517366316},
}