{
{"STATE":"IL","ZIP":60630,"LATTITUDE":41.9679174064144,"ADDRESS":"5510 W LAWRENCE AVE  1","YEAR":2014,"DOING_BUSINESS_AS_NAME":"PINK POODLE DOG BOUTIQUE","POP_AT_RISK":45613,"BUSINESS_TYPE":"Animal Care License","LEGAL_NAME":"DORIS GRGIN","LONGITUDE":-87.76548452271193},
{"STATE":"IL","ZIP":60619,"LATTITUDE":41.758834131342915,"ADDRESS":"1400 E 75TH ST 1ST ","YEAR":2014,"DOING_BUSINESS_AS_NAME":"DORCHESTER ANIMAL HOSPITAL","POP_AT_RISK":35021,"BUSINESS_TYPE":"Animal Care License","LEGAL_NAME":"JAGJIT BRAR","LONGITUDE":-87.59074086260878},
{"STATE":"IL","ZIP":60651,"LATTITUDE":41.894654799658774,"ADDRESS":"5837 W CHICAGO AVE 1 ","YEAR":2014,"DOING_BUSINESS_AS_NAME":"West Side Animal Hospital","POP_AT_RISK":360465,"BUSINESS_TYPE":"Animal Care License","LEGAL_NAME":"Lesley Luka","LONGITUDE":-87.77165481600393},
{"STATE":"IL","ZIP":60609,"LATTITUDE":41.80865270371698,"ADDRESS":"1836 W 47TH ST 1ST ","YEAR":2014,"DOING_BUSINESS_AS_NAME":"PARADISE DE AVES","POP_AT_RISK":143380,"BUSINESS_TYPE":"Animal Care License","LEGAL_NAME":"JOSE M PEREZ","LONGITUDE":-87.67127397220543},
{"STATE":"IL","ZIP":60631,"LATTITUDE":42.00276925583087,"ADDRESS":"6702 N NORTHWEST HWY 1ST ","YEAR":2014,"DOING_BUSINESS_AS_NAME":"V I P ALBREED GROOMING","POP_AT_RISK":18918,"BUSINESS_TYPE":"Animal Care License","LEGAL_NAME":"CAPRICE SMITH","LONGITUDE":-87.81636646266041},
{"STATE":"IL","ZIP":60631,"LATTITUDE":42.011790966822375,"ADDRESS":"7236 W TOUHY AVE 1ST ","YEAR":2014,"DOING_BUSINESS_AS_NAME":"PAW & CLAW CAT GROOMING","POP_AT_RISK":19160,"BUSINESS_TYPE":"Animal Care License","LEGAL_NAME":"DIANA DEMPSEY","LONGITUDE":-87.8080824261318},
{"STATE":"IL","ZIP":60633,"LATTITUDE":41.65330346047707,"ADDRESS":"13311 S BRANDON AVE 1ST ","YEAR":2014,"DOING_BUSINESS_AS_NAME":"7 SEAS TROPAQUARIUM","POP_AT_RISK":40896,"BUSINESS_TYPE":"Animal Care License","LEGAL_NAME":"ROBERT ELLMAN","LONGITUDE":-87.54576881121099},
{"STATE":"IL","ZIP":60615,"LATTITUDE":41.79521863458298,"ADDRESS":"1340-1342 E 55TH ST 1 1","YEAR":2014,"DOING_BUSINESS_AS_NAME":"Parker's Pets","POP_AT_RISK":86422,"BUSINESS_TYPE":"Animal Care License","LEGAL_NAME":"HYDE BARK, LLC","LONGITUDE":-87.59329840236423},
{"STATE":"IL","ZIP":60638,"LATTITUDE":41.777771632322505,"ADDRESS":"5935 W 63RD ST  1","YEAR":2014,"DOING_BUSINESS_AS_NAME":"FEE FEE'S","POP_AT_RISK":37876,"BUSINESS_TYPE":"Animal Care License","LEGAL_NAME":"LAURIE BENNETT","LONGITUDE":-87.77048696136391},
{"STATE":"IL","ZIP":60656,"LATTITUDE":41.97462951006733,"ADDRESS":"7220 W FOSTER AVE 1ST ","YEAR":2014,"DOING_BUSINESS_AS_NAME":"PET SUPPLIES PLUS","POP_AT_RISK":31265,"BUSINESS_TYPE":"Animal Care License","LEGAL_NAME":"PSP STORES LLC","LONGITUDE":-87.80798109934157},
{"STATE":"IL","ZIP":60628,"LATTITUDE":41.662549681874204,"ADDRESS":"12721 S HALSTED ST  ","YEAR":2014,"DOING_BUSINESS_AS_NAME":"PINK POODLE PALACE","POP_AT_RISK":23903,"BUSINESS_TYPE":"Animal Care License","LEGAL_NAME":"TRACEY McBRIDE","LONGITUDE":-87.64125124497521},
{"STATE":"IL","ZIP":60609,"LATTITUDE":41.82727787410544,"ADDRESS":"556 W 37TH ST 1ST FL ","YEAR":2014,"DOING_BUSINESS_AS_NAME":"THREE PUPS IN A TUB","POP_AT_RISK":92937,"BUSINESS_TYPE":"Animal Care License","LEGAL_NAME":"EDWARD SIDABRAS","LONGITUDE":-87.6409992314425},
{"STATE":"IL","ZIP":60645,"LATTITUDE":42.017295118461554,"ADDRESS":"7448 N WESTERN AVE 1ST ","YEAR":2014,"DOING_BUSINESS_AS_NAME":"DOG SPLASH","POP_AT_RISK":99670,"BUSINESS_TYPE":"Animal Care License","LEGAL_NAME":"WASH N WAG CORP","LONGITUDE":-87.6903452644412},
{"STATE":"IL","ZIP":60707,"LATTITUDE":41.90909396170177,"ADDRESS":"6916 W NORTH AVE  ","YEAR":2014,"DOING_BUSINESS_AS_NAME":"LE POOCH SALON","POP_AT_RISK":48436,"BUSINESS_TYPE":"Animal Care License","LEGAL_NAME":"SANDRA S PORRATA","LONGITUDE":-87.79796341179787},
{"STATE":"IL","ZIP":60637,"LATTITUDE":41.76921322872776,"ADDRESS":"361 E 69TH ST 1ST ","YEAR":2014,"DOING_BUSINESS_AS_NAME":"DOGS ONLY GROOMING SALON","POP_AT_RISK":33540,"BUSINESS_TYPE":"Animal Care License","LEGAL_NAME":"ARLETTA M BENNETT","LONGITUDE":-87.61623688906927},
{"STATE":"IL","ZIP":60608,"LATTITUDE":41.83609692076121,"ADDRESS":"3203 S HALSTED ST 1ST ","YEAR":2014,"DOING_BUSINESS_AS_NAME":"BROOKLYN'S DOGGIE STYLES","POP_AT_RISK":38503,"BUSINESS_TYPE":"Animal Care License","LEGAL_NAME":"KELLY L. MARUSARZ","LONGITUDE":-87.64608423691962},
{"STATE":"IL","ZIP":60623,"LATTITUDE":41.851920612971924,"ADDRESS":"3040 W CERMAK RD  ","YEAR":2014,"DOING_BUSINESS_AS_NAME":"ACUARIO PISCIS \/ ESTETICA CANINA","POP_AT_RISK":70390,"BUSINESS_TYPE":"Animal Care License","LEGAL_NAME":"VICTOR M. PACHECO","LONGITUDE":-87.70201706310796},
{"STATE":"IL","ZIP":60620,"LATTITUDE":41.72629173006071,"ADDRESS":"9210 S ASHLAND AVE 1 ","YEAR":2014,"DOING_BUSINESS_AS_NAME":"ASHLAND ANIMAL HOSPITAL","POP_AT_RISK":28167,"BUSINESS_TYPE":"Animal Care License","LEGAL_NAME":"TANYA LARESA DAVIS","LONGITUDE":-87.66294433982236},
{"STATE":"IL","ZIP":60647,"LATTITUDE":41.91347165926542,"ADDRESS":"1757 N KIMBALL AVE  ","YEAR":2014,"DOING_BUSINESS_AS_NAME":"FOR DOGS SAKE","POP_AT_RISK":58132,"BUSINESS_TYPE":"Animal Care License","LEGAL_NAME":"FOR DOG'S SAKE, INC.","LONGITUDE":-87.7116469589254},
{"STATE":"IL","ZIP":60608,"LATTITUDE":41.834311070719124,"ADDRESS":"1514 W 33RD ST 1ST J","YEAR":2014,"DOING_BUSINESS_AS_NAME":"GOLDEN AQUARIUM INC.","POP_AT_RISK":68216,"BUSINESS_TYPE":"Animal Care License","LEGAL_NAME":"GOLDEN AQUARIUM INC.","LONGITUDE":-87.66389989325327},
{"STATE":"IL","ZIP":60637,"LATTITUDE":41.7811377052545,"ADDRESS":"6224 S WABASH AVE  ","YEAR":2014,"DOING_BUSINESS_AS_NAME":"ANIMAL WELFARE LEAGUE","POP_AT_RISK":135852,"BUSINESS_TYPE":"Animal Care License","LEGAL_NAME":"ANIMAL WELFARE LEAGUE","LONGITUDE":-87.62387647008038},
{"STATE":"IL","ZIP":60632,"LATTITUDE":41.81209528799374,"ADDRESS":"4472 S ARCHER AVE 1ST ","YEAR":2014,"DOING_BUSINESS_AS_NAME":"ARCHER ANIMAL HOSPITAL","POP_AT_RISK":40990,"BUSINESS_TYPE":"Animal Care License","LEGAL_NAME":"NAMMALWAR VINUTHAMANI","LONGITUDE":-87.7077249960549},
{"STATE":"IL","ZIP":60646,"LATTITUDE":41.98545388216671,"ADDRESS":"5750 N TRIPP AVE  ","YEAR":2014,"DOING_BUSINESS_AS_NAME":"CHICAGO CANINE COMPANY","POP_AT_RISK":39430,"BUSINESS_TYPE":"Animal Care License","LEGAL_NAME":"CHICAGO CANINE COMPANY","LONGITUDE":-87.73430472189564},
{"STATE":"IL","ZIP":60643,"LATTITUDE":41.69493985416419,"ADDRESS":"10918 S WESTERN AVE  ","YEAR":2014,"DOING_BUSINESS_AS_NAME":"DAZZLE PET GROOMING","POP_AT_RISK":43344,"BUSINESS_TYPE":"Animal Care License","LEGAL_NAME":"LORRAINE THERESE LYMAN","LONGITUDE":-87.68140343358414},
{"STATE":"IL","ZIP":60652,"LATTITUDE":41.74602291961784,"ADDRESS":"8057 S CICERO AVE  ","YEAR":2014,"DOING_BUSINESS_AS_NAME":"PET LUV PET CENTER INC","POP_AT_RISK":60333,"BUSINESS_TYPE":"Animal Care License","LEGAL_NAME":"PET LUV PET CENTER INC","LONGITUDE":-87.7411015602688},
{"STATE":"IL","ZIP":60617,"LATTITUDE":41.7430521776672,"ADDRESS":"8338 S STONY ISLAND AVE 1ST ","YEAR":2014,"DOING_BUSINESS_AS_NAME":"PET SALON","POP_AT_RISK":130084,"BUSINESS_TYPE":"Animal Care License","LEGAL_NAME":"CECELIA S BROADUS-JONES","LONGITUDE":-87.58593027264192},
{"STATE":"IL","ZIP":60620,"LATTITUDE":41.74322146923827,"ADDRESS":"8256 S ASHLAND AVE 1ST ","YEAR":2014,"DOING_BUSINESS_AS_NAME":"AUBURN ANIMAL HOSPITAL","POP_AT_RISK":113046,"BUSINESS_TYPE":"Animal Care License","LEGAL_NAME":"SHEILA M DAVIS CARPENTER","LONGITUDE":-87.66340065682246},
{"STATE":"IL","ZIP":60628,"LATTITUDE":41.6694883863093,"ADDRESS":"12335 S HALSTED ST 1ST ","YEAR":2014,"DOING_BUSINESS_AS_NAME":"MORGAN PARK ANIMAL HOSPITAL","POP_AT_RISK":30987,"BUSINESS_TYPE":"Animal Care License","LEGAL_NAME":"MORGAN PARK ANIMAL HOSPITAL","LONGITUDE":-87.64148341136242},
{"STATE":"IL","ZIP":60628,"LATTITUDE":41.68826727431972,"ADDRESS":"11332 S DOTY AVE 1ST ","YEAR":2014,"DOING_BUSINESS_AS_NAME":"KRAGNESS ANIMAL HOSPITAL INC","POP_AT_RISK":38622,"BUSINESS_TYPE":"Animal Care License","LEGAL_NAME":"KRAGNESS ANIMAL HOSPITAL INC","LONGITUDE":-87.60096235998701},
{"STATE":"IL","ZIP":60616,"LATTITUDE":41.838257021640345,"ADDRESS":"203-205 E 31ST ST 1ST ","YEAR":2014,"DOING_BUSINESS_AS_NAME":"BRONZEVILLE ANIMAL CLINIC","POP_AT_RISK":258376,"BUSINESS_TYPE":"Animal Care License","LEGAL_NAME":"SOPHIA H. GILL, D.V.M., P.C.","LONGITUDE":-87.62176873928115},
{"STATE":"IL","ZIP":60615,"LATTITUDE":41.79938949027767,"ADDRESS":"1363 E 53RD ST 1ST ","YEAR":2014,"DOING_BUSINESS_AS_NAME":"HYDE PARK ANIMAL CLINIC","POP_AT_RISK":76874,"BUSINESS_TYPE":"Animal Care License","LEGAL_NAME":"HYDE PARK ANIMAL CLINIC, P.C.","LONGITUDE":-87.59268914036797},
{"STATE":"IL","ZIP":60649,"LATTITUDE":41.76869276344308,"ADDRESS":"6937 S STONY ISLAND AVE 1 ","YEAR":2014,"DOING_BUSINESS_AS_NAME":"HYDE PARK ANIMAL CLINIC","POP_AT_RISK":74394,"BUSINESS_TYPE":"Animal Care License","LEGAL_NAME":"HYDE PARK ANIMAL CLINIC, P.C.","LONGITUDE":-87.58584581329808},
{"STATE":"IL","ZIP":60649,"LATTITUDE":41.75182172827668,"ADDRESS":"2320 E 79TH ST 1ST ","YEAR":2014,"DOING_BUSINESS_AS_NAME":"SOUTH SHORE ANIMAL CLINIC","POP_AT_RISK":240582,"BUSINESS_TYPE":"Animal Care License","LEGAL_NAME":"SOUTH SHORE ANIMAL CLINIC INC","LONGITUDE":-87.56776651199185},
{"STATE":"IL","ZIP":60609,"LATTITUDE":41.80015376711059,"ADDRESS":"5132 S WESTERN AVE 1ST ","YEAR":2014,"DOING_BUSINESS_AS_NAME":"SOUTH WESTERN ANIMAL HOSPITAL","POP_AT_RISK":201536,"BUSINESS_TYPE":"Animal Care License","LEGAL_NAME":"SOUTH WESTERN ANIMAL HOSPITAL","LONGITUDE":-87.68434530108541},
{"STATE":"IL","ZIP":60626,"LATTITUDE":42.01594338357489,"ADDRESS":"1447 W JARVIS AVE  ","YEAR":2014,"DOING_BUSINESS_AS_NAME":"ROGERS BARK PET SALON","POP_AT_RISK":62296,"BUSINESS_TYPE":"Animal Care License","LEGAL_NAME":"ROGERS BARK PET SERVICES, INC.","LONGITUDE":-87.66796786700539},
{"STATE":"IL","ZIP":60646,"LATTITUDE":41.99721824029716,"ADDRESS":"5301 W DEVON AVE  ","YEAR":2014,"DOING_BUSINESS_AS_NAME":"Chicago Cat Clinic","POP_AT_RISK":35912,"BUSINESS_TYPE":"Animal Care License","LEGAL_NAME":"John D. Nordwall, Jr. DVM, P.C.","LONGITUDE":-87.76082958451794},
{"STATE":"IL","ZIP":60643,"LATTITUDE":41.68064793017087,"ADDRESS":"11720 S MARSHFIELD AVE 1 ","YEAR":2014,"DOING_BUSINESS_AS_NAME":"PETCO #1983","POP_AT_RISK":44232,"BUSINESS_TYPE":"Animal Care License","LEGAL_NAME":"PETCO ANIMAL SUPPLIES STORES, INC.","LONGITUDE":-87.66259019890877},
{"STATE":"IL","ZIP":60630,"LATTITUDE":41.969408393949635,"ADDRESS":"4840 N PULASKI RD 1 100","YEAR":2014,"DOING_BUSINESS_AS_NAME":"Petco # 1987","POP_AT_RISK":63203,"BUSINESS_TYPE":"Animal Care License","LEGAL_NAME":"PETCO ANIMAL SUPPLIES STORES, INC.","LONGITUDE":-87.72820946652502},
{"STATE":"IL","ZIP":60659,"LATTITUDE":41.995197026667874,"ADDRESS":"6236 N WESTERN AVE 1 ","YEAR":2014,"DOING_BUSINESS_AS_NAME":"Petco # 1988","POP_AT_RISK":68863,"BUSINESS_TYPE":"Animal Care License","LEGAL_NAME":"PETCO ANIMAL SUPPLIES STORES, INC.","LONGITUDE":-87.6899474073173},
{"STATE":"IL","ZIP":60652,"LATTITUDE":41.744867655481485,"ADDRESS":"8142 S KEDZIE AVE 1 1","YEAR":2014,"DOING_BUSINESS_AS_NAME":"KENIN'S PET GROOMING SHOP","POP_AT_RISK":70275,"BUSINESS_TYPE":"Animal Care License","LEGAL_NAME":"ANTONIA GARCIA & MARIA ANTONIA JAIME","LONGITUDE":-87.70240428748576},
}