{
{"STATE":"IL","ZIP":60640,"LATTITUDE":41.968781265045,"ADDRESS":"1509 - 1511 W LAWRENCE AVE 1ST ","YEAR":2013,"DOING_BUSINESS_AS_NAME":"ICE CUBED LLC","POP_AT_RISK":137146,"BUSINESS_TYPE":"Mobile Food License","LEGAL_NAME":"ICE CUBED LLC","LONGITUDE":-87.66790927751248},
{"STATE":"IL","ZIP":60647,"LATTITUDE":41.91023000926717,"ADDRESS":"2325 W NORTH AVE 1ST ","YEAR":2013,"DOING_BUSINESS_AS_NAME":"LATITUDE20 LLC","POP_AT_RISK":281260,"BUSINESS_TYPE":"Mobile Food License","LEGAL_NAME":"LATITUDE20 LLC","LONGITUDE":-87.6858503668328},
{"STATE":"IL","ZIP":60640,"LATTITUDE":41.96210413223745,"ADDRESS":"4409 N BROADWAY  1 ","YEAR":2013,"DOING_BUSINESS_AS_NAME":"GRACE AFRICAN RESTAURANT","POP_AT_RISK":150228,"BUSINESS_TYPE":"Mobile Food License","LEGAL_NAME":"SMART FRIMPONG","LONGITUDE":-87.65520382960334},
{"STATE":"IL","ZIP":60647,"LATTITUDE":41.92521769617991,"ADDRESS":"2409 N WESTERN AVE  ","YEAR":2013,"DOING_BUSINESS_AS_NAME":"CHICAGO CUPCAKE LLC","POP_AT_RISK":168597,"BUSINESS_TYPE":"Mobile Food License","LEGAL_NAME":"CHICAGO CUPCAKE LLC","LONGITUDE":-87.68750659490456},
{"STATE":"IL","ZIP":60607,"LATTITUDE":41.86959706650426,"ADDRESS":"1030 W TAYLOR ST  ","YEAR":2013,"DOING_BUSINESS_AS_NAME":"FLIRTY CUPCAKES","POP_AT_RISK":152184,"BUSINESS_TYPE":"Mobile Food License","LEGAL_NAME":"FLIRTY CUPCAKES LLC","LONGITUDE":-87.6523490175014},
{"STATE":"IL","ZIP":60604,"LATTITUDE":41.878014487249544,"ADDRESS":"175 W JACKSON BLVD 1 ","YEAR":2013,"DOING_BUSINESS_AS_NAME":"WOW BAO","POP_AT_RISK":101022,"BUSINESS_TYPE":"Mobile Food License","LEGAL_NAME":"WOW BAO JACKSON LLC","LONGITUDE":-87.63318903001444},
{"STATE":"IL","ZIP":60621,"LATTITUDE":41.7798631678725,"ADDRESS":"740 W 63RD ST  ","YEAR":2013,"DOING_BUSINESS_AS_NAME":"CUPCAKE GANGSTERS","POP_AT_RISK":357544,"BUSINESS_TYPE":"Mobile Food License","LEGAL_NAME":"24 KARAT CAKES, INC.","LONGITUDE":-87.6445278756232},
{"STATE":"IL","ZIP":60616,"LATTITUDE":41.83111926924849,"ADDRESS":"4 W 35TH ST  ","YEAR":2013,"DOING_BUSINESS_AS_NAME":"NEIGHBOR CAPITAL LLC","POP_AT_RISK":482580,"BUSINESS_TYPE":"Mobile Food License","LEGAL_NAME":"NEIGHBOR CAPITAL LLC","LONGITUDE":-87.6267791005784},
{"STATE":"IL","ZIP":60651,"LATTITUDE":41.8953375905806,"ADDRESS":"3639 W CHICAGO AVE  ","YEAR":2013,"DOING_BUSINESS_AS_NAME":"NEIGHBOR CAPITAL LLC","POP_AT_RISK":593398,"BUSINESS_TYPE":"Mobile Food License","LEGAL_NAME":"NEIGHBOR CAPITAL LLC","LONGITUDE":-87.71777594423735},
{"STATE":"IL","ZIP":60657,"LATTITUDE":41.933979804573255,"ADDRESS":"2850 N CLARK ST  ","YEAR":2013,"DOING_BUSINESS_AS_NAME":"FIFTY FOUR ELEVEN","POP_AT_RISK":335456,"BUSINESS_TYPE":"Mobile Food License","LEGAL_NAME":"FIFTY FOUR ELEVEN LLC","LONGITUDE":-87.64601179219122},
{"STATE":"IL","ZIP":60629,"LATTITUDE":41.77905236928871,"ADDRESS":"2645 W 63RD ST  ","YEAR":2013,"DOING_BUSINESS_AS_NAME":"RAY'S ISLAND GRILL","POP_AT_RISK":770237,"BUSINESS_TYPE":"Mobile Food License","LEGAL_NAME":"RAY'S ISLAND GRILL LLC","LONGITUDE":-87.69030268459315},
{"STATE":"IL","ZIP":60649,"LATTITUDE":41.75868882324165,"ADDRESS":"1713 E 75TH ST 1ST ","YEAR":2013,"DOING_BUSINESS_AS_NAME":"RAY'S ISLAND GRILL LLC","POP_AT_RISK":661626,"BUSINESS_TYPE":"Mobile Food License","LEGAL_NAME":"RAY'S ISLAND GRILL LLC","LONGITUDE":-87.58295045587245},
{"STATE":"IL","ZIP":60620,"LATTITUDE":41.75445964628522,"ADDRESS":"7637 S WESTERN AVE  ","YEAR":2013,"DOING_BUSINESS_AS_NAME":"KIM AND SCOTT'S CRAVE BAR","POP_AT_RISK":89301,"BUSINESS_TYPE":"Mobile Food License","LEGAL_NAME":"NOURISH FOODS GROUP LLC","LONGITUDE":-87.6828164498929},
{"STATE":"IL","ZIP":60657,"LATTITUDE":41.93727241797709,"ADDRESS":"3056 N LINCOLN AVE 1 ","YEAR":2013,"DOING_BUSINESS_AS_NAME":"CHIZAKAYA","POP_AT_RISK":797214,"BUSINESS_TYPE":"Mobile Food License","LEGAL_NAME":"HAROLD'S RESTAURANT, LLC","LONGITUDE":-87.66552486724433},
{"STATE":"IL","ZIP":60616,"LATTITUDE":41.85757610866475,"ADDRESS":"1800 S JEFFERSON ST 1ST ","YEAR":2013,"DOING_BUSINESS_AS_NAME":"FALAFEL BROTHERS","POP_AT_RISK":67768,"BUSINESS_TYPE":"Mobile Food License","LEGAL_NAME":"THE FALAFEL BROTHERS, INC.","LONGITUDE":-87.64200897164467},
{"STATE":"IL","ZIP":60608,"LATTITUDE":41.85923166317091,"ADDRESS":"2443 W 16TH ST  ","YEAR":2013,"DOING_BUSINESS_AS_NAME":"BEYOND BORDERS FUSION FOOD, LLC","POP_AT_RISK":73516,"BUSINESS_TYPE":"Mobile Food License","LEGAL_NAME":"BEYOND BORDERS FUSION FOOD, LLC","LONGITUDE":-87.68748555402212},
{"STATE":"IL","ZIP":60620,"LATTITUDE":41.75026159818169,"ADDRESS":"1535 W 79TH ST 1ST ","YEAR":2013,"DOING_BUSINESS_AS_NAME":"K INTERCONTINENTAL RESTAURANT\/ BAR, INC.","POP_AT_RISK":373599,"BUSINESS_TYPE":"Mobile Food License","LEGAL_NAME":"K INTERCONTINENTAL RESTAURANT\/BAR INC.","LONGITUDE":-87.66234576167015},
{"STATE":"IL","ZIP":60609,"LATTITUDE":41.80162841617951,"ADDRESS":"5058 S HALSTED ST 1 C","YEAR":2013,"DOING_BUSINESS_AS_NAME":"JAMAICA ISLAND JERK CHICKEN","POP_AT_RISK":173448,"BUSINESS_TYPE":"Mobile Food License","LEGAL_NAME":"JAMAICA ISLAND JERK CHICKEN INCORPORATED","LONGITUDE":-87.645492014632},
}