{
{"STATE":"IL","ZIP":60649,"LATTITUDE":41.7668180675386,"ADDRESS":"7041 S JEFFERY BLVD  ","YEAR":2006,"DOING_BUSINESS_AS_NAME":"JEFFERY PUB","POP_AT_RISK":303359,"BUSINESS_TYPE":"Late Hour","LEGAL_NAME":"JAF, LTD.","LONGITUDE":-87.5761708282342},
{"STATE":"IL","ZIP":60621,"LATTITUDE":41.77885417721719,"ADDRESS":"6331 S LOWE AVE  ","YEAR":2006,"DOING_BUSINESS_AS_NAME":"TASTE DISCO & STEAK HOUSE","POP_AT_RISK":294570,"BUSINESS_TYPE":"Late Hour","LEGAL_NAME":"TASTE INC","LONGITUDE":-87.64069495645147},
{"STATE":"IL","ZIP":60636,"LATTITUDE":41.79029802503693,"ADDRESS":"5701 S ASHLAND AVE  ","YEAR":2006,"DOING_BUSINESS_AS_NAME":"WILLIAMS INN","POP_AT_RISK":427560,"BUSINESS_TYPE":"Late Hour","LEGAL_NAME":"LULA'S INC.","LONGITUDE":-87.66434168191911},
{"STATE":"IL","ZIP":60626,"LATTITUDE":42.01890350707934,"ADDRESS":"7541-7545 N CLARK ST 1ST ","YEAR":2006,"DOING_BUSINESS_AS_NAME":"HARD WATER BAR & GRILL","POP_AT_RISK":62574,"BUSINESS_TYPE":"Late Hour","LEGAL_NAME":"KEFALOS, INC.","LONGITUDE":-87.67595814790334},
{"STATE":"IL","ZIP":60645,"LATTITUDE":42.016961012809865,"ADDRESS":"7436 N WESTERN AVE 1ST ","YEAR":2006,"DOING_BUSINESS_AS_NAME":"MARK II LTD","POP_AT_RISK":149505,"BUSINESS_TYPE":"Late Hour","LEGAL_NAME":"MARK II, LTD.","LONGITUDE":-87.69034725403856},
{"STATE":"IL","ZIP":60630,"LATTITUDE":41.982306615471906,"ADDRESS":"5525 N MILWAUKEE AVE  ","YEAR":2006,"DOING_BUSINESS_AS_NAME":"LASKO'S","POP_AT_RISK":27547,"BUSINESS_TYPE":"Late Hour","LEGAL_NAME":"D. T. D., INC.","LONGITUDE":-87.77362028372556},
{"STATE":"IL","ZIP":60634,"LATTITUDE":41.94503667621983,"ADDRESS":"7429 W ADDISON ST 1ST ","YEAR":2006,"DOING_BUSINESS_AS_NAME":"GUISEPPE'S INC","POP_AT_RISK":84836,"BUSINESS_TYPE":"Late Hour","LEGAL_NAME":"GUISEPPE'S INC","LONGITUDE":-87.81304718070275},
{"STATE":"IL","ZIP":60623,"LATTITUDE":41.85895171070665,"ADDRESS":"3245 W 16TH ST 1ST ","YEAR":2006,"DOING_BUSINESS_AS_NAME":"BRIANS LOUNGE","POP_AT_RISK":546370,"BUSINESS_TYPE":"Late Hour","LEGAL_NAME":"ROSE DEVEREAUX","LONGITUDE":-87.70719055849162},
{"STATE":"IL","ZIP":60638,"LATTITUDE":41.77792381411959,"ADDRESS":"5625 W 63RD ST 1ST ","YEAR":2006,"DOING_BUSINESS_AS_NAME":"MARIANNA'S PLACE","POP_AT_RISK":18938,"BUSINESS_TYPE":"Late Hour","LEGAL_NAME":"TROY LOGIC, INC","LONGITUDE":-87.76265938509499},
{"STATE":"IL","ZIP":60620,"LATTITUDE":41.7489076139351,"ADDRESS":"7958 S HALSTED ST 1ST ","YEAR":2006,"DOING_BUSINESS_AS_NAME":"SANDPIPER LOUNGE","POP_AT_RISK":39339,"BUSINESS_TYPE":"Late Hour","LEGAL_NAME":"LE ROY SINGLETON","LONGITUDE":-87.64413859850103},
{"STATE":"IL","ZIP":60652,"LATTITUDE":41.7495573130227,"ADDRESS":"3359 W 79TH ST 1ST ","YEAR":2006,"DOING_BUSINESS_AS_NAME":"NINA'S RESTAURANT","POP_AT_RISK":100620,"BUSINESS_TYPE":"Late Hour","LEGAL_NAME":"M. T. GLASS, CO.","LONGITUDE":-87.70721111204942},
{"STATE":"IL","ZIP":60609,"LATTITUDE":41.811835758122164,"ADDRESS":"4518 S MCDOWELL AVE  ","YEAR":2006,"DOING_BUSINESS_AS_NAME":"MEMBERS ONLY","POP_AT_RISK":228432,"BUSINESS_TYPE":"Late Hour","LEGAL_NAME":"VINCENT ENRIQUEZ","LONGITUDE":-87.6610129672327},
{"STATE":"IL","ZIP":60651,"LATTITUDE":41.898367071372185,"ADDRESS":"939-941 N PULASKI RD  ","YEAR":2006,"DOING_BUSINESS_AS_NAME":"BROTHER'S PALACE -939","POP_AT_RISK":245835,"BUSINESS_TYPE":"Late Hour","LEGAL_NAME":"R & G MILLER INC.","LONGITUDE":-87.72602784401688},
{"STATE":"IL","ZIP":60643,"LATTITUDE":41.70486871150318,"ADDRESS":"10350 S WESTERN AVE  ","YEAR":2006,"DOING_BUSINESS_AS_NAME":"BREWBAKERS","POP_AT_RISK":249516,"BUSINESS_TYPE":"Late Hour","LEGAL_NAME":"GORDON LOUNGE, INC","LONGITUDE":-87.68171958749872},
{"STATE":"IL","ZIP":60649,"LATTITUDE":41.751863533921544,"ADDRESS":"2442 E 79TH ST 1ST ","YEAR":2006,"DOING_BUSINESS_AS_NAME":"LEISURE LIFE LOUNGE","POP_AT_RISK":132512,"BUSINESS_TYPE":"Late Hour","LEGAL_NAME":"SHEILA D. THOMPSON","LONGITUDE":-87.56454224278873},
{"STATE":"IL","ZIP":60644,"LATTITUDE":41.88832284267655,"ADDRESS":"417 N LARAMIE AVE 1ST ","YEAR":2006,"DOING_BUSINESS_AS_NAME":"CHARLIE'S I LTD","POP_AT_RISK":609653,"BUSINESS_TYPE":"Late Hour","LEGAL_NAME":"CHARLIE'S I LIMITED","LONGITUDE":-87.75520983046688},
{"STATE":"IL","ZIP":60641,"LATTITUDE":41.9351386559656,"ADDRESS":"2959 N CICERO AVE  ","YEAR":2006,"DOING_BUSINESS_AS_NAME":"HOT SPOT","POP_AT_RISK":190014,"BUSINESS_TYPE":"Late Hour","LEGAL_NAME":"J D R LIQUORS, INC.","LONGITUDE":-87.74659197365727},
{"STATE":"IL","ZIP":60617,"LATTITUDE":41.72672309390813,"ADDRESS":"9273 S SOUTH CHICAGO AVE  ","YEAR":2006,"DOING_BUSINESS_AS_NAME":"ROMA'S REST","POP_AT_RISK":152831,"BUSINESS_TYPE":"Late Hour","LEGAL_NAME":"PALIATSOS & SON CO.","LONGITUDE":-87.55094326211272},
{"STATE":"IL","ZIP":60622,"LATTITUDE":41.895543708081156,"ADDRESS":"2801 W CHICAGO AVE  ","YEAR":2006,"DOING_BUSINESS_AS_NAME":"THE CONTINENTAL LOUNGE","POP_AT_RISK":254784,"BUSINESS_TYPE":"Late Hour","LEGAL_NAME":"WESTSIDE RAIL, INC.","LONGITUDE":-87.69676464023073},
{"STATE":"IL","ZIP":60619,"LATTITUDE":41.7514313030561,"ADDRESS":"914 E 79TH ST 1ST ","YEAR":2006,"DOING_BUSINESS_AS_NAME":"EAST OF THE RYAN,INC","POP_AT_RISK":125541,"BUSINESS_TYPE":"Late Hour","LEGAL_NAME":"EAST OF THE RYAN INC","LONGITUDE":-87.60211212497248},
{"STATE":"IL","ZIP":60612,"LATTITUDE":41.87748553469393,"ADDRESS":"1645 W JACKSON BLVD  ","YEAR":2006,"DOING_BUSINESS_AS_NAME":"PARK TAVERN CHICAGO","POP_AT_RISK":124668,"BUSINESS_TYPE":"Late Hour","LEGAL_NAME":"1645 W. JACKSON, INC.","LONGITUDE":-87.66852104233708},
{"STATE":"IL","ZIP":60613,"LATTITUDE":41.96135532131147,"ADDRESS":"1959 W MONTROSE AVE 1ST #","YEAR":2006,"DOING_BUSINESS_AS_NAME":"OAKWOOD '83","POP_AT_RISK":64775,"BUSINESS_TYPE":"Late Hour","LEGAL_NAME":"LILLIAN PROCHASKA INC","LONGITUDE":-87.67830515937477},
{"STATE":"IL","ZIP":60640,"LATTITUDE":41.97616536053114,"ADDRESS":"5153 N BROADWAY  1ST ","YEAR":2006,"DOING_BUSINESS_AS_NAME":"LAURIE'S REST & COCKTAIL LOUNG","POP_AT_RISK":145466,"BUSINESS_TYPE":"Late Hour","LEGAL_NAME":"LAURIE'S PIZZERIA INC.","LONGITUDE":-87.6597154797116},
{"STATE":"IL","ZIP":60638,"LATTITUDE":41.77726177253016,"ADDRESS":"6301 S HARLEM AVE 1ST ","YEAR":2006,"DOING_BUSINESS_AS_NAME":"ESCAPADES","POP_AT_RISK":70974,"BUSINESS_TYPE":"Late Hour","LEGAL_NAME":"6301 SOUTH HARLEM, INC.","LONGITUDE":-87.80074962919096},
{"STATE":"IL","ZIP":60623,"LATTITUDE":41.84066059466386,"ADDRESS":"2759 S PULASKI RD 1ST ","YEAR":2006,"DOING_BUSINESS_AS_NAME":"El Sinaloense","POP_AT_RISK":47450,"BUSINESS_TYPE":"Late Hour","LEGAL_NAME":"FAUSTO ENTERPRISES INC.","LONGITUDE":-87.7243059784339},
{"STATE":"IL","ZIP":60623,"LATTITUDE":41.84408106968191,"ADDRESS":"4153 W 26TH ST 1ST #","YEAR":2006,"DOING_BUSINESS_AS_NAME":"RESTAURANTE ALANIS LTD","POP_AT_RISK":99868,"BUSINESS_TYPE":"Late Hour","LEGAL_NAME":"RESTAURANTE ALANIS LTD.","LONGITUDE":-87.72907469267422},
{"STATE":"IL","ZIP":60629,"LATTITUDE":41.77537072870392,"ADDRESS":"6459 S KEDZIE AVE  ","YEAR":2006,"DOING_BUSINESS_AS_NAME":"TOMMY KRAW'S LOUNGE INC","POP_AT_RISK":177584,"BUSINESS_TYPE":"Late Hour","LEGAL_NAME":"TOMMY KRAW'S LOUNGE INC","LONGITUDE":-87.70290726002436},
{"STATE":"IL","ZIP":60630,"LATTITUDE":41.97836392545557,"ADDRESS":"5368 N MILWAUKEE AVE  ","YEAR":2006,"DOING_BUSINESS_AS_NAME":"ZIEMEK CORP.","POP_AT_RISK":33756,"BUSINESS_TYPE":"Late Hour","LEGAL_NAME":"ZIEMEK CORPORATION, INC.","LONGITUDE":-87.77037720178194},
{"STATE":"IL","ZIP":60656,"LATTITUDE":41.980726198415624,"ADDRESS":"7123 W HIGGINS AVE 1ST ","YEAR":2006,"DOING_BUSINESS_AS_NAME":"TEASER'S PUB","POP_AT_RISK":177684,"BUSINESS_TYPE":"Late Hour","LEGAL_NAME":"7123 W. HIGGINS RD. CORP.","LONGITUDE":-87.80571278001223},
{"STATE":"IL","ZIP":60639,"LATTITUDE":41.919526594497476,"ADDRESS":"5726 W GRAND AVE  ","YEAR":2006,"DOING_BUSINESS_AS_NAME":"JEREZ SPORT BAR AND GRILL","POP_AT_RISK":327702,"BUSINESS_TYPE":"Late Hour","LEGAL_NAME":"GRAND CENTRAL CORPORATION","LONGITUDE":-87.76937582701346},
{"STATE":"IL","ZIP":60647,"LATTITUDE":41.91736098818671,"ADDRESS":"3702 W ARMITAGE AVE  ","YEAR":2006,"DOING_BUSINESS_AS_NAME":"LAS VEGAS NITE CLUB INC","POP_AT_RISK":308972,"BUSINESS_TYPE":"Late Hour","LEGAL_NAME":"LAS VEGAS NITE CLUB, INC.","LONGITUDE":-87.71936114474791},
{"STATE":"IL","ZIP":60634,"LATTITUDE":41.9379941491104,"ADDRESS":"7706 W BELMONT AVE  ","YEAR":2006,"DOING_BUSINESS_AS_NAME":"AS TIME GOES BY II LTD.","POP_AT_RISK":33920,"BUSINESS_TYPE":"Late Hour","LEGAL_NAME":"AS TIME GOES BY II LIMITED","LONGITUDE":-87.81928311687304},
{"STATE":"IL","ZIP":60641,"LATTITUDE":41.96092772787229,"ADDRESS":"4420  -04430 W MONTROSE AVE 1ST ","YEAR":2006,"DOING_BUSINESS_AS_NAME":"SIDEKICKS","POP_AT_RISK":46331,"BUSINESS_TYPE":"Late Hour","LEGAL_NAME":"THE CONCORD RESTAURANT INC","LONGITUDE":-87.73933586085796},
{"STATE":"IL","ZIP":60608,"LATTITUDE":41.85793564944198,"ADDRESS":"1514 W 18TH ST  ","YEAR":2006,"DOING_BUSINESS_AS_NAME":"AZTECA TACOS RESTAURANT INC","POP_AT_RISK":444026,"BUSINESS_TYPE":"Late Hour","LEGAL_NAME":"AZTECA TACOS RESTAURANT INC","LONGITUDE":-87.66440105973014},
{"STATE":"IL","ZIP":60634,"LATTITUDE":41.95837384588684,"ADDRESS":"4250 N CENTRAL AVE  ","YEAR":2006,"DOING_BUSINESS_AS_NAME":"SUPAROSSA","POP_AT_RISK":366989,"BUSINESS_TYPE":"Late Hour","LEGAL_NAME":"MR. B'S STUFFED PIZZA, INC.","LONGITUDE":-87.76732076240101},
{"STATE":"IL","ZIP":60632,"LATTITUDE":41.80577977439837,"ADDRESS":"4807-4809 S PULASKI RD 1ST ","YEAR":2006,"DOING_BUSINESS_AS_NAME":"BLUE SKY RESTAURANT","POP_AT_RISK":317370,"BUSINESS_TYPE":"Late Hour","LEGAL_NAME":"GENE & SOPHIE'S LOUNGE, INC.","LONGITUDE":-87.72337496234026},
{"STATE":"IL","ZIP":60618,"LATTITUDE":41.95403375387135,"ADDRESS":"3144 W IRVING PARK RD 1ST ","YEAR":2006,"DOING_BUSINESS_AS_NAME":"CASUAL CORNER BAR & GRILL","POP_AT_RISK":64336,"BUSINESS_TYPE":"Late Hour","LEGAL_NAME":"CASUAL CORNER BAR & GRILL INC","LONGITUDE":-87.70740603786611},
{"STATE":"IL","ZIP":60633,"LATTITUDE":41.64818877792674,"ADDRESS":"13601 S CALHOUN AVE  1","YEAR":2006,"DOING_BUSINESS_AS_NAME":"PAPICHULO GRILL AND LOUNGE","POP_AT_RISK":2798,"BUSINESS_TYPE":"Late Hour","LEGAL_NAME":"RIVERSIDE LOUNGE & MARINE INC","LONGITUDE":-87.56157337119949},
{"STATE":"IL","ZIP":60619,"LATTITUDE":41.758565116524814,"ADDRESS":"502-506 E 75TH ST 1ST ","YEAR":2006,"DOING_BUSINESS_AS_NAME":"NEW APARTMENT LOUNGE, INC","POP_AT_RISK":35299,"BUSINESS_TYPE":"Late Hour","LEGAL_NAME":"THE NEW APARTMENT LOUNGE, INC.","LONGITUDE":-87.61253430608224},
{"STATE":"IL","ZIP":60623,"LATTITUDE":41.8446448118455,"ADDRESS":"3120 W 26TH ST  ","YEAR":2006,"DOING_BUSINESS_AS_NAME":"LOS DOS LAREDOS RESTAURANT","POP_AT_RISK":68936,"BUSINESS_TYPE":"Late Hour","LEGAL_NAME":"LOS DOS LAREDOS RESTAURANT, INC.","LONGITUDE":-87.70349685551031},
{"STATE":"IL","ZIP":60652,"LATTITUDE":41.74051514320914,"ADDRESS":"8355 S PULASKI RD  ","YEAR":2006,"DOING_BUSINESS_AS_NAME":"GROUCHO'S BAR & GRILL","POP_AT_RISK":95526,"BUSINESS_TYPE":"Late Hour","LEGAL_NAME":"PAUL AND MARC'S ENTERPRISES, LTD.","LONGITUDE":-87.72147836324686},
}