{
{"STATE":"IL","ZIP":60644,"LATTITUDE":41.87493430097376,"ADDRESS":"4715 W VAN BUREN ST  ","YEAR":2012,"DOING_BUSINESS_AS_NAME":"DEVON DAVIS","POP_AT_RISK":112824,"BUSINESS_TYPE":"Street Performer","LEGAL_NAME":"DEVON DAVIS","LONGITUDE":-87.7432825231279},
{"STATE":"IL","ZIP":60629,"LATTITUDE":41.777695724709645,"ADDRESS":"6331 S KARLOV AVE  ","YEAR":2012,"DOING_BUSINESS_AS_NAME":"JORGE URIBE","POP_AT_RISK":109904,"BUSINESS_TYPE":"Street Performer","LEGAL_NAME":"JORGE URIBE","LONGITUDE":-87.7250308789542},
{"STATE":"IL","ZIP":60620,"LATTITUDE":41.723606888535194,"ADDRESS":"221 W 94TH ST  ","YEAR":2012,"DOING_BUSINESS_AS_NAME":"DAVID WALKER","POP_AT_RISK":56318,"BUSINESS_TYPE":"Street Performer","LEGAL_NAME":"DAVID WALKER","LONGITUDE":-87.62994404507812},
{"STATE":"IL","ZIP":60609,"LATTITUDE":41.79624808776697,"ADDRESS":"5347 S WOOD ST 1ST #","YEAR":2012,"DOING_BUSINESS_AS_NAME":"CECIL D LOCKE","POP_AT_RISK":293286,"BUSINESS_TYPE":"Street Performer","LEGAL_NAME":"CECIL D LOCKE","LONGITUDE":-87.66936060628221},
{"STATE":"IL","ZIP":60628,"LATTITUDE":41.71184705992434,"ADDRESS":"34 E 100TH PL  ","YEAR":2012,"DOING_BUSINESS_AS_NAME":"MARIO SANDERS","POP_AT_RISK":27650,"BUSINESS_TYPE":"Street Performer","LEGAL_NAME":"MARIO SANDERS","LONGITUDE":-87.62228987739334},
{"STATE":"IL","ZIP":60609,"LATTITUDE":41.814327619021256,"ADDRESS":"4401 S LOWE AVE  ","YEAR":2012,"DOING_BUSINESS_AS_NAME":"MICHAEL MOODY","POP_AT_RISK":17685,"BUSINESS_TYPE":"Street Performer","LEGAL_NAME":"MICHAEL MOODY","LONGITUDE":-87.64189347750248},
{"STATE":"IL","ZIP":60629,"LATTITUDE":41.79252071712797,"ADDRESS":"5537 S RICHMOND ST  ","YEAR":2012,"DOING_BUSINESS_AS_NAME":"ANTONIO TORRES","POP_AT_RISK":353664,"BUSINESS_TYPE":"Street Performer","LEGAL_NAME":"ANTONIO TORRES","LONGITUDE":-87.6972806369158},
{"STATE":"IL","ZIP":60645,"LATTITUDE":42.015060035775996,"ADDRESS":"7344 N ALBANY AVE 1 ","YEAR":2012,"DOING_BUSINESS_AS_NAME":"ERICK G. MATEO","POP_AT_RISK":31488,"BUSINESS_TYPE":"Street Performer","LEGAL_NAME":"ERICK G. MATEO","LONGITUDE":-87.70689724240283},
{"STATE":"IL","ZIP":60652,"LATTITUDE":41.74518171464233,"ADDRESS":"3614 W 81ST PL  ","YEAR":2012,"DOING_BUSINESS_AS_NAME":"EUGENE ROWLAND","POP_AT_RISK":88696,"BUSINESS_TYPE":"Street Performer","LEGAL_NAME":"EUGENE ROWLAND","LONGITUDE":-87.71278580731351},
{"STATE":"IL","ZIP":60621,"LATTITUDE":41.79069527812616,"ADDRESS":"1016 W 57TH ST  ","YEAR":2012,"DOING_BUSINESS_AS_NAME":"PIERRE H JONES","POP_AT_RISK":149560,"BUSINESS_TYPE":"Street Performer","LEGAL_NAME":"PIERRE H JONES","LONGITUDE":-87.65071554243252},
{"STATE":"IL","ZIP":60636,"LATTITUDE":41.76415531499319,"ADDRESS":"1444 W 71ST PL  ","YEAR":2012,"DOING_BUSINESS_AS_NAME":"RODNEY JOHNSON","POP_AT_RISK":38600,"BUSINESS_TYPE":"Street Performer","LEGAL_NAME":"RODNEY JOHNSON","LONGITUDE":-87.6606397515453},
{"STATE":"IL","ZIP":60609,"LATTITUDE":41.82678523536487,"ADDRESS":"2228 W 37TH ST 1ST ","YEAR":2012,"DOING_BUSINESS_AS_NAME":"ANTHONY E MOSER","POP_AT_RISK":78884,"BUSINESS_TYPE":"Street Performer","LEGAL_NAME":"ANTHONY E MOSER","LONGITUDE":-87.68130317624059},
{"STATE":"IL","ZIP":60827,"LATTITUDE":41.65714405548082,"ADDRESS":"13107 S LANGLEY AVE  ","YEAR":2012,"DOING_BUSINESS_AS_NAME":"MICHAEL SANDERS","POP_AT_RISK":12964,"BUSINESS_TYPE":"Street Performer","LEGAL_NAME":"MICHAEL SANDERS","LONGITUDE":-87.60498778863149},
{"STATE":"IL","ZIP":60617,"LATTITUDE":41.72863395838726,"ADDRESS":"9177 S SOUTH CHICAGO AVE  ","YEAR":2012,"DOING_BUSINESS_AS_NAME":"ABIMBOLA ADEMOSU","POP_AT_RISK":17702,"BUSINESS_TYPE":"Street Performer","LEGAL_NAME":"ABIMBOLA ADEMOSU","LONGITUDE":-87.55360264844659},
{"STATE":"IL","ZIP":60628,"LATTITUDE":41.658146251542945,"ADDRESS":"629 W 129TH PL  ","YEAR":2012,"DOING_BUSINESS_AS_NAME":"EVIN R J RUSSELL","POP_AT_RISK":51760,"BUSINESS_TYPE":"Street Performer","LEGAL_NAME":"EVIN R J RUSSELL","LONGITUDE":-87.63761292903398},
{"STATE":"IL","ZIP":60617,"LATTITUDE":41.71100945109014,"ADDRESS":"10132 S EWING AVE  ","YEAR":2012,"DOING_BUSINESS_AS_NAME":"JOHN JOSEPH TAUS","POP_AT_RISK":78908,"BUSINESS_TYPE":"Street Performer","LEGAL_NAME":"JOHN JOSEPH TAUS","LONGITUDE":-87.5354279549906},
{"STATE":"IL","ZIP":60639,"LATTITUDE":41.914392708047124,"ADDRESS":"5846 W CORTLAND ST  ","YEAR":2012,"DOING_BUSINESS_AS_NAME":"JOSEPH GLEN ELLISON","POP_AT_RISK":164718,"BUSINESS_TYPE":"Street Performer","LEGAL_NAME":"JOSEPH G ELLISON","LONGITUDE":-87.77223046117399},
{"STATE":"IL","ZIP":60637,"LATTITUDE":41.781431130748054,"ADDRESS":"6230 S DORCHESTER AVE 210 ","YEAR":2012,"DOING_BUSINESS_AS_NAME":"JEAN L. DE SAVIEU","POP_AT_RISK":69498,"BUSINESS_TYPE":"Street Performer","LEGAL_NAME":"JEAN L. DE SAVIEU","LONGITUDE":-87.59152085323696},
{"STATE":"IL","ZIP":60628,"LATTITUDE":41.703684473874304,"ADDRESS":"739 E 105TH ST  ","YEAR":2012,"DOING_BUSINESS_AS_NAME":"LARRY LEE STEWART","POP_AT_RISK":20309,"BUSINESS_TYPE":"Street Performer","LEGAL_NAME":"LARRY LEE STEWART","LONGITUDE":-87.6047419252213},
{"STATE":"IL","ZIP":60623,"LATTITUDE":41.850858889561515,"ADDRESS":"2835 W 22ND PL  ","YEAR":2012,"DOING_BUSINESS_AS_NAME":"LOUIS S SIERRA II","POP_AT_RISK":247144,"BUSINESS_TYPE":"Street Performer","LEGAL_NAME":"LOUIS S SIERRA II","LONGITUDE":-87.69676289508892},
{"STATE":"IL","ZIP":60628,"LATTITUDE":41.680381835902836,"ADDRESS":"11741 S YALE AVE  ","YEAR":2012,"DOING_BUSINESS_AS_NAME":"MICHELLE S HERRON","POP_AT_RISK":121965,"BUSINESS_TYPE":"Street Performer","LEGAL_NAME":"MICHELLE S HERRON","LONGITUDE":-87.62858932670186},
{"STATE":"IL","ZIP":60619,"LATTITUDE":41.76449578241853,"ADDRESS":"7164 S SOUTH CHICAGO AVE  ","YEAR":2012,"DOING_BUSINESS_AS_NAME":"EDGAR OMAR GUALOTO","POP_AT_RISK":35253,"BUSINESS_TYPE":"Street Performer","LEGAL_NAME":"EDGAR OMAR GUALOTO","LONGITUDE":-87.60386159120708},
{"STATE":"IL","ZIP":60655,"LATTITUDE":41.71329864243373,"ADDRESS":"9911 S ARTESIAN AVE  ","YEAR":2012,"DOING_BUSINESS_AS_NAME":"MATTHEW JAMES KERR","POP_AT_RISK":48310,"BUSINESS_TYPE":"Street Performer","LEGAL_NAME":"MATTHEW JAMES KERR","LONGITUDE":-87.68296739421811},
{"STATE":"IL","ZIP":60630,"LATTITUDE":41.974907172017424,"ADDRESS":"5144 N KILBOURN AVE  ","YEAR":2012,"DOING_BUSINESS_AS_NAME":"CARMEN LILY ABELSON","POP_AT_RISK":25132,"BUSINESS_TYPE":"Street Performer","LEGAL_NAME":"CARMEN LILY ABELSON","LONGITUDE":-87.74080712064253},
{"STATE":"IL","ZIP":60637,"LATTITUDE":41.79103161602651,"ADDRESS":"329 E 57TH ST 1 1","YEAR":2012,"DOING_BUSINESS_AS_NAME":"LAURENCE T. INKATHA","POP_AT_RISK":112944,"BUSINESS_TYPE":"Street Performer","LEGAL_NAME":"LAURENCE T. INKATHA","LONGITUDE":-87.61784246649778},
{"STATE":"MN","ZIP":55427,"LATTITUDE":41.99704975036067,"ADDRESS":"6411  OLYMPIA ST  ","YEAR":2012,"DOING_BUSINESS_AS_NAME":"MANKWE MONIKA NDOSI","POP_AT_RISK":81120,"BUSINESS_TYPE":"Street Performer","LEGAL_NAME":"MANKWE MONIKA NDOSI","LONGITUDE":-87.81869481858155},
{"STATE":"IL","ZIP":60624,"LATTITUDE":41.87093531168616,"ADDRESS":"3710 W POLK ST  ","YEAR":2012,"DOING_BUSINESS_AS_NAME":"GABRIELLA T WILLIAMS","POP_AT_RISK":46663,"BUSINESS_TYPE":"Street Performer","LEGAL_NAME":"GABRIELLA T WILLIAMS","LONGITUDE":-87.71850875774827},
{"STATE":"IL","ZIP":60643,"LATTITUDE":41.706049856838554,"ADDRESS":"1104 W 103RD PL  ","YEAR":2012,"DOING_BUSINESS_AS_NAME":"JAMES MICHAEL FARLEY","POP_AT_RISK":89019,"BUSINESS_TYPE":"Street Performer","LEGAL_NAME":"JAMES MICHAEL FARLEY","LONGITUDE":-87.65037306106422},
{"STATE":"IL","ZIP":60634,"LATTITUDE":41.95725462149749,"ADDRESS":"4215 N MOBILE AVE  ","YEAR":2012,"DOING_BUSINESS_AS_NAME":"KENNETH STRINGER III","POP_AT_RISK":108555,"BUSINESS_TYPE":"Street Performer","LEGAL_NAME":"KENNETH STRINGER III","LONGITUDE":-87.7841114173544},
{"STATE":"IL","ZIP":60634,"LATTITUDE":41.93827877545118,"ADDRESS":"6742 W BELMONT AVE  ","YEAR":2012,"DOING_BUSINESS_AS_NAME":"BRADLEY FRANK MODJESKI","POP_AT_RISK":194552,"BUSINESS_TYPE":"Street Performer","LEGAL_NAME":"BRADLEY FRANK MODJESKI","LONGITUDE":-87.79500994134123},
{"STATE":"IL","ZIP":60617,"LATTITUDE":41.709267761063636,"ADDRESS":"10218 S CRANDON AVE  ","YEAR":2012,"DOING_BUSINESS_AS_NAME":"CORDERO TIERRE JOHNSON","POP_AT_RISK":11876,"BUSINESS_TYPE":"Street Performer","LEGAL_NAME":"CORDERO TIERRE JOHNSON","LONGITUDE":-87.56709072532036},
{"STATE":"IL","ZIP":60621,"LATTITUDE":41.75892308167637,"ADDRESS":"7435 S WENTWORTH AVE  ","YEAR":2012,"DOING_BUSINESS_AS_NAME":"DAVID SHAWN WILLAIMSON","POP_AT_RISK":23635,"BUSINESS_TYPE":"Street Performer","LEGAL_NAME":"DAVID SHAWN WILLIAMSON","LONGITUDE":-87.62948098997315},
{"STATE":"IL","ZIP":60634,"LATTITUDE":41.93886562434502,"ADDRESS":"3231 N ORIOLE AVE  ","YEAR":2012,"DOING_BUSINESS_AS_NAME":"DOUGLAS EDWARD BRAMMER","POP_AT_RISK":35096,"BUSINESS_TYPE":"Street Performer","LEGAL_NAME":"DOUGLAS EDWARD BRAMMER","LONGITUDE":-87.8164039110251},
{"STATE":"IL","ZIP":60656,"LATTITUDE":41.964432581175124,"ADDRESS":"4623 N CHESTER AVE  201","YEAR":2012,"DOING_BUSINESS_AS_NAME":"JERRY DANIEL HERNANDEZ","POP_AT_RISK":17082,"BUSINESS_TYPE":"Street Performer","LEGAL_NAME":"JERRY DANIEL HERNANDEZ","LONGITUDE":-87.83869227967783},
{"STATE":"IL","ZIP":60644,"LATTITUDE":41.889383638320616,"ADDRESS":"501 N CENTRAL AVE  ","YEAR":2012,"DOING_BUSINESS_AS_NAME":"URQUIZA MUSIC","POP_AT_RISK":167748,"BUSINESS_TYPE":"Street Performer","LEGAL_NAME":"THOMAS JEFFERY URQUIZA","LONGITUDE":-87.76503865254902},
{"STATE":"IL","ZIP":60651,"LATTITUDE":41.90176619061042,"ADDRESS":"4234 W HADDON AVE  ","YEAR":2012,"DOING_BUSINESS_AS_NAME":"VINCENT DELANE JOHNSON","POP_AT_RISK":49753,"BUSINESS_TYPE":"Street Performer","LEGAL_NAME":"VINCENT DELANE JOHNSON","LONGITUDE":-87.73262149433182},
{"STATE":"IL","ZIP":60638,"LATTITUDE":41.79288303544978,"ADDRESS":"5500 W 55TH ST  ","YEAR":2012,"DOING_BUSINESS_AS_NAME":"JAMES FRANK MARCANTONIO","POP_AT_RISK":104048,"BUSINESS_TYPE":"Street Performer","LEGAL_NAME":"JAMES FRANK MARCANTONIO","LONGITUDE":-87.75993130930738},
{"STATE":"IL","ZIP":60620,"LATTITUDE":41.747782971742275,"ADDRESS":"8034 S EMERALD AVE  ","YEAR":2012,"DOING_BUSINESS_AS_NAME":"ROBERT SPENCER WILLIAMS","POP_AT_RISK":34678,"BUSINESS_TYPE":"Street Performer","LEGAL_NAME":"ROBERT SPENCER WILLIAMS","LONGITUDE":-87.64288558989394},
{"STATE":"IL","ZIP":60634,"LATTITUDE":41.93945406332852,"ADDRESS":"3300 N PANAMA AVE  ","YEAR":2012,"DOING_BUSINESS_AS_NAME":"ALLISON VICTORIA PINCSAK","POP_AT_RISK":27736,"BUSINESS_TYPE":"Street Performer","LEGAL_NAME":"ALLISON VICTORIA PINCSAK","LONGITUDE":-87.82898482892645},
{"STATE":"IL","ZIP":60617,"LATTITUDE":41.726246903123005,"ADDRESS":"9254 S EUCLID AVE 1 1S","YEAR":2012,"DOING_BUSINESS_AS_NAME":"CHRISTOPHER JOSEPH STEPAN","POP_AT_RISK":19172,"BUSINESS_TYPE":"Street Performer","LEGAL_NAME":"CHRISTOPHER JOSEPH STEPAN","LONGITUDE":-87.57681250869148},
{"STATE":"IL","ZIP":60617,"LATTITUDE":41.72915527256092,"ADDRESS":"9121 S MERRILL AVE  ","YEAR":2012,"DOING_BUSINESS_AS_NAME":"CHRISTOPHER MICHAEL JONES","POP_AT_RISK":22741,"BUSINESS_TYPE":"Street Performer","LEGAL_NAME":"CHRISTOPHER MICHAEL JONES","LONGITUDE":-87.57173464668924},
{"STATE":"IL","ZIP":60638,"LATTITUDE":41.77602750729383,"ADDRESS":"5811 W 64TH ST  ","YEAR":2012,"DOING_BUSINESS_AS_NAME":"DANIEL RAYMOND SHAUGHNESSY","POP_AT_RISK":49248,"BUSINESS_TYPE":"Street Performer","LEGAL_NAME":"DANIEL RAYMOND SHAUGHNESSY","LONGITUDE":-87.76703220744662},
}