{
{"STATE":"IL","ZIP":60618,"LATTITUDE":41.941140616614504,"ADDRESS":"3300 N WHIPPLE ST  ","YEAR":2013,"DOING_BUSINESS_AS_NAME":"CONCORDIA PLACE","POP_AT_RISK":480640,"BUSINESS_TYPE":"Day Care Center 2 - 6 Years","LEGAL_NAME":"CONCORDIA PLACE","LONGITUDE":-87.70414879153417},
{"STATE":"IL","ZIP":60616,"LATTITUDE":41.84109417789479,"ADDRESS":"2929 S WABASH AVE  1ST","YEAR":2013,"DOING_BUSINESS_AS_NAME":"HENRY BOOTH HOUSE","POP_AT_RISK":35865,"BUSINESS_TYPE":"Day Care Center 2 - 6 Years","LEGAL_NAME":"HENRY BOOTH HOUSE","LONGITUDE":-87.62506779220855},
{"STATE":"IL","ZIP":60618,"LATTITUDE":41.95201166669297,"ADDRESS":"3901 N RIDGEWAY AVE  ","YEAR":2013,"DOING_BUSINESS_AS_NAME":"KIDWATCH PLUS INC","POP_AT_RISK":188064,"BUSINESS_TYPE":"Day Care Center 2 - 6 Years","LEGAL_NAME":"KIDWATCH PLUS INC","LONGITUDE":-87.72128864540792},
{"STATE":"IL","ZIP":60623,"LATTITUDE":41.85131017219605,"ADDRESS":"4323 W CERMAK RD 1ST ","YEAR":2013,"DOING_BUSINESS_AS_NAME":"MINI ME BUNCH, INC.","POP_AT_RISK":155187,"BUSINESS_TYPE":"Day Care Center 2 - 6 Years","LEGAL_NAME":"MINI ME BUNCH, INC.","LONGITUDE":-87.73306747736409},
{"STATE":"IL","ZIP":60628,"LATTITUDE":41.69265162587103,"ADDRESS":"461 E 111TH ST  ","YEAR":2013,"DOING_BUSINESS_AS_NAME":"ROSELAND CHILD DEVELOPMENT","POP_AT_RISK":20846,"BUSINESS_TYPE":"Day Care Center 2 - 6 Years","LEGAL_NAME":"CHICAGO YOUTH CENTERS","LONGITUDE":-87.61106997660605},
{"STATE":"IL","ZIP":60651,"LATTITUDE":41.90817959997274,"ADDRESS":"1501 N HARDING AVE # 1","YEAR":2013,"DOING_BUSINESS_AS_NAME":"CENTRO NUESTRO GEORGE E TAYLOR","POP_AT_RISK":434105,"BUSINESS_TYPE":"Day Care Center 2 - 6 Years","LEGAL_NAME":"CHICAGO YOUTH CENTERS","LONGITUDE":-87.72510720339737},
{"STATE":"IL","ZIP":60651,"LATTITUDE":41.90293279133458,"ADDRESS":"3222 W DIVISION ST 1 ","YEAR":2013,"DOING_BUSINESS_AS_NAME":"CENTRO NUESTRO CHILD DEVELOPMENT CENTER","POP_AT_RISK":66886,"BUSINESS_TYPE":"Day Care Center 2 - 6 Years","LEGAL_NAME":"CHICAGO YOUTH CENTERS","LONGITUDE":-87.7076938649049},
{"STATE":"IL","ZIP":60609,"LATTITUDE":41.80162620836676,"ADDRESS":"1000 W 51ST ST  ","YEAR":2013,"DOING_BUSINESS_AS_NAME":"NEW CITY DAYCARE INC.","POP_AT_RISK":201292,"BUSINESS_TYPE":"Day Care Center 2 - 6 Years","LEGAL_NAME":"NEW CITY DAYCARE INC.","LONGITUDE":-87.65026589146807},
{"STATE":"IL","ZIP":60609,"LATTITUDE":41.796234875219376,"ADDRESS":"5401 S WENTWORTH AVE  ","YEAR":2013,"DOING_BUSINESS_AS_NAME":"FIRMAN COMMUNITY SERVICES","POP_AT_RISK":20884,"BUSINESS_TYPE":"Day Care Center 2 - 6 Years","LEGAL_NAME":"FIRMAN COMMUNITY SERVICES","LONGITUDE":-87.63040492438661},
{"STATE":"IL","ZIP":60639,"LATTITUDE":41.93121715112931,"ADDRESS":"5423-31 W DIVERSEY AVE  ","YEAR":2013,"DOING_BUSINESS_AS_NAME":"ONWARD NEIGHBORHOOD HOUSE","POP_AT_RISK":315476,"BUSINESS_TYPE":"Day Care Center 2 - 6 Years","LEGAL_NAME":"ONWARD NEIGHBORHOOD HOUSE","LONGITUDE":-87.76226148035626},
{"STATE":"IL","ZIP":60614,"LATTITUDE":41.92133238926864,"ADDRESS":"2145 N HALSTED ST 1ST ","YEAR":2013,"DOING_BUSINESS_AS_NAME":"ST VINCENT DE PAUL CENTER","POP_AT_RISK":158733,"BUSINESS_TYPE":"Day Care Center 2 - 6 Years","LEGAL_NAME":"ST VINCENT DE PAUL CENTER","LONGITUDE":-87.64847173462576},
{"STATE":"IL","ZIP":60615,"LATTITUDE":41.79612995442628,"ADDRESS":"5467 S UNIVERSITY AVE 3RD ","YEAR":2013,"DOING_BUSINESS_AS_NAME":"CHICAGO CHILD CARE SOCIETY","POP_AT_RISK":111423,"BUSINESS_TYPE":"Day Care Center 2 - 6 Years","LEGAL_NAME":"CHICAGO CHILD CARE SOCIETY","LONGITUDE":-87.597957623321},
{"STATE":"IL","ZIP":60646,"LATTITUDE":42.003175359269584,"ADDRESS":"6736 N LOLETA AVE  ","YEAR":2013,"DOING_BUSINESS_AS_NAME":"EDGEBROOK COMMUNITY CHURCH","POP_AT_RISK":11252,"BUSINESS_TYPE":"Day Care Center 2 - 6 Years","LEGAL_NAME":"EDGEBROOK COMMUNITY CHURCH","LONGITUDE":-87.77183707699314},
{"STATE":"IL","ZIP":60638,"LATTITUDE":41.7932347787373,"ADDRESS":"6287 S ARCHER AVE  1ST F","YEAR":2013,"DOING_BUSINESS_AS_NAME":"KID'Z COLONY DAYCARE, INC.","POP_AT_RISK":93483,"BUSINESS_TYPE":"Day Care Center 2 - 6 Years","LEGAL_NAME":"KID'Z COLONY DAYCARE. INC.","LONGITUDE":-87.77777643611029},
{"STATE":"IL","ZIP":60646,"LATTITUDE":41.99007385222976,"ADDRESS":"4600 W PETERSON AVE  1","YEAR":2013,"DOING_BUSINESS_AS_NAME":"SCHOOL FOR THE YOUNG YEARS","POP_AT_RISK":12207,"BUSINESS_TYPE":"Day Care Center 2 - 6 Years","LEGAL_NAME":"SAUGANASH COMMUNITY CHURCH","LONGITUDE":-87.74264395739979},
{"STATE":"IL","ZIP":60646,"LATTITUDE":41.995446645749816,"ADDRESS":"4008 W ROSEMONT AVE  1ST F","YEAR":2013,"DOING_BUSINESS_AS_NAME":"ALL ABOARD LEARNING EXPRESS","POP_AT_RISK":40028,"BUSINESS_TYPE":"Day Care Center 2 - 6 Years","LEGAL_NAME":"ALL ABOARD LEARNING EXPRESS","LONGITUDE":-87.72932153283107},
{"STATE":"IL","ZIP":60623,"LATTITUDE":41.85701591650841,"ADDRESS":"1800 S LAWNDALE AVE  ","YEAR":2013,"DOING_BUSINESS_AS_NAME":"LAWNDALE COMMUNITY DAY CARE","POP_AT_RISK":174942,"BUSINESS_TYPE":"Day Care Center 2 - 6 Years","LEGAL_NAME":"LAWNDALE COMMUNITY DAY CARE","LONGITUDE":-87.71776985224777},
{"STATE":"IL","ZIP":60631,"LATTITUDE":41.98736048019242,"ADDRESS":"5849 N NINA AVE 1ST ","YEAR":2013,"DOING_BUSINESS_AS_NAME":"WHITE STEEPLE PRESCHOOL","POP_AT_RISK":20824,"BUSINESS_TYPE":"Day Care Center 2 - 6 Years","LEGAL_NAME":"MEDITATION CENTER OF CHICAGO","LONGITUDE":-87.80378597661188},
{"STATE":"IL","ZIP":60609,"LATTITUDE":41.830358930906655,"ADDRESS":"1711 W 35TH ST  1ST F","YEAR":2013,"DOING_BUSINESS_AS_NAME":"LITTLE TYKES PRE-SCHOOL INC.","POP_AT_RISK":104728,"BUSINESS_TYPE":"Day Care Center 2 - 6 Years","LEGAL_NAME":"LITTLE TYKES PRE-SCHOOL, INC.","LONGITUDE":-87.66843553445109},
{"STATE":"IL","ZIP":60609,"LATTITUDE":41.828616842513334,"ADDRESS":"3600-3604 S HALSTED ST 1ST ","YEAR":2013,"DOING_BUSINESS_AS_NAME":"SMART STUFF LEARNING CENTER","POP_AT_RISK":34295,"BUSINESS_TYPE":"Day Care Center 2 - 6 Years","LEGAL_NAME":"SMART STUFF EDUCATIONAL, INC.","LONGITUDE":-87.64620069261998},
{"STATE":"IL","ZIP":60618,"LATTITUDE":41.939660448394484,"ADDRESS":"2044 W BELMONT AVE 1ST ","YEAR":2013,"DOING_BUSINESS_AS_NAME":"TWINKLING STARS DAYCARE","POP_AT_RISK":150732,"BUSINESS_TYPE":"Day Care Center 2 - 6 Years","LEGAL_NAME":"TWINKLING STARS DAYCARE, INC.","LONGITUDE":-87.68013460872132},
{"STATE":"IL","ZIP":60653,"LATTITUDE":41.81672394640202,"ADDRESS":"4301 S COTTAGE GROVE AVE  ","YEAR":2013,"DOING_BUSINESS_AS_NAME":"CENTERS FOR NEW HORIZONS","POP_AT_RISK":42068,"BUSINESS_TYPE":"Day Care Center 2 - 6 Years","LEGAL_NAME":"CENTERS FOR NEW HORIZONS, INC.","LONGITUDE":-87.60656011499496},
{"STATE":"IL","ZIP":60613,"LATTITUDE":41.95472485219229,"ADDRESS":"640 W IRVING PARK RD  1ST F","YEAR":2013,"DOING_BUSINESS_AS_NAME":"PARK VIEW MONTESSORI SCHOOL #3","POP_AT_RISK":65569,"BUSINESS_TYPE":"Day Care Center 2 - 6 Years","LEGAL_NAME":"PARK VIEW MONTESSORI SCHOOL #3","LONGITUDE":-87.6465823053273},
{"STATE":"IL","ZIP":60612,"LATTITUDE":41.874081965880684,"ADDRESS":"2150 W HARRISON ST  ","YEAR":2013,"DOING_BUSINESS_AS_NAME":"LAURENCE ARMOUR DAY SCHOOL","POP_AT_RISK":147845,"BUSINESS_TYPE":"Day Care Center 2 - 6 Years","LEGAL_NAME":"RUSH UNIVERSITY MEDICAL CENTER","LONGITUDE":-87.68092243741066},
{"STATE":"IL","ZIP":60639,"LATTITUDE":41.90959070094518,"ADDRESS":"5242 W NORTH AVE  ","YEAR":2013,"DOING_BUSINESS_AS_NAME":"RACHEL'S LEARNING CENTER, LTD.","POP_AT_RISK":280540,"BUSINESS_TYPE":"Day Care Center 2 - 6 Years","LEGAL_NAME":"RACHEL'S LEARNING CENTERS, LTD.","LONGITUDE":-87.75740429414539},
{"STATE":"IL","ZIP":60645,"LATTITUDE":42.011823643457575,"ADDRESS":"3033 W TOUHY AVE 1ST ","YEAR":2013,"DOING_BUSINESS_AS_NAME":"Virginia Frank Child Development Center","POP_AT_RISK":237636,"BUSINESS_TYPE":"Day Care Center 2 - 6 Years","LEGAL_NAME":"JEWISH CHILD AND FAMILY SERVICES","LONGITUDE":-87.70574432654881},
{"STATE":"IL","ZIP":60624,"LATTITUDE":41.873353154988415,"ADDRESS":"3863 W HARRISON ST  ","YEAR":2013,"DOING_BUSINESS_AS_NAME":"CHILD CARE","POP_AT_RISK":164656,"BUSINESS_TYPE":"Day Care Center 2 - 6 Years","LEGAL_NAME":"LITTLE GIANT'S CHILD CARE CENTER","LONGITUDE":-87.72288302493541},
{"STATE":"IL","ZIP":60617,"LATTITUDE":41.718354119253824,"ADDRESS":"9725 S COMMERCIAL AVE 1ST FLOOR ","YEAR":2013,"DOING_BUSINESS_AS_NAME":"MARI'S BUMBLE BEE DAY CARE CORP.","POP_AT_RISK":17749,"BUSINESS_TYPE":"Day Care Center 2 - 6 Years","LEGAL_NAME":"MARI'S BUMBLE BEE DAY CARE CORP.","LONGITUDE":-87.55087407318614},
{"STATE":"IL","ZIP":60619,"LATTITUDE":41.76580164804015,"ADDRESS":"358-370 E 71ST ST 1ST ","YEAR":2013,"DOING_BUSINESS_AS_NAME":"JELLYBEAN LEARNING CENTER","POP_AT_RISK":32466,"BUSINESS_TYPE":"Day Care Center 2 - 6 Years","LEGAL_NAME":"JELLYBEAN LEARNING CENTER II, NFP","LONGITUDE":-87.61618278066202},
{"STATE":"IL","ZIP":60640,"LATTITUDE":41.97761882933137,"ADDRESS":"5244 N LAKEWOOD AVE 2 ","YEAR":2013,"DOING_BUSINESS_AS_NAME":"EDGEWATER EARLY LEARNING CENTER","POP_AT_RISK":218541,"BUSINESS_TYPE":"Day Care Center 2 - 6 Years","LEGAL_NAME":"ONE HOPE UNITED - NORTHERN REGION","LONGITUDE":-87.66253135799067},
{"STATE":"IL","ZIP":60638,"LATTITUDE":41.80325513926886,"ADDRESS":"4922 S CICERO AVE 1ST ","YEAR":2013,"DOING_BUSINESS_AS_NAME":"SANCTUARY CHILDCARE DEVELOPMENT CENTER","POP_AT_RISK":145452,"BUSINESS_TYPE":"Day Care Center 2 - 6 Years","LEGAL_NAME":"SANCTUARY OF THE LIVING GOD CHURCH","LONGITUDE":-87.74318434425263},
{"STATE":"IL","ZIP":60628,"LATTITUDE":41.72060450974259,"ADDRESS":"9528-9530 S HALSTED ST 1ST ","YEAR":2013,"DOING_BUSINESS_AS_NAME":"CREATIVE LITTLE ONES PRE-SCHOOL INC.","POP_AT_RISK":30729,"BUSINESS_TYPE":"Day Care Center 2 - 6 Years","LEGAL_NAME":"CREATIVE LITTLE ONES PRE-SCHOOL INC.","LONGITUDE":-87.6433389306927},
{"STATE":"IL","ZIP":60638,"LATTITUDE":41.778117574741486,"ADDRESS":"6255 S MAYFIELD AVE  ","YEAR":2013,"DOING_BUSINESS_AS_NAME":"LITTLE LEARNERS DAYCARE","POP_AT_RISK":37876,"BUSINESS_TYPE":"Day Care Center 2 - 6 Years","LEGAL_NAME":"LITTLE LEARNERS DAYCARE INCORPORATED","LONGITUDE":-87.76891206328479},
{"STATE":"IL","ZIP":60636,"LATTITUDE":41.77765889940938,"ADDRESS":"1910 W 64TH ST  BASEM","YEAR":2013,"DOING_BUSINESS_AS_NAME":"MESSIAH LUTHERAN HEADSTART","POP_AT_RISK":171090,"BUSINESS_TYPE":"Day Care Center 2 - 6 Years","LEGAL_NAME":"LUTHERAN SOCIAL SERVICES OF ILLINOIS","LONGITUDE":-87.67193034510495},
{"STATE":"IL","ZIP":60651,"LATTITUDE":41.90754376299205,"ADDRESS":"1500 N MASON AVE  ","YEAR":2013,"DOING_BUSINESS_AS_NAME":"NO AUSTIN LUTHERAN HEADSTART","POP_AT_RISK":135720,"BUSINESS_TYPE":"Day Care Center 2 - 6 Years","LEGAL_NAME":"LUTHERAN SOCIAL SERVICES OF ILLINOIS","LONGITUDE":-87.77447871878526},
{"STATE":"IL","ZIP":60660,"LATTITUDE":41.99812041876117,"ADDRESS":"1754  -1756 W DEVON AVE GROUND ","YEAR":2013,"DOING_BUSINESS_AS_NAME":"ROGERS PARK CHILDREN'S CENTER","POP_AT_RISK":307376,"BUSINESS_TYPE":"Day Care Center 2 - 6 Years","LEGAL_NAME":"LUTHERAN SOCIAL SERVICES OF ILLINOIS","LONGITUDE":-87.67412771972113},
{"STATE":"IL","ZIP":60631,"LATTITUDE":41.98857518279947,"ADDRESS":"7435 W TALCOTT AVE 1ST ","YEAR":2013,"DOING_BUSINESS_AS_NAME":"PRESENCE RESURRECTION MEDICAL CENTER","POP_AT_RISK":21744,"BUSINESS_TYPE":"Day Care Center 2 - 6 Years","LEGAL_NAME":"PRESENCE RESURRECTION MEDICAL CENTER","LONGITUDE":-87.81297791219501},
{"STATE":"IL","ZIP":60616,"LATTITUDE":41.85445549916194,"ADDRESS":"2141 S TAN CT  ","YEAR":2013,"DOING_BUSINESS_AS_NAME":"LEAGUE CHILD DEVELOPMENT CENTER","POP_AT_RISK":60728,"BUSINESS_TYPE":"Day Care Center 2 - 6 Years","LEGAL_NAME":"CHINESE AMERICAN SERVICE LEAGUE, INC.","LONGITUDE":-87.63561121740251},
{"STATE":"IL","ZIP":60617,"LATTITUDE":41.681053268167084,"ADDRESS":"3552 E 118TH ST  ","YEAR":2013,"DOING_BUSINESS_AS_NAME":"BRENDA'S KIDS CLUB DAYCARE CENTER","POP_AT_RISK":13690,"BUSINESS_TYPE":"Day Care Center 2 - 6 Years","LEGAL_NAME":"BRENDA'S KIDS CLUB DAY CARE CENTER INC.","LONGITUDE":-87.53683432709336},
{"STATE":"IL","ZIP":60618,"LATTITUDE":41.96110410411044,"ADDRESS":"3021 -3023 W MONTROSE AVE 1ST ","YEAR":2013,"DOING_BUSINESS_AS_NAME":"IRVING PARK EARLY LEARNING CNT","POP_AT_RISK":74882,"BUSINESS_TYPE":"Day Care Center 2 - 6 Years","LEGAL_NAME":"IRVING PARK EARLY LEARNING CENTER, INC.","LONGITUDE":-87.70433833416415},
{"STATE":"IL","ZIP":60619,"LATTITUDE":41.76295717441382,"ADDRESS":"7239-7241 S DOBSON AVE 1ST ","YEAR":2013,"DOING_BUSINESS_AS_NAME":"GINA'S UNBELIEVABLE LEARNING CENTER","POP_AT_RISK":40144,"BUSINESS_TYPE":"Day Care Center 2 - 6 Years","LEGAL_NAME":"GINA'S UNBELIEVABLE LEARNING CENTER, INC","LONGITUDE":-87.59926120003807},
{"STATE":"IL","ZIP":60620,"LATTITUDE":41.74845026012511,"ADDRESS":"7954-7958 S WESTERN AVE  ","YEAR":2013,"DOING_BUSINESS_AS_NAME":"THE CHILDREN'S CENTER","POP_AT_RISK":34213,"BUSINESS_TYPE":"Day Care Center 2 - 6 Years","LEGAL_NAME":"CHILDREN'S CENTER FOR CREATIVE LEARNING INC","LONGITUDE":-87.68295412470142},
{"STATE":"IL","ZIP":60615,"LATTITUDE":41.79956925486811,"ADDRESS":"5300 S SHORE DR  1 FLR","YEAR":2013,"DOING_BUSINESS_AS_NAME":"PARENT COOPERATIVE FOR EARLY LEARNING, INC.","POP_AT_RISK":58726,"BUSINESS_TYPE":"Day Care Center 2 - 6 Years","LEGAL_NAME":"PARENT COOPERATIVE FOR EARLY LEARNING, INC.","LONGITUDE":-87.58246503715458},
{"STATE":"IL","ZIP":60643,"LATTITUDE":41.713996029263974,"ADDRESS":"1808-1810 W 99TH ST  ","YEAR":2013,"DOING_BUSINESS_AS_NAME":"ROBERT T. WALKER LEADERSHIP INSTITUTE, INC.","POP_AT_RISK":62814,"BUSINESS_TYPE":"Day Care Center 2 - 6 Years","LEGAL_NAME":"ROBERT T. WALKER LEADERSHIP INSTITUTE, INC.","LONGITUDE":-87.66773438550344},
{"STATE":"IL","ZIP":60624,"LATTITUDE":41.876795310698334,"ADDRESS":"3411 W FIFTH AVE  ","YEAR":2013,"DOING_BUSINESS_AS_NAME":"FIFTH CITY CHILD DEVELOPMENT","POP_AT_RISK":34082,"BUSINESS_TYPE":"Day Care Center 2 - 6 Years","LEGAL_NAME":"FIFTH CITY CHILD DEVELOPMENT INSTITUTE, INC.","LONGITUDE":-87.71128878015891},
{"STATE":"IL","ZIP":60626,"LATTITUDE":42.01668938211222,"ADDRESS":"7428 N ROGERS AVE  ","YEAR":2013,"DOING_BUSINESS_AS_NAME":"Little People's Day Care & Kindergarten, Inc.","POP_AT_RISK":291605,"BUSINESS_TYPE":"Day Care Center 2 - 6 Years","LEGAL_NAME":"LITTLE PEOPLE'S DAY CARE & KINDERGARTEN, INC.","LONGITUDE":-87.67415033629639},
{"STATE":"IL","ZIP":60634,"LATTITUDE":41.9396542640577,"ADDRESS":"3235 N CENTRAL AVE 1 ","YEAR":2013,"DOING_BUSINESS_AS_NAME":"CHILDREN'S HOLISTIC INTEGRATED LEARNING AND DEVELOPMENT CENTRE INC.","POP_AT_RISK":179232,"BUSINESS_TYPE":"Day Care Center 2 - 6 Years","LEGAL_NAME":"ALL THINGS ARE POSSIBLE FOR KIDS CENTRAL, INC.","LONGITUDE":-87.76639051535662},
{"STATE":"IL","ZIP":60628,"LATTITUDE":41.6930159120977,"ADDRESS":"11045 S WENTWORTH AVE 1ST ","YEAR":2013,"DOING_BUSINESS_AS_NAME":"NEW AGE CHILDCARE AND DEVELOPMENT CENTER, INC.","POP_AT_RISK":34522,"BUSINESS_TYPE":"Day Care Center 2 - 6 Years","LEGAL_NAME":"NEW AGE CHILDCARE AND DEVELOPMENT CENTER, INC.","LONGITUDE":-87.62776734622148},
{"STATE":"IL","ZIP":60619,"LATTITUDE":41.730860596036095,"ADDRESS":"9011-9015 S COTTAGE GROVE AVE 1 ","YEAR":2013,"DOING_BUSINESS_AS_NAME":"THE CHILDREN'S VILLAGE DAY CARE & KINDERGARTEN, INC.","POP_AT_RISK":25108,"BUSINESS_TYPE":"Day Care Center 2 - 6 Years","LEGAL_NAME":"THE CHILDREN'S VILLAGE DAY CARE & KINDERGARTEN, INC.","LONGITUDE":-87.60453525064413},
{"STATE":"IL","ZIP":60607,"LATTITUDE":41.87984160939149,"ADDRESS":"114 S RACINE AVE 1ST ","YEAR":2013,"DOING_BUSINESS_AS_NAME":"INTERCULTURAL MONTESSORI LANGUAGE SCHOOL","POP_AT_RISK":39639,"BUSINESS_TYPE":"Day Care Center 2 - 6 Years","LEGAL_NAME":"INTERCULTURAL MONTESSORI FOREIGN LANGUAGE IMMERSION SCHOOL","LONGITUDE":-87.65723162539508},
}