{
{"STATE":"IL","ZIP":60656,"LATTITUDE":41.980823630554646,"ADDRESS":"7110 W HIGGINS AVE 1ST ","YEAR":2011,"DOING_BUSINESS_AS_NAME":"Demolab Inc","POP_AT_RISK":29614,"BUSINESS_TYPE":"Electronic Equipment Repair","LEGAL_NAME":"Demolab Inc","LONGITUDE":-87.80510987964077},
{"STATE":"IL","ZIP":60617,"LATTITUDE":41.70770343525996,"ADDRESS":"10315 S COMMERCIAL AVE 1ST ","YEAR":2011,"DOING_BUSINESS_AS_NAME":"Commercial Printshop","POP_AT_RISK":16548,"BUSINESS_TYPE":"Electronic Equipment Repair","LEGAL_NAME":"Ramon Valles","LONGITUDE":-87.55325842415722},
{"STATE":"IL","ZIP":60628,"LATTITUDE":41.66248588927619,"ADDRESS":"12723 S HALSTED ST 1ST ","YEAR":2011,"DOING_BUSINESS_AS_NAME":"R & R COMPUTER SERVICES","POP_AT_RISK":95612,"BUSINESS_TYPE":"Electronic Equipment Repair","LEGAL_NAME":"ROCHELLE SMITH","LONGITUDE":-87.64124911070888},
{"STATE":"IL","ZIP":60617,"LATTITUDE":41.722580334393854,"ADDRESS":"2002 E 95TH ST 1ST ","YEAR":2011,"DOING_BUSINESS_AS_NAME":"SPRINT","POP_AT_RISK":20929,"BUSINESS_TYPE":"Electronic Equipment Repair","LEGAL_NAME":"SPIRIT PCS LLC","LONGITUDE":-87.57520901101073},
{"STATE":"IL","ZIP":60624,"LATTITUDE":41.875688749340995,"ADDRESS":"346 S PULASKI RD  1","YEAR":2011,"DOING_BUSINESS_AS_NAME":"BILLS RADIO & TV REPAIR","POP_AT_RISK":42321,"BUSINESS_TYPE":"Electronic Equipment Repair","LEGAL_NAME":"WILLIAM HUNTER","LONGITUDE":-87.7256458606552},
{"STATE":"IL","ZIP":60652,"LATTITUDE":41.73862454427184,"ADDRESS":"8457 S PULASKI RD  ","YEAR":2011,"DOING_BUSINESS_AS_NAME":"HIGH POWER INC.","POP_AT_RISK":25233,"BUSINESS_TYPE":"Electronic Equipment Repair","LEGAL_NAME":"HIGH POWER INC.","LONGITUDE":-87.72141660738357},
{"STATE":"IL","ZIP":60651,"LATTITUDE":41.89548373128249,"ADDRESS":"3942 W CHICAGO AVE 1ST ","YEAR":2011,"DOING_BUSINESS_AS_NAME":"CAGO WIRELESS","POP_AT_RISK":88406,"BUSINESS_TYPE":"Electronic Equipment Repair","LEGAL_NAME":"LUGANO ONE INC.","LONGITUDE":-87.72529073995163},
{"STATE":"IL","ZIP":60707,"LATTITUDE":41.90905336260015,"ADDRESS":"7016 W NORTH AVE  1","YEAR":2011,"DOING_BUSINESS_AS_NAME":"SAV ELECTRONICS","POP_AT_RISK":41454,"BUSINESS_TYPE":"Electronic Equipment Repair","LEGAL_NAME":"SAV ELECTRONICS","LONGITUDE":-87.80104727544312},
{"STATE":"IL","ZIP":60632,"LATTITUDE":41.812138754991516,"ADDRESS":"4440 S PULASKI RD 1 1","YEAR":2011,"DOING_BUSINESS_AS_NAME":"SUPERATEC","POP_AT_RISK":17199,"BUSINESS_TYPE":"Electronic Equipment Repair","LEGAL_NAME":"SUPERATEC, INC.","LONGITUDE":-87.72388884190333},
{"STATE":"IL","ZIP":60623,"LATTITUDE":41.85918922054039,"ADDRESS":"3206 W 16TH ST  ","YEAR":2011,"DOING_BUSINESS_AS_NAME":"CELLULAR ZONE","POP_AT_RISK":109274,"BUSINESS_TYPE":"Electronic Equipment Repair","LEGAL_NAME":"CELLULAR ETC INC","LONGITUDE":-87.705793970407},
{"STATE":"IL","ZIP":60638,"LATTITUDE":41.79232419633276,"ADDRESS":"6646 W ARCHER AVE 1 ","YEAR":2011,"DOING_BUSINESS_AS_NAME":"Zs Computer Services","POP_AT_RISK":59230,"BUSINESS_TYPE":"Electronic Equipment Repair","LEGAL_NAME":"Paula M Zurawski","LONGITUDE":-87.7885687422822},
{"STATE":"IL","ZIP":60643,"LATTITUDE":41.69166723128615,"ADDRESS":"2355 W 111TH ST 1 1","YEAR":2011,"DOING_BUSINESS_AS_NAME":"E-Z COMPUTER INC.","POP_AT_RISK":86688,"BUSINESS_TYPE":"Electronic Equipment Repair","LEGAL_NAME":"E-Z COMPUTER INC.","LONGITUDE":-87.68090408274874},
{"STATE":"IL","ZIP":60612,"LATTITUDE":41.882165578261116,"ADDRESS":"2532 W WARREN BLVD  ","YEAR":2011,"DOING_BUSINESS_AS_NAME":"TELESERVICE CORP","POP_AT_RISK":284805,"BUSINESS_TYPE":"Electronic Equipment Repair","LEGAL_NAME":"TELESERVICES CORP","LONGITUDE":-87.68980000092242},
{"STATE":"IL","ZIP":60644,"LATTITUDE":41.88109449316272,"ADDRESS":"17 N CICERO AVE 1 ","YEAR":2011,"DOING_BUSINESS_AS_NAME":"BEST PRICES COMPUTERS","POP_AT_RISK":256326,"BUSINESS_TYPE":"Electronic Equipment Repair","LEGAL_NAME":"Clyde Payne Junior","LONGITUDE":-87.74515274797534},
{"STATE":"IL","ZIP":60629,"LATTITUDE":41.778566567291335,"ADDRESS":"4702 W 63RD ST 1ST ","YEAR":2011,"DOING_BUSINESS_AS_NAME":"XTREME MOBILE INC.","POP_AT_RISK":25513,"BUSINESS_TYPE":"Electronic Equipment Repair","LEGAL_NAME":"XTREME MOBILE INC.","LONGITUDE":-87.73998283949524},
{"STATE":"IL","ZIP":60617,"LATTITUDE":41.70283825370175,"ADDRESS":"3656 E 106TH ST 1ST ","YEAR":2011,"DOING_BUSINESS_AS_NAME":"CBI COMPUTERS, INC.","POP_AT_RISK":62901,"BUSINESS_TYPE":"Electronic Equipment Repair","LEGAL_NAME":"CBI COMPUTERS, INC.","LONGITUDE":-87.53422312723},
{"STATE":"IL","ZIP":60632,"LATTITUDE":41.82134431810515,"ADDRESS":"3982 S ARCHER AVE 1 ","YEAR":2011,"DOING_BUSINESS_AS_NAME":"CYBERK COMPUTEK INC.","POP_AT_RISK":56648,"BUSINESS_TYPE":"Electronic Equipment Repair","LEGAL_NAME":"CYBERK COMPUTEK INC.","LONGITUDE":-87.69264968521705},
{"STATE":"IL","ZIP":60620,"LATTITUDE":41.75035274562417,"ADDRESS":"1934 W 79TH ST 1 1","YEAR":2011,"DOING_BUSINESS_AS_NAME":"ABC CHOICE","POP_AT_RISK":33992,"BUSINESS_TYPE":"Electronic Equipment Repair","LEGAL_NAME":"79TH ABC WIRELESS INC","LONGITUDE":-87.6722024581212},
{"STATE":"IL","ZIP":60614,"LATTITUDE":41.93083301378749,"ADDRESS":"2650 N CLARK ST  ","YEAR":2011,"DOING_BUSINESS_AS_NAME":"BEST BUY","POP_AT_RISK":81141,"BUSINESS_TYPE":"Electronic Equipment Repair","LEGAL_NAME":"BEST BUY STORES, L.P.","LONGITUDE":-87.64413543645641},
{"STATE":"IL","ZIP":60628,"LATTITUDE":41.677737342300944,"ADDRESS":"11908 S MICHIGAN AVE 1ST ","YEAR":2011,"DOING_BUSINESS_AS_NAME":"Ed Fisher & Associates","POP_AT_RISK":23616,"BUSINESS_TYPE":"Electronic Equipment Repair","LEGAL_NAME":"Eddie L Fisher Senior","LONGITUDE":-87.62064804425044},
{"STATE":"IL","ZIP":60623,"LATTITUDE":41.844004597432054,"ADDRESS":"4379 W 26TH ST 1 ","YEAR":2011,"DOING_BUSINESS_AS_NAME":"CONECTA","POP_AT_RISK":91804,"BUSINESS_TYPE":"Electronic Equipment Repair","LEGAL_NAME":"YESENIA I MONTES INC.","LONGITUDE":-87.73413154858753},
{"STATE":"IL","ZIP":60645,"LATTITUDE":42.016053205008,"ADDRESS":"7409 N WESTERN AVE  ","YEAR":2011,"DOING_BUSINESS_AS_NAME":"COMPUTECH SERVICES INC","POP_AT_RISK":45582,"BUSINESS_TYPE":"Electronic Equipment Repair","LEGAL_NAME":"COMPUTECH SERVICES INC","LONGITUDE":-87.69006386649397},
{"STATE":"IL","ZIP":60636,"LATTITUDE":41.7676107590257,"ADDRESS":"6930 S ASHLAND AVE 1ST A","YEAR":2011,"DOING_BUSINESS_AS_NAME":"RADIO SHACK #","POP_AT_RISK":35836,"BUSINESS_TYPE":"Electronic Equipment Repair","LEGAL_NAME":"RADIOSHACK CORPORATION","LONGITUDE":-87.66401069778658},
{"STATE":"IL","ZIP":60638,"LATTITUDE":41.79554052343161,"ADDRESS":"5897 S ARCHER AVE  ","YEAR":2011,"DOING_BUSINESS_AS_NAME":"RADIO SHACK #6582","POP_AT_RISK":92700,"BUSINESS_TYPE":"Electronic Equipment Repair","LEGAL_NAME":"RADIOSHACK CORPORATION","LONGITUDE":-87.76276028417233},
{"STATE":"IL","ZIP":60628,"LATTITUDE":41.68354217732462,"ADDRESS":"11613 S HALSTED ST  ","YEAR":2011,"DOING_BUSINESS_AS_NAME":"RADIO SHACK #6585","POP_AT_RISK":30208,"BUSINESS_TYPE":"Electronic Equipment Repair","LEGAL_NAME":"RADIOSHACK CORPORATION","LONGITUDE":-87.6419554902047},
{"STATE":"IL","ZIP":60621,"LATTITUDE":41.758286536084796,"ADDRESS":"7461 S VINCENNES AVE 1 ","YEAR":2011,"DOING_BUSINESS_AS_NAME":"EASTSIDE WIRELESS","POP_AT_RISK":26882,"BUSINESS_TYPE":"Electronic Equipment Repair","LEGAL_NAME":"EASTSIDE WIRELESS, INC.","LONGITUDE":-87.63114641019445},
{"STATE":"IL","ZIP":60638,"LATTITUDE":41.77755770453549,"ADDRESS":"6415 W 63RD ST  ","YEAR":2011,"DOING_BUSINESS_AS_NAME":"MIDWAY COMPUTER SERVICE","POP_AT_RISK":82872,"BUSINESS_TYPE":"Electronic Equipment Repair","LEGAL_NAME":"MIDWAY COMPUTER SERVICE","LONGITUDE":-87.78187363648718},
{"STATE":"IL","ZIP":60631,"LATTITUDE":42.01803262230275,"ADDRESS":"7534 N MILWAUKEE AVE 1ST ","YEAR":2011,"DOING_BUSINESS_AS_NAME":"PC REPAIR & SALES","POP_AT_RISK":140395,"BUSINESS_TYPE":"Electronic Equipment Repair","LEGAL_NAME":"ELIZABETH & LARRY LIEGGI","LONGITUDE":-87.80693773851367},
{"STATE":"IL","ZIP":60634,"LATTITUDE":41.95270759569199,"ADDRESS":"6615 W IRVING PARK RD 201 #","YEAR":2011,"DOING_BUSINESS_AS_NAME":"PROCOM ENTERPRISES LTD","POP_AT_RISK":34740,"BUSINESS_TYPE":"Electronic Equipment Repair","LEGAL_NAME":"PROCOM ENTERPRISE LIMITED","LONGITUDE":-87.79210947400955},
{"STATE":"IL","ZIP":60616,"LATTITUDE":41.830986702567515,"ADDRESS":"329 E 35TH ST 1 ","YEAR":2011,"DOING_BUSINESS_AS_NAME":"CHICAGO COMPUTER CLUB","POP_AT_RISK":29759,"BUSINESS_TYPE":"Electronic Equipment Repair","LEGAL_NAME":"CHICAGO COMPUTER CLUB, CORP.","LONGITUDE":-87.61807593164153},
{"STATE":"IL","ZIP":60615,"LATTITUDE":41.795082096806134,"ADDRESS":"1521 E 55TH ST 1 ","YEAR":2011,"DOING_BUSINESS_AS_NAME":"CHICAGO COMPUTER CLUB","POP_AT_RISK":40389,"BUSINESS_TYPE":"Electronic Equipment Repair","LEGAL_NAME":"CHICAGO COMPUTER CLUB, CORP.","LONGITUDE":-87.58826812316532},
{"STATE":"IL","ZIP":60707,"LATTITUDE":41.9238131215879,"ADDRESS":"7140 W GRAND AVE 1ST ","YEAR":2011,"DOING_BUSINESS_AS_NAME":"CHICAGO COMPUTER CENTER, INC.","POP_AT_RISK":46315,"BUSINESS_TYPE":"Electronic Equipment Repair","LEGAL_NAME":"CHICAGO COMPUTER CENTER, INC.","LONGITUDE":-87.8042787366181},
{"STATE":"IL","ZIP":60637,"LATTITUDE":41.776870543389926,"ADDRESS":"6459 S COTTAGE GROVE AVE 1ST ","YEAR":2011,"DOING_BUSINESS_AS_NAME":"TECHMARK MULTI-SERVICES, INC.","POP_AT_RISK":422829,"BUSINESS_TYPE":"Electronic Equipment Repair","LEGAL_NAME":"TECHMARK MULTI-SERVICES, INC.","LONGITUDE":-87.60570501770475},
{"STATE":"IL","ZIP":60639,"LATTITUDE":41.909219664802585,"ADDRESS":"5725 W NORTH AVE 1ST ","YEAR":2011,"DOING_BUSINESS_AS_NAME":"NU LUUK COMPUTER SERVICES","POP_AT_RISK":54250,"BUSINESS_TYPE":"Electronic Equipment Repair","LEGAL_NAME":"NU LUUK COMPUTERS SERVICES, INC.","LONGITUDE":-87.7694214347033},
{"STATE":"IL","ZIP":60621,"LATTITUDE":41.786867109468275,"ADDRESS":"5901 S MORGAN ST 1ST UNIT B","YEAR":2011,"DOING_BUSINESS_AS_NAME":"CRICKET","POP_AT_RISK":300069,"BUSINESS_TYPE":"Electronic Equipment Repair","LEGAL_NAME":"MGM COMMUNICATIONS, LLC, SERIES F","LONGITUDE":-87.64967886462313},
{"STATE":"IL","ZIP":60628,"LATTITUDE":41.69251263971824,"ADDRESS":"123 E 111TH ST 1ST ","YEAR":2011,"DOING_BUSINESS_AS_NAME":"ROSELAND ELECTRONICS & JEWELRY LLC","POP_AT_RISK":126696,"BUSINESS_TYPE":"Electronic Equipment Repair","LEGAL_NAME":"ROSELAND ELECTRONICS & JEWELRY LLC","LONGITUDE":-87.62004159367976},
{"STATE":"IL","ZIP":60652,"LATTITUDE":41.742816827820924,"ADDRESS":"8251 S KEDZIE AVE 1ST ","YEAR":2011,"DOING_BUSINESS_AS_NAME":"CHICAGO COMMUNITY COMPUTER SERVICE, INC.","POP_AT_RISK":27818,"BUSINESS_TYPE":"Electronic Equipment Repair","LEGAL_NAME":"CHICAGO COMMUNITY COMPUTER SERVICE, INC.","LONGITUDE":-87.70205961436888},
{"STATE":"IL","ZIP":60626,"LATTITUDE":42.01928855008811,"ADDRESS":"1763 W HOWARD ST  ","YEAR":2011,"DOING_BUSINESS_AS_NAME":"U S CELLULAR","POP_AT_RISK":62574,"BUSINESS_TYPE":"Electronic Equipment Repair","LEGAL_NAME":"UNITED STATES CELLULAR OPERATING COMPANY OF CHICAGO, LLC","LONGITUDE":-87.67505850938775},
{"STATE":"IL","ZIP":60643,"LATTITUDE":41.713013336357946,"ADDRESS":"9920 S WESTERN AVE  ","YEAR":2011,"DOING_BUSINESS_AS_NAME":"U S CELLULAR","POP_AT_RISK":18818,"BUSINESS_TYPE":"Electronic Equipment Repair","LEGAL_NAME":"UNITED STATES CELLULAR OPERATING COMPANY OF CHICAGO, LLC","LONGITUDE":-87.68196971044577},
}