{
{"STATE":"IL","ZIP":60653,"LATTITUDE":41.8097503335653,"ADDRESS":"1158 E 47TH ST 1ST ","YEAR":2009,"DOING_BUSINESS_AS_NAME":"WOOD LAWN AMOCO","POP_AT_RISK":45423,"BUSINESS_TYPE":"Filling Station","LEGAL_NAME":"MOHAMMAD ZAHIR","LONGITUDE":-87.59695555343261},
{"STATE":"IL","ZIP":60646,"LATTITUDE":41.99024418564742,"ADDRESS":"4000 W PETERSON AVE  ","YEAR":2009,"DOING_BUSINESS_AS_NAME":"P & P AMOCO INC","POP_AT_RISK":17974,"BUSINESS_TYPE":"Filling Station","LEGAL_NAME":"P & P AMOCO INC","LONGITUDE":-87.7287143910091},
{"STATE":"IL","ZIP":60631,"LATTITUDE":41.99718204105818,"ADDRESS":"6405 N NORTHWEST HWY  ","YEAR":2009,"DOING_BUSINESS_AS_NAME":"NORTHWEST BP GAS","POP_AT_RISK":47856,"BUSINESS_TYPE":"Filling Station","LEGAL_NAME":"CKNP CORPORATION","LONGITUDE":-87.8069080343869},
{"STATE":"IL","ZIP":60616,"LATTITUDE":41.8382513911452,"ADDRESS":"3101 S MICHIGAN AVE 1ST ","YEAR":2009,"DOING_BUSINESS_AS_NAME":"BP AMOCO","POP_AT_RISK":30854,"BUSINESS_TYPE":"Filling Station","LEGAL_NAME":"FIFY CORPORATION","LONGITUDE":-87.62329481051012},
{"STATE":"IL","ZIP":60634,"LATTITUDE":41.93810001477787,"ADDRESS":"7320 W BELMONT AVE 1ST ","YEAR":2009,"DOING_BUSINESS_AS_NAME":"G & G SERVICE 76","POP_AT_RISK":39885,"BUSINESS_TYPE":"Filling Station","LEGAL_NAME":"G & G SERVICE INC","LONGITUDE":-87.81007959498109},
{"STATE":"IL","ZIP":60655,"LATTITUDE":41.69183628557645,"ADDRESS":"2632 W 111TH ST  ","YEAR":2009,"DOING_BUSINESS_AS_NAME":"KEAN BROS INC","POP_AT_RISK":21672,"BUSINESS_TYPE":"Filling Station","LEGAL_NAME":"KEAN BROTHERS INC","LONGITUDE":-87.68736448197355},
{"STATE":"IL","ZIP":60655,"LATTITUDE":41.706091126209756,"ADDRESS":"10301 S KEDZIE AVE  ","YEAR":2009,"DOING_BUSINESS_AS_NAME":"MARATHON","POP_AT_RISK":28968,"BUSINESS_TYPE":"Filling Station","LEGAL_NAME":"CHICAGO GREEN, INC.","LONGITUDE":-87.70117395522207},
{"STATE":"IL","ZIP":60617,"LATTITUDE":41.722619985023755,"ADDRESS":"2863 E 95TH ST  ","YEAR":2009,"DOING_BUSINESS_AS_NAME":"ESCABANA CITGO INC.","POP_AT_RISK":22246,"BUSINESS_TYPE":"Filling Station","LEGAL_NAME":"ESCABANA CITGO INC.","LONGITUDE":-87.55407800189569},
{"STATE":"IL","ZIP":60628,"LATTITUDE":41.66350259001352,"ADDRESS":"150 W 127TH ST  ","YEAR":2009,"DOING_BUSINESS_AS_NAME":"COMMUNITY GAS AND BP","POP_AT_RISK":15621,"BUSINESS_TYPE":"Filling Station","LEGAL_NAME":"M & R SAHLOUL, INC.","LONGITUDE":-87.62650611188982},
{"STATE":"IL","ZIP":60629,"LATTITUDE":41.77856324355609,"ADDRESS":"4710 W 63RD ST  ","YEAR":2009,"DOING_BUSINESS_AS_NAME":"MIDWAY GASMART \/ BP TOGO","POP_AT_RISK":25513,"BUSINESS_TYPE":"Filling Station","LEGAL_NAME":"MAL-NAJ CORPORATION","LONGITUDE":-87.74027721366735},
{"STATE":"IL","ZIP":60638,"LATTITUDE":41.79242577857389,"ADDRESS":"6434 W ARCHER AVE 1ST ","YEAR":2009,"DOING_BUSINESS_AS_NAME":"ARCHER SHELL","POP_AT_RISK":30725,"BUSINESS_TYPE":"Filling Station","LEGAL_NAME":"MBS PETROLEUM, INC.","LONGITUDE":-87.78317609026391},
{"STATE":"IL","ZIP":60655,"LATTITUDE":41.6914834134577,"ADDRESS":"3700 W 111TH ST 1ST ","YEAR":2009,"DOING_BUSINESS_AS_NAME":"PAK STATE OIL","POP_AT_RISK":85908,"BUSINESS_TYPE":"Filling Station","LEGAL_NAME":"PAK STATE OIL, INC.","LONGITUDE":-87.71321050333633},
{"STATE":"IL","ZIP":60652,"LATTITUDE":41.74228582966385,"ADDRESS":"8256 S PULASKI RD  ","YEAR":2009,"DOING_BUSINESS_AS_NAME":"CITGO FUEL & MINI-MART","POP_AT_RISK":31842,"BUSINESS_TYPE":"Filling Station","LEGAL_NAME":"HALEEM BROTHERS, INC","LONGITUDE":-87.72182952334869},
{"STATE":"IL","ZIP":60617,"LATTITUDE":41.74453593701442,"ADDRESS":"2941 E 83RD ST TH ","YEAR":2009,"DOING_BUSINESS_AS_NAME":"CITGO","POP_AT_RISK":33876,"BUSINESS_TYPE":"Filling Station","LEGAL_NAME":"TUMARA FOOD MART INC.","LONGITUDE":-87.55235844692069},
{"STATE":"IL","ZIP":60633,"LATTITUDE":41.64990486377627,"ADDRESS":"13501 S BENSLEY AVE  ","YEAR":2009,"DOING_BUSINESS_AS_NAME":"SUNSET BAY MARINA, LLC","POP_AT_RISK":2798,"BUSINESS_TYPE":"Filling Station","LEGAL_NAME":"SUNSET BAY MARINA, LLC","LONGITUDE":-87.56277590592688},
{"STATE":"IL","ZIP":60652,"LATTITUDE":41.74423097335717,"ADDRESS":"8200 S KEDZIE AVE  ","YEAR":2009,"DOING_BUSINESS_AS_NAME":"8200 KEDZIE CITGO","POP_AT_RISK":27818,"BUSINESS_TYPE":"Filling Station","LEGAL_NAME":"8200 KEDZIE GAS & FOOD INC.","LONGITUDE":-87.70238568511645},
{"STATE":"IL","ZIP":60601,"LATTITUDE":41.88615077117576,"ADDRESS":"214 N CLARK ST  ","YEAR":2009,"DOING_BUSINESS_AS_NAME":"AVIS RENT A CAR SYSTEMS INC","POP_AT_RISK":153478,"BUSINESS_TYPE":"Filling Station","LEGAL_NAME":"AVIS RENT A CAR SYSTEM, LLC","LONGITUDE":-87.6311338716166},
{"STATE":"IL","ZIP":60827,"LATTITUDE":41.6486883798811,"ADDRESS":"13547 S INDIANA AVE  ","YEAR":2009,"DOING_BUSINESS_AS_NAME":"GAS SHOP AND MINI MART","POP_AT_RISK":22508,"BUSINESS_TYPE":"Filling Station","LEGAL_NAME":"GAS SHOP AND MINI MART, INC.","LONGITUDE":-87.61707897789567},
{"STATE":"IL","ZIP":60646,"LATTITUDE":41.99637159702214,"ADDRESS":"6308 N CENTRAL AVE  ","YEAR":2009,"DOING_BUSINESS_AS_NAME":"2001 GAS CENTRAL","POP_AT_RISK":35912,"BUSINESS_TYPE":"Filling Station","LEGAL_NAME":"THOMAS'S MINIMART & GAS INC.","LONGITUDE":-87.76427703822098},
{"STATE":"IL","ZIP":60651,"LATTITUDE":41.9021910503325,"ADDRESS":"1201 N CENTRAL AVE  ","YEAR":2009,"DOING_BUSINESS_AS_NAME":"ATS CENTRAL CITGO CORPORATION","POP_AT_RISK":50366,"BUSINESS_TYPE":"Filling Station","LEGAL_NAME":"ATS CENTRAL CITGO CORPORATION","LONGITUDE":-87.76550765713982},
{"STATE":"IL","ZIP":60605,"LATTITUDE":41.86683145443883,"ADDRESS":"1221-1223 S WABASH AVE  ","YEAR":2009,"DOING_BUSINESS_AS_NAME":"AM\/PM","POP_AT_RISK":39491,"BUSINESS_TYPE":"Filling Station","LEGAL_NAME":"BP PRODUCTS NORTH AMERICA INC.","LONGITUDE":-87.62566960895664},
{"STATE":"IL","ZIP":60634,"LATTITUDE":41.952643709843294,"ADDRESS":"6747 W IRVING PARK RD  ","YEAR":2009,"DOING_BUSINESS_AS_NAME":"GALAXY CITGO GAS AND FOOD, INC.","POP_AT_RISK":36016,"BUSINESS_TYPE":"Filling Station","LEGAL_NAME":"GALAXY CITGO GAS AND FOOD, INC.","LONGITUDE":-87.79569322493121},
}