{
{"STATE":"IL","ZIP":60620,"LATTITUDE":41.72701045280523,"ADDRESS":"9147 S PAULINA ST  ","YEAR":2007,"DOING_BUSINESS_AS_NAME":"JOYYA JONES","POP_AT_RISK":66624,"BUSINESS_TYPE":"Peddler, food (fruits and vegtables only)","LEGAL_NAME":"JOYYA JONES","LONGITUDE":-87.66510137603376},
{"STATE":"IL","ZIP":60621,"LATTITUDE":41.789408044095474,"ADDRESS":"5740 S PEORIA ST 1ST 1","YEAR":2007,"DOING_BUSINESS_AS_NAME":"J. C. WALTON","POP_AT_RISK":86046,"BUSINESS_TYPE":"Peddler, food (fruits and vegtables only)","LEGAL_NAME":"J. C. WALTON","LONGITUDE":-87.64761057461929},
{"STATE":"IL","ZIP":60649,"LATTITUDE":41.75470136746545,"ADDRESS":"7717 S JEFFERY BLVD 1ST ","YEAR":2007,"DOING_BUSINESS_AS_NAME":"MADIOR MBAYE","POP_AT_RISK":81160,"BUSINESS_TYPE":"Peddler, food (fruits and vegtables only)","LEGAL_NAME":"MADIOR MBAYE","LONGITUDE":-87.57590761912724},
{"STATE":"IL","ZIP":60621,"LATTITUDE":41.772785904188524,"ADDRESS":"258 W MARQUETTE RD  ","YEAR":2007,"DOING_BUSINESS_AS_NAME":"MARCUS LYONS","POP_AT_RISK":110037,"BUSINESS_TYPE":"Peddler, food (fruits and vegtables only)","LEGAL_NAME":"MARCUS LYONS","LONGITUDE":-87.63226993015333},
{"STATE":"IL","ZIP":60642,"LATTITUDE":41.895343497833196,"ADDRESS":"730 N WILLARD CT  ","YEAR":2007,"DOING_BUSINESS_AS_NAME":"RODNEY L FOX","POP_AT_RISK":39050,"BUSINESS_TYPE":"Peddler, food (fruits and vegtables only)","LEGAL_NAME":"RODNEY L FOX","LONGITUDE":-87.65863041176753},
{"STATE":"IL","ZIP":60620,"LATTITUDE":41.74471132460997,"ADDRESS":"8205 S JUSTINE ST  ","YEAR":2007,"DOING_BUSINESS_AS_NAME":"ANDRE L RILEY","POP_AT_RISK":42731,"BUSINESS_TYPE":"Peddler, food (fruits and vegtables only)","LEGAL_NAME":"ANDRE L RILEY","LONGITUDE":-87.66193626197463},
{"STATE":"IL","ZIP":60613,"LATTITUDE":41.95744385921871,"ADDRESS":"820 W BELLE PLAINE AVE  1405","YEAR":2007,"DOING_BUSINESS_AS_NAME":"DANA K. BROWN","POP_AT_RISK":615300,"BUSINESS_TYPE":"Peddler, food (fruits and vegtables only)","LEGAL_NAME":"DANA K. BROWN","LONGITUDE":-87.65064576593343},
{"STATE":"IL","ZIP":60707,"LATTITUDE":41.92972324122959,"ADDRESS":"2725 N NEVA AVE  ","YEAR":2007,"DOING_BUSINESS_AS_NAME":"LUIGI ADDANTE","POP_AT_RISK":50813,"BUSINESS_TYPE":"Peddler, food (fruits and vegtables only)","LEGAL_NAME":"LUIGI ADDANTE","LONGITUDE":-87.80508781506443},
{"STATE":"IL","ZIP":60619,"LATTITUDE":41.75619457777317,"ADDRESS":"7612 S EBERHART AVE  ","YEAR":2007,"DOING_BUSINESS_AS_NAME":"HOGAN","POP_AT_RISK":41523,"BUSINESS_TYPE":"Peddler, food (fruits and vegtables only)","LEGAL_NAME":"ROBERTA HOGAN","LONGITUDE":-87.61276996803532},
{"STATE":"IL","ZIP":60660,"LATTITUDE":41.98608972976521,"ADDRESS":"5719 N RIDGE AVE 1 ","YEAR":2007,"DOING_BUSINESS_AS_NAME":"RODRIGO BELLO","POP_AT_RISK":231396,"BUSINESS_TYPE":"Peddler, food (fruits and vegtables only)","LEGAL_NAME":"RODRIGO BELLO","LONGITUDE":-87.66386314020795},
{"STATE":"IL","ZIP":60620,"LATTITUDE":41.75636252722522,"ADDRESS":"400 W 76TH ST  201","YEAR":2007,"DOING_BUSINESS_AS_NAME":"TODD D TUCKER","POP_AT_RISK":37109,"BUSINESS_TYPE":"Peddler, food (fruits and vegtables only)","LEGAL_NAME":"TODD D TUCKER","LONGITUDE":-87.63450381551364},
{"STATE":"IL","ZIP":60616,"LATTITUDE":41.849230490078256,"ADDRESS":"268 W 24TH ST  2","YEAR":2007,"DOING_BUSINESS_AS_NAME":"BRUNO F. THOME","POP_AT_RISK":209139,"BUSINESS_TYPE":"Peddler, food (fruits and vegtables only)","LEGAL_NAME":"BRUNO F. THOME","LONGITUDE":-87.63458260268492},
{"STATE":"IL","ZIP":60609,"LATTITUDE":41.807662005385204,"ADDRESS":"4734 S ELIZABETH ST  ","YEAR":2007,"DOING_BUSINESS_AS_NAME":"GABRIEL ENCISO","POP_AT_RISK":31553,"BUSINESS_TYPE":"Peddler, food (fruits and vegtables only)","LEGAL_NAME":"GABRIEL ENCISO","LONGITUDE":-87.65657992801899},
{"STATE":"IL","ZIP":60160,"LATTITUDE":41.903490999380665,"ADDRESS":"905 W DIVISION   ","YEAR":2007,"DOING_BUSINESS_AS_NAME":"FLORES","POP_AT_RISK":298092,"BUSINESS_TYPE":"Peddler, food (fruits and vegtables only)","LEGAL_NAME":"GERARDO FLORES","LONGITUDE":-87.65122983251717},
{"STATE":"IL","ZIP":60617,"LATTITUDE":41.70630204741836,"ADDRESS":"10400 S AVENUE L   ","YEAR":2007,"DOING_BUSINESS_AS_NAME":"ISAI F. PAGAZA","POP_AT_RISK":21953,"BUSINESS_TYPE":"Peddler, food (fruits and vegtables only)","LEGAL_NAME":"ISAI F. PAGAZA","LONGITUDE":-87.5366401357901},
{"STATE":"IL","ZIP":60628,"LATTITUDE":41.69062878215368,"ADDRESS":"103 W 112TH ST  ","YEAR":2007,"DOING_BUSINESS_AS_NAME":"LOUIS E. DAVIS","POP_AT_RISK":29436,"BUSINESS_TYPE":"Peddler, food (fruits and vegtables only)","LEGAL_NAME":"LOUIS E. DAVIS","LONGITUDE":-87.62593561809264},
{"STATE":"IL","ZIP":60623,"LATTITUDE":41.860701985148445,"ADDRESS":"1459 S TRIPP AVE  ","YEAR":2007,"DOING_BUSINESS_AS_NAME":"MARIA A. TOVAR","POP_AT_RISK":204500,"BUSINESS_TYPE":"Peddler, food (fruits and vegtables only)","LEGAL_NAME":"MARIA A. TOVAR","LONGITUDE":-87.73097606717535},
{"STATE":"IL","ZIP":60707,"LATTITUDE":41.92191412700363,"ADDRESS":"2325 N NORMANDY AVE 1 ","YEAR":2007,"DOING_BUSINESS_AS_NAME":"MARIA ENRIQUEZ","POP_AT_RISK":41414,"BUSINESS_TYPE":"Peddler, food (fruits and vegtables only)","LEGAL_NAME":"MARIA ENRIQUEZ","LONGITUDE":-87.79220893184925},
{"STATE":"IL","ZIP":60659,"LATTITUDE":41.99420840738945,"ADDRESS":"6207 N FRANCISCO AVE  ","YEAR":2007,"DOING_BUSINESS_AS_NAME":"ADELFA GUERRERO","POP_AT_RISK":52180,"BUSINESS_TYPE":"Peddler, food (fruits and vegtables only)","LEGAL_NAME":"ADELFA GUERRERO","LONGITUDE":-87.70180457940369},
{"STATE":"IL","ZIP":60617,"LATTITUDE":41.749422563456335,"ADDRESS":"8013 S PHILLIPS AVE 1ST ","YEAR":2007,"DOING_BUSINESS_AS_NAME":"CHARLEY CARROLL","POP_AT_RISK":102153,"BUSINESS_TYPE":"Peddler, food (fruits and vegtables only)","LEGAL_NAME":"CHARLEY CARROLL","LONGITUDE":-87.5648359299573},
{"STATE":"IL","ZIP":60622,"LATTITUDE":41.90211810695136,"ADDRESS":"2720 W HADDON AVE 3 ","YEAR":2007,"DOING_BUSINESS_AS_NAME":"OSCAR HERNANDEZ","POP_AT_RISK":54739,"BUSINESS_TYPE":"Peddler, food (fruits and vegtables only)","LEGAL_NAME":"OSCAR HERNANDEZ","LONGITUDE":-87.69528207827142},
{"STATE":"IL","ZIP":60634,"LATTITUDE":41.94927103006539,"ADDRESS":"6105 W GRACE ST  ","YEAR":2007,"DOING_BUSINESS_AS_NAME":"RONNIE J VARGAS","POP_AT_RISK":35629,"BUSINESS_TYPE":"Peddler, food (fruits and vegtables only)","LEGAL_NAME":"RONNIE J VARGAS","LONGITUDE":-87.7793527710824},
{"STATE":"IL","ZIP":60628,"LATTITUDE":41.675441894623816,"ADDRESS":"118 E 120TH PL 1ST ","YEAR":2007,"DOING_BUSINESS_AS_NAME":"CLARISSA MILES","POP_AT_RISK":71517,"BUSINESS_TYPE":"Peddler, food (fruits and vegtables only)","LEGAL_NAME":"CLARISSA S MILES","LONGITUDE":-87.61968970462848},
{"STATE":"IL","ZIP":60629,"LATTITUDE":41.76167058523675,"ADDRESS":"7239 S CAMPBELL AVE  ","YEAR":2007,"DOING_BUSINESS_AS_NAME":"HERMINIA FOR-EL","POP_AT_RISK":42817,"BUSINESS_TYPE":"Peddler, food (fruits and vegtables only)","LEGAL_NAME":"HERMINIA FORD-EL","LONGITUDE":-87.68545857490194},
{"STATE":"IL","ZIP":60640,"LATTITUDE":41.96561422474166,"ADDRESS":"4608 N BEACON ST  A-1","YEAR":2007,"DOING_BUSINESS_AS_NAME":"JOSEFA RODRIGUEZ","POP_AT_RISK":199290,"BUSINESS_TYPE":"Peddler, food (fruits and vegtables only)","LEGAL_NAME":"JOSEFA RODRIGUEZ","LONGITUDE":-87.66403511172471},
{"STATE":"IL","ZIP":60644,"LATTITUDE":41.89309901678538,"ADDRESS":"4647 W HURON ST  1","YEAR":2007,"DOING_BUSINESS_AS_NAME":"MARCELO APARICIO","POP_AT_RISK":70842,"BUSINESS_TYPE":"Peddler, food (fruits and vegtables only)","LEGAL_NAME":"MARCELO APARICIO","LONGITUDE":-87.7430502755122},
{"STATE":"IL","ZIP":60622,"LATTITUDE":41.89574675089349,"ADDRESS":"2117 W CHICAGO AVE  ","YEAR":2007,"DOING_BUSINESS_AS_NAME":"MARICELA RAMIREZ","POP_AT_RISK":60077,"BUSINESS_TYPE":"Peddler, food (fruits and vegtables only)","LEGAL_NAME":"MARICELA RAMIREZ","LONGITUDE":-87.68022738563235},
{"STATE":"IL","ZIP":60646,"LATTITUDE":41.98363667560743,"ADDRESS":"5627 N KARLOV AVE  ","YEAR":2007,"DOING_BUSINESS_AS_NAME":"RAFAEL MAGDALENO","POP_AT_RISK":35446,"BUSINESS_TYPE":"Peddler, food (fruits and vegtables only)","LEGAL_NAME":"RAFAEL MAGDALENO","LONGITUDE":-87.73074605481447},
{"STATE":"IL","ZIP":60619,"LATTITUDE":41.73419069670633,"ADDRESS":"8814 S CALUMET AVE 1ST ","YEAR":2007,"DOING_BUSINESS_AS_NAME":"WILLIAM S MARTIN","POP_AT_RISK":57892,"BUSINESS_TYPE":"Peddler, food (fruits and vegtables only)","LEGAL_NAME":"WILLIAM S MARTIN","LONGITUDE":-87.61622754774335},
{"STATE":"IL","ZIP":60608,"LATTITUDE":41.83242096379753,"ADDRESS":"3357 S PAULINA ST  ","YEAR":2007,"DOING_BUSINESS_AS_NAME":"ROBERTO CERVANTES","POP_AT_RISK":57840,"BUSINESS_TYPE":"Peddler, food (fruits and vegtables only)","LEGAL_NAME":"ROBERTO CERVANTES","LONGITUDE":-87.6678541490871},
{"STATE":"IL","ZIP":60632,"LATTITUDE":41.81091741135504,"ADDRESS":"4510 S KEATING AVE  ","YEAR":2007,"DOING_BUSINESS_AS_NAME":"ALMA ROSA MARTINEZ","POP_AT_RISK":40956,"BUSINESS_TYPE":"Peddler, food (fruits and vegtables only)","LEGAL_NAME":"ALMA ROSA MARTINEZ","LONGITUDE":-87.7421732353587},
{"STATE":"IL","ZIP":60608,"LATTITUDE":41.861665752297334,"ADDRESS":"1441 S TALMAN AVE 1ST ","YEAR":2007,"DOING_BUSINESS_AS_NAME":"ARNULFO TOVAR RUIZ","POP_AT_RISK":252612,"BUSINESS_TYPE":"Peddler, food (fruits and vegtables only)","LEGAL_NAME":"ARNULFO TOVAR RUIZ","LONGITUDE":-87.69187733198248},
{"STATE":"IL","ZIP":60647,"LATTITUDE":41.91641714935846,"ADDRESS":"1921 N CAMPBELL AVE 1ST ","YEAR":2007,"DOING_BUSINESS_AS_NAME":"BERNARDO HERNANDEZ","POP_AT_RISK":346146,"BUSINESS_TYPE":"Peddler, food (fruits and vegtables only)","LEGAL_NAME":"BERNARDO HERNANDEZ","LONGITUDE":-87.68967923839017},
{"STATE":"IL","ZIP":60618,"LATTITUDE":41.9367730327028,"ADDRESS":"2736 W NELSON ST  ","YEAR":2007,"DOING_BUSINESS_AS_NAME":"FRANCISCO J. OCANA","POP_AT_RISK":102756,"BUSINESS_TYPE":"Peddler, food (fruits and vegtables only)","LEGAL_NAME":"FRANCISCO J. OCANA","LONGITUDE":-87.69679427775719},
{"STATE":"IL","ZIP":60639,"LATTITUDE":41.91090555165304,"ADDRESS":"1651 N LUNA AVE  ","YEAR":2007,"DOING_BUSINESS_AS_NAME":"HENRY L. HENDERSON","POP_AT_RISK":112534,"BUSINESS_TYPE":"Peddler, food (fruits and vegtables only)","LEGAL_NAME":"HENRY L. HENDERSON","LONGITUDE":-87.76412504710619},
{"STATE":"IL","ZIP":60653,"LATTITUDE":41.82400116460606,"ADDRESS":"3939 S LAKE PARK AVE # 802","YEAR":2007,"DOING_BUSINESS_AS_NAME":"JAMES J. JORDAN JR.","POP_AT_RISK":364000,"BUSINESS_TYPE":"Peddler, food (fruits and vegtables only)","LEGAL_NAME":"JAMES J.JORDAN JR.","LONGITUDE":-87.60312264009514},
{"STATE":"IL","ZIP":60649,"LATTITUDE":41.77028287796114,"ADDRESS":"6846 S PAXTON AVE  2","YEAR":2007,"DOING_BUSINESS_AS_NAME":"PAPPY GONE NUTS","POP_AT_RISK":237048,"BUSINESS_TYPE":"Peddler, food (fruits and vegtables only)","LEGAL_NAME":"RONALD D. WILLIAMS","LONGITUDE":-87.57166878166072},
{"STATE":"IL","ZIP":60637,"LATTITUDE":41.792038577110816,"ADDRESS":"5629 S INDIANA AVE 2ND 2S","YEAR":2007,"DOING_BUSINESS_AS_NAME":"ORON FRESH PRODUCE","POP_AT_RISK":265770,"BUSINESS_TYPE":"Peddler, food (fruits and vegtables only)","LEGAL_NAME":"SAADYAH BEN SHLOMO","LONGITUDE":-87.62063024788739},
{"STATE":"IL","ZIP":60618,"LATTITUDE":41.954111556841845,"ADDRESS":"2510 W IRVING PARK RD  ","YEAR":2007,"DOING_BUSINESS_AS_NAME":"ANTHONY P. SANTUCCI","POP_AT_RISK":110926,"BUSINESS_TYPE":"Peddler, food (fruits and vegtables only)","LEGAL_NAME":"ANTHONHY P. SANTUCCI","LONGITUDE":-87.69131832312839},
{"STATE":"IL","ZIP":60629,"LATTITUDE":41.77845863056898,"ADDRESS":"4307 W 63RD ST  2-R","YEAR":2007,"DOING_BUSINESS_AS_NAME":"JOSE R. MORALES, SR.","POP_AT_RISK":36715,"BUSINESS_TYPE":"Peddler, food (fruits and vegtables only)","LEGAL_NAME":"JOSE R. MORALES, SR.","LONGITUDE":-87.73039007468311},
{"STATE":"IL","ZIP":60628,"LATTITUDE":41.702914574309354,"ADDRESS":"10520 S INDIANA AVE  ","YEAR":2007,"DOING_BUSINESS_AS_NAME":"DR FRESH FRUITS & VEGETABLES (LESLY GATHERIGHT JR.)","POP_AT_RISK":105048,"BUSINESS_TYPE":"Peddler, food (fruits and vegtables only)","LEGAL_NAME":"LESLY GATHERIGHT JR.","LONGITUDE":-87.61867125598516},
{"STATE":"IL","ZIP":60643,"LATTITUDE":41.674052619031144,"ADDRESS":"12056 S JUSTINE ST  ","YEAR":2007,"DOING_BUSINESS_AS_NAME":"ROBERT L. JOHNSON JR.","POP_AT_RISK":152160,"BUSINESS_TYPE":"Peddler, food (fruits and vegtables only)","LEGAL_NAME":"ROBERT L. JOHNSON, JR","LONGITUDE":-87.66020570250922},
{"STATE":"IL","ZIP":60634,"LATTITUDE":41.95966347848037,"ADDRESS":"5632 W PENSACOLA AVE  ","YEAR":2007,"DOING_BUSINESS_AS_NAME":"EMPERATRIZ FRUIT","POP_AT_RISK":205996,"BUSINESS_TYPE":"Peddler, food (fruits and vegtables only)","LEGAL_NAME":"EMPERATRIZ M. MALDONADO","LONGITUDE":-87.76855204500197},
{"STATE":"IL","ZIP":60625,"LATTITUDE":41.97468416196556,"ADDRESS":"2645 W WINONA ST  ","YEAR":2007,"DOING_BUSINESS_AS_NAME":"GUSTAVO FRANCISCO MONZON","POP_AT_RISK":58833,"BUSINESS_TYPE":"Peddler, food (fruits and vegtables only)","LEGAL_NAME":"GUSTAVO MONZON-MARTINEZ","LONGITUDE":-87.69583122098278},
{"STATE":"IL","ZIP":60644,"LATTITUDE":41.87778865366394,"ADDRESS":"4826 W QUINCY ST  ","YEAR":2007,"DOING_BUSINESS_AS_NAME":"SHARI ANDREWLEE WATKINS","POP_AT_RISK":356392,"BUSINESS_TYPE":"Peddler, food (fruits and vegtables only)","LEGAL_NAME":"SHARI ANDREWLEE WATKINS","LONGITUDE":-87.74625531056763},
{"STATE":"IL","ZIP":60620,"LATTITUDE":41.748983480303316,"ADDRESS":"47 W 80TH ST  1","YEAR":2007,"DOING_BUSINESS_AS_NAME":"JOSEPH CARL HANDFORD JR.","POP_AT_RISK":31258,"BUSINESS_TYPE":"Peddler, food (fruits and vegtables only)","LEGAL_NAME":"JOSEPH CARL HANDFORD JR.","LONGITUDE":-87.62641971971063},
{"STATE":"IL","ZIP":60619,"LATTITUDE":41.73494978528568,"ADDRESS":"824 E 88TH ST  ","YEAR":2007,"DOING_BUSINESS_AS_NAME":"ROBERT S. CHILDRESS, JR.","POP_AT_RISK":144836,"BUSINESS_TYPE":"Peddler, food (fruits and vegtables only)","LEGAL_NAME":"ROBERT S. CHILDRESS, JR.","LONGITUDE":-87.60371938792152},
{"STATE":"IL","ZIP":60619,"LATTITUDE":41.75817649224904,"ADDRESS":"7505 S CALUMET AVE  ","YEAR":2007,"DOING_BUSINESS_AS_NAME":"ORON BENISRAEL MONTGOMERY","POP_AT_RISK":34086,"BUSINESS_TYPE":"Peddler, food (fruits and vegtables only)","LEGAL_NAME":"ORON BENISRAEL MONTGOMERY","LONGITUDE":-87.61655362985208},
}