{
{"STATE":"IL","ZIP":60623,"LATTITUDE":41.85186555681628,"ADDRESS":"3859 W OGDEN AVE  ","YEAR":2006,"DOING_BUSINESS_AS_NAME":"Lou Malnati's Pizzeria","POP_AT_RISK":71436,"BUSINESS_TYPE":"Mobile Food Dispenser","LEGAL_NAME":"LUMA LIMITED","LONGITUDE":-87.7220243874229},
{"STATE":"IL","ZIP":60616,"LATTITUDE":41.838011550080296,"ADDRESS":"537 W 31ST ST  ","YEAR":2006,"DOING_BUSINESS_AS_NAME":"M & Z CATERING","POP_AT_RISK":390048,"BUSINESS_TYPE":"Mobile Food Dispenser","LEGAL_NAME":"ZENON CASTRO","LONGITUDE":-87.64042421886397},
{"STATE":"IL","ZIP":60628,"LATTITUDE":41.710003708194975,"ADDRESS":"10120 S EGGLESTON AVE 1ST ","YEAR":2006,"DOING_BUSINESS_AS_NAME":"C C ICE CREAM","POP_AT_RISK":229984,"BUSINESS_TYPE":"Mobile Food Dispenser","LEGAL_NAME":"CARRIE CONRAD","LONGITUDE":-87.6338096365096},
{"STATE":"IL","ZIP":60619,"LATTITUDE":41.736633761519904,"ADDRESS":"432 E 87TH ST # 1ST","YEAR":2006,"DOING_BUSINESS_AS_NAME":"RIB JOINT INC","POP_AT_RISK":334114,"BUSINESS_TYPE":"Mobile Food Dispenser","LEGAL_NAME":"RIB JOINT INC","LONGITUDE":-87.61307578509962},
{"STATE":"IL","ZIP":60647,"LATTITUDE":41.924519896771315,"ADDRESS":"3525 W FULLERTON AVE  ","YEAR":2006,"DOING_BUSINESS_AS_NAME":"Festa Pizzaria","POP_AT_RISK":1692264,"BUSINESS_TYPE":"Mobile Food Dispenser","LEGAL_NAME":"Armando Pantoja","LONGITUDE":-87.71484030703084},
{"STATE":"IL","ZIP":60660,"LATTITUDE":41.99551563607673,"ADDRESS":"6232 N BROADWAY  1ST ","YEAR":2006,"DOING_BUSINESS_AS_NAME":"VEE-VEE'S AFRICAN RESTAURANT","POP_AT_RISK":142040,"BUSINESS_TYPE":"Mobile Food Dispenser","LEGAL_NAME":"ERASMUS N EZEJI","LONGITUDE":-87.66058139230817},
{"STATE":"IL","ZIP":60603,"LATTITUDE":41.88198218624524,"ADDRESS":"61 E MADISON ST  ","YEAR":2006,"DOING_BUSINESS_AS_NAME":"PIZANO","POP_AT_RISK":278568,"BUSINESS_TYPE":"Mobile Food Dispenser","LEGAL_NAME":"61 MADISON, INC.","LONGITUDE":-87.6256414697163},
{"STATE":"IL","ZIP":60640,"LATTITUDE":41.963855271914156,"ADDRESS":"4507 N SHERIDAN RD 1ST ","YEAR":2006,"DOING_BUSINESS_AS_NAME":"T B S AFRICAN RESTAURNTS","POP_AT_RISK":200487,"BUSINESS_TYPE":"Mobile Food Dispenser","LEGAL_NAME":"VICTORIA ONAMUSI","LONGITUDE":-87.6546240136517},
{"STATE":"IL","ZIP":60618,"LATTITUDE":41.9396575946445,"ADDRESS":"2050 W BELMONT AVE  ","YEAR":2006,"DOING_BUSINESS_AS_NAME":"PALETERIA ARCOS IRIS","POP_AT_RISK":575208,"BUSINESS_TYPE":"Mobile Food Dispenser","LEGAL_NAME":"FELICIANO MARTINEZ","LONGITUDE":-87.68036037889661},
{"STATE":"IL","ZIP":60614,"LATTITUDE":41.91844708184752,"ADDRESS":"338 W ARMITAGE AVE  ","YEAR":2006,"DOING_BUSINESS_AS_NAME":"BEN & JERRY'S ICE CREAM","POP_AT_RISK":330995,"BUSINESS_TYPE":"Mobile Food Dispenser","LEGAL_NAME":"ARMITAGE ICE CREAM INC","LONGITUDE":-87.63792342122498},
{"STATE":"IL","ZIP":60614,"LATTITUDE":41.926453319736645,"ADDRESS":"2434-2436 N CLARK ST  ","YEAR":2006,"DOING_BUSINESS_AS_NAME":"THE PASTA BOWL COMPANY","POP_AT_RISK":63134,"BUSINESS_TYPE":"Mobile Food Dispenser","LEGAL_NAME":"THE PASTA BOWL COMPANY","LONGITUDE":-87.64116965214959},
{"STATE":"IL","ZIP":60640,"LATTITUDE":41.969093022060456,"ADDRESS":"4802-4804 N CLARK ST  ","YEAR":2006,"DOING_BUSINESS_AS_NAME":"BQ AFROROOT CUISINE","POP_AT_RISK":617157,"BUSINESS_TYPE":"Mobile Food Dispenser","LEGAL_NAME":"BQ AFROROOT CUISINE INC.","LONGITUDE":-87.66766948525793},
{"STATE":"IL","ZIP":60657,"LATTITUDE":41.942855635032686,"ADDRESS":"3346 N CLARK ST  ","YEAR":2006,"DOING_BUSINESS_AS_NAME":"BOLAT AFRICAN CUISINE","POP_AT_RISK":1346595,"BUSINESS_TYPE":"Mobile Food Dispenser","LEGAL_NAME":"BOLAT AFRICAN CUISINE INC.","LONGITUDE":-87.65319556965025},
{"STATE":"IL","ZIP":60608,"LATTITUDE":41.85575084068333,"ADDRESS":"1915 W 19TH ST  ","YEAR":2006,"DOING_BUSINESS_AS_NAME":"EMMANUEL ICE CREAM","POP_AT_RISK":34800,"BUSINESS_TYPE":"Mobile Food Dispenser","LEGAL_NAME":"EMMANUEL ICE CREAM & COFFEE","LONGITUDE":-87.67414867425646},
{"STATE":"IL","ZIP":60622,"LATTITUDE":41.896060663672074,"ADDRESS":"808 N WESTERN AVE  CART 5","YEAR":2006,"DOING_BUSINESS_AS_NAME":"LA MICHOACANA ICE CREAM","POP_AT_RISK":1182993,"BUSINESS_TYPE":"Mobile Food Dispenser","LEGAL_NAME":"LA MICHOACANA ICE CREAM INC","LONGITUDE":-87.68699744979625},
}