{
{"STATE":"IL","ZIP":60629,"LATTITUDE":41.772257098402925,"ADDRESS":"6645 S RICHMOND ST  ","YEAR":2006,"DOING_BUSINESS_AS_NAME":"DOCK EVANS","POP_AT_RISK":445024,"BUSINESS_TYPE":"Peddler, non-food, special","LEGAL_NAME":"DOCK EVANS","LONGITUDE":-87.69673381341254},
{"STATE":"IL","ZIP":60643,"LATTITUDE":41.692446016824746,"ADDRESS":"842 W 111TH ST  ","YEAR":2006,"DOING_BUSINESS_AS_NAME":"MERCY HALL","POP_AT_RISK":34675,"BUSINESS_TYPE":"Peddler, non-food, special","LEGAL_NAME":"MERCY HALL","LONGITUDE":-87.64408133336032},
{"STATE":"IL","ZIP":60643,"LATTITUDE":41.706914113362814,"ADDRESS":"1256 W 103RD ST  ","YEAR":2006,"DOING_BUSINESS_AS_NAME":"EZRA ALCORN","POP_AT_RISK":25159,"BUSINESS_TYPE":"Peddler, non-food, special","LEGAL_NAME":"EZRA ALCORN","LONGITUDE":-87.65469354147858},
{"STATE":"IL","ZIP":60609,"LATTITUDE":41.79884005316618,"ADDRESS":"5228 S SANGAMON ST  ","YEAR":2006,"DOING_BUSINESS_AS_NAME":"JUDY FIELDS","POP_AT_RISK":47614,"BUSINESS_TYPE":"Peddler, non-food, special","LEGAL_NAME":"JUDY FIELDS","LONGITUDE":-87.649066676043},
{"STATE":"IL","ZIP":60621,"LATTITUDE":41.76554315897264,"ADDRESS":"7047 S CARPENTER ST 1ST ","YEAR":2006,"DOING_BUSINESS_AS_NAME":"B.J. WHITSON","POP_AT_RISK":36497,"BUSINESS_TYPE":"Peddler, non-food, special","LEGAL_NAME":"B.J. WHITSON","LONGITUDE":-87.65034094930236},
{"STATE":"IL","ZIP":60618,"LATTITUDE":41.93567902030023,"ADDRESS":"2959 N TALMAN AVE  ","YEAR":2006,"DOING_BUSINESS_AS_NAME":"BETTY M WINN","POP_AT_RISK":321531,"BUSINESS_TYPE":"Peddler, non-food, special","LEGAL_NAME":"BETTY M WINN","LONGITUDE":-87.69390747366954},
{"STATE":"IL","ZIP":60632,"LATTITUDE":41.81402361755179,"ADDRESS":"4348 S SACRAMENTO AVE  ","YEAR":2006,"DOING_BUSINESS_AS_NAME":"BRIEN E. CRON","POP_AT_RISK":132930,"BUSINESS_TYPE":"Peddler, non-food, special","LEGAL_NAME":"BRIEN E CRON","LONGITUDE":-87.69943720719365},
{"STATE":"IL","ZIP":60630,"LATTITUDE":41.963183921265326,"ADDRESS":"4536 N ELSTON AVE  ","YEAR":2006,"DOING_BUSINESS_AS_NAME":"BYRON YABLON","POP_AT_RISK":598351,"BUSINESS_TYPE":"Peddler, non-food, special","LEGAL_NAME":"BYRON YABLON","LONGITUDE":-87.73318715325468},
{"STATE":"IL","ZIP":60707,"LATTITUDE":41.91493419839358,"ADDRESS":"1915 N NEWLAND AVE 1 ","YEAR":2006,"DOING_BUSINESS_AS_NAME":"DENNIS BROWN","POP_AT_RISK":100716,"BUSINESS_TYPE":"Peddler, non-food, special","LEGAL_NAME":"DENNIS BROWN","LONGITUDE":-87.79848827318105},
{"STATE":"IL","ZIP":60628,"LATTITUDE":41.68101379589991,"ADDRESS":"11717 S STATE ST  ","YEAR":2006,"DOING_BUSINESS_AS_NAME":"SIMEON JONES","POP_AT_RISK":97572,"BUSINESS_TYPE":"Peddler, non-food, special","LEGAL_NAME":"SIMEON JONES","LONGITUDE":-87.6226064336375},
{"STATE":"IL","ZIP":60614,"LATTITUDE":41.921224958170484,"ADDRESS":"2140 N CLARK ST  113","YEAR":2006,"DOING_BUSINESS_AS_NAME":"ALBERT WRIGHT","POP_AT_RISK":67893,"BUSINESS_TYPE":"Peddler, non-food, special","LEGAL_NAME":"ALBERT WRIGHT","LONGITUDE":-87.63799765552446},
{"STATE":"IL","ZIP":60637,"LATTITUDE":41.773618654616996,"ADDRESS":"6642 S CHAMPLAIN AVE  ","YEAR":2006,"DOING_BUSINESS_AS_NAME":"DORA L. SMITH","POP_AT_RISK":114888,"BUSINESS_TYPE":"Peddler, non-food, special","LEGAL_NAME":"DORA L. SMITH","LONGITUDE":-87.60957726746145},
{"STATE":"IL","ZIP":60622,"LATTITUDE":41.90922982418396,"ADDRESS":"2043 W PIERCE AVE 1ST ","YEAR":2006,"DOING_BUSINESS_AS_NAME":"HERMAN MILTON","POP_AT_RISK":1765632,"BUSINESS_TYPE":"Peddler, non-food, special","LEGAL_NAME":"HERMAN MILTON","LONGITUDE":-87.67914391414072},
{"STATE":"IL","ZIP":60604,"LATTITUDE":41.87834161206342,"ADDRESS":"28 E JACKSON BLVD  B483","YEAR":2006,"DOING_BUSINESS_AS_NAME":"ISRAEL BOFANI","POP_AT_RISK":50025,"BUSINESS_TYPE":"Peddler, non-food, special","LEGAL_NAME":"ISRAEL BOFANI","LONGITUDE":-87.62667499148682},
{"STATE":"IL","ZIP":60636,"LATTITUDE":41.788004138946576,"ADDRESS":"5814 S WOLCOTT AVE  ","YEAR":2006,"DOING_BUSINESS_AS_NAME":"JOHN L. FLOYD","POP_AT_RISK":38996,"BUSINESS_TYPE":"Peddler, non-food, special","LEGAL_NAME":"JOHN L. FLOYD","LONGITUDE":-87.67185584397966},
{"STATE":"IL","ZIP":60623,"LATTITUDE":41.85889945383759,"ADDRESS":"4214 W 16TH ST  ","YEAR":2006,"DOING_BUSINESS_AS_NAME":"OLA MAE EVANS","POP_AT_RISK":143025,"BUSINESS_TYPE":"Peddler, non-food, special","LEGAL_NAME":"OLA MAE EVANS","LONGITUDE":-87.73054680280109},
{"STATE":"IL","ZIP":60647,"LATTITUDE":41.914872525125695,"ADDRESS":"1842 N SPRINGFIELD AVE  1","YEAR":2006,"DOING_BUSINESS_AS_NAME":"RAMON  CORONEL","POP_AT_RISK":688520,"BUSINESS_TYPE":"Peddler, non-food, special","LEGAL_NAME":"RAMON CORONEL","LONGITUDE":-87.72419022922423},
{"STATE":"IL","ZIP":60613,"LATTITUDE":41.95170802014547,"ADDRESS":"3801 N PINE GROVE AVE 4TH 409","YEAR":2006,"DOING_BUSINESS_AS_NAME":"RAMONA A MURA","POP_AT_RISK":210747,"BUSINESS_TYPE":"Peddler, non-food, special","LEGAL_NAME":"RAMONA A MURA","LONGITUDE":-87.64771678341272},
{"STATE":"IL","ZIP":60613,"LATTITUDE":41.94868367437477,"ADDRESS":"3600 N LAKE SHORE DR  1812","YEAR":2006,"DOING_BUSINESS_AS_NAME":"VERA GUTTMANN","POP_AT_RISK":74900,"BUSINESS_TYPE":"Peddler, non-food, special","LEGAL_NAME":"VERA GUTTMANN","LONGITUDE":-87.64364975850548},
{"STATE":"IL","ZIP":60653,"LATTITUDE":41.81690940259357,"ADDRESS":"740 E 43RD ST  412","YEAR":2006,"DOING_BUSINESS_AS_NAME":"WALTER WILLIS","POP_AT_RISK":80404,"BUSINESS_TYPE":"Peddler, non-food, special","LEGAL_NAME":"WALTER WILLIS","LONGITUDE":-87.60752767893223},
{"STATE":"IL","ZIP":60632,"LATTITUDE":41.81423595167177,"ADDRESS":"4347 S ROCKWELL ST 1ST ","YEAR":2006,"DOING_BUSINESS_AS_NAME":"ARTURO ALMEIDA","POP_AT_RISK":94920,"BUSINESS_TYPE":"Peddler, non-food, special","LEGAL_NAME":"ARTURO ALMEIDA","LONGITUDE":-87.6893407679075},
{"STATE":"IL","ZIP":60615,"LATTITUDE":41.802981058495554,"ADDRESS":"5034 S ST LAWRENCE AVE 1 ","YEAR":2006,"DOING_BUSINESS_AS_NAME":"MICHAEL CORLEY","POP_AT_RISK":201675,"BUSINESS_TYPE":"Peddler, non-food, special","LEGAL_NAME":"MICHAEL CORLEY","LONGITUDE":-87.61145186912802},
{"STATE":"IL","ZIP":60608,"LATTITUDE":41.84074813969724,"ADDRESS":"2953 S ARCHER AVE  ","YEAR":2006,"DOING_BUSINESS_AS_NAME":"RONALD SPOSATO","POP_AT_RISK":314730,"BUSINESS_TYPE":"Peddler, non-food, special","LEGAL_NAME":"RONALD SPOSATO","LONGITUDE":-87.65954690780782},
{"STATE":"IL","ZIP":60651,"LATTITUDE":41.906574497484414,"ADDRESS":"1430 N MASON AVE  ","YEAR":2006,"DOING_BUSINESS_AS_NAME":"CLARITA T. COOK","POP_AT_RISK":361920,"BUSINESS_TYPE":"Peddler, non-food, special","LEGAL_NAME":"CLARITA T. COOK","LONGITUDE":-87.7744464031899},
{"STATE":"IL","ZIP":60659,"LATTITUDE":41.98416034321871,"ADDRESS":"5633 N ARTESIAN AVE 1 ","YEAR":2006,"DOING_BUSINESS_AS_NAME":"JOSEPH A. GABOR","POP_AT_RISK":199716,"BUSINESS_TYPE":"Peddler, non-food, special","LEGAL_NAME":"JOSEPH A. GABOR","LONGITUDE":-87.69054223332962},
{"STATE":"IL","ZIP":60639,"LATTITUDE":41.923172564205224,"ADDRESS":"4959 W MEDILL AVE 1 ","YEAR":2006,"DOING_BUSINESS_AS_NAME":"MICHAEL HOPKINS","POP_AT_RISK":189270,"BUSINESS_TYPE":"Peddler, non-food, special","LEGAL_NAME":"MICHAEL HOPKINS","LONGITUDE":-87.7510766527435},
{"STATE":"IL","ZIP":60623,"LATTITUDE":41.855373435721894,"ADDRESS":"3005 W 19TH ST  2W","YEAR":2006,"DOING_BUSINESS_AS_NAME":"NOBLE A. WRIGHT","POP_AT_RISK":366163,"BUSINESS_TYPE":"Peddler, non-food, special","LEGAL_NAME":"NOBLE A. WRIGHT","LONGITUDE":-87.70072842236365},
{"STATE":"IL","ZIP":60628,"LATTITUDE":41.70316141009785,"ADDRESS":"10523 S CORLISS AVE  ","YEAR":2006,"DOING_BUSINESS_AS_NAME":"RICARDO JOHNSON","POP_AT_RISK":60927,"BUSINESS_TYPE":"Peddler, non-food, special","LEGAL_NAME":"RICARDO JOHNSON","LONGITUDE":-87.60374030855061},
{"STATE":"IL","ZIP":60620,"LATTITUDE":41.747916027980835,"ADDRESS":"8028 S GREEN ST 1ST ","YEAR":2006,"DOING_BUSINESS_AS_NAME":"WILLIE B PRUITT","POP_AT_RISK":157356,"BUSINESS_TYPE":"Peddler, non-food, special","LEGAL_NAME":"WILLIE B PRUITT","LONGITUDE":-87.6453225501635},
{"STATE":"IL","ZIP":60652,"LATTITUDE":41.74273665860294,"ADDRESS":"4137 W 82ND PL  ","YEAR":2006,"DOING_BUSINESS_AS_NAME":"YOUSEF MUHYEDDN","POP_AT_RISK":191052,"BUSINESS_TYPE":"Peddler, non-food, special","LEGAL_NAME":"YOUSEF MUHYEDDN","LONGITUDE":-87.7255517132813},
{"STATE":"IL","ZIP":60618,"LATTITUDE":41.94169556017112,"ADDRESS":"3311 N BELL AVE # 2","YEAR":2006,"DOING_BUSINESS_AS_NAME":"Cruz D. Martinez","POP_AT_RISK":132732,"BUSINESS_TYPE":"Peddler, non-food, special","LEGAL_NAME":"Cruz D. Martinez","LONGITUDE":-87.68432441658258},
{"STATE":"IL","ZIP":60620,"LATTITUDE":41.75559222853703,"ADDRESS":"7618 S HARVARD AVE  ","YEAR":2006,"DOING_BUSINESS_AS_NAME":"JOYCE A. WILLIAMS","POP_AT_RISK":39307,"BUSINESS_TYPE":"Peddler, non-food, special","LEGAL_NAME":"JOYCE A. WILLIAMS","LONGITUDE":-87.6329400281505},
{"STATE":"IL","ZIP":60630,"LATTITUDE":41.96221794371823,"ADDRESS":"4455 N LINDER AVE 2ND ","YEAR":2006,"DOING_BUSINESS_AS_NAME":"LORETTA M MATHEIS","POP_AT_RISK":476070,"BUSINESS_TYPE":"Peddler, non-food, special","LEGAL_NAME":"LORETTA M MATHEIS","LONGITUDE":-87.76469069317187},
{"STATE":"IL","ZIP":60649,"LATTITUDE":41.753197163227156,"ADDRESS":"7807 S CLYDE AVE  ","YEAR":2006,"DOING_BUSINESS_AS_NAME":"LUIS T. HERNANDEZ","POP_AT_RISK":82982,"BUSINESS_TYPE":"Peddler, non-food, special","LEGAL_NAME":"LUIS T. HERNANDEZ","LONGITUDE":-87.57342854254281},
{"STATE":"IL","ZIP":60609,"LATTITUDE":41.80531017725221,"ADDRESS":"4845 S WESTERN BLVD  205","YEAR":2006,"DOING_BUSINESS_AS_NAME":"MACK MCLAURIN JR.","POP_AT_RISK":241836,"BUSINESS_TYPE":"Peddler, non-food, special","LEGAL_NAME":"MACK MCLAURIN JR.","LONGITUDE":-87.68362993817188},
{"STATE":"IL","ZIP":60621,"LATTITUDE":41.78726012895507,"ADDRESS":"500 W 59TH ST 1ST ","YEAR":2006,"DOING_BUSINESS_AS_NAME":"RONNIE M. SIMPSON","POP_AT_RISK":78426,"BUSINESS_TYPE":"Peddler, non-food, special","LEGAL_NAME":"RONNIE M. SIMPSON","LONGITUDE":-87.63772771327278},
{"STATE":"IL","ZIP":60617,"LATTITUDE":41.71590186001373,"ADDRESS":"9816 S MERRION AVE # 1ST","YEAR":2006,"DOING_BUSINESS_AS_NAME":"ANTOINETTE JOHNSON","POP_AT_RISK":69712,"BUSINESS_TYPE":"Peddler, non-food, special","LEGAL_NAME":"ANTOINETTE JOHNSON","LONGITUDE":-87.5696927426852},
{"STATE":"IL","ZIP":60617,"LATTITUDE":41.70262075649605,"ADDRESS":"3649 E 106TH ST  ","YEAR":2006,"DOING_BUSINESS_AS_NAME":"BOBBY LOUIS HOLIDAY","POP_AT_RISK":104835,"BUSINESS_TYPE":"Peddler, non-food, special","LEGAL_NAME":"BOBBY LOUIS HOLIDAY","LONGITUDE":-87.53455855561775},
{"STATE":"IL","ZIP":60659,"LATTITUDE":41.99360501680627,"ADDRESS":"3817 W GRANVILLE AVE  ","YEAR":2006,"DOING_BUSINESS_AS_NAME":"HERBERT HOFFMAN SR.","POP_AT_RISK":180228,"BUSINESS_TYPE":"Peddler, non-food, special","LEGAL_NAME":"HERBERT HOFFMAN SR.","LONGITUDE":-87.72467514813182},
{"STATE":"IL","ZIP":60624,"LATTITUDE":41.87165611650128,"ADDRESS":"3547 W LEXINGTON ST  ","YEAR":2006,"DOING_BUSINESS_AS_NAME":"ROBERT E RAGLAND SR","POP_AT_RISK":126681,"BUSINESS_TYPE":"Peddler, non-food, special","LEGAL_NAME":"ROBERT E RAGLAND SR","LONGITUDE":-87.71501101188657},
{"STATE":"IL","ZIP":60619,"LATTITUDE":41.750365408370726,"ADDRESS":"7924 S VERNON AVE 2 ","YEAR":2006,"DOING_BUSINESS_AS_NAME":"STANLEY WASHINGTON","POP_AT_RISK":40841,"BUSINESS_TYPE":"Peddler, non-food, special","LEGAL_NAME":"STANLEY  WASHINGTON","LONGITUDE":-87.61383906415614},
{"STATE":"IL","ZIP":60643,"LATTITUDE":41.693849115531314,"ADDRESS":"10963 S HOMEWOOD AVE  ","YEAR":2006,"DOING_BUSINESS_AS_NAME":"CORNELIUS GRAVES JR.","POP_AT_RISK":97704,"BUSINESS_TYPE":"Peddler, non-food, special","LEGAL_NAME":"CORNELIUS GRAVES JR.","LONGITUDE":-87.66763604883667},
{"STATE":"IL","ZIP":60607,"LATTITUDE":41.881596057291624,"ADDRESS":"1500 W MADISON ST  ","YEAR":2006,"DOING_BUSINESS_AS_NAME":"JAMES WALLACE PETERS","POP_AT_RISK":346266,"BUSINESS_TYPE":"Peddler, non-food, special","LEGAL_NAME":"JAMES WALLACE PETERS","LONGITUDE":-87.6645065747039},
{"STATE":"IL","ZIP":60609,"LATTITUDE":41.81806376444931,"ADDRESS":"327 W 42ND ST  ","YEAR":2006,"DOING_BUSINESS_AS_NAME":"MACK  C  ROGERS, JR","POP_AT_RISK":126340,"BUSINESS_TYPE":"Peddler, non-food, special","LEGAL_NAME":"MACK  C  ROGERS, JR.","LONGITUDE":-87.63464962030916},
{"STATE":"IL","ZIP":60625,"LATTITUDE":41.97758936893122,"ADDRESS":"2409 W BERWYN AVE  1B","YEAR":2006,"DOING_BUSINESS_AS_NAME":"MICHAEL A. MC GLASHON","POP_AT_RISK":237785,"BUSINESS_TYPE":"Peddler, non-food, special","LEGAL_NAME":"MICHAEL A. MC GLASHON","LONGITUDE":-87.68960769076388},
}