{
{"STATE":"IL","ZIP":60640,"LATTITUDE":41.97004723194906,"ADDRESS":"4832 N WINTHROP AVE  1B","YEAR":2004,"DOING_BUSINESS_AS_NAME":"CEPHALOSOFT","POP_AT_RISK":353715,"BUSINESS_TYPE":"Home Occupation","LEGAL_NAME":"CEPHALOSOFT","LONGITUDE":-87.65779314909322},
{"STATE":"IL","ZIP":60636,"LATTITUDE":41.76231146345891,"ADDRESS":"7222 S HONORE ST 1ST ","YEAR":2004,"DOING_BUSINESS_AS_NAME":"HEAVENLY HELPER'S CLEANING SER","POP_AT_RISK":344200,"BUSINESS_TYPE":"Home Occupation","LEGAL_NAME":"DONNELL HILL","LONGITUDE":-87.66996610650344},
{"STATE":"IL","ZIP":60617,"LATTITUDE":41.72059011205031,"ADDRESS":"9622 S AVENUE N  1ST ","YEAR":2004,"DOING_BUSINESS_AS_NAME":"PERRY MASON'S TAX\/BOOKKEEPING","POP_AT_RISK":27264,"BUSINESS_TYPE":"Home Occupation","LEGAL_NAME":"DALE T SCHWER","LONGITUDE":-87.53905911237189},
{"STATE":"IL","ZIP":60611,"LATTITUDE":41.89127929349215,"ADDRESS":"505 N LAKE SHORE DR  1307","YEAR":2004,"DOING_BUSINESS_AS_NAME":"LAR SNOW REMOVAL SERVICE","POP_AT_RISK":472080,"BUSINESS_TYPE":"Home Occupation","LEGAL_NAME":"LESLIE J. ROSS","LONGITUDE":-87.61410753333017},
{"STATE":"IL","ZIP":60660,"LATTITUDE":41.99242339561725,"ADDRESS":"1104 W GLENLAKE AVE  3","YEAR":2004,"DOING_BUSINESS_AS_NAME":"PATRICK ZUBROD","POP_AT_RISK":63926,"BUSINESS_TYPE":"Home Occupation","LEGAL_NAME":"PATRICK ZUBROD","LONGITUDE":-87.65854337659766},
{"STATE":"IL","ZIP":60619,"LATTITUDE":41.74574149654516,"ADDRESS":"8206 S HARPER AVE 1ST ","YEAR":2004,"DOING_BUSINESS_AS_NAME":"CODY PROFESSIONAL TREE\/STUMP R","POP_AT_RISK":197898,"BUSINESS_TYPE":"Home Occupation","LEGAL_NAME":"WILLIAM J CODY","LONGITUDE":-87.58720574752331},
{"STATE":"IL","ZIP":60639,"LATTITUDE":41.926737342877274,"ADDRESS":"5249 W DEMING PL  ","YEAR":2004,"DOING_BUSINESS_AS_NAME":"RETAIL- FOR-LESS","POP_AT_RISK":260760,"BUSINESS_TYPE":"Home Occupation","LEGAL_NAME":"MARIA SWIDERSKI","LONGITUDE":-87.75820018656435},
{"STATE":"IL","ZIP":60629,"LATTITUDE":41.79229777292703,"ADDRESS":"3631 W 55TH PL  ","YEAR":2004,"DOING_BUSINESS_AS_NAME":"CHI-TOWN HEATING & COOLING","POP_AT_RISK":611314,"BUSINESS_TYPE":"Home Occupation","LEGAL_NAME":"MARIAN M KUSPER","LONGITUDE":-87.7148227389006},
{"STATE":"IL","ZIP":60647,"LATTITUDE":41.91702065725367,"ADDRESS":"2142 W HOMER ST  ","YEAR":2004,"DOING_BUSINESS_AS_NAME":"THE PRINTED LEAF","POP_AT_RISK":185499,"BUSINESS_TYPE":"Home Occupation","LEGAL_NAME":"THE PRINTED LEAF","LONGITUDE":-87.6817801576535},
{"STATE":"IL","ZIP":60615,"LATTITUDE":41.80085586679827,"ADDRESS":"5200 S ELLIS AVE  308N","YEAR":2004,"DOING_BUSINESS_AS_NAME":"ADRIENNE J. HOBBS","POP_AT_RISK":76620,"BUSINESS_TYPE":"Home Occupation","LEGAL_NAME":"ADRIENNE J. HOBBS","LONGITUDE":-87.60148339797773},
{"STATE":"IL","ZIP":60626,"LATTITUDE":41.99873529668748,"ADDRESS":"6418 N GLENWOOD AVE  ","YEAR":2004,"DOING_BUSINESS_AS_NAME":"WATERRIDERS","POP_AT_RISK":81716,"BUSINESS_TYPE":"Home Occupation","LEGAL_NAME":"CHARLES A. PORTIS","LONGITUDE":-87.66567400196412},
{"STATE":"IL","ZIP":60649,"LATTITUDE":41.7680284692621,"ADDRESS":"7000 S SOUTH SHORE DR  6A","YEAR":2004,"DOING_BUSINESS_AS_NAME":"JR WIRELESS","POP_AT_RISK":364815,"BUSINESS_TYPE":"Home Occupation","LEGAL_NAME":"JAMES A. ROWE JR.","LONGITUDE":-87.56664989319509},
{"STATE":"IL","ZIP":60646,"LATTITUDE":41.98341568656918,"ADDRESS":"5614 N MANGO AVE 1ST ","YEAR":2004,"DOING_BUSINESS_AS_NAME":"SANCHEZ TRUCKING","POP_AT_RISK":165282,"BUSINESS_TYPE":"Home Occupation","LEGAL_NAME":"JULIE SANCHEZ VITO","LONGITUDE":-87.77211368458981},
{"STATE":"IL","ZIP":60617,"LATTITUDE":41.717952274289125,"ADDRESS":"9737 S MARQUETTE AVE  ","YEAR":2004,"DOING_BUSINESS_AS_NAME":"MAYA WINDOWS INC","POP_AT_RISK":61185,"BUSINESS_TYPE":"Home Occupation","LEGAL_NAME":"MAYA WINDOWS, INC.","LONGITUDE":-87.55779869054919},
{"STATE":"IL","ZIP":60637,"LATTITUDE":41.778806443721464,"ADDRESS":"6351 S RHODES AVE # 1ST","YEAR":2004,"DOING_BUSINESS_AS_NAME":"FUNCEE'S V-DESIGN","POP_AT_RISK":555420,"BUSINESS_TYPE":"Home Occupation","LEGAL_NAME":"FLORENCE V STREETER","LONGITUDE":-87.61184171391689},
{"STATE":"IL","ZIP":60659,"LATTITUDE":41.9862095498378,"ADDRESS":"5746 N KIMBALL AVE  ","YEAR":2004,"DOING_BUSINESS_AS_NAME":"JIM'S HVAC SERVICE","POP_AT_RISK":170916,"BUSINESS_TYPE":"Home Occupation","LEGAL_NAME":"DEMETRIOS CHRISTAKOS","LONGITUDE":-87.71400145568039},
{"STATE":"IL","ZIP":60613,"LATTITUDE":41.95434471865204,"ADDRESS":"3950 N LAKE SHORE DR 14 1411","YEAR":2004,"DOING_BUSINESS_AS_NAME":"INTELLECT CONSULTING","POP_AT_RISK":524552,"BUSINESS_TYPE":"Home Occupation","LEGAL_NAME":"INTELLECT CONSULTING","LONGITUDE":-87.6453496205995},
{"STATE":"IL","ZIP":60628,"LATTITUDE":41.68663005092809,"ADDRESS":"11409 S LOWE AVE  ","YEAR":2004,"DOING_BUSINESS_AS_NAME":"CASTLE HOME BUILDERS","POP_AT_RISK":259992,"BUSINESS_TYPE":"Home Occupation","LEGAL_NAME":"STEVEN ANTHONY SNEED","LONGITUDE":-87.63842169868839},
{"STATE":"IL","ZIP":60618,"LATTITUDE":41.954688577375364,"ADDRESS":"4031 N MONTICELLO AVE  ","YEAR":2004,"DOING_BUSINESS_AS_NAME":"JASMINE COMPUTER INC","POP_AT_RISK":334790,"BUSINESS_TYPE":"Home Occupation","LEGAL_NAME":"JASMINE COMPUTERS INC","LONGITUDE":-87.71891674623555},
{"STATE":"IL","ZIP":60642,"LATTITUDE":41.89466329061479,"ADDRESS":"711 N MILWAUKEE AVE 2 ","YEAR":2004,"DOING_BUSINESS_AS_NAME":"Mark Segal Photography","POP_AT_RISK":423500,"BUSINESS_TYPE":"Home Occupation","LEGAL_NAME":"Mark Segal Photography","LONGITUDE":-87.65274436617274},
{"STATE":"IL","ZIP":60643,"LATTITUDE":41.70595005087439,"ADDRESS":"10312 S CLAREMONT AVE 1ST ","YEAR":2004,"DOING_BUSINESS_AS_NAME":"SUCCEED CONSULTING","POP_AT_RISK":194068,"BUSINESS_TYPE":"Home Occupation","LEGAL_NAME":"SUCCEED CONSULTING INC","LONGITUDE":-87.68054540828737},
{"STATE":"IL","ZIP":60639,"LATTITUDE":41.93045898528947,"ADDRESS":"4951 W PARKER AVE  ","YEAR":2004,"DOING_BUSINESS_AS_NAME":"SEKUAA","POP_AT_RISK":207873,"BUSINESS_TYPE":"Home Occupation","LEGAL_NAME":"YANETT, ALICIA, JOYRENE","LONGITUDE":-87.75103976153657},
{"STATE":"IL","ZIP":60618,"LATTITUDE":41.95055964896448,"ADDRESS":"3812 N MONTICELLO AVE  ","YEAR":2004,"DOING_BUSINESS_AS_NAME":"LAKE SHORE PACKAGING INC","POP_AT_RISK":63463,"BUSINESS_TYPE":"Home Occupation","LEGAL_NAME":"LAKE SHORE PACKAGING INC","LONGITUDE":-87.71909328407173},
{"STATE":"IL","ZIP":60619,"LATTITUDE":41.7529771086267,"ADDRESS":"7759 S PRAIRIE AVE  ","YEAR":2004,"DOING_BUSINESS_AS_NAME":"NOTABLE ENTEPRISES, INC.","POP_AT_RISK":245880,"BUSINESS_TYPE":"Home Occupation","LEGAL_NAME":"NOTABLE ENTERPRISES, INC","LONGITUDE":-87.61805138616111},
{"STATE":"IL","ZIP":60620,"LATTITUDE":41.72367806142227,"ADDRESS":"9329 S CLAREMONT AVE  ","YEAR":2004,"DOING_BUSINESS_AS_NAME":"DIRTY WORK MAID & CLEANING SERV","POP_AT_RISK":23478,"BUSINESS_TYPE":"Home Occupation","LEGAL_NAME":"DIRTY WORK MAID & CLEANING","LONGITUDE":-87.68077095427068},
{"STATE":"IL","ZIP":60626,"LATTITUDE":42.00892479409048,"ADDRESS":"1621 W LUNT AVE  3","YEAR":2004,"DOING_BUSINESS_AS_NAME":"KONEEROK PRODUCTIONS","POP_AT_RISK":277352,"BUSINESS_TYPE":"Home Occupation","LEGAL_NAME":"KONEEROK PRODUCTIONS, INC.","LONGITUDE":-87.67095938977776},
{"STATE":"IL","ZIP":60653,"LATTITUDE":41.813171769540915,"ADDRESS":"4525 S OAKENWALD AVE  ","YEAR":2004,"DOING_BUSINESS_AS_NAME":"LM INDUSTRIES, INCORPORATED","POP_AT_RISK":95865,"BUSINESS_TYPE":"Home Occupation","LEGAL_NAME":"LM INDUSTRIES INCORPORATED","LONGITUDE":-87.59451359309107},
{"STATE":"IL","ZIP":60619,"LATTITUDE":41.73495114828113,"ADDRESS":"377 E 87TH PL  1ST","YEAR":2004,"DOING_BUSINESS_AS_NAME":"DD.S CLEANING SERVICES INC","POP_AT_RISK":238042,"BUSINESS_TYPE":"Home Occupation","LEGAL_NAME":"DD.S CLEANING SERVICES INC.","LONGITUDE":-87.6146499072761},
{"STATE":"IL","ZIP":60622,"LATTITUDE":41.89788694623245,"ADDRESS":"877 N MOZART ST  ","YEAR":2004,"DOING_BUSINESS_AS_NAME":"SOUTHSIDE ELECTRICAL DISTRIBUTORS, INC.","POP_AT_RISK":460150,"BUSINESS_TYPE":"Home Occupation","LEGAL_NAME":"SOUTHSIDE ELECTRICAL DISTRIBUTORS, INC.","LONGITUDE":-87.69785551301533},
{"STATE":"IL","ZIP":60620,"LATTITUDE":41.746250748743066,"ADDRESS":"8112 S PAULINA ST 1ST ","YEAR":2004,"DOING_BUSINESS_AS_NAME":"SHORELINE MANAGMENT","POP_AT_RISK":256214,"BUSINESS_TYPE":"Home Occupation","LEGAL_NAME":"SHORELINE MANAGEMENT & DEVELOPMENT CORP.","LONGITUDE":-87.66590851197579},
{"STATE":"IL","ZIP":60622,"LATTITUDE":41.912823495655815,"ADDRESS":"1714 N HONORE ST  1","YEAR":2004,"DOING_BUSINESS_AS_NAME":"PETER KACHERGIS CARPENTRY","POP_AT_RISK":56994,"BUSINESS_TYPE":"Home Occupation","LEGAL_NAME":"PETER KACHERGIS CARPENTRY\/CONTRACTING, INC.","LONGITUDE":-87.67400422100705},
}