{
{"STATE":"IL","ZIP":60613,"LATTITUDE":41.95880408212383,"ADDRESS":"4214  -4220 N BROADWAY  1ST ","YEAR":2011,"DOING_BUSINESS_AS_NAME":"A STEP AHEAD LEARNING CENTER","POP_AT_RISK":1431860,"BUSINESS_TYPE":"Night Care Privilege","LEGAL_NAME":"CARING HANDS, INC.","LONGITUDE":-87.65342019040853},
{"STATE":"IL","ZIP":60649,"LATTITUDE":41.75908547586528,"ADDRESS":"2334 E 75TH ST  ","YEAR":2011,"DOING_BUSINESS_AS_NAME":"KENYATTA'S DAYCARE","POP_AT_RISK":258198,"BUSINESS_TYPE":"Night Care Privilege","LEGAL_NAME":"KENYATTA DAYCARE CENTER","LONGITUDE":-87.56744784945764},
{"STATE":"IL","ZIP":60643,"LATTITUDE":41.721409457750035,"ADDRESS":"1318 W 95TH ST  ","YEAR":2011,"DOING_BUSINESS_AS_NAME":"THE KIDS PLACE II, INC","POP_AT_RISK":52888,"BUSINESS_TYPE":"Night Care Privilege","LEGAL_NAME":"THE KIDS PLACE II, INC.","LONGITUDE":-87.65620011485993},
{"STATE":"IL","ZIP":60639,"LATTITUDE":41.90933132184581,"ADDRESS":"5361-65 W NORTH AVE 1 ","YEAR":2011,"DOING_BUSINESS_AS_NAME":"ANGEL WINGS DAYCARE INC.","POP_AT_RISK":744757,"BUSINESS_TYPE":"Night Care Privilege","LEGAL_NAME":"ANGEL WINGS DAYCARE INC.","LONGITUDE":-87.76035966718288},
{"STATE":"IL","ZIP":60652,"LATTITUDE":41.749780057436595,"ADDRESS":"3734 W 79TH ST GROUND ","YEAR":2011,"DOING_BUSINESS_AS_NAME":"GOD'S LITTLE HELPER INC. DAYCARE","POP_AT_RISK":22174,"BUSINESS_TYPE":"Night Care Privilege","LEGAL_NAME":"GOD'S LITTLE HELPER INC.","LONGITUDE":-87.715570251841},
{"STATE":"IL","ZIP":60608,"LATTITUDE":41.85632095198309,"ADDRESS":"1854 S RACINE AVE 1 ","YEAR":2011,"DOING_BUSINESS_AS_NAME":"LIL EINSTEIN'S INSTITUTE FOR SCHOLARS","POP_AT_RISK":622740,"BUSINESS_TYPE":"Night Care Privilege","LEGAL_NAME":"Infantile 2 Juvenile Inc","LONGITUDE":-87.65652360934358},
{"STATE":"IL","ZIP":60609,"LATTITUDE":41.794210943335344,"ADDRESS":"1400 W GARFIELD BLVD 1 ","YEAR":2011,"DOING_BUSINESS_AS_NAME":"COMPUTER PRE-SCHOOL ACADEMY","POP_AT_RISK":939026,"BUSINESS_TYPE":"Night Care Privilege","LEGAL_NAME":"ROSLYN FRANCINE PHILLIPS","LONGITUDE":-87.65978679572046},
{"STATE":"IL","ZIP":60628,"LATTITUDE":41.71235734507338,"ADDRESS":"708 E 100TH PL 1ST ","YEAR":2011,"DOING_BUSINESS_AS_NAME":"LONDON BRIDGES PRE-SCHOOL","POP_AT_RISK":90265,"BUSINESS_TYPE":"Night Care Privilege","LEGAL_NAME":"LONDON BRIDGES PRE-SCHOOL","LONGITUDE":-87.60476353346552},
{"STATE":"IL","ZIP":60621,"LATTITUDE":41.759624275469335,"ADDRESS":"815 W 74TH ST  ","YEAR":2011,"DOING_BUSINESS_AS_NAME":"KING'S KIDDIE KINGDOM","POP_AT_RISK":275240,"BUSINESS_TYPE":"Night Care Privilege","LEGAL_NAME":"KING'S KIDDIE KINGDOM, INC.","LONGITUDE":-87.64491795699766},
{"STATE":"IL","ZIP":60628,"LATTITUDE":41.677862591235005,"ADDRESS":"157 W 119TH ST  ","YEAR":2011,"DOING_BUSINESS_AS_NAME":"GRANNY'S DAYCARE CENTER","POP_AT_RISK":208480,"BUSINESS_TYPE":"Night Care Privilege","LEGAL_NAME":"GRANNY'S DAYCARE CENTER, INC.","LONGITUDE":-87.6274010069214},
{"STATE":"IL","ZIP":60647,"LATTITUDE":41.93194853574754,"ADDRESS":"3001 W DIVERSEY AVE 1ST ","YEAR":2011,"DOING_BUSINESS_AS_NAME":"LA ESCUELITA  NUMERO DOS INC.,","POP_AT_RISK":920023,"BUSINESS_TYPE":"Night Care Privilege","LEGAL_NAME":"LA ESCUELITA  NUMERO DOS INC.","LONGITUDE":-87.7025803277778},
{"STATE":"IL","ZIP":60619,"LATTITUDE":41.73666986650331,"ADDRESS":"532-534 E 87TH ST  ","YEAR":2011,"DOING_BUSINESS_AS_NAME":"CHICAGO PRESCHOOL ACADEMY","POP_AT_RISK":168660,"BUSINESS_TYPE":"Night Care Privilege","LEGAL_NAME":"CHICAGO PRESCHOOL ACADEMY, INC.","LONGITUDE":-87.61074798462452},
{"STATE":"IL","ZIP":60707,"LATTITUDE":41.912443890238045,"ADDRESS":"1759 N HARLEM AVE  ","YEAR":2011,"DOING_BUSINESS_AS_NAME":"GOOD HANDS DAY CARE INCORPORATED","POP_AT_RISK":88820,"BUSINESS_TYPE":"Night Care Privilege","LEGAL_NAME":"GOOD HANDS DAY CARE INCORPORATED","LONGITUDE":-87.80574099458855},
{"STATE":"IL","ZIP":60619,"LATTITUDE":41.732898130975464,"ADDRESS":"8855 S STATE ST 1ST ","YEAR":2011,"DOING_BUSINESS_AS_NAME":"GIANT LEAPS LEARNING CENTER","POP_AT_RISK":28982,"BUSINESS_TYPE":"Night Care Privilege","LEGAL_NAME":"GIANT LEAPS LEARNING CENTER, INC.","LONGITUDE":-87.62389415600589},
{"STATE":"IL","ZIP":60620,"LATTITUDE":41.74675127864962,"ADDRESS":"1155 W 81ST ST  ","YEAR":2011,"DOING_BUSINESS_AS_NAME":"KIDS R FIRST LEARNING ACADEMY","POP_AT_RISK":155708,"BUSINESS_TYPE":"Night Care Privilege","LEGAL_NAME":"KIDS R FIRST LEARNING ACADEMY, INC.","LONGITUDE":-87.65340876316907},
{"STATE":"IL","ZIP":60623,"LATTITUDE":41.855378986280684,"ADDRESS":"2929 W 19TH ST  ","YEAR":2011,"DOING_BUSINESS_AS_NAME":"Carole Robertson Center for Learning","POP_AT_RISK":834649,"BUSINESS_TYPE":"Night Care Privilege","LEGAL_NAME":"CAROLE ROBERTSON CENTER FOR LEARNING","LONGITUDE":-87.70040521997677},
{"STATE":"IL","ZIP":60652,"LATTITUDE":41.749815701027195,"ADDRESS":"2701 W 79TH ST 1ST FL ","YEAR":2011,"DOING_BUSINESS_AS_NAME":"HUNT'S EARLY CHILDHOOD EDUCATIONAL ACADEMY, LTD.","POP_AT_RISK":25836,"BUSINESS_TYPE":"Night Care Privilege","LEGAL_NAME":"HUNT'S EARLY CHILDHOOD EDUCATIONAL ACADEMY, LTD.","LONGITUDE":-87.6902358596363},
{"STATE":"IL","ZIP":60649,"LATTITUDE":41.772686674997274,"ADDRESS":"6725 S JEFFERY BLVD # 1ST","YEAR":2011,"DOING_BUSINESS_AS_NAME":"STAIR STEP VILLA NURSERY & KINDERGARTEN","POP_AT_RISK":118792,"BUSINESS_TYPE":"Night Care Privilege","LEGAL_NAME":"STAIR STEP VILLA NURSERY SCHOOL & KINDERGARTEN, INC.","LONGITUDE":-87.57632814441791},
{"STATE":"IL","ZIP":60605,"LATTITUDE":41.86945883538021,"ADDRESS":"1020 S WABASH AVE # 100","YEAR":2011,"DOING_BUSINESS_AS_NAME":"A CHILD'S SPACE EARLY LITERACY AND LEARNING CENTER, INC.","POP_AT_RISK":306887,"BUSINESS_TYPE":"Night Care Privilege","LEGAL_NAME":"A CHILD'S SPACE EARLY LITERACY AND LEARNING CENTER, INC.","LONGITUDE":-87.62602744550121},
}