{
{"STATE":"IL","ZIP":60631,"LATTITUDE":41.98113454543051,"ADDRESS":"8600 W BRYN MAWR AVE 6 600NORTH","YEAR":2013,"DOING_BUSINESS_AS_NAME":"FMHC","POP_AT_RISK":105845,"BUSINESS_TYPE":"Expediter - Class A","LEGAL_NAME":"FMHC CORPORATION","LONGITUDE":-87.84163842292439},
{"STATE":"IL","ZIP":60622,"LATTITUDE":41.91187509218251,"ADDRESS":"1644 N HONORE ST 1ST 102","YEAR":2013,"DOING_BUSINESS_AS_NAME":"M SERVICES, INC.","POP_AT_RISK":1231180,"BUSINESS_TYPE":"Expediter - Class A","LEGAL_NAME":"M SERVICES, INC.","LONGITUDE":-87.67398405950682},
{"STATE":"IL","ZIP":60610,"LATTITUDE":41.91093885000977,"ADDRESS":"1550 N CLARK ST 2ND ","YEAR":2013,"DOING_BUSINESS_AS_NAME":"BRW CONTRACTORS, LLC.","POP_AT_RISK":122466,"BUSINESS_TYPE":"Expediter - Class A","LEGAL_NAME":"BRW CONTRACTORS, LLC.","LONGITUDE":-87.63181201260736},
{"STATE":"IL","ZIP":60707,"LATTITUDE":41.91513575400795,"ADDRESS":"1925 N HARLEM AVE  104","YEAR":2013,"DOING_BUSINESS_AS_NAME":"KING DAVID CONSULTING","POP_AT_RISK":200358,"BUSINESS_TYPE":"Expediter - Class A","LEGAL_NAME":"KING DAVID MINES INC.","LONGITUDE":-87.80582621181154},
{"STATE":"IL","ZIP":60607,"LATTITUDE":41.88146302536488,"ADDRESS":"1301 W MADISON ST 6TH 608","YEAR":2013,"DOING_BUSINESS_AS_NAME":"PREMIER CONSULTING INC","POP_AT_RISK":41809,"BUSINESS_TYPE":"Expediter - Class A","LEGAL_NAME":"PREMIER CONSULTING INC","LONGITUDE":-87.65966034955883},
{"STATE":"IL","ZIP":60626,"LATTITUDE":42.02002618860084,"ADDRESS":"7624 N EASTLAKE TER 3RD 3W","YEAR":2013,"DOING_BUSINESS_AS_NAME":"CULTURED CONSULTING INC.","POP_AT_RISK":92648,"BUSINESS_TYPE":"Expediter - Class A","LEGAL_NAME":"CULTURED CONSULTING INC.","LONGITUDE":-87.66494240063106},
{"STATE":"IL","ZIP":60612,"LATTITUDE":41.8737523219182,"ADDRESS":"2507 W HARRISON ST 1 1","YEAR":2013,"DOING_BUSINESS_AS_NAME":"IPERMIT CONSULTING, INC.","POP_AT_RISK":392238,"BUSINESS_TYPE":"Expediter - Class A","LEGAL_NAME":"IPERMIT CONSULTING, INC.","LONGITUDE":-87.68895175956841},
{"STATE":"IL","ZIP":60640,"LATTITUDE":41.965772878249275,"ADDRESS":"4619 N RAVENSWOOD AVE 3RD 301","YEAR":2013,"DOING_BUSINESS_AS_NAME":"NTP WIRELESS","POP_AT_RISK":1067958,"BUSINESS_TYPE":"Expediter - Class A","LEGAL_NAME":"JAK  AND ASSOCIATES, LLC","LONGITUDE":-87.67394132827764},
{"STATE":"IL","ZIP":60626,"LATTITUDE":42.010270842922104,"ADDRESS":"1327 W GREENLEAF AVE 1 GW","YEAR":2013,"DOING_BUSINESS_AS_NAME":"Square Block Consulting, Inc.","POP_AT_RISK":352032,"BUSINESS_TYPE":"Expediter - Class A","LEGAL_NAME":"Square Block Consulting, Inc.","LONGITUDE":-87.66357764811013},
{"STATE":"IL","ZIP":60619,"LATTITUDE":41.76265826333098,"ADDRESS":"7240 S DR MARTIN LUTHER KING JR DR 1 B","YEAR":2013,"DOING_BUSINESS_AS_NAME":"ACCURATESITES","POP_AT_RISK":383340,"BUSINESS_TYPE":"Expediter - Class A","LEGAL_NAME":"UJAMAA VENTURES MANAGEMENT LLC","LONGITUDE":-87.61536627868524},
{"STATE":"IL","ZIP":60623,"LATTITUDE":41.85191341020999,"ADDRESS":"3052 W CERMAK RD 1ST ","YEAR":2013,"DOING_BUSINESS_AS_NAME":"VIOLETAS PERMIT & BUSINESS LICENSE L.L.C.","POP_AT_RISK":1172304,"BUSINESS_TYPE":"Expediter - Class A","LEGAL_NAME":"VIOLETAS PERMIT & BUSINESS LICENSE L.L.C.","LONGITUDE":-87.70245782917193},
}