{
{"STATE":"IL","ZIP":60640,"LATTITUDE":41.96334428277336,"ADDRESS":"4466 N BROADWAY   ","YEAR":2015,"DOING_BUSINESS_AS_NAME":"TARGET #T-2373","POP_AT_RISK":718640,"BUSINESS_TYPE":"Accessory Garage","LEGAL_NAME":"TARGET CORPORATION","LONGITUDE":-87.65632107154393},
{"STATE":"IL","ZIP":60614,"LATTITUDE":41.911353496611625,"ADDRESS":"1622 N KINGSBURY ST  ","YEAR":2015,"DOING_BUSINESS_AS_NAME":"LIFE STORAGE OF LINCOLN PARK, LLC","POP_AT_RISK":438741,"BUSINESS_TYPE":"Accessory Garage","LEGAL_NAME":"LSC DEVELOPMENT, LLC","LONGITUDE":-87.65469120418622},
{"STATE":"IL","ZIP":60607,"LATTITUDE":41.87451215422576,"ADDRESS":"506 W HARRISON ST  ","YEAR":2015,"DOING_BUSINESS_AS_NAME":"holiday inn suites","POP_AT_RISK":70830,"BUSINESS_TYPE":"Accessory Garage","LEGAL_NAME":"WESTLOOP EQUITIES LLC","LONGITUDE":-87.63986470914409},
{"STATE":"IL","ZIP":60612,"LATTITUDE":41.86918399559772,"ADDRESS":"2108 W TAYLOR ST  ","YEAR":2015,"DOING_BUSINESS_AS_NAME":"MEDPARK MANAGEMENT INC","POP_AT_RISK":516015,"BUSINESS_TYPE":"Accessory Garage","LEGAL_NAME":"MEDPARK MANAGEMENT INC.","LONGITUDE":-87.67856708258655},
{"STATE":"IL","ZIP":60615,"LATTITUDE":41.80909232285377,"ADDRESS":"4710-4712 S INGLESIDE AVE  ","YEAR":2015,"DOING_BUSINESS_AS_NAME":"AOV CONSULTING GROUP, INC.","POP_AT_RISK":732545,"BUSINESS_TYPE":"Accessory Garage","LEGAL_NAME":"AOV CONSULTING GROUP, INC.","LONGITUDE":-87.60294416123315},
{"STATE":"IL","ZIP":60613,"LATTITUDE":41.94909955903016,"ADDRESS":"3701-3709 N CLIFTON AVE 1ST ","YEAR":2015,"DOING_BUSINESS_AS_NAME":"CHICAGO CUBS","POP_AT_RISK":919633,"BUSINESS_TYPE":"Accessory Garage","LEGAL_NAME":"CHICAGO CUBS BASEBALL CLUB, LLC","LONGITUDE":-87.65737052401707},
{"STATE":"IL","ZIP":60631,"LATTITUDE":41.98118072487806,"ADDRESS":"8500 W BRYN MAWR AVE  ","YEAR":2015,"DOING_BUSINESS_AS_NAME":"RENAISSANCE CHICAGO O'HARE HOTEL","POP_AT_RISK":42338,"BUSINESS_TYPE":"Accessory Garage","LEGAL_NAME":"CHICAGO ORD HOTEL PARTNERS, LLC","LONGITUDE":-87.83916755770461},
{"STATE":"IL","ZIP":60657,"LATTITUDE":41.93465045760216,"ADDRESS":"2909 N SHERIDAN RD  ","YEAR":2015,"DOING_BUSINESS_AS_NAME":"2909 N SHERIDAN CONDO","POP_AT_RISK":68433,"BUSINESS_TYPE":"Accessory Garage","LEGAL_NAME":"2909 N SHERIDAN ROAD CONDOMINIUM HOME OWNERS' ASSOC.","LONGITUDE":-87.63921238274351},
}