{
{"STATE":"IL","ZIP":60633,"LATTITUDE":41.65194427975236,"ADDRESS":"13359 S BALTIMORE AVE 1 ","YEAR":2012,"DOING_BUSINESS_AS_NAME":"LEON'S AUTO SERVICE","POP_AT_RISK":13632,"BUSINESS_TYPE":"Motor Vehicle Services License","LEGAL_NAME":"RAMON LEON","LONGITUDE":-87.54701057671743},
{"STATE":"IL","ZIP":60827,"LATTITUDE":41.64661613548738,"ADDRESS":"13701 S INDIANA AVE 1ST ","YEAR":2012,"DOING_BUSINESS_AS_NAME":"TRIANGLE SERVICE","POP_AT_RISK":17826,"BUSINESS_TYPE":"Motor Vehicle Services License","LEGAL_NAME":"GUS KATSENIS","LONGITUDE":-87.61708342711016},
{"STATE":"IL","ZIP":60649,"LATTITUDE":41.75962186358229,"ADDRESS":"7455 S EXCHANGE AVE 1ST ","YEAR":2012,"DOING_BUSINESS_AS_NAME":"KAR KARE SERVICE","POP_AT_RISK":33300,"BUSINESS_TYPE":"Motor Vehicle Services License","LEGAL_NAME":"JOSE PERALTA","LONGITUDE":-87.56034475059468},
{"STATE":"IL","ZIP":60653,"LATTITUDE":41.816863888355286,"ADDRESS":"636 E 43RD ST 1ST ","YEAR":2012,"DOING_BUSINESS_AS_NAME":"PAUL JONES TIRE REPAIR","POP_AT_RISK":79372,"BUSINESS_TYPE":"Motor Vehicle Services License","LEGAL_NAME":"THOMAS PAUL JONES","LONGITUDE":-87.61026414566696},
{"STATE":"IL","ZIP":60646,"LATTITUDE":41.99343746173311,"ADDRESS":"6152 N PULASKI RD  ","YEAR":2012,"DOING_BUSINESS_AS_NAME":"SNAPPY CAR WASH, INC.","POP_AT_RISK":52980,"BUSINESS_TYPE":"Motor Vehicle Services License","LEGAL_NAME":"SNAPPY CAR WASH, INC.","LONGITUDE":-87.72903033512165},
{"STATE":"IL","ZIP":60616,"LATTITUDE":41.831303366547964,"ADDRESS":"460 E 35TH ST 1 ","YEAR":2012,"DOING_BUSINESS_AS_NAME":"BRONZEVILLE AUTO REPAIR","POP_AT_RISK":30114,"BUSINESS_TYPE":"Motor Vehicle Services License","LEGAL_NAME":"LINDSAY ENTERPRISES, INC.","LONGITUDE":-87.61461418521799},
{"STATE":"IL","ZIP":60656,"LATTITUDE":41.9732901158506,"ADDRESS":"5200 N WESLEY TER 1ST ","YEAR":2012,"DOING_BUSINESS_AS_NAME":"CAB-X AUTO BODY SHOP, INC.","POP_AT_RISK":16526,"BUSINESS_TYPE":"Motor Vehicle Services License","LEGAL_NAME":"CAB-X AUTO BODY SHOP, INC.","LONGITUDE":-87.86421548940504},
{"STATE":"IL","ZIP":60646,"LATTITUDE":41.996166547688986,"ADDRESS":"6301 N CENTRAL AVE  ","YEAR":2012,"DOING_BUSINESS_AS_NAME":"CENTRAL AND CALDWELL SERVICE","POP_AT_RISK":17956,"BUSINESS_TYPE":"Motor Vehicle Services License","LEGAL_NAME":"CENTRAL AND CALDWELL SERVICE","LONGITUDE":-87.76404923745231},
{"STATE":"IL","ZIP":60623,"LATTITUDE":41.84751899202058,"ADDRESS":"4418 W OGDEN AVE 1ST ","YEAR":2012,"DOING_BUSINESS_AS_NAME":"STANDARD GENERATOR SERVICE INC","POP_AT_RISK":51250,"BUSINESS_TYPE":"Motor Vehicle Services License","LEGAL_NAME":"STANDARD GENERATOR SERVICE INC","LONGITUDE":-87.73519589944601},
{"STATE":"IL","ZIP":60614,"LATTITUDE":41.93280849685226,"ADDRESS":"824 W DIVERSEY PKWY  ","YEAR":2012,"DOING_BUSINESS_AS_NAME":"WM J CASSIDY TIRE & AUTO","POP_AT_RISK":85329,"BUSINESS_TYPE":"Motor Vehicle Services License","LEGAL_NAME":"WM. J. CASSIDY TIRE & AUTO SUPPLY CO.","LONGITUDE":-87.65000549071719},
{"STATE":"IL","ZIP":60652,"LATTITUDE":41.73628922702488,"ADDRESS":"8601-8611 S CICERO AVE 1 ","YEAR":2012,"DOING_BUSINESS_AS_NAME":"PAISANO MUFFLERS AND AUTO SERVICE, LLC","POP_AT_RISK":23923,"BUSINESS_TYPE":"Motor Vehicle Services License","LEGAL_NAME":"PAISANO MUFFLERS AND AUTO SERVICE, LLC","LONGITUDE":-87.74078193737448},
}