{
{"STATE":"IL","ZIP":60707,"LATTITUDE":41.90912535950116,"ADDRESS":"6818 W NORTH AVE  ","YEAR":2006,"DOING_BUSINESS_AS_NAME":"CAFE LAGUARDIA WEST","POP_AT_RISK":172668,"BUSINESS_TYPE":"Outdoor Patio","LEGAL_NAME":"Bubu, Inc.","LONGITUDE":-87.79562029285854},
{"STATE":"IL","ZIP":60630,"LATTITUDE":41.9775034792202,"ADDRESS":"5333 N MILWAUKEE AVE 1ST ","YEAR":2006,"DOING_BUSINESS_AS_NAME":"HAM TREE INN","POP_AT_RISK":236292,"BUSINESS_TYPE":"Outdoor Patio","LEGAL_NAME":"H.T.A. INC.","LONGITUDE":-87.76923663085236},
{"STATE":"IL","ZIP":60626,"LATTITUDE":42.01890350707934,"ADDRESS":"7541-7545 N CLARK ST 1ST ","YEAR":2006,"DOING_BUSINESS_AS_NAME":"HARD WATER BAR & GRILL","POP_AT_RISK":187722,"BUSINESS_TYPE":"Outdoor Patio","LEGAL_NAME":"KEFALOS, INC.","LONGITUDE":-87.67595814790334},
{"STATE":"IL","ZIP":60652,"LATTITUDE":41.74056837192125,"ADDRESS":"8352 S PULASKI RD  ","YEAR":2006,"DOING_BUSINESS_AS_NAME":"ANGIE'S","POP_AT_RISK":191052,"BUSINESS_TYPE":"Outdoor Patio","LEGAL_NAME":"EAT-N-PIE, INC.","LONGITUDE":-87.7217734812376},
{"STATE":"IL","ZIP":60645,"LATTITUDE":42.01924584097389,"ADDRESS":"2727 W HOWARD ST 1ST ","YEAR":2006,"DOING_BUSINESS_AS_NAME":"GULLIVER'S INC","POP_AT_RISK":87300,"BUSINESS_TYPE":"Outdoor Patio","LEGAL_NAME":"GULLIVERS, INC.","LONGITUDE":-87.69833170944449},
{"STATE":"IL","ZIP":60640,"LATTITUDE":41.97406911941592,"ADDRESS":"5024 N SHERIDAN RD  1ST F","YEAR":2006,"DOING_BUSINESS_AS_NAME":"BIG CHICKS, INC.","POP_AT_RISK":59642,"BUSINESS_TYPE":"Outdoor Patio","LEGAL_NAME":"BIG CHICKS, INC.","LONGITUDE":-87.6550944919287},
{"STATE":"IL","ZIP":60615,"LATTITUDE":41.79492106897254,"ADDRESS":"1055 E 55TH ST  ","YEAR":2006,"DOING_BUSINESS_AS_NAME":"SEVEN TEN","POP_AT_RISK":798360,"BUSINESS_TYPE":"Outdoor Patio","LEGAL_NAME":"STRIKE TWO CORP.","LONGITUDE":-87.59985203106729},
{"STATE":"IL","ZIP":60616,"LATTITUDE":41.852075574499366,"ADDRESS":"2233 S DR MARTIN LUTHER KING JR DR  ","YEAR":2006,"DOING_BUSINESS_AS_NAME":"HYATT REGENCY MCCORMICK PLACE HOTEL","POP_AT_RISK":106866,"BUSINESS_TYPE":"Outdoor Patio","LEGAL_NAME":"HYATT CORPORATION","LONGITUDE":-87.61885080391755},
{"STATE":"IL","ZIP":60634,"LATTITUDE":41.95034769269968,"ADDRESS":"3848 N HARLEM AVE  ","YEAR":2006,"DOING_BUSINESS_AS_NAME":"P J'S BREWERY","POP_AT_RISK":209321,"BUSINESS_TYPE":"Outdoor Patio","LEGAL_NAME":"P J'S BREWERY INC","LONGITUDE":-87.80732944580947},
{"STATE":"IL","ZIP":60647,"LATTITUDE":41.92976286483289,"ADDRESS":"2645 N KEDZIE AVE 1ST ","YEAR":2006,"DOING_BUSINESS_AS_NAME":"EL CID TACOS #2","POP_AT_RISK":446562,"BUSINESS_TYPE":"Outdoor Patio","LEGAL_NAME":"GUSTO MEXICANO INC","LONGITUDE":-87.70722323405842},
{"STATE":"IL","ZIP":60638,"LATTITUDE":41.79689999850765,"ADDRESS":"5728 S ARCHER AVE  ","YEAR":2006,"DOING_BUSINESS_AS_NAME":"HACIENDA PUEBLO VIEJO","POP_AT_RISK":15658,"BUSINESS_TYPE":"Outdoor Patio","LEGAL_NAME":"FIESTA MEXICO, INC.","LONGITUDE":-87.75543001827512},
{"STATE":"IL","ZIP":60632,"LATTITUDE":41.81185327457733,"ADDRESS":"4459 S KEDZIE AVE  ","YEAR":2006,"DOING_BUSINESS_AS_NAME":"CITY REFLECTIONS INC","POP_AT_RISK":590256,"BUSINESS_TYPE":"Outdoor Patio","LEGAL_NAME":"CITY REFLECTIONS INC","LONGITUDE":-87.70397505463012},
{"STATE":"IL","ZIP":60616,"LATTITUDE":41.849379215218015,"ADDRESS":"2373 S ARCHER AVE 1ST ","YEAR":2006,"DOING_BUSINESS_AS_NAME":"CONNIE'S PIZZA","POP_AT_RISK":250824,"BUSINESS_TYPE":"Outdoor Patio","LEGAL_NAME":"CONNIE'S PIZZA, INC.","LONGITUDE":-87.64105840223819},
{"STATE":"IL","ZIP":60618,"LATTITUDE":41.944311953934424,"ADDRESS":"3471 N ELSTON AVE 1ST ","YEAR":2006,"DOING_BUSINESS_AS_NAME":"CHIEF O'NEILL'S PUB & RESTAURANT","POP_AT_RISK":54443,"BUSINESS_TYPE":"Outdoor Patio","LEGAL_NAME":"MCKINNEY'S PUB, LTD.","LONGITUDE":-87.7052548221551},
{"STATE":"IL","ZIP":60634,"LATTITUDE":41.95302030864294,"ADDRESS":"5737 W IRVING PARK RD  ","YEAR":2006,"DOING_BUSINESS_AS_NAME":"MARTINI CLUB","POP_AT_RISK":551250,"BUSINESS_TYPE":"Outdoor Patio","LEGAL_NAME":"O'CONNOR'S PUB, INC.","LONGITUDE":-87.77096800058055},
{"STATE":"IL","ZIP":60612,"LATTITUDE":41.87748553469393,"ADDRESS":"1645 W JACKSON BLVD  ","YEAR":2006,"DOING_BUSINESS_AS_NAME":"PARK TAVERN CHICAGO","POP_AT_RISK":31167,"BUSINESS_TYPE":"Outdoor Patio","LEGAL_NAME":"1645 W. JACKSON, INC.","LONGITUDE":-87.66852104233708},
{"STATE":"IL","ZIP":60656,"LATTITUDE":41.96645317297049,"ADDRESS":"8443-8445 W LAWRENCE AVE  ","YEAR":2006,"DOING_BUSINESS_AS_NAME":"CAFE IL CORTILE","POP_AT_RISK":34164,"BUSINESS_TYPE":"Outdoor Patio","LEGAL_NAME":"CAFE IL CORTILE, INC.","LONGITUDE":-87.83838525840713},
{"STATE":"IL","ZIP":60607,"LATTITUDE":41.86921805389261,"ADDRESS":"1419 W TAYLOR ST  ","YEAR":2006,"DOING_BUSINESS_AS_NAME":"LEONA'S PIZZERIA","POP_AT_RISK":37148,"BUSINESS_TYPE":"Outdoor Patio","LEGAL_NAME":"LEONA'S PIZZERIA, INC.","LONGITUDE":-87.66241481509878},
{"STATE":"IL","ZIP":60645,"LATTITUDE":42.01165518184236,"ADDRESS":"7121 N WESTERN AVE  ","YEAR":2006,"DOING_BUSINESS_AS_NAME":"RICKY G'S","POP_AT_RISK":130260,"BUSINESS_TYPE":"Outdoor Patio","LEGAL_NAME":"LIQUID WIDGETS, L.L.C.","LONGITUDE":-87.69008786406833},
{"STATE":"IL","ZIP":60655,"LATTITUDE":41.70582355306317,"ADDRESS":"3901 W 103RD ST  ","YEAR":2006,"DOING_BUSINESS_AS_NAME":"GILHOOLEY'S GRANDE SALOON","POP_AT_RISK":45604,"BUSINESS_TYPE":"Outdoor Patio","LEGAL_NAME":"COMPASS GROUP USA, INC.","LONGITUDE":-87.71853994620498},
{"STATE":"IL","ZIP":60638,"LATTITUDE":41.79812662454975,"ADDRESS":"5518 S ARCHER AVE  ","YEAR":2006,"DOING_BUSINESS_AS_NAME":"BOHICA BAR & GRILL","POP_AT_RISK":91076,"BUSINESS_TYPE":"Outdoor Patio","LEGAL_NAME":"W.N.R.W.ENTERPRISES,INC","LONGITUDE":-87.74741651396842},
{"STATE":"IL","ZIP":60638,"LATTITUDE":41.792013747165264,"ADDRESS":"6843 W ARCHER AVE  ","YEAR":2006,"DOING_BUSINESS_AS_NAME":"BOBBY G'S","POP_AT_RISK":75188,"BUSINESS_TYPE":"Outdoor Patio","LEGAL_NAME":"GRANAT'S FIRST COUNT, INC.","LONGITUDE":-87.79327642871685},
{"STATE":"IL","ZIP":60628,"LATTITUDE":41.69074200662608,"ADDRESS":"11203 S CORLISS AVE 1ST #","YEAR":2006,"DOING_BUSINESS_AS_NAME":"111TH STREET OTB","POP_AT_RISK":42012,"BUSINESS_TYPE":"Outdoor Patio","LEGAL_NAME":"INTER-TRACK PARTNERS L.L.C.","LONGITUDE":-87.60067790215122},
{"STATE":"IL","ZIP":60639,"LATTITUDE":41.928562731071594,"ADDRESS":"2640 N NARRAGANSETT AVE  ","YEAR":2006,"DOING_BUSINESS_AS_NAME":"Chipotle Mexican Grill","POP_AT_RISK":466398,"BUSINESS_TYPE":"Outdoor Patio","LEGAL_NAME":"CHIPOTLE MEXICAN GRILL, INC.","LONGITUDE":-87.7857711640629},
{"STATE":"IL","ZIP":60643,"LATTITUDE":41.7004150669551,"ADDRESS":"10614 S WESTERN AVE  ","YEAR":2006,"DOING_BUSINESS_AS_NAME":"Cork And Kerry","POP_AT_RISK":107615,"BUSINESS_TYPE":"Outdoor Patio","LEGAL_NAME":"Chicago Pizza Department Corp.","LONGITUDE":-87.68157729870354},
{"STATE":"IL","ZIP":60631,"LATTITUDE":41.98740959681793,"ADDRESS":"8725 W HIGGINS RD  ","YEAR":2006,"DOING_BUSINESS_AS_NAME":"THE ORIGINAL GINO'S EAST","POP_AT_RISK":17648,"BUSINESS_TYPE":"Outdoor Patio","LEGAL_NAME":"PORT SILVER LIMITED PARTNERSHIP","LONGITUDE":-87.84438866503623},
}