{
{"STATE":"IL","ZIP":60609,"LATTITUDE":41.83051085985652,"ADDRESS":"3505 S MORGAN ST 4TH 415","YEAR":2015,"DOING_BUSINESS_AS_NAME":"NALI","POP_AT_RISK":224935,"BUSINESS_TYPE":"Food - Shared Kitchen Long-Term User","LEGAL_NAME":"YE YUAN","LONGITUDE":-87.65081897121267},
{"STATE":"IL","ZIP":60647,"LATTITUDE":41.93147324884287,"ADDRESS":"2742 N FAIRFIELD AVE  ","YEAR":2015,"DOING_BUSINESS_AS_NAME":"MORSELS PATISSERIE","POP_AT_RISK":231660,"BUSINESS_TYPE":"Food - Shared Kitchen Long-Term User","LEGAL_NAME":"DAWN CIBAK","LONGITUDE":-87.69656848626182},
{"STATE":"IL","ZIP":60641,"LATTITUDE":41.95321908629962,"ADDRESS":"3955 N LAMON AVE  212","YEAR":2015,"DOING_BUSINESS_AS_NAME":"SWEETLY DECORATED HANDCRAFTED COOKIES","POP_AT_RISK":251320,"BUSINESS_TYPE":"Food - Shared Kitchen Long-Term User","LEGAL_NAME":"IMELDA MOJICA","LONGITUDE":-87.74970934070282},
{"STATE":"IL","ZIP":60649,"LATTITUDE":41.76722600082363,"ADDRESS":"2210 E 70TH PL 3RD 306","YEAR":2015,"DOING_BUSINESS_AS_NAME":"DREAM CHEF LLC","POP_AT_RISK":142004,"BUSINESS_TYPE":"Food - Shared Kitchen Long-Term User","LEGAL_NAME":"DREAM CHEF LLC","LONGITUDE":-87.57096487751878},
{"STATE":"IL","ZIP":60609,"LATTITUDE":41.80652396643963,"ADDRESS":"4807 S ASHLAND AVE 1ST 102","YEAR":2015,"DOING_BUSINESS_AS_NAME":"SANDWICHES\/SAM D ROSENBERG","POP_AT_RISK":512252,"BUSINESS_TYPE":"Food - Shared Kitchen Long-Term User","LEGAL_NAME":"SANDWICHES LLC","LONGITUDE":-87.66476729194913},
{"STATE":"IL","ZIP":60634,"LATTITUDE":41.94847708713959,"ADDRESS":"3763 N OCTAVIA AVE  ","YEAR":2015,"DOING_BUSINESS_AS_NAME":"ANAGRA CAFE LLC","POP_AT_RISK":221312,"BUSINESS_TYPE":"Food - Shared Kitchen Long-Term User","LEGAL_NAME":"ANAGRA CAFE LLC","LONGITUDE":-87.8093906383394},
{"STATE":"IL","ZIP":60630,"LATTITUDE":41.96346344188719,"ADDRESS":"4540 N MONITOR AVE  ","YEAR":2015,"DOING_BUSINESS_AS_NAME":"FISCHMANS WAGYU WAGON","POP_AT_RISK":81240,"BUSINESS_TYPE":"Food - Shared Kitchen Long-Term User","LEGAL_NAME":"PNK CORPORATION","LONGITUDE":-87.77359855638773},
{"STATE":"IL","ZIP":60634,"LATTITUDE":41.95869962261786,"ADDRESS":"4305 N MEADE AVE  ","YEAR":2015,"DOING_BUSINESS_AS_NAME":"BLUE STREET MARKET","POP_AT_RISK":76508,"BUSINESS_TYPE":"Food - Shared Kitchen Long-Term User","LEGAL_NAME":"QUICKWICH, INC.","LONGITUDE":-87.77926635277254},
{"STATE":"IL","ZIP":60628,"LATTITUDE":41.69212723503875,"ADDRESS":"11127 S CHAMPLAIN AVE  ","YEAR":2015,"DOING_BUSINESS_AS_NAME":"NICOLE D. JORDAN","POP_AT_RISK":89800,"BUSINESS_TYPE":"Food - Shared Kitchen Long-Term User","LEGAL_NAME":"NICOLE D. JORDAN","LONGITUDE":-87.60704654558899},
{"STATE":"IL","ZIP":60640,"LATTITUDE":41.97029668758989,"ADDRESS":"4846 N CLARK ST 2ND 206 N","YEAR":2015,"DOING_BUSINESS_AS_NAME":"B TRUE BAKERY","POP_AT_RISK":358760,"BUSINESS_TYPE":"Food - Shared Kitchen Long-Term User","LEGAL_NAME":"B TRUE BAKERY LLC","LONGITUDE":-87.66780790957334},
{"STATE":"IL","ZIP":60625,"LATTITUDE":41.96297094537686,"ADDRESS":"2749 W SUNNYSIDE AVE 2ND 2","YEAR":2015,"DOING_BUSINESS_AS_NAME":"HANDCUT FOODS","POP_AT_RISK":749510,"BUSINESS_TYPE":"Food - Shared Kitchen Long-Term User","LEGAL_NAME":"HANDCUT FOODS LLC","LONGITUDE":-87.6978140277721},
{"STATE":"IL","ZIP":60626,"LATTITUDE":42.01122144013443,"ADDRESS":"7076 N WOLCOTT AVE 2 ","YEAR":2015,"DOING_BUSINESS_AS_NAME":"PARIS OUH LALA","POP_AT_RISK":434370,"BUSINESS_TYPE":"Food - Shared Kitchen Long-Term User","LEGAL_NAME":"PARIS OUH LALA LLC","LONGITUDE":-87.67828571883408},
{"STATE":"IL","ZIP":60660,"LATTITUDE":41.99629343448799,"ADDRESS":"1531 W ROSEMONT AVE  ","YEAR":2015,"DOING_BUSINESS_AS_NAME":"SALTED CARAMEL","POP_AT_RISK":498438,"BUSINESS_TYPE":"Food - Shared Kitchen Long-Term User","LEGAL_NAME":"SALTED CARAMEL LLC","LONGITUDE":-87.66904046341067},
{"STATE":"IL","ZIP":60649,"LATTITUDE":41.75423781207263,"ADDRESS":"7735 S MERRILL AVE 1 1","YEAR":2015,"DOING_BUSINESS_AS_NAME":"SOUL VEGAN","POP_AT_RISK":262206,"BUSINESS_TYPE":"Food - Shared Kitchen Long-Term User","LEGAL_NAME":"STABLE FOODS, INC.","LONGITUDE":-87.57223040473296},
{"STATE":"IL","ZIP":60614,"LATTITUDE":41.92568726351064,"ADDRESS":"444 W FULLERTON PKWY  1807","YEAR":2015,"DOING_BUSINESS_AS_NAME":"BOLLITO'S","POP_AT_RISK":63134,"BUSINESS_TYPE":"Food - Shared Kitchen Long-Term User","LEGAL_NAME":"ZACHARY JOHN CIZEK","LONGITUDE":-87.64095823958841},
{"STATE":"IL","ZIP":60653,"LATTITUDE":41.814410130974494,"ADDRESS":"4408 S MICHIGAN AVE 1ST 1","YEAR":2015,"DOING_BUSINESS_AS_NAME":"LAST COURSE COMPANY","POP_AT_RISK":32585,"BUSINESS_TYPE":"Food - Shared Kitchen Long-Term User","LEGAL_NAME":"LAST COURSE COMPANY","LONGITUDE":-87.62312119863815},
{"STATE":"IL","ZIP":60622,"LATTITUDE":41.89765668903611,"ADDRESS":"2430 W IOWA ST 3RD 3","YEAR":2015,"DOING_BUSINESS_AS_NAME":"PALEO SCAVENGER LLC","POP_AT_RISK":54163,"BUSINESS_TYPE":"Food - Shared Kitchen Long-Term User","LEGAL_NAME":"PALEO SCAVENGER LLC","LONGITUDE":-87.68816002069659},
{"STATE":"IL","ZIP":60637,"LATTITUDE":41.78191463770133,"ADDRESS":"6213 S WOODLAWN AVE  A","YEAR":2015,"DOING_BUSINESS_AS_NAME":"CUPCAKE GANGSTERS","POP_AT_RISK":242192,"BUSINESS_TYPE":"Food - Shared Kitchen Long-Term User","LEGAL_NAME":"24 KARAT CAKES, INC.","LONGITUDE":-87.59609020627626},
{"STATE":"IL","ZIP":60616,"LATTITUDE":41.858437772179165,"ADDRESS":"1720 S MICHIGAN AVE 20TH 2015","YEAR":2015,"DOING_BUSINESS_AS_NAME":"ALI V' S KITCHEN LLC","POP_AT_RISK":39362,"BUSINESS_TYPE":"Food - Shared Kitchen Long-Term User","LEGAL_NAME":"ALI V' S KITCHEN LLC","LONGITUDE":-87.6240934145977},
{"STATE":"IL","ZIP":60613,"LATTITUDE":41.94951037290209,"ADDRESS":"3722 N MARSHFIELD AVE  ","YEAR":2015,"DOING_BUSINESS_AS_NAME":"BRUGES BROTHERS","POP_AT_RISK":70742,"BUSINESS_TYPE":"Food - Shared Kitchen Long-Term User","LEGAL_NAME":"BRUGES BROTHERS LLC.","LONGITUDE":-87.67028949640681},
{"STATE":"IL","ZIP":60608,"LATTITUDE":41.857093115732106,"ADDRESS":"1334 W 18TH PL 1R ","YEAR":2015,"DOING_BUSINESS_AS_NAME":"SWEET PEA CATERING SERVICES","POP_AT_RISK":255080,"BUSINESS_TYPE":"Food - Shared Kitchen Long-Term User","LEGAL_NAME":"CAFE MARMALADE, LTD.","LONGITUDE":-87.66026362761906},
{"STATE":"IL","ZIP":60643,"LATTITUDE":41.71302179251355,"ADDRESS":"9932 S BEVERLY AVE  ","YEAR":2015,"DOING_BUSINESS_AS_NAME":"MRS. WRIGHT'S GOURMET POPCORN SHOP","POP_AT_RISK":52576,"BUSINESS_TYPE":"Food - Shared Kitchen Long-Term User","LEGAL_NAME":"CEDRIC ARTHUR WRIGHT","LONGITUDE":-87.65928358972509},
{"STATE":"IL","ZIP":60657,"LATTITUDE":41.946004113260884,"ADDRESS":"3516 N RETA AVE 1 ","YEAR":2015,"DOING_BUSINESS_AS_NAME":"DISH FUNCTIONS, INC.","POP_AT_RISK":90500,"BUSINESS_TYPE":"Food - Shared Kitchen Long-Term User","LEGAL_NAME":"DISH FUNCTIONS, INC.","LONGITUDE":-87.65080715529368},
{"STATE":"IL","ZIP":60641,"LATTITUDE":41.9333327976565,"ADDRESS":"2904 N LINDER AVE  ","YEAR":2015,"DOING_BUSINESS_AS_NAME":"FOOD FIRST CHICAGO","POP_AT_RISK":669270,"BUSINESS_TYPE":"Food - Shared Kitchen Long-Term User","LEGAL_NAME":"VALNAV. INCORPORATED","LONGITUDE":-87.76400745801763},
{"STATE":"IL","ZIP":60620,"LATTITUDE":41.73946813892258,"ADDRESS":"8501 S ELIZABETH ST  ","YEAR":2015,"DOING_BUSINESS_AS_NAME":"SIMPLY SWEET","POP_AT_RISK":290171,"BUSINESS_TYPE":"Food - Shared Kitchen Long-Term User","LEGAL_NAME":"DIONNE WILLIETTE BOYD","LONGITUDE":-87.6545046567059},
{"STATE":"IL","ZIP":60631,"LATTITUDE":41.99727682798901,"ADDRESS":"7280 W DEVON AVE  ","YEAR":2015,"DOING_BUSINESS_AS_NAME":"O'CONNOR'S MARKET","POP_AT_RISK":23928,"BUSINESS_TYPE":"Food - Shared Kitchen Long-Term User","LEGAL_NAME":"O'CONNOR'S MARKET INC","LONGITUDE":-87.80962433024467},
{"STATE":"IL","ZIP":60608,"LATTITUDE":41.855002324837784,"ADDRESS":"2100 W CULLERTON ST  ","YEAR":2015,"DOING_BUSINESS_AS_NAME":"THE JIBARITO STOP","POP_AT_RISK":85178,"BUSINESS_TYPE":"Food - Shared Kitchen Long-Term User","LEGAL_NAME":"THE JIBARITO STOP LLC","LONGITUDE":-87.67849030197326},
{"STATE":"IL","ZIP":60615,"LATTITUDE":41.79753725058445,"ADDRESS":"5412 S KIMBARK AVE  ","YEAR":2015,"DOING_BUSINESS_AS_NAME":"BETTY'S BAKED GOODS","POP_AT_RISK":202295,"BUSINESS_TYPE":"Food - Shared Kitchen Long-Term User","LEGAL_NAME":"BETTY'S BAKED GOODS CO.","LONGITUDE":-87.59512890181897},
{"STATE":"IL","ZIP":60612,"LATTITUDE":41.882223824443834,"ADDRESS":"2300 W WARREN BLVD 2ND 7","YEAR":2015,"DOING_BUSINESS_AS_NAME":"HEARTFELT CATERING, LLC","POP_AT_RISK":265374,"BUSINESS_TYPE":"Food - Shared Kitchen Long-Term User","LEGAL_NAME":"HEARTFELT CATERING, LLC","LONGITUDE":-87.68410894867654},
{"STATE":"IL","ZIP":60624,"LATTITUDE":41.86728850077515,"ADDRESS":"3644 W GRENSHAW ST 3RD ","YEAR":2015,"DOING_BUSINESS_AS_NAME":"JAZZY BONES CATERING","POP_AT_RISK":731504,"BUSINESS_TYPE":"Food - Shared Kitchen Long-Term User","LEGAL_NAME":"CHARMAINE BURTON-JOHNSON","LONGITUDE":-87.71718970587207},
{"STATE":"IL","ZIP":60643,"LATTITUDE":41.70105478559264,"ADDRESS":"10601 S PROSPECT AVE  ","YEAR":2015,"DOING_BUSINESS_AS_NAME":"A CHEF'S CHRONICLES, INC.","POP_AT_RISK":103684,"BUSINESS_TYPE":"Food - Shared Kitchen Long-Term User","LEGAL_NAME":"A CHEF'S CHRONICLES, INC.","LONGITUDE":-87.66169906293537},
{"STATE":"IL","ZIP":60628,"LATTITUDE":41.67751373127688,"ADDRESS":"11912 S PRINCETON AVE  ","YEAR":2015,"DOING_BUSINESS_AS_NAME":"CHEESECAKES BY SHAN","POP_AT_RISK":199318,"BUSINESS_TYPE":"Food - Shared Kitchen Long-Term User","LEGAL_NAME":"CHEESECAKES BY SHAN, INC.","LONGITUDE":-87.63000207068163},
{"STATE":"IL","ZIP":60613,"LATTITUDE":41.96140898425183,"ADDRESS":"4350 N BROADWAY   ","YEAR":2015,"DOING_BUSINESS_AS_NAME":"TAMALLI SPACE CHARROS LLC","POP_AT_RISK":81981,"BUSINESS_TYPE":"Food - Shared Kitchen Long-Term User","LEGAL_NAME":"TAMALLI SPACE CHARROS LLC","LONGITUDE":-87.65506276435028},
{"STATE":"IL","ZIP":60639,"LATTITUDE":41.91139442516136,"ADDRESS":"1700 N LOCKWOOD AVE  ","YEAR":2015,"DOING_BUSINESS_AS_NAME":"YOLO'S FOOD & SNACKS","POP_AT_RISK":604197,"BUSINESS_TYPE":"Food - Shared Kitchen Long-Term User","LEGAL_NAME":"YOLO'S FOOD & SNACKS, INC.","LONGITUDE":-87.75832183030971},
{"STATE":"IL","ZIP":60647,"LATTITUDE":41.9191004843103,"ADDRESS":"2056 N SAWYER AVE  ","YEAR":2015,"DOING_BUSINESS_AS_NAME":"TWO BROTHERS SAUSAGE COMPANY","POP_AT_RISK":484596,"BUSINESS_TYPE":"Food - Shared Kitchen Long-Term User","LEGAL_NAME":"TWO BROTHERS SAUSAGE COMPANY","LONGITUDE":-87.70912430121885},
{"STATE":"IL","ZIP":60618,"LATTITUDE":41.9603950818129,"ADDRESS":"4341 N AVERS AVE  ","YEAR":2015,"DOING_BUSINESS_AS_NAME":"MARY'S CATERING SERVICE, INC.","POP_AT_RISK":631770,"BUSINESS_TYPE":"Food - Shared Kitchen Long-Term User","LEGAL_NAME":"MARY'S CATERING SERVICE, INC.","LONGITUDE":-87.72399475521425},
{"STATE":"IL","ZIP":60620,"LATTITUDE":41.748411232014085,"ADDRESS":"1621 W 80TH ST 3RD 3","YEAR":2015,"DOING_BUSINESS_AS_NAME":"SWEET SPOT BY C. BAKESHOP","POP_AT_RISK":290577,"BUSINESS_TYPE":"Food - Shared Kitchen Long-Term User","LEGAL_NAME":"SWEET SPOT BY C. BAKESHOP LLC","LONGITUDE":-87.66428957256923},
{"STATE":"IL","ZIP":60623,"LATTITUDE":41.83390793418924,"ADDRESS":"3240 S SPRINGFIELD AVE  ","YEAR":2015,"DOING_BUSINESS_AS_NAME":"SANCHEZ CATERING","POP_AT_RISK":160076,"BUSINESS_TYPE":"Food - Shared Kitchen Long-Term User","LEGAL_NAME":"AURORA VILLAGANA \/ JOSE SANCHEZ","LONGITUDE":-87.72199309611034},
{"STATE":"IL","ZIP":60616,"LATTITUDE":41.83826578742169,"ADDRESS":"219 E 31ST ST  3","YEAR":2015,"DOING_BUSINESS_AS_NAME":"SWEETLY EVER AFTER BAKE SHOPPE LLC","POP_AT_RISK":325622,"BUSINESS_TYPE":"Food - Shared Kitchen Long-Term User","LEGAL_NAME":"SWEETLY EVER AFTER BAKE SHOPPE LLC","LONGITUDE":-87.62105490905093},
{"STATE":"IL","ZIP":60629,"LATTITUDE":41.76256199328627,"ADDRESS":"3500 W 72ND ST 1ST ","YEAR":2015,"DOING_BUSINESS_AS_NAME":" SWEET SUGAH  CATERING BOUTIQUE","POP_AT_RISK":262017,"BUSINESS_TYPE":"Food - Shared Kitchen Long-Term User","LEGAL_NAME":" SWEET SUGAH  CATERING BOUTIQUE, INC.","LONGITUDE":-87.71020791068852},
}