{
{"STATE":"IL","ZIP":60623,"LATTITUDE":41.844248490307756,"ADDRESS":"4344 W 26TH ST  1ST","YEAR":2013,"DOING_BUSINESS_AS_NAME":"BERNAL'S TAE KWON DO CENTER","POP_AT_RISK":91804,"BUSINESS_TYPE":"Children's Activities Facilities","LEGAL_NAME":"TOMAS BERNAL","LONGITUDE":-87.73268068857368},
{"STATE":"IL","ZIP":60638,"LATTITUDE":41.79185628320908,"ADDRESS":"7121 W ARCHER AVE GROUND ","YEAR":2013,"DOING_BUSINESS_AS_NAME":"GERINI GUITAR STUDIO","POP_AT_RISK":122490,"BUSINESS_TYPE":"Children's Activities Facilities","LEGAL_NAME":"GLEN M GERINI","LONGITUDE":-87.79986382761847},
{"STATE":"IL","ZIP":60629,"LATTITUDE":41.77877584447439,"ADDRESS":"3944 W 63RD ST 1ST ","YEAR":2013,"DOING_BUSINESS_AS_NAME":"WARRIORS MARTIAL ARTS","POP_AT_RISK":604472,"BUSINESS_TYPE":"Children's Activities Facilities","LEGAL_NAME":"MAYOLO GARCIA","LONGITUDE":-87.72210746989846},
{"STATE":"IL","ZIP":60634,"LATTITUDE":41.94563582431377,"ADDRESS":"6101 W ADDISON ST 1ST ","YEAR":2013,"DOING_BUSINESS_AS_NAME":"BSI GROUP INC.","POP_AT_RISK":507033,"BUSINESS_TYPE":"Children's Activities Facilities","LEGAL_NAME":"BSI GROUP INC.","LONGITUDE":-87.77905846188027},
{"STATE":"IL","ZIP":60641,"LATTITUDE":41.931558615500826,"ADDRESS":"2804-2808 N LARAMIE AVE 1ST ","YEAR":2013,"DOING_BUSINESS_AS_NAME":"CARDENAS TAEKWONDO ACADEMY USA","POP_AT_RISK":262864,"BUSINESS_TYPE":"Children's Activities Facilities","LEGAL_NAME":"JESUS CARDENAS","LONGITUDE":-87.75657409129889},
{"STATE":"IL","ZIP":60609,"LATTITUDE":41.82960301165377,"ADDRESS":"3539 S ARCHER AVE 1ST ","YEAR":2013,"DOING_BUSINESS_AS_NAME":"FIRE DRAGONS TAEKWONDO ACADEMY","POP_AT_RISK":212772,"BUSINESS_TYPE":"Children's Activities Facilities","LEGAL_NAME":"PABLO MARTINEZ","LONGITUDE":-87.67870060758895},
{"STATE":"IL","ZIP":60609,"LATTITUDE":41.808119633948046,"ADDRESS":"4715 S ASHLAND AVE 2ND ","YEAR":2013,"DOING_BUSINESS_AS_NAME":"MTZ TAEWONDO ACADEMY","POP_AT_RISK":512252,"BUSINESS_TYPE":"Children's Activities Facilities","LEGAL_NAME":"CLAUDIA L PEREZ","LONGITUDE":-87.66481400072492},
{"STATE":"IL","ZIP":60607,"LATTITUDE":41.86468505810582,"ADDRESS":"723 W MAXWELL ST 1ST ","YEAR":2013,"DOING_BUSINESS_AS_NAME":"SYLVAN LEARNING CENTER","POP_AT_RISK":191240,"BUSINESS_TYPE":"Children's Activities Facilities","LEGAL_NAME":"JTB CHICAGO INC","LONGITUDE":-87.64597750689744},
{"STATE":"IL","ZIP":60618,"LATTITUDE":41.95385946910342,"ADDRESS":"3660 W IRVING PARK RD  ","YEAR":2013,"DOING_BUSINESS_AS_NAME":"CHICAGO DANCE","POP_AT_RISK":197571,"BUSINESS_TYPE":"Children's Activities Facilities","LEGAL_NAME":"CHICAGO DANCE LLC","LONGITUDE":-87.72006394486716},
{"STATE":"IL","ZIP":60614,"LATTITUDE":41.914250609570125,"ADDRESS":"244 W WILLOW ST 1 & 2 ND 1","YEAR":2013,"DOING_BUSINESS_AS_NAME":"THE MENOMONEE CLUB","POP_AT_RISK":132846,"BUSINESS_TYPE":"Children's Activities Facilities","LEGAL_NAME":"THE MENOMONEE CLUB","LONGITUDE":-87.63665604215939},
{"STATE":"IL","ZIP":60622,"LATTITUDE":41.890770132136616,"ADDRESS":"1837 W GRAND AVE 1 ","YEAR":2013,"DOING_BUSINESS_AS_NAME":"KID CITY","POP_AT_RISK":44120,"BUSINESS_TYPE":"Children's Activities Facilities","LEGAL_NAME":"KID CITY CHICAGO LLC","LONGITUDE":-87.67350592654243},
{"STATE":"IL","ZIP":60613,"LATTITUDE":41.95449395556194,"ADDRESS":"655 W IRVING PARK RD 1ST 102&105","YEAR":2013,"DOING_BUSINESS_AS_NAME":"YOGA BOUTIQUE LLC","POP_AT_RISK":134552,"BUSINESS_TYPE":"Children's Activities Facilities","LEGAL_NAME":"YOGA BOUTIQUE L.L.C.","LONGITUDE":-87.64724433122487},
{"STATE":"IL","ZIP":60653,"LATTITUDE":41.822416876468615,"ADDRESS":"3947 S MICHIGAN AVE 1 1","YEAR":2013,"DOING_BUSINESS_AS_NAME":"ELLIOTT DONNELLEY","POP_AT_RISK":465285,"BUSINESS_TYPE":"Children's Activities Facilities","LEGAL_NAME":"CHICAGO YOUTH CENTERS","LONGITUDE":-87.62303736173813},
{"STATE":"IL","ZIP":60651,"LATTITUDE":41.90292929858984,"ADDRESS":"3232 W DIVISION ST 1 ","YEAR":2013,"DOING_BUSINESS_AS_NAME":"CENTRO NUESTRO CHILD","POP_AT_RISK":200658,"BUSINESS_TYPE":"Children's Activities Facilities","LEGAL_NAME":"CHICAGO YOUTH CENTERS","LONGITUDE":-87.70804857041449},
{"STATE":"IL","ZIP":60610,"LATTITUDE":41.89899799424835,"ADDRESS":"900 N FRANKLIN ST 5TH 508","YEAR":2013,"DOING_BUSINESS_AS_NAME":"TRUHARMONY YOGA","POP_AT_RISK":74601,"BUSINESS_TYPE":"Children's Activities Facilities","LEGAL_NAME":"TRUHARMONY YOGA, INC.","LONGITUDE":-87.63592067312285},
{"STATE":"IL","ZIP":60618,"LATTITUDE":41.93843661592828,"ADDRESS":"2617 W FLETCHER ST 1 ","YEAR":2013,"DOING_BUSINESS_AS_NAME":"BASH SPORTS ACADEMY","POP_AT_RISK":354088,"BUSINESS_TYPE":"Children's Activities Facilities","LEGAL_NAME":"BASH SPORTS ACADEMY, LLC","LONGITUDE":-87.69364079401804},
{"STATE":"IL","ZIP":60602,"LATTITUDE":41.8824566469275,"ADDRESS":"17 N STATE ST 19TH 1900","YEAR":2013,"DOING_BUSINESS_AS_NAME":"BALLET CHICAGO COMPANY","POP_AT_RISK":65386,"BUSINESS_TYPE":"Children's Activities Facilities","LEGAL_NAME":"THE BALLET CHICAGO COMPANY","LONGITUDE":-87.62770004682694},
{"STATE":"IL","ZIP":60707,"LATTITUDE":41.92343318428224,"ADDRESS":"7115 W GRAND AVE 2ND ","YEAR":2013,"DOING_BUSINESS_AS_NAME":"KARATE ACADEMY","POP_AT_RISK":336152,"BUSINESS_TYPE":"Children's Activities Facilities","LEGAL_NAME":"GRAND BALLROOM & BEYOND INC","LONGITUDE":-87.8032678930031},
{"STATE":"IL","ZIP":60615,"LATTITUDE":41.795355327310034,"ADDRESS":"1742 E 55TH ST 1ST ","YEAR":2013,"DOING_BUSINESS_AS_NAME":"FITZGERALDS MARTIAL ARTS","POP_AT_RISK":350472,"BUSINESS_TYPE":"Children's Activities Facilities","LEGAL_NAME":"FITZGERALDS MARTIAL ARTS LLC","LONGITUDE":-87.58229940901545},
{"STATE":"IL","ZIP":60628,"LATTITUDE":41.68803122037578,"ADDRESS":"11331 S MICHIGAN AVE 2ND ","YEAR":2013,"DOING_BUSINESS_AS_NAME":"AIS INTELLIGENCE PROJECT, INC.","POP_AT_RISK":212704,"BUSINESS_TYPE":"Children's Activities Facilities","LEGAL_NAME":"AIS INTELLIGENCE PROJECT, INC.","LONGITUDE":-87.62084875397241},
{"STATE":"IL","ZIP":60647,"LATTITUDE":41.92453416582817,"ADDRESS":"3501 W FULLERTON AVE 1ST ","YEAR":2013,"DOING_BUSINESS_AS_NAME":"BEAUTY & BRAWN ART GALLERY AND THINK SPACE","POP_AT_RISK":1067300,"BUSINESS_TYPE":"Children's Activities Facilities","LEGAL_NAME":"THE SOUTHERN FAN COMPANY, INC.","LONGITUDE":-87.71377687135791},
{"STATE":"IL","ZIP":60641,"LATTITUDE":41.95213643037515,"ADDRESS":"3918-3920 N CICERO AVE 1 1","YEAR":2013,"DOING_BUSINESS_AS_NAME":"WORLD KM TAEKWONDO","POP_AT_RISK":251490,"BUSINESS_TYPE":"Children's Activities Facilities","LEGAL_NAME":"WORLD KEIMYUNG TAEKWONDO, INC.","LONGITUDE":-87.74742887301954},
{"STATE":"IL","ZIP":60659,"LATTITUDE":41.997388252633314,"ADDRESS":"2927 W DEVON AVE 1ST ","YEAR":2013,"DOING_BUSINESS_AS_NAME":"ACADEMY OF MUSIC AND DANCE, NFP","POP_AT_RISK":56567,"BUSINESS_TYPE":"Children's Activities Facilities","LEGAL_NAME":"ACADEMY OF MUSIC AND DANCE, NFP","LONGITUDE":-87.70323053037541},
{"STATE":"IL","ZIP":60641,"LATTITUDE":41.93716214504601,"ADDRESS":"3104 N CICERO AVE 1 1","YEAR":2013,"DOING_BUSINESS_AS_NAME":"CHUY'S XTREME TAE KWON DO, INC.","POP_AT_RISK":196830,"BUSINESS_TYPE":"Children's Activities Facilities","LEGAL_NAME":"CHUY'S XTREME TAE KWON DO, INC.","LONGITUDE":-87.74696891042964},
{"STATE":"IL","ZIP":60623,"LATTITUDE":41.84446275555482,"ADDRESS":"3656 W 26TH ST 1ST ","YEAR":2013,"DOING_BUSINESS_AS_NAME":"ROSALES GOLDEN TIGERS TKD","POP_AT_RISK":257852,"BUSINESS_TYPE":"Children's Activities Facilities","LEGAL_NAME":"ROSALES GOLDEN TIGERS TKD, INC.","LONGITUDE":-87.71708307606305},
{"STATE":"IL","ZIP":60655,"LATTITUDE":41.691554149487835,"ADDRESS":"3504 W 111TH ST 1 1","YEAR":2013,"DOING_BUSINESS_AS_NAME":"SOUTHSIDE KNOCKOUT TRAINING","POP_AT_RISK":125100,"BUSINESS_TYPE":"Children's Activities Facilities","LEGAL_NAME":"SOUTHSIDE KNOCKOUT TRAINING, INC.","LONGITUDE":-87.70838373155944},
{"STATE":"IL","ZIP":60607,"LATTITUDE":41.87769247933526,"ADDRESS":"1147 W JACKSON BLVD  ","YEAR":2013,"DOING_BUSINESS_AS_NAME":"HUBBARD STREET DANCE CHICAGO","POP_AT_RISK":79736,"BUSINESS_TYPE":"Children's Activities Facilities","LEGAL_NAME":"HUBBARD STREET DANCE CHICAGO, INC.","LONGITUDE":-87.65643825575238},
{"STATE":"IL","ZIP":60631,"LATTITUDE":42.00327092044091,"ADDRESS":"6719-6721 N NORTHWEST HWY 1ST ","YEAR":2013,"DOING_BUSINESS_AS_NAME":"CHUNG'S TAE KWON DO INSTITUTE","POP_AT_RISK":94590,"BUSINESS_TYPE":"Children's Activities Facilities","LEGAL_NAME":"CHUNG'S TAE KWON DO INSTITUTE, INC.","LONGITUDE":-87.81670386199512},
{"STATE":"IL","ZIP":60614,"LATTITUDE":41.92303369232139,"ADDRESS":"2267 N CLYBOURN AVE 1ST ","YEAR":2013,"DOING_BUSINESS_AS_NAME":"KOOKABURRA PLAY CAFE","POP_AT_RISK":154806,"BUSINESS_TYPE":"Children's Activities Facilities","LEGAL_NAME":"KOOKABURRA LEARNING ENRICHMENT, LLC","LONGITUDE":-87.66616336828699},
{"STATE":"IL","ZIP":60644,"LATTITUDE":41.88704321554462,"ADDRESS":"5819 W CORCORAN PL 1 ","YEAR":2013,"DOING_BUSINESS_AS_NAME":"LLOT AFTER SCHOOL PROGRAM","POP_AT_RISK":615744,"BUSINESS_TYPE":"Children's Activities Facilities","LEGAL_NAME":"LITTLE LEADERS OF TOMORROW DAYCARE CENTER","LONGITUDE":-87.77081237223072},
{"STATE":"IL","ZIP":60660,"LATTITUDE":41.98473713515747,"ADDRESS":"5647 N CLARK ST 1ST 102","YEAR":2013,"DOING_BUSINESS_AS_NAME":"KUMON MATH & READING CENTER OF CHICAGO - ANDERSONVILLE","POP_AT_RISK":1290762,"BUSINESS_TYPE":"Children's Activities Facilities","LEGAL_NAME":"CHILDREN' S EDUCATION ENRICHMENT SERVICES LLC","LONGITUDE":-87.66887646385426},
{"STATE":"IL","ZIP":60605,"LATTITUDE":41.87216695780119,"ADDRESS":"47 W POLK ST LOWER LEVEL L2","YEAR":2013,"DOING_BUSINESS_AS_NAME":"CHICAGO MULTI-CULTURAL DANCE CENTER","POP_AT_RISK":42798,"BUSINESS_TYPE":"Children's Activities Facilities","LEGAL_NAME":"THE CHICAGO MULTI-CULTURAL DANCE CENTER, INC., HOME OF THE BRYANT BALLET","LONGITUDE":-87.62957679729978},
}