{
{"STATE":"IL","ZIP":60639,"LATTITUDE":41.91482042670598,"ADDRESS":"1900 N AUSTIN AVE 1 ","YEAR":2008,"DOING_BUSINESS_AS_NAME":"ADVANCED AUTOTECH","POP_AT_RISK":50037,"BUSINESS_TYPE":"Motor Vehicle Repair: Engine\/Body(Class III)","LEGAL_NAME":"ARTURO PEREZ","LONGITUDE":-87.77555966968384},
{"STATE":"IL","ZIP":60609,"LATTITUDE":41.81394813823121,"ADDRESS":"4418 S WENTWORTH AVE 1ST ","YEAR":2008,"DOING_BUSINESS_AS_NAME":"FAMILY AUTO BODY SHOP","POP_AT_RISK":85068,"BUSINESS_TYPE":"Motor Vehicle Repair: Engine\/Body(Class III)","LEGAL_NAME":"FREDDIE WARR","LONGITUDE":-87.63127666543157},
{"STATE":"IL","ZIP":60649,"LATTITUDE":41.75962186358229,"ADDRESS":"7455 S EXCHANGE AVE 1ST ","YEAR":2008,"DOING_BUSINESS_AS_NAME":"KAR KARE SERVICE","POP_AT_RISK":66600,"BUSINESS_TYPE":"Motor Vehicle Repair: Engine\/Body(Class III)","LEGAL_NAME":"JOSE PERALTA","LONGITUDE":-87.56034475059468},
{"STATE":"IL","ZIP":60634,"LATTITUDE":41.95268479633992,"ADDRESS":"6645 W IRVING PARK RD 1ST ","YEAR":2008,"DOING_BUSINESS_AS_NAME":"A-ACTION AUTO INC","POP_AT_RISK":31092,"BUSINESS_TYPE":"Motor Vehicle Repair: Engine\/Body(Class III)","LEGAL_NAME":"VICTOR WEGRZYN","LONGITUDE":-87.79332176211568},
{"STATE":"IL","ZIP":60621,"LATTITUDE":41.76017212380373,"ADDRESS":"7346 S HALSTED ST  ","YEAR":2008,"DOING_BUSINESS_AS_NAME":"ADAM'S AUTO REBUILDER","POP_AT_RISK":36596,"BUSINESS_TYPE":"Motor Vehicle Repair: Engine\/Body(Class III)","LEGAL_NAME":"ADAM STALLWORTH","LONGITUDE":-87.64443182702918},
{"STATE":"IL","ZIP":60615,"LATTITUDE":41.80209465985241,"ADDRESS":"60 E 51ST ST  ","YEAR":2008,"DOING_BUSINESS_AS_NAME":"ERIE VEHICLE CO","POP_AT_RISK":107040,"BUSINESS_TYPE":"Motor Vehicle Repair: Engine\/Body(Class III)","LEGAL_NAME":"ERIE VEHICLE CO","LONGITUDE":-87.62355599411882},
{"STATE":"IL","ZIP":60620,"LATTITUDE":41.73816304769432,"ADDRESS":"8607 S VINCENNES AVE  ","YEAR":2008,"DOING_BUSINESS_AS_NAME":"VINCENNES BODY SHOP","POP_AT_RISK":35097,"BUSINESS_TYPE":"Motor Vehicle Repair: Engine\/Body(Class III)","LEGAL_NAME":"GEORGE ROBINSON","LONGITUDE":-87.64186690910064},
{"STATE":"IL","ZIP":60617,"LATTITUDE":41.71365420268293,"ADDRESS":"10005 S AVENUE N  1ST ","YEAR":2008,"DOING_BUSINESS_AS_NAME":"EAST SIDE BODY SHOP","POP_AT_RISK":19727,"BUSINESS_TYPE":"Motor Vehicle Repair: Engine\/Body(Class III)","LEGAL_NAME":"GEORGE S. WINSKY","LONGITUDE":-87.53873751915407},
{"STATE":"IL","ZIP":60617,"LATTITUDE":41.67898563669124,"ADDRESS":"11901 S AVENUE O   BACK","YEAR":2008,"DOING_BUSINESS_AS_NAME":"GALLO EQUIPMENT","POP_AT_RISK":2544,"BUSINESS_TYPE":"Motor Vehicle Repair: Engine\/Body(Class III)","LEGAL_NAME":"GALLO EQUIPMENT CO","LONGITUDE":-87.53991055891692},
{"STATE":"IL","ZIP":60616,"LATTITUDE":41.8451088467216,"ADDRESS":"2617 S WABASH AVE 1 ","YEAR":2008,"DOING_BUSINESS_AS_NAME":"2617 AUTO REPAIR INC","POP_AT_RISK":59052,"BUSINESS_TYPE":"Motor Vehicle Repair: Engine\/Body(Class III)","LEGAL_NAME":"2617 AUTO REPAIR INC","LONGITUDE":-87.62516554312204},
{"STATE":"IL","ZIP":60623,"LATTITUDE":41.83723239388206,"ADDRESS":"3045 S KILBOURN AVE  1ST","YEAR":2008,"DOING_BUSINESS_AS_NAME":"3 BROTHERS HERNANDEZ REPAIR","POP_AT_RISK":33025,"BUSINESS_TYPE":"Motor Vehicle Repair: Engine\/Body(Class III)","LEGAL_NAME":"3 BROTHERS HERNANDEZ","LONGITUDE":-87.73635897726498},
{"STATE":"IL","ZIP":60659,"LATTITUDE":41.99731244113634,"ADDRESS":"3111-3125 W DEVON AVE  ","YEAR":2008,"DOING_BUSINESS_AS_NAME":"RICHARDS SERVICE CENTER INC","POP_AT_RISK":51829,"BUSINESS_TYPE":"Motor Vehicle Repair: Engine\/Body(Class III)","LEGAL_NAME":"SHIULKI AUTO TEC INC","LONGITUDE":-87.70742130186576},
{"STATE":"IL","ZIP":60614,"LATTITUDE":41.92823757473105,"ADDRESS":"2547 N LINCOLN AVE 1ST ","YEAR":2008,"DOING_BUSINESS_AS_NAME":"EUROPEAN AUTO  LTD","POP_AT_RISK":628272,"BUSINESS_TYPE":"Motor Vehicle Repair: Engine\/Body(Class III)","LEGAL_NAME":"EUROPEAN AUTO LIMITED","LONGITUDE":-87.65245637341434},
{"STATE":"IL","ZIP":60657,"LATTITUDE":41.944423148670474,"ADDRESS":"3425 N HALSTED ST  1","YEAR":2008,"DOING_BUSINESS_AS_NAME":"GERBER AUTO REBUILDERS, INC","POP_AT_RISK":167072,"BUSINESS_TYPE":"Motor Vehicle Repair: Engine\/Body(Class III)","LEGAL_NAME":"THE GERBER GROUP, INC.","LONGITUDE":-87.6492525407789},
{"STATE":"IL","ZIP":60656,"LATTITUDE":41.973298953304315,"ADDRESS":"9710 W FOSTER AVE  ","YEAR":2008,"DOING_BUSINESS_AS_NAME":"STEPHEN'S AUTO BODY INC","POP_AT_RISK":16526,"BUSINESS_TYPE":"Motor Vehicle Repair: Engine\/Body(Class III)","LEGAL_NAME":"STEPHEN'S AUTO BODY INC","LONGITUDE":-87.86724238840318},
{"STATE":"IL","ZIP":60629,"LATTITUDE":41.778951046733724,"ADDRESS":"3518-3528 W 63RD ST  ","YEAR":2008,"DOING_BUSINESS_AS_NAME":"COLLISION REVISION CHICAGO","POP_AT_RISK":114936,"BUSINESS_TYPE":"Motor Vehicle Repair: Engine\/Body(Class III)","LEGAL_NAME":"COLLISION REVISION, INC.","LONGITUDE":-87.71119913869454},
{"STATE":"IL","ZIP":60655,"LATTITUDE":41.68692055376566,"ADDRESS":"11320 S PULASKI RD  ","YEAR":2008,"DOING_BUSINESS_AS_NAME":"BELAIR AUTO COLLESION & RESTOR","POP_AT_RISK":23560,"BUSINESS_TYPE":"Motor Vehicle Repair: Engine\/Body(Class III)","LEGAL_NAME":"BALAIR AUTO COLL\/REST INC","LONGITUDE":-87.72030273698208},
{"STATE":"IL","ZIP":60628,"LATTITUDE":41.70195674848554,"ADDRESS":"10554 S MICHIGAN AVE GROUND ","YEAR":2008,"DOING_BUSINESS_AS_NAME":"C & O AUTO REBUILDERS","POP_AT_RISK":63294,"BUSINESS_TYPE":"Motor Vehicle Repair: Engine\/Body(Class III)","LEGAL_NAME":"C & O AUTO REBUILDERS INC","LONGITUDE":-87.62092874473193},
{"STATE":"IL","ZIP":60629,"LATTITUDE":41.767511954501494,"ADDRESS":"6906 S PULASKI RD 1ST ","YEAR":2008,"DOING_BUSINESS_AS_NAME":"W G M AUTO REBUILDERS INC","POP_AT_RISK":26753,"BUSINESS_TYPE":"Motor Vehicle Repair: Engine\/Body(Class III)","LEGAL_NAME":"W G M AUTO REBUILDERS INC","LONGITUDE":-87.72262640495433},
{"STATE":"IL","ZIP":60619,"LATTITUDE":41.72227645939994,"ADDRESS":"1110 E 95TH ST  ","YEAR":2008,"DOING_BUSINESS_AS_NAME":"A & R AUTO REBUILDERS, INC","POP_AT_RISK":135744,"BUSINESS_TYPE":"Motor Vehicle Repair: Engine\/Body(Class III)","LEGAL_NAME":"A & R AUTO REBUILDERS, INC","LONGITUDE":-87.59676917353497},
{"STATE":"IL","ZIP":60617,"LATTITUDE":41.74282734377744,"ADDRESS":"8383 S SOUTH CHICAGO AVE  ","YEAR":2008,"DOING_BUSINESS_AS_NAME":"MAACO AUTO PAINTING & BODY WORKS","POP_AT_RISK":33180,"BUSINESS_TYPE":"Motor Vehicle Repair: Engine\/Body(Class III)","LEGAL_NAME":"PRAMUKH AUTO SERVICES INC.","LONGITUDE":-87.57331261204502},
{"STATE":"IL","ZIP":60649,"LATTITUDE":41.760225608371194,"ADDRESS":"7410 S STONY ISLAND AVE  ","YEAR":2008,"DOING_BUSINESS_AS_NAME":"ROSECO AUTO REBUILDERS INC","POP_AT_RISK":244300,"BUSINESS_TYPE":"Motor Vehicle Repair: Engine\/Body(Class III)","LEGAL_NAME":"ROSECO AUTO REBUILDERS INC","LONGITUDE":-87.58632203456536},
{"STATE":"IL","ZIP":60610,"LATTITUDE":41.89411578493888,"ADDRESS":"146 W ERIE ST  ","YEAR":2008,"DOING_BUSINESS_AS_NAME":"ERIE LASALLE BODY SHOP","POP_AT_RISK":798750,"BUSINESS_TYPE":"Motor Vehicle Repair: Engine\/Body(Class III)","LEGAL_NAME":"ERIE LASALLE BODY SHOP INC.","LONGITUDE":-87.633002421549},
{"STATE":"IL","ZIP":60638,"LATTITUDE":41.782292609268296,"ADDRESS":"6843 W 60TH PL  ","YEAR":2008,"DOING_BUSINESS_AS_NAME":"DAYTON AUTO REBUILDERS, INC.","POP_AT_RISK":22288,"BUSINESS_TYPE":"Motor Vehicle Repair: Engine\/Body(Class III)","LEGAL_NAME":"DAYTON AUTO REBUILDERS, INC.","LONGITUDE":-87.79298770841025},
{"STATE":"IL","ZIP":60643,"LATTITUDE":41.71325605540258,"ADDRESS":"9928 S VINCENNES AVE  ","YEAR":2008,"DOING_BUSINESS_AS_NAME":"AUTO PRO COLLISION CLINIC INC","POP_AT_RISK":30068,"BUSINESS_TYPE":"Motor Vehicle Repair: Engine\/Body(Class III)","LEGAL_NAME":"AUTO PRO COLLISION CLINIC INC","LONGITUDE":-87.65377431926349},
{"STATE":"IL","ZIP":60634,"LATTITUDE":41.93808243704794,"ADDRESS":"7442 W BELMONT AVE  ","YEAR":2008,"DOING_BUSINESS_AS_NAME":"BELMONT HEIGHTS AUTO BODY INC","POP_AT_RISK":42383,"BUSINESS_TYPE":"Motor Vehicle Repair: Engine\/Body(Class III)","LEGAL_NAME":"BELMONT HEIGHTS AUTO BODY INC","LONGITUDE":-87.81300014866554},
{"STATE":"IL","ZIP":60652,"LATTITUDE":41.74028701072247,"ADDRESS":"3741 W COLUMBUS AVE 1ST ","YEAR":2008,"DOING_BUSINESS_AS_NAME":"SOUTH END AUTO REBUILDERS INC","POP_AT_RISK":54986,"BUSINESS_TYPE":"Motor Vehicle Repair: Engine\/Body(Class III)","LEGAL_NAME":"SOUTH END AUTO REBUILDERS INC","LONGITUDE":-87.7152990327095},
{"STATE":"IL","ZIP":60636,"LATTITUDE":41.78696580487682,"ADDRESS":"1250 W 59TH ST 1ST ","YEAR":2008,"DOING_BUSINESS_AS_NAME":"SOUTH LOOP AUTO SERVICE, INC.","POP_AT_RISK":32541,"BUSINESS_TYPE":"Motor Vehicle Repair: Engine\/Body(Class III)","LEGAL_NAME":"SOUTH LOOP AUTO SERVICE, INC.","LONGITUDE":-87.65672075433038},
{"STATE":"IL","ZIP":60631,"LATTITUDE":41.99370350172563,"ADDRESS":"6166 N NORTHWEST HWY 1ST ","YEAR":2008,"DOING_BUSINESS_AS_NAME":"COSMETIC AUTO TRIM & GLASS INC","POP_AT_RISK":22677,"BUSINESS_TYPE":"Motor Vehicle Repair: Engine\/Body(Class III)","LEGAL_NAME":"COSMETIC AUTO TRIM & GLASS INC","LONGITUDE":-87.801548062054},
{"STATE":"IL","ZIP":60644,"LATTITUDE":41.88714561755924,"ADDRESS":"5475 W LAKE ST 1ST ","YEAR":2008,"DOING_BUSINESS_AS_NAME":"ELA ANTREAS AUTO SERVICE, INC.","POP_AT_RISK":120478,"BUSINESS_TYPE":"Motor Vehicle Repair: Engine\/Body(Class III)","LEGAL_NAME":"ELA ANTREAS AUTO SERVICE, INC.","LONGITUDE":-87.76319640606746},
{"STATE":"IL","ZIP":60613,"LATTITUDE":41.95656420313895,"ADDRESS":"4080 N BROADWAY  1ST ","YEAR":2008,"DOING_BUSINESS_AS_NAME":"EUROPEAN & US CAR SERVICE","POP_AT_RISK":72112,"BUSINESS_TYPE":"Motor Vehicle Repair: Engine\/Body(Class III)","LEGAL_NAME":"HAWK MOTOR SERVICE & SALES INC","LONGITUDE":-87.65198725983909},
{"STATE":"IL","ZIP":60645,"LATTITUDE":42.01939856821077,"ADDRESS":"2255 W HOWARD ST  ","YEAR":2008,"DOING_BUSINESS_AS_NAME":"HOWARD AUTO","POP_AT_RISK":178755,"BUSINESS_TYPE":"Motor Vehicle Repair: Engine\/Body(Class III)","LEGAL_NAME":"HOWARD AUTOBODY & REPAIR, INC.","LONGITUDE":-87.686729344614},
{"STATE":"IL","ZIP":60638,"LATTITUDE":41.77439300129713,"ADDRESS":"5826 W 65TH ST  ","YEAR":2008,"DOING_BUSINESS_AS_NAME":"CARCRAFT","POP_AT_RISK":19217,"BUSINESS_TYPE":"Motor Vehicle Repair: Engine\/Body(Class III)","LEGAL_NAME":"K & K AUTO BODY REBUILDERS, INC.","LONGITUDE":-87.76757729671353},
{"STATE":"IL","ZIP":60624,"LATTITUDE":41.88477491108602,"ADDRESS":"3410 W LAKE ST GROUND ","YEAR":2008,"DOING_BUSINESS_AS_NAME":"CAPS AUTO REPAIR","POP_AT_RISK":71412,"BUSINESS_TYPE":"Motor Vehicle Repair: Engine\/Body(Class III)","LEGAL_NAME":"CAPS AUTO REPAIR & REBUILDERS INC.","LONGITUDE":-87.71160875938149},
{"STATE":"IL","ZIP":60631,"LATTITUDE":42.01155814157873,"ADDRESS":"7606 W TOUHY AVE 1 ","YEAR":2008,"DOING_BUSINESS_AS_NAME":"COLLISION CENTERS OF AMERICA, INC.","POP_AT_RISK":78960,"BUSINESS_TYPE":"Motor Vehicle Repair: Engine\/Body(Class III)","LEGAL_NAME":"COLLISION CENTERS OF AMERICA, INC.","LONGITUDE":-87.8167182299071},
}