{
{"STATE":"IL","ZIP":60645,"LATTITUDE":42.011942081771544,"ADDRESS":"2815 W TOUHY AVE 1ST ","YEAR":2001,"DOING_BUSINESS_AS_NAME":"MILLENNIUM CARDS INC","POP_AT_RISK":77808,"BUSINESS_TYPE":"Limited Business License","LEGAL_NAME":"BRIAN KANE","LONGITUDE":-87.70034795894856},
{"STATE":"IL","ZIP":60623,"LATTITUDE":41.851017073381975,"ADDRESS":"4012 W OGDEN AVE  ","YEAR":2001,"DOING_BUSINESS_AS_NAME":"CUMEXA INC","POP_AT_RISK":1082960,"BUSINESS_TYPE":"Limited Business License","LEGAL_NAME":"CUMEXA INC","LONGITUDE":-87.72530150240738},
{"STATE":"IL","ZIP":60707,"LATTITUDE":41.923460778195526,"ADDRESS":"6913 W GRAND AVE 1ST ","YEAR":2001,"DOING_BUSINESS_AS_NAME":"MEPAGUI DENTAL OFFICE","POP_AT_RISK":301488,"BUSINESS_TYPE":"Limited Business License","LEGAL_NAME":"ELSA GAMBOA","LONGITUDE":-87.79872008677343},
{"STATE":"IL","ZIP":60617,"LATTITUDE":41.73813215780997,"ADDRESS":"8619 S STONY ISLAND AVE 1ST ","YEAR":2001,"DOING_BUSINESS_AS_NAME":"CLASS ACT & NAILS BY INGRID","POP_AT_RISK":97869,"BUSINESS_TYPE":"Limited Business License","LEGAL_NAME":"INGRID GRAY","LONGITUDE":-87.5850826707451},
{"STATE":"IL","ZIP":60624,"LATTITUDE":41.86893637016503,"ADDRESS":"4131 W TAYLOR ST  ","YEAR":2001,"DOING_BUSINESS_AS_NAME":"LARSAM, LLC","POP_AT_RISK":305970,"BUSINESS_TYPE":"Limited Business License","LEGAL_NAME":"LARSAM, LLC","LONGITUDE":-87.72897531612314},
{"STATE":"IL","ZIP":60618,"LATTITUDE":41.94301473458152,"ADDRESS":"2303 W ROSCOE ST 1ST ","YEAR":2001,"DOING_BUSINESS_AS_NAME":"LB'S COIN OP LAUNDRY","POP_AT_RISK":48716,"BUSINESS_TYPE":"Limited Business License","LEGAL_NAME":"LOYD BOSTIC","LONGITUDE":-87.68587102454053},
{"STATE":"IL","ZIP":60646,"LATTITUDE":41.99289537447719,"ADDRESS":"6124 N MILWAUKEE AVE  6","YEAR":2001,"DOING_BUSINESS_AS_NAME":"ALL PRO SPORTS","POP_AT_RISK":86056,"BUSINESS_TYPE":"Limited Business License","LEGAL_NAME":"TONY DIBLIK","LONGITUDE":-87.78389024727436},
{"STATE":"IL","ZIP":60652,"LATTITUDE":41.75504427973339,"ADDRESS":"7600 S PULASKI RD 1ST ","YEAR":2001,"DOING_BUSINESS_AS_NAME":"GERTIES ICE CREAM","POP_AT_RISK":58848,"BUSINESS_TYPE":"Limited Business License","LEGAL_NAME":"JMC REST INC","LONGITUDE":-87.72231551402173},
{"STATE":"IL","ZIP":60644,"LATTITUDE":41.87347610432255,"ADDRESS":"517 S CICERO AVE # 1ST","YEAR":2001,"DOING_BUSINESS_AS_NAME":"R & R CONVENIENT WASH","POP_AT_RISK":182560,"BUSINESS_TYPE":"Limited Business License","LEGAL_NAME":"ROSS FLEMING","LONGITUDE":-87.74486500553076},
{"STATE":"IL","ZIP":60613,"LATTITUDE":41.96152292353091,"ADDRESS":"1429 W MONTROSE AVE  ","YEAR":2001,"DOING_BUSINESS_AS_NAME":"INTERNATIONAL FLOWER AND RECORD SHOP","POP_AT_RISK":78872,"BUSINESS_TYPE":"Limited Business License","LEGAL_NAME":"RUBEN MEDINA","LONGITUDE":-87.66611582362441},
{"STATE":"IL","ZIP":60653,"LATTITUDE":41.80944134198127,"ADDRESS":"228 E 47TH ST  1ST","YEAR":2001,"DOING_BUSINESS_AS_NAME":"JAZZ","POP_AT_RISK":67272,"BUSINESS_TYPE":"Limited Business License","LEGAL_NAME":"SAIMA KHALID","LONGITUDE":-87.61985931212824},
{"STATE":"IL","ZIP":60626,"LATTITUDE":42.01082086042929,"ADDRESS":"7062 N CLARK ST 1ST ","YEAR":2001,"DOING_BUSINESS_AS_NAME":"NEW YORK FASHION INC","POP_AT_RISK":150154,"BUSINESS_TYPE":"Limited Business License","LEGAL_NAME":"ZARA FASHION","LONGITUDE":-87.6744875394986},
{"STATE":"IL","ZIP":60632,"LATTITUDE":41.80115486142807,"ADDRESS":"2638 W 51ST ST  ","YEAR":2001,"DOING_BUSINESS_AS_NAME":"OLVERAS WHOLESALE","POP_AT_RISK":276805,"BUSINESS_TYPE":"Limited Business License","LEGAL_NAME":"CARLOS OLVERA","LONGITUDE":-87.69065619642838},
{"STATE":"IL","ZIP":60647,"LATTITUDE":41.924637844371944,"ADDRESS":"3039 W FULLERTON AVE  ","YEAR":2001,"DOING_BUSINESS_AS_NAME":"SISLOW DESIGN","POP_AT_RISK":1570787,"BUSINESS_TYPE":"Limited Business License","LEGAL_NAME":"ROBERT SISLOW","LONGITUDE":-87.70380360340843},
{"STATE":"IL","ZIP":60617,"LATTITUDE":41.74616698495544,"ADDRESS":"8156 S STONY ISLAND AVE  ","YEAR":2001,"DOING_BUSINESS_AS_NAME":"THE HAIR LOFT","POP_AT_RISK":72122,"BUSINESS_TYPE":"Limited Business License","LEGAL_NAME":"BARBARA THOMAS","LONGITUDE":-87.58600028338236},
{"STATE":"IL","ZIP":60655,"LATTITUDE":41.69166736207083,"ADDRESS":"3216 W 111TH ST  ","YEAR":2001,"DOING_BUSINESS_AS_NAME":"PROCUTS","POP_AT_RISK":120060,"BUSINESS_TYPE":"Limited Business License","LEGAL_NAME":"JOANN BROWNING","LONGITUDE":-87.70158191207292},
{"STATE":"IL","ZIP":60632,"LATTITUDE":41.812010113431576,"ADDRESS":"4454 S KEDZIE AVE # 1ST","YEAR":2001,"DOING_BUSINESS_AS_NAME":"BEL AIRE CLEANERS","POP_AT_RISK":393504,"BUSINESS_TYPE":"Limited Business License","LEGAL_NAME":"JULIAN AGUIRRE","LONGITUDE":-87.70427490115539},
{"STATE":"IL","ZIP":60609,"LATTITUDE":41.82853331319285,"ADDRESS":"3637 S STATE ST 1ST ","YEAR":2001,"DOING_BUSINESS_AS_NAME":"ABUADAS'S FOOD","POP_AT_RISK":251408,"BUSINESS_TYPE":"Limited Business License","LEGAL_NAME":"YASSER ABUADAS","LONGITUDE":-87.6263556588877},
{"STATE":"IL","ZIP":60657,"LATTITUDE":41.93948895973408,"ADDRESS":"1905 W BELMONT AVE  ","YEAR":2001,"DOING_BUSINESS_AS_NAME":"BARRY SIGNS INC","POP_AT_RISK":60191,"BUSINESS_TYPE":"Limited Business License","LEGAL_NAME":"BARRY SIGNS INC","LONGITUDE":-87.67620086143725},
{"STATE":"IL","ZIP":60659,"LATTITUDE":41.990580136073184,"ADDRESS":"2600 W PETERSON AVE  1","YEAR":2001,"DOING_BUSINESS_AS_NAME":"ACTION BLINDS","POP_AT_RISK":117934,"BUSINESS_TYPE":"Limited Business License","LEGAL_NAME":"J Y TRADING INC","LONGITUDE":-87.69459580870769},
{"STATE":"IL","ZIP":60608,"LATTITUDE":41.85784651546275,"ADDRESS":"1736 W 18TH ST 1ST ","YEAR":2001,"DOING_BUSINESS_AS_NAME":"NORMAN RECORDS & HARDWARE","POP_AT_RISK":40247,"BUSINESS_TYPE":"Limited Business License","LEGAL_NAME":"MARIBEL MORALES","LONGITUDE":-87.67021162305484},
{"STATE":"IL","ZIP":60613,"LATTITUDE":41.961655308981946,"ADDRESS":"1021 W MONTROSE AVE 1ST ","YEAR":2001,"DOING_BUSINESS_AS_NAME":"HEINZE LIQUORS","POP_AT_RISK":327924,"BUSINESS_TYPE":"Limited Business License","LEGAL_NAME":"ROBERT E CONNER","LONGITUDE":-87.65564994485091},
{"STATE":"IL","ZIP":60638,"LATTITUDE":41.778151416818886,"ADDRESS":"5612 W 63RD ST 1ST ","YEAR":2001,"DOING_BUSINESS_AS_NAME":"TREASURE  HUNT","POP_AT_RISK":37876,"BUSINESS_TYPE":"Limited Business License","LEGAL_NAME":"RUTHANN FORTINO","LONGITUDE":-87.76229257994241},
{"STATE":"IL","ZIP":60666,"LATTITUDE":42.008536400868735,"ADDRESS":"11601 W TOUHY AVE  TERM","YEAR":2001,"DOING_BUSINESS_AS_NAME":"ATHENIAM BAR","POP_AT_RISK":4956,"BUSINESS_TYPE":"Limited Business License","LEGAL_NAME":"ATHENIAN BAR INC","LONGITUDE":-87.91442843927047},
{"STATE":"IL","ZIP":60639,"LATTITUDE":41.92096188982129,"ADDRESS":"2211 N CICERO AVE  ","YEAR":2001,"DOING_BUSINESS_AS_NAME":"M & M SALES","POP_AT_RISK":197130,"BUSINESS_TYPE":"Limited Business License","LEGAL_NAME":"MICHAEL A MITRIA","LONGITUDE":-87.74607219583106},
{"STATE":"IL","ZIP":60656,"LATTITUDE":41.97926005682032,"ADDRESS":"6835 W HIGGINS AVE  203","YEAR":2001,"DOING_BUSINESS_AS_NAME":"DIVERSIFIED FOOD BROKERS","POP_AT_RISK":83984,"BUSINESS_TYPE":"Limited Business License","LEGAL_NAME":"S M & R T LAMICK","LONGITUDE":-87.79889338785712},
{"STATE":"IL","ZIP":60626,"LATTITUDE":42.01573532457531,"ADDRESS":"7370 N CLARK ST 1ST ","YEAR":2001,"DOING_BUSINESS_AS_NAME":"DISCOTECA LA ESPANOLA","POP_AT_RISK":66427,"BUSINESS_TYPE":"Limited Business License","LEGAL_NAME":"URBANO BUSTAMANTE","LONGITUDE":-87.67530442484565},
{"STATE":"IL","ZIP":60636,"LATTITUDE":41.772167422941195,"ADDRESS":"6659 S DAMEN AVE  ","YEAR":2001,"DOING_BUSINESS_AS_NAME":"LBC II COMMUNICATION CENTER","POP_AT_RISK":545972,"BUSINESS_TYPE":"Limited Business License","LEGAL_NAME":"AMERICAN VOICE INC","LONGITUDE":-87.67356656790552},
{"STATE":"IL","ZIP":60659,"LATTITUDE":41.99588260240455,"ADDRESS":"2754 W ROSEMONT AVE 1ST ","YEAR":2001,"DOING_BUSINESS_AS_NAME":"BAIS YAAKOV SCHOOL","POP_AT_RISK":57911,"BUSINESS_TYPE":"Limited Business License","LEGAL_NAME":"BAIS YAAKOV SCHOOL","LONGITUDE":-87.69936260221726},
{"STATE":"IL","ZIP":60617,"LATTITUDE":41.73752778543818,"ADDRESS":"8657 S COMMERCIAL AVE 1ST ","YEAR":2001,"DOING_BUSINESS_AS_NAME":"ALFRED M HOFFENBERG","POP_AT_RISK":286150,"BUSINESS_TYPE":"Limited Business License","LEGAL_NAME":"ALFRED M HOFFENBERG","LONGITUDE":-87.55128729565668},
{"STATE":"IL","ZIP":60643,"LATTITUDE":41.705948410716225,"ADDRESS":"10313 S WESTERN AVE  1ST","YEAR":2001,"DOING_BUSINESS_AS_NAME":"RARE HAIR","POP_AT_RISK":221792,"BUSINESS_TYPE":"Limited Business License","LEGAL_NAME":"ROSEMARY L ALBRECHT","LONGITUDE":-87.68145932541714},
{"STATE":"IL","ZIP":60638,"LATTITUDE":41.79624915577635,"ADDRESS":"5333 S LARAMIE AVE 2 203","YEAR":2001,"DOING_BUSINESS_AS_NAME":"MARCA MED MGMT","POP_AT_RISK":40988,"BUSINESS_TYPE":"Limited Business License","LEGAL_NAME":"MARCA INDUSTRIES INC","LONGITUDE":-87.75245264211209},
{"STATE":"IL","ZIP":60608,"LATTITUDE":41.83591816580194,"ADDRESS":"2100 W 32ND ST  1","YEAR":2001,"DOING_BUSINESS_AS_NAME":"MIDLAND LOGISTICS","POP_AT_RISK":147672,"BUSINESS_TYPE":"Limited Business License","LEGAL_NAME":"MIDLAND LOGISTIC INC","LONGITUDE":-87.67796173705523},
{"STATE":"IL","ZIP":60639,"LATTITUDE":41.931554505856056,"ADDRESS":"4355 W DIVERSEY AVE 1ST ","YEAR":2001,"DOING_BUSINESS_AS_NAME":"MOMMY'S TWO","POP_AT_RISK":73464,"BUSINESS_TYPE":"Limited Business License","LEGAL_NAME":"THE BABY CORPORATION","LONGITUDE":-87.73659052471073},
{"STATE":"IL","ZIP":60639,"LATTITUDE":41.90938202691216,"ADDRESS":"5934 W NORTH AVE  ","YEAR":2001,"DOING_BUSINESS_AS_NAME":"BE CLOTHES MINDED","POP_AT_RISK":41044,"BUSINESS_TYPE":"Limited Business License","LEGAL_NAME":"BE CLOTHES MINDED INC","LONGITUDE":-87.77408573158507},
{"STATE":"IL","ZIP":60644,"LATTITUDE":41.88721473824327,"ADDRESS":"5315 W LAKE ST  ","YEAR":2001,"DOING_BUSINESS_AS_NAME":"B & J CAR WASH","POP_AT_RISK":53283,"BUSINESS_TYPE":"Limited Business License","LEGAL_NAME":"W J WHITE\/B J JOHNSON","LONGITUDE":-87.75847143687251},
{"STATE":"IL","ZIP":60612,"LATTITUDE":41.88124025738801,"ADDRESS":"2528 W MADISON ST 1ST ","YEAR":2001,"DOING_BUSINESS_AS_NAME":"V & H METAL PROCESSING","POP_AT_RISK":221515,"BUSINESS_TYPE":"Limited Business License","LEGAL_NAME":"F VILLEGAS\/M HERNANDEZ","LONGITUDE":-87.68968275824972},
{"STATE":"IL","ZIP":60652,"LATTITUDE":41.743016851783594,"ADDRESS":"3911 W 82ND PL 1ST ","YEAR":2001,"DOING_BUSINESS_AS_NAME":"M SULLIVAN HEATINGING INC","POP_AT_RISK":27493,"BUSINESS_TYPE":"Limited Business License","LEGAL_NAME":"M SULLIVAN HEATING INC","LONGITUDE":-87.71977105859837},
{"STATE":"IL","ZIP":60652,"LATTITUDE":41.749860105596895,"ADDRESS":"3510 W 79TH ST  D F C","YEAR":2001,"DOING_BUSINESS_AS_NAME":"D.F. CURLEY SONS INC","POP_AT_RISK":52830,"BUSINESS_TYPE":"Limited Business License","LEGAL_NAME":"D. F. CURLEY SONS, INC.","LONGITUDE":-87.7101866507587},
{"STATE":"IL","ZIP":60630,"LATTITUDE":41.96799646825014,"ADDRESS":"4463 W LAWRENCE AVE  ","YEAR":2001,"DOING_BUSINESS_AS_NAME":"ALBANY COMMUNICATION INC","POP_AT_RISK":85372,"BUSINESS_TYPE":"Limited Business License","LEGAL_NAME":"ALBANY COMMUNICATION INC","LONGITUDE":-87.74039439776014},
{"STATE":"IL","ZIP":60605,"LATTITUDE":41.86468089294902,"ADDRESS":"1339 S MICHIGAN AVE  ","YEAR":2001,"DOING_BUSINESS_AS_NAME":"FOUR-C CONSTRUCTIONS","POP_AT_RISK":34626,"BUSINESS_TYPE":"Limited Business License","LEGAL_NAME":"CLINTON REGINALD CHENIER","LONGITUDE":-87.62394109576407},
{"STATE":"IL","ZIP":60653,"LATTITUDE":41.809316524975266,"ADDRESS":"501 E 47TH ST 1ST ","YEAR":2001,"DOING_BUSINESS_AS_NAME":"HAPPY DAYS SOUL FOOD INC","POP_AT_RISK":143592,"BUSINESS_TYPE":"Limited Business License","LEGAL_NAME":"HAPPY DAYS SOUL FOOD INC","LONGITUDE":-87.61379035901513},
{"STATE":"IL","ZIP":60629,"LATTITUDE":41.786240479592834,"ADDRESS":"5904 S WASHTENAW AVE  1ST","YEAR":2001,"DOING_BUSINESS_AS_NAME":"PRO EXCEL CONTRACTORS LTD","POP_AT_RISK":446985,"BUSINESS_TYPE":"Limited Business License","LEGAL_NAME":"PRO EXCEL CONTRACTORS LTD","LONGITUDE":-87.6912971928697},
{"STATE":"IL","ZIP":60617,"LATTITUDE":41.70709604907916,"ADDRESS":"10336 S CRANDON AVE  1","YEAR":2001,"DOING_BUSINESS_AS_NAME":"GOINS BROTHERS CONSTRUCTION","POP_AT_RISK":35628,"BUSINESS_TYPE":"Limited Business License","LEGAL_NAME":"TOUSSAINT & PATRICK GOINS","LONGITUDE":-87.56705945273968},
{"STATE":"IL","ZIP":60611,"LATTITUDE":41.90080164945196,"ADDRESS":"980 N MICHIGAN AVE  1800","YEAR":2001,"DOING_BUSINESS_AS_NAME":"ATLAS TECHNOLOGY","POP_AT_RISK":83649,"BUSINESS_TYPE":"Limited Business License","LEGAL_NAME":"ATLAS TECHNOLOGY GROUP INC","LONGITUDE":-87.6242724679302},
{"STATE":"IL","ZIP":60622,"LATTITUDE":41.909998759105214,"ADDRESS":"1563 N MILWAUKEE AVE 2ND ","YEAR":2001,"DOING_BUSINESS_AS_NAME":"COLLAGE DE LAS AMERICAS","POP_AT_RISK":67737,"BUSINESS_TYPE":"Limited Business License","LEGAL_NAME":"COLLAGE DE LAS AMERICAS,INC","LONGITUDE":-87.67664790997736},
{"STATE":"IL","ZIP":60619,"LATTITUDE":41.754504307392594,"ADDRESS":"7701 S STATE ST  ","YEAR":2001,"DOING_BUSINESS_AS_NAME":"HALSTED ST SPARKLE CAR WAS","POP_AT_RISK":146064,"BUSINESS_TYPE":"Limited Business License","LEGAL_NAME":"HALSTED ST SPARKLE CAR WASH","LONGITUDE":-87.62449585083768},
{"STATE":"IL","ZIP":60640,"LATTITUDE":41.98336347115489,"ADDRESS":"5553 N BROADWAY   ","YEAR":2001,"DOING_BUSINESS_AS_NAME":"Touchstone Communications #3","POP_AT_RISK":1183696,"BUSINESS_TYPE":"Limited Business License","LEGAL_NAME":"TOUCHSTONE COMMUNICATION # 2","LONGITUDE":-87.65991420776902},
{"STATE":"IL","ZIP":60619,"LATTITUDE":41.73555436814221,"ADDRESS":"8725 S STATE ST 1ST ","YEAR":2001,"DOING_BUSINESS_AS_NAME":"A CLASSIC BLDG MAINTENANCE PRT","POP_AT_RISK":55394,"BUSINESS_TYPE":"Limited Business License","LEGAL_NAME":"LORETTA L MOORE & MARC P BROWN","LONGITUDE":-87.62400041058235},
{"STATE":"IL","ZIP":60634,"LATTITUDE":41.938560801666874,"ADDRESS":"5954 W BELMONT AVE  ","YEAR":2001,"DOING_BUSINESS_AS_NAME":"OMEGA FINANCIAL ENTERPRISE INC","POP_AT_RISK":108222,"BUSINESS_TYPE":"Limited Business License","LEGAL_NAME":"OMEGA FINANCIAL ENTERPRISE INC","LONGITUDE":-87.77600084608505},
{"STATE":"IL","ZIP":60638,"LATTITUDE":41.78058065043016,"ADDRESS":"6150 S LARAMIE AVE  ","YEAR":2001,"DOING_BUSINESS_AS_NAME":"JET AVIATION","POP_AT_RISK":25092,"BUSINESS_TYPE":"Limited Business License","LEGAL_NAME":"JET AVIATION FLIGHT SERVICES, INC.","LONGITUDE":-87.75268097816075},
{"STATE":"IL","ZIP":60618,"LATTITUDE":41.95363120318108,"ADDRESS":"3645 W IRVING PARK RD  1ST","YEAR":2001,"DOING_BUSINESS_AS_NAME":"CARTER & HOLMES","POP_AT_RISK":138514,"BUSINESS_TYPE":"Limited Business License","LEGAL_NAME":"LAUTER FAMILY LIMITED, PARTNERSHIP","LONGITUDE":-87.71963556456433},
{"STATE":"IL","ZIP":60628,"LATTITUDE":41.7218041410881,"ADDRESS":"9501 S DR MARTIN LUTHER KING JR DR  460","YEAR":2001,"DOING_BUSINESS_AS_NAME":"CHICAGO STATE UNIVERSITY BOOKSTORE","POP_AT_RISK":112850,"BUSINESS_TYPE":"Limited Business License","LEGAL_NAME":"FOLLETT HIGHER EDUCATION GROUP, INC","LONGITUDE":-87.61399411519453},
{"STATE":"IL","ZIP":60634,"LATTITUDE":41.93345779390372,"ADDRESS":"2910 N PARKSIDE AVE 1ST ","YEAR":2001,"DOING_BUSINESS_AS_NAME":"FIRST CLASS BUILDERS\/REMODELIN","POP_AT_RISK":71037,"BUSINESS_TYPE":"Limited Business License","LEGAL_NAME":"FIRST CLASS BUILDERS & REMODELING, INC.","LONGITUDE":-87.76768348548217},
}