{
{"STATE":"IL","ZIP":60827,"LATTITUDE":41.65760355948224,"ADDRESS":"13051 S EBERHART AVE  ","YEAR":2006,"DOING_BUSINESS_AS_NAME":"KK FANTASY SHOP","POP_AT_RISK":22712,"BUSINESS_TYPE":"Peddler, non-food","LEGAL_NAME":"KIZZY NELSON","LONGITUDE":-87.61049124253249},
{"STATE":"IL","ZIP":60643,"LATTITUDE":41.716299189352725,"ADDRESS":"9734 S BELL AVE  ","YEAR":2006,"DOING_BUSINESS_AS_NAME":"MARK JACKSON","POP_AT_RISK":39904,"BUSINESS_TYPE":"Peddler, non-food","LEGAL_NAME":"MARK JACKSON","LONGITUDE":-87.6784334963623},
{"STATE":"IL","ZIP":60655,"LATTITUDE":41.69152558497874,"ADDRESS":"3590 W 111TH ST  ","YEAR":2006,"DOING_BUSINESS_AS_NAME":"ABDUR R DIAB","POP_AT_RISK":85908,"BUSINESS_TYPE":"Peddler, non-food","LEGAL_NAME":"ABDUR R DIAAB","LONGITUDE":-87.71052134987823},
{"STATE":"IL","ZIP":60707,"LATTITUDE":41.926432391857624,"ADDRESS":"2536 N NEVA AVE 1ST ","YEAR":2006,"DOING_BUSINESS_AS_NAME":"CURTIS M NEAL","POP_AT_RISK":47343,"BUSINESS_TYPE":"Peddler, non-food","LEGAL_NAME":"CURTIS M NEAL","LONGITUDE":-87.80526537102166},
{"STATE":"IL","ZIP":60652,"LATTITUDE":41.739831099949434,"ADDRESS":"3252 W 84TH PL  ","YEAR":2006,"DOING_BUSINESS_AS_NAME":"DIANE JOHNSON","POP_AT_RISK":73173,"BUSINESS_TYPE":"Peddler, non-food","LEGAL_NAME":"DIANE JOHNSON","LONGITUDE":-87.7042079592918},
{"STATE":"IL","ZIP":60628,"LATTITUDE":41.6803112938745,"ADDRESS":"11741 S NORMAL AVE  ","YEAR":2006,"DOING_BUSINESS_AS_NAME":"PEDDLER (NON-FOOD)","POP_AT_RISK":74253,"BUSINESS_TYPE":"Peddler, non-food","LEGAL_NAME":"JEROME HOWARD","LONGITUDE":-87.63460285318091},
{"STATE":"IL","ZIP":60707,"LATTITUDE":41.9171319323781,"ADDRESS":"2030 N HARLEM AVE 1ST A-3","YEAR":2006,"DOING_BUSINESS_AS_NAME":"NICOLO RADOSTA","POP_AT_RISK":34367,"BUSINESS_TYPE":"Peddler, non-food","LEGAL_NAME":"NICOLO RADOSTA","LONGITUDE":-87.80618410223347},
{"STATE":"IL","ZIP":60634,"LATTITUDE":41.9354505488483,"ADDRESS":"3032 N SAYRE AVE  1","YEAR":2006,"DOING_BUSINESS_AS_NAME":"RIDVAN MUSTAFA","POP_AT_RISK":40271,"BUSINESS_TYPE":"Peddler, non-food","LEGAL_NAME":"RIDVAN MUSTAFA","LONGITUDE":-87.8012802189826},
{"STATE":"IL","ZIP":60646,"LATTITUDE":41.99691044531468,"ADDRESS":"6333 N LEONA AVE  ","YEAR":2006,"DOING_BUSINESS_AS_NAME":"HOWARD K. KADET","POP_AT_RISK":44607,"BUSINESS_TYPE":"Peddler, non-food","LEGAL_NAME":"HOWARD K. KADET","LONGITUDE":-87.75384375298215},
{"STATE":"IL","ZIP":60642,"LATTITUDE":41.89099244097214,"ADDRESS":"1117 W GRAND AVE  3R","YEAR":2006,"DOING_BUSINESS_AS_NAME":"KEITH C. BOLAND","POP_AT_RISK":94744,"BUSINESS_TYPE":"Peddler, non-food","LEGAL_NAME":"KEITH C. BOLAND","LONGITUDE":-87.65538229991698},
{"STATE":"IL","ZIP":60655,"LATTITUDE":41.68556636859118,"ADDRESS":"3733 W 114TH ST  ","YEAR":2006,"DOING_BUSINESS_AS_NAME":"KEVIN J. KOSECK","POP_AT_RISK":19944,"BUSINESS_TYPE":"Peddler, non-food","LEGAL_NAME":"KEVIN J. KOSECK","LONGITUDE":-87.71408016648067},
{"STATE":"IL","ZIP":60638,"LATTITUDE":41.81318343911754,"ADDRESS":"4844 W 44TH ST  ","YEAR":2006,"DOING_BUSINESS_AS_NAME":"PETE WINSLOW JR","POP_AT_RISK":15956,"BUSINESS_TYPE":"Peddler, non-food","LEGAL_NAME":"PETE WINSLOW JR","LONGITUDE":-87.74515028368411},
{"STATE":"IL","ZIP":60617,"LATTITUDE":41.71169649539364,"ADDRESS":"10107 S AVENUE M   ","YEAR":2006,"DOING_BUSINESS_AS_NAME":"RENEE CERVATES","POP_AT_RISK":39454,"BUSINESS_TYPE":"Peddler, non-food","LEGAL_NAME":"RENEE CERVANTES","LONGITUDE":-87.53754886171335},
{"STATE":"IL","ZIP":60630,"LATTITUDE":41.97324525902577,"ADDRESS":"5034 N MONITOR AVE  ","YEAR":2006,"DOING_BUSINESS_AS_NAME":"CHRIS P. WEGLARZ","POP_AT_RISK":28635,"BUSINESS_TYPE":"Peddler, non-food","LEGAL_NAME":"CHRIS P. WEGLARZ","LONGITUDE":-87.77473883607004},
{"STATE":"IL","ZIP":60628,"LATTITUDE":41.69924011203312,"ADDRESS":"10722 S INDIANA AVE 1ST ","YEAR":2006,"DOING_BUSINESS_AS_NAME":"VINCENT DAVIDSON","POP_AT_RISK":35328,"BUSINESS_TYPE":"Peddler, non-food","LEGAL_NAME":"VINCENT DAVIDSON","LONGITUDE":-87.6185771474817},
{"STATE":"IL","ZIP":60302,"LATTITUDE":41.886636560694996,"ADDRESS":"336 N AUSTIN BLVD 3 ","YEAR":2006,"DOING_BUSINESS_AS_NAME":"DEAN A. SCARPINATO","POP_AT_RISK":40678,"BUSINESS_TYPE":"Peddler, non-food","LEGAL_NAME":"DEAN A. SCARPINATO","LONGITUDE":-87.7750135182156},
{"STATE":"IL","ZIP":60652,"LATTITUDE":41.74492762445666,"ADDRESS":"8128 S KOMENSKY AVE  ","YEAR":2006,"DOING_BUSINESS_AS_NAME":"HAUSAMI I AL-HALABI","POP_AT_RISK":27493,"BUSINESS_TYPE":"Peddler, non-food","LEGAL_NAME":"HAUSAM I AL-HALABI","LONGITUDE":-87.72259614844194},
{"STATE":"IL","ZIP":60623,"LATTITUDE":41.85326464955106,"ADDRESS":"4337 W 21ST ST 1 ","YEAR":2006,"DOING_BUSINESS_AS_NAME":"LISA L. ROY-MCGHEE","POP_AT_RISK":51832,"BUSINESS_TYPE":"Peddler, non-food","LEGAL_NAME":"LISA L. ROY-MCGHEE","LONGITUDE":-87.73360480152157},
{"STATE":"IL","ZIP":60626,"LATTITUDE":42.021255154289875,"ADDRESS":"1534 W JONQUIL TER  ","YEAR":2006,"DOING_BUSINESS_AS_NAME":"CHRISTOPHER A DREW","POP_AT_RISK":261545,"BUSINESS_TYPE":"Peddler, non-food","LEGAL_NAME":"CHRISTOPHER  A DREW","LONGITUDE":-87.66969854165728},
{"STATE":"IL","ZIP":60659,"LATTITUDE":41.98396170372116,"ADDRESS":"5631 N CHRISTIANA AVE  1","YEAR":2006,"DOING_BUSINESS_AS_NAME":"MUBARAKALI A. PATEL","POP_AT_RISK":55232,"BUSINESS_TYPE":"Peddler, non-food","LEGAL_NAME":"MUBARAKALI A. PATEL","LONGITUDE":-87.71241419120788},
{"STATE":"IL","ZIP":60644,"LATTITUDE":41.87095340116042,"ADDRESS":"5107 W LEXINGTON ST 1 ","YEAR":2006,"DOING_BUSINESS_AS_NAME":"PRETTIS BLUMINGBURG","POP_AT_RISK":46098,"BUSINESS_TYPE":"Peddler, non-food","LEGAL_NAME":"PRETTIS BLUMINGBURG","LONGITUDE":-87.75354014055799},
{"STATE":"IL","ZIP":60643,"LATTITUDE":41.69170375237495,"ADDRESS":"2255 W 111TH ST  2SOUTH","YEAR":2006,"DOING_BUSINESS_AS_NAME":"DONALD K. HARRIS SR.","POP_AT_RISK":37248,"BUSINESS_TYPE":"Peddler, non-food","LEGAL_NAME":"DONALD K. HARRIS SR.","LONGITUDE":-87.67843668929478},
{"STATE":"IL","ZIP":60632,"LATTITUDE":41.82038456833596,"ADDRESS":"4018 S BRIGHTON PL  ","YEAR":2006,"DOING_BUSINESS_AS_NAME":"RICARDO ENRIQUEZ JR","POP_AT_RISK":56648,"BUSINESS_TYPE":"Peddler, non-food","LEGAL_NAME":"RICARDO ENRIQUEZ JR.","LONGITUDE":-87.69174567270572},
{"STATE":"IL","ZIP":60629,"LATTITUDE":41.7605301783544,"ADDRESS":"3443 W 73RD ST  ","YEAR":2006,"DOING_BUSINESS_AS_NAME":"WILLIE LEE MCCLENDON","POP_AT_RISK":27553,"BUSINESS_TYPE":"Peddler, non-food","LEGAL_NAME":"WILLIE LEE MCCLENDON","LONGITUDE":-87.70930486839664},
{"STATE":"IL","ZIP":60643,"LATTITUDE":41.674052619031144,"ADDRESS":"12056 S JUSTINE ST  ","YEAR":2006,"DOING_BUSINESS_AS_NAME":"ROBERT L. JOHNSON JR.","POP_AT_RISK":50720,"BUSINESS_TYPE":"Peddler, non-food","LEGAL_NAME":"ROBERT L. JOHNSON, JR","LONGITUDE":-87.66020570250922},
{"STATE":"IL","ZIP":60631,"LATTITUDE":42.01219322871207,"ADDRESS":"7715 W JARLATH ST  ","YEAR":2006,"DOING_BUSINESS_AS_NAME":"JOSE M TORRES SR.","POP_AT_RISK":98700,"BUSINESS_TYPE":"Peddler, non-food","LEGAL_NAME":"JOSE MANUEL TORRES SR.","LONGITUDE":-87.81948791220417},
{"STATE":"IL","ZIP":60638,"LATTITUDE":41.79713203323082,"ADDRESS":"5694 S ARCHER AVE  1NORTH","YEAR":2006,"DOING_BUSINESS_AS_NAME":"ANDREW P. DANILOVICH SR.","POP_AT_RISK":15658,"BUSINESS_TYPE":"Peddler, non-food","LEGAL_NAME":"ANDREW P. DANILOVICH SR.","LONGITUDE":-87.75391596584193},
}