{
{"STATE":"IL","ZIP":60620,"LATTITUDE":41.73948850835696,"ADDRESS":"8501 S RACINE AVE  1ST","YEAR":2013,"DOING_BUSINESS_AS_NAME":"E & J TIRE SERVICE","POP_AT_RISK":201435,"BUSINESS_TYPE":"Tire Facilty Class I (100 - 1,000 Tires)","LEGAL_NAME":"JOHN WARREN","LONGITUDE":-87.65329105074261},
{"STATE":"IL","ZIP":60626,"LATTITUDE":41.999988014812224,"ADDRESS":"6501 N CLARK ST  ","YEAR":2013,"DOING_BUSINESS_AS_NAME":"CLARK TIRE SERVICE","POP_AT_RISK":405525,"BUSINESS_TYPE":"Tire Facilty Class I (100 - 1,000 Tires)","LEGAL_NAME":"JOSE CHACON","LONGITUDE":-87.67109448986507},
{"STATE":"IL","ZIP":60608,"LATTITUDE":41.84393827226177,"ADDRESS":"2641 S LEAVITT ST 1 ","YEAR":2013,"DOING_BUSINESS_AS_NAME":"FLEET SERVICE","POP_AT_RISK":141273,"BUSINESS_TYPE":"Tire Facilty Class I (100 - 1,000 Tires)","LEGAL_NAME":"FLASH TOWING","LONGITUDE":-87.68037668652819},
{"STATE":"IL","ZIP":60618,"LATTITUDE":41.96110430727497,"ADDRESS":"3822 W MONTROSE AVE  ","YEAR":2013,"DOING_BUSINESS_AS_NAME":"ELMO'S TIRE SHOP","POP_AT_RISK":787944,"BUSINESS_TYPE":"Tire Facilty Class I (100 - 1,000 Tires)","LEGAL_NAME":"RICHARD ALLEN","LONGITUDE":-87.72392897004144},
{"STATE":"IL","ZIP":60624,"LATTITUDE":41.880510935421306,"ADDRESS":"4339 W MADISON ST  ","YEAR":2013,"DOING_BUSINESS_AS_NAME":"B & K TIRES","POP_AT_RISK":203154,"BUSINESS_TYPE":"Tire Facilty Class I (100 - 1,000 Tires)","LEGAL_NAME":"BILLY L. DAVIS","LONGITUDE":-87.7345907206353},
{"STATE":"IL","ZIP":60645,"LATTITUDE":41.999632438278006,"ADDRESS":"6500-6574 N WESTERN AVE  ","YEAR":2013,"DOING_BUSINESS_AS_NAME":"TAXI TOWN INC.","POP_AT_RISK":143576,"BUSINESS_TYPE":"Tire Facilty Class I (100 - 1,000 Tires)","LEGAL_NAME":"TAXI TOWN INC.","LONGITUDE":-87.690080925006},
{"STATE":"IL","ZIP":60622,"LATTITUDE":41.90858090357951,"ADDRESS":"1500 N WESTERN AVE 1ST ","YEAR":2013,"DOING_BUSINESS_AS_NAME":"EL SEGUNDO  YUMURI","POP_AT_RISK":634266,"BUSINESS_TYPE":"Tire Facilty Class I (100 - 1,000 Tires)","LEGAL_NAME":"ERNESTO DE ARMAS","LONGITUDE":-87.68732300278292},
{"STATE":"IL","ZIP":60607,"LATTITUDE":41.88476168481302,"ADDRESS":"160 N ELIZABETH ST  ","YEAR":2013,"DOING_BUSINESS_AS_NAME":"GATEWAY AUTO SERVICE","POP_AT_RISK":39684,"BUSINESS_TYPE":"Tire Facilty Class I (100 - 1,000 Tires)","LEGAL_NAME":"SHADI & SON, INC","LONGITUDE":-87.6589883360869},
{"STATE":"IL","ZIP":60659,"LATTITUDE":41.99791541556752,"ADDRESS":"2210 W DEVON AVE 1ST ","YEAR":2013,"DOING_BUSINESS_AS_NAME":"BENNY'S TIRES","POP_AT_RISK":63829,"BUSINESS_TYPE":"Tire Facilty Class I (100 - 1,000 Tires)","LEGAL_NAME":"BENYAMIN BENYAMIN","LONGITUDE":-87.68546607072383},
{"STATE":"IL","ZIP":60617,"LATTITUDE":41.70707653528184,"ADDRESS":"10336 S INDIANAPOLIS AVE 1ST ","YEAR":2013,"DOING_BUSINESS_AS_NAME":"JALPA AUTO REPAIR","POP_AT_RISK":20498,"BUSINESS_TYPE":"Tire Facilty Class I (100 - 1,000 Tires)","LEGAL_NAME":"JALPA AUTO REPAIR","LONGITUDE":-87.52929141090065},
{"STATE":"IL","ZIP":60621,"LATTITUDE":41.787083262767226,"ADDRESS":"932-936 W 59TH ST 1 1","YEAR":2013,"DOING_BUSINESS_AS_NAME":"AAA & A AUTO REPAIR","POP_AT_RISK":100023,"BUSINESS_TYPE":"Tire Facilty Class I (100 - 1,000 Tires)","LEGAL_NAME":"PLATNUM AUTO, INC.","LONGITUDE":-87.64868064245024},
{"STATE":"IL","ZIP":60619,"LATTITUDE":41.757133415130944,"ADDRESS":"7549-7557 S COTTAGE GROVE AVE  ","YEAR":2013,"DOING_BUSINESS_AS_NAME":"BAROMAN TIRE SHOP","POP_AT_RISK":188766,"BUSINESS_TYPE":"Tire Facilty Class I (100 - 1,000 Tires)","LEGAL_NAME":"BAROMAN CORPORATION","LONGITUDE":-87.60521070562744},
{"STATE":"IL","ZIP":60619,"LATTITUDE":41.74622788224334,"ADDRESS":"8146 S COTTAGE GROVE AVE 1ST ","YEAR":2013,"DOING_BUSINESS_AS_NAME":"D. & GU WHEELS INC.","POP_AT_RISK":178965,"BUSINESS_TYPE":"Tire Facilty Class I (100 - 1,000 Tires)","LEGAL_NAME":"D. & GU WHEELS INC.","LONGITUDE":-87.60524303022015},
{"STATE":"IL","ZIP":60614,"LATTITUDE":41.93258920100605,"ADDRESS":"1400-1406 W DIVERSEY PKWY 1 ","YEAR":2013,"DOING_BUSINESS_AS_NAME":"Tuffy Automotive","POP_AT_RISK":287312,"BUSINESS_TYPE":"Tire Facilty Class I (100 - 1,000 Tires)","LEGAL_NAME":"Sailfish Automotive","LONGITUDE":-87.66363144949194},
{"STATE":"IL","ZIP":60639,"LATTITUDE":41.91081623087445,"ADDRESS":"4465 W GRAND AVE 1 1","YEAR":2013,"DOING_BUSINESS_AS_NAME":"BRIDGESTONE FIRESTONE","POP_AT_RISK":104362,"BUSINESS_TYPE":"Tire Facilty Class I (100 - 1,000 Tires)","LEGAL_NAME":"SWIFT CAR CARE, INC.","LONGITUDE":-87.73847173178453},
{"STATE":"IL","ZIP":60626,"LATTITUDE":42.00543102284807,"ADDRESS":"1714 W PRATT BLVD 1 ","YEAR":2013,"DOING_BUSINESS_AS_NAME":"PRATT AUTO WORKS, INC.","POP_AT_RISK":330728,"BUSINESS_TYPE":"Tire Facilty Class I (100 - 1,000 Tires)","LEGAL_NAME":"PRATT AUTO WORKS, INC.","LONGITUDE":-87.67372964979899},
{"STATE":"IL","ZIP":60632,"LATTITUDE":41.819623137571064,"ADDRESS":"4041-4043 S KEDZIE AVE 1ST ","YEAR":2013,"DOING_BUSINESS_AS_NAME":"TENORIO TIRE SHOP INC.","POP_AT_RISK":133692,"BUSINESS_TYPE":"Tire Facilty Class I (100 - 1,000 Tires)","LEGAL_NAME":"TENORIO TIRE SHOP INC.","LONGITUDE":-87.70427601218803},
{"STATE":"IL","ZIP":60628,"LATTITUDE":41.66349690196465,"ADDRESS":"200 W 127TH ST 1ST ","YEAR":2013,"DOING_BUSINESS_AS_NAME":"DUPE'S AUTO ENTERPRISES","POP_AT_RISK":62484,"BUSINESS_TYPE":"Tire Facilty Class I (100 - 1,000 Tires)","LEGAL_NAME":"VICTOR CALEB DARAMOMLA","LONGITUDE":-87.62704670272208},
{"STATE":"IL","ZIP":60618,"LATTITUDE":41.93913478976938,"ADDRESS":"3501  -03515 W BELMONT AVE 1ST ","YEAR":2013,"DOING_BUSINESS_AS_NAME":"OLYMPIA AUTO","POP_AT_RISK":518536,"BUSINESS_TYPE":"Tire Facilty Class I (100 - 1,000 Tires)","LEGAL_NAME":"G KOKKALIAS,E KOKKALIAS","LONGITUDE":-87.71505193972257},
{"STATE":"IL","ZIP":60634,"LATTITUDE":41.945901279807025,"ADDRESS":"5910-5914 W ADDISON ST 1ST ","YEAR":2013,"DOING_BUSINESS_AS_NAME":"ALPHA AUTO REPAIR","POP_AT_RISK":351368,"BUSINESS_TYPE":"Tire Facilty Class I (100 - 1,000 Tires)","LEGAL_NAME":"HENRY A BARAHONA VARGAS","LONGITUDE":-87.77456663564445},
{"STATE":"IL","ZIP":60609,"LATTITUDE":41.80911509826692,"ADDRESS":"452 W 47TH ST 1ST ","YEAR":2013,"DOING_BUSINESS_AS_NAME":"CITY TIRE INC","POP_AT_RISK":126784,"BUSINESS_TYPE":"Tire Facilty Class I (100 - 1,000 Tires)","LEGAL_NAME":"CITY TIRE & SUPPLY CORP.","LONGITUDE":-87.637968543859},
{"STATE":"IL","ZIP":60620,"LATTITUDE":41.725787051201465,"ADDRESS":"9229-9235 S ASHLAND AVE 1ST ","YEAR":2013,"DOING_BUSINESS_AS_NAME":"EMPRESS AUTO GROUP, LTD.","POP_AT_RISK":56334,"BUSINESS_TYPE":"Tire Facilty Class I (100 - 1,000 Tires)","LEGAL_NAME":"EMPRESS AUTO GROUP, LTD.","LONGITUDE":-87.66263975852065},
{"STATE":"IL","ZIP":60617,"LATTITUDE":41.702862777708724,"ADDRESS":"3434 E 106TH ST 1ST ","YEAR":2013,"DOING_BUSINESS_AS_NAME":"TWINS AUTO SERVICE, INC.","POP_AT_RISK":24497,"BUSINESS_TYPE":"Tire Facilty Class I (100 - 1,000 Tires)","LEGAL_NAME":"TWINS AUTO SERVICE, INC.","LONGITUDE":-87.53995629211946},
{"STATE":"IL","ZIP":60644,"LATTITUDE":41.88003666620055,"ADDRESS":"5829 W MADISON ST 1 A","YEAR":2013,"DOING_BUSINESS_AS_NAME":"One Stop Tire Center","POP_AT_RISK":397488,"BUSINESS_TYPE":"Tire Facilty Class I (100 - 1,000 Tires)","LEGAL_NAME":"One Stop Tire Center Inc.","LONGITUDE":-87.77098503103548},
{"STATE":"IL","ZIP":60621,"LATTITUDE":41.76431905817667,"ADDRESS":"7128 S HALSTED ST 1ST ","YEAR":2013,"DOING_BUSINESS_AS_NAME":"DANIEL'S TIRE SHOP","POP_AT_RISK":274967,"BUSINESS_TYPE":"Tire Facilty Class I (100 - 1,000 Tires)","LEGAL_NAME":"VILLEDA TIRE SERVICE INC.","LONGITUDE":-87.64453610177372},
{"STATE":"IL","ZIP":60622,"LATTITUDE":41.88976106624319,"ADDRESS":"1627 W HUBBARD ST  ","YEAR":2013,"DOING_BUSINESS_AS_NAME":"CARSON TIRE SERVICE, INC","POP_AT_RISK":47191,"BUSINESS_TYPE":"Tire Facilty Class I (100 - 1,000 Tires)","LEGAL_NAME":"CARSON'S TIRE SERVICE, INC.","LONGITUDE":-87.66819417636863},
{"STATE":"IL","ZIP":60646,"LATTITUDE":41.996166547688986,"ADDRESS":"6301 N CENTRAL AVE  ","YEAR":2013,"DOING_BUSINESS_AS_NAME":"CENTRAL AND CALDWELL SERVICE","POP_AT_RISK":71824,"BUSINESS_TYPE":"Tire Facilty Class I (100 - 1,000 Tires)","LEGAL_NAME":"CENTRAL AND CALDWELL SERVICE","LONGITUDE":-87.76404923745231},
{"STATE":"IL","ZIP":60616,"LATTITUDE":41.844614022638424,"ADDRESS":"2635 S WABASH AVE  ","YEAR":2013,"DOING_BUSINESS_AS_NAME":"ROADRUNNER AUTO REPAIR, INC.","POP_AT_RISK":354312,"BUSINESS_TYPE":"Tire Facilty Class I (100 - 1,000 Tires)","LEGAL_NAME":"ROADRUNNER AUTO REPAIR, INC.","LONGITUDE":-87.6251535376535},
{"STATE":"IL","ZIP":60618,"LATTITUDE":41.960008839251834,"ADDRESS":"4317 N WESTERN AVE  ","YEAR":2013,"DOING_BUSINESS_AS_NAME":"J & SALOMON AUTO SERVICE INC.","POP_AT_RISK":1182942,"BUSINESS_TYPE":"Tire Facilty Class I (100 - 1,000 Tires)","LEGAL_NAME":"J & SALOMON AUTO SERVICE INC.","LONGITUDE":-87.68849819978944},
{"STATE":"IL","ZIP":60639,"LATTITUDE":41.90920272512576,"ADDRESS":"5801-09 W NORTH AVE 1 ","YEAR":2013,"DOING_BUSINESS_AS_NAME":"CHICAGO MUFFLER AND BRAKE","POP_AT_RISK":98186,"BUSINESS_TYPE":"Tire Facilty Class I (100 - 1,000 Tires)","LEGAL_NAME":"CHICAGO MUFFLER AND BRAKE CORP.","LONGITUDE":-87.77078676719161},
{"STATE":"IL","ZIP":60607,"LATTITUDE":41.872769646119295,"ADDRESS":"727 S JEFFERSON ST  ","YEAR":2013,"DOING_BUSINESS_AS_NAME":"LEE'S FOREIGN CAR SER INC","POP_AT_RISK":267438,"BUSINESS_TYPE":"Tire Facilty Class I (100 - 1,000 Tires)","LEGAL_NAME":"LEE'S FOREIGN CAR SERVICE, INC.","LONGITUDE":-87.6422265708572},
{"STATE":"IL","ZIP":60636,"LATTITUDE":41.77193392666377,"ADDRESS":"6707 S ASHLAND AVE 1ST ","YEAR":2013,"DOING_BUSINESS_AS_NAME":"J&M TIRE SHOP","POP_AT_RISK":77466,"BUSINESS_TYPE":"Tire Facilty Class I (100 - 1,000 Tires)","LEGAL_NAME":"YEISON ESTUARDO MUNOZ RODRIGUEZ","LONGITUDE":-87.66386613760366},
{"STATE":"IL","ZIP":60639,"LATTITUDE":41.91713303101041,"ADDRESS":"5245-51 W GRAND AVE  ","YEAR":2013,"DOING_BUSINESS_AS_NAME":"A GOMEZ TIRES & WHEELS # 2, INC.","POP_AT_RISK":61979,"BUSINESS_TYPE":"Tire Facilty Class I (100 - 1,000 Tires)","LEGAL_NAME":"A GOMEZ TIRES & WHEELS # 2, INC.","LONGITUDE":-87.75760335656416},
{"STATE":"IL","ZIP":60642,"LATTITUDE":41.9041983525716,"ADDRESS":"1224 N HOOKER ST 1 ","YEAR":2013,"DOING_BUSINESS_AS_NAME":"BERMAN'S INFINITI OF CHICAGO, INC.","POP_AT_RISK":85632,"BUSINESS_TYPE":"Tire Facilty Class I (100 - 1,000 Tires)","LEGAL_NAME":"BERMAN'S INFINITI OF CHICAGO, INC.","LONGITUDE":-87.65164083081392},
{"STATE":"IL","ZIP":60614,"LATTITUDE":41.93280849685226,"ADDRESS":"824 W DIVERSEY PKWY  ","YEAR":2013,"DOING_BUSINESS_AS_NAME":"WM J CASSIDY TIRE & AUTO","POP_AT_RISK":1109277,"BUSINESS_TYPE":"Tire Facilty Class I (100 - 1,000 Tires)","LEGAL_NAME":"WM. J. CASSIDY TIRE & AUTO SUPPLY CO.","LONGITUDE":-87.65000549071719},
{"STATE":"IL","ZIP":60652,"LATTITUDE":41.73628922702488,"ADDRESS":"8601-8611 S CICERO AVE 1 ","YEAR":2013,"DOING_BUSINESS_AS_NAME":"PAISANO MUFFLERS AND AUTO SERVICE, LLC","POP_AT_RISK":119615,"BUSINESS_TYPE":"Tire Facilty Class I (100 - 1,000 Tires)","LEGAL_NAME":"PAISANO MUFFLERS AND AUTO SERVICE, LLC","LONGITUDE":-87.74078193737448},
{"STATE":"IL","ZIP":60641,"LATTITUDE":41.95033316739646,"ADDRESS":"3818-3822 N CICERO AVE  ","YEAR":2013,"DOING_BUSINESS_AS_NAME":"NEW MILLENNIUM AUTO REPAIR TIRE & MUFFLER INC.","POP_AT_RISK":351330,"BUSINESS_TYPE":"Tire Facilty Class I (100 - 1,000 Tires)","LEGAL_NAME":"NEW MILLENNIUM AUTO REPAIR TIRE & MUFFLER INC.","LONGITUDE":-87.74737716316537},
{"STATE":"IL","ZIP":60636,"LATTITUDE":41.784878332307144,"ADDRESS":"5959 S WESTERN AVE 1 ","YEAR":2013,"DOING_BUSINESS_AS_NAME":"THE PEP BOYS-MANNY,MOE & JACK STORE #990","POP_AT_RISK":123696,"BUSINESS_TYPE":"Tire Facilty Class I (100 - 1,000 Tires)","LEGAL_NAME":"THE PEP BOYS MANNY MOE & JACK OF CALIFORNIA (INC.)","LONGITUDE":-87.68364769591146},
}