{
{"STATE":"IL","ZIP":60628,"LATTITUDE":41.71161366965141,"ADDRESS":"937 E 100TH ST 1ST ","YEAR":2004,"DOING_BUSINESS_AS_NAME":"EMMETT MCKEE","POP_AT_RISK":108318,"BUSINESS_TYPE":"Peddler, non-food","LEGAL_NAME":"EMMETT MCKEE","LONGITUDE":-87.60036103617287},
{"STATE":"IL","ZIP":60645,"LATTITUDE":42.0040798111816,"ADDRESS":"6735 N CALIFORNIA AVE  ","YEAR":2004,"DOING_BUSINESS_AS_NAME":"ALAN A. GORDON","POP_AT_RISK":565290,"BUSINESS_TYPE":"Peddler, non-food","LEGAL_NAME":"ALAN A. GORDON","LONGITUDE":-87.69966494357851},
{"STATE":"IL","ZIP":60641,"LATTITUDE":41.946392069273905,"ADDRESS":"4256 W ADDISON ST  2","YEAR":2004,"DOING_BUSINESS_AS_NAME":"KLEDIS MEMISHI","POP_AT_RISK":930688,"BUSINESS_TYPE":"Peddler, non-food","LEGAL_NAME":"KLEDIS MEMISHI","LONGITUDE":-87.73440670312719},
{"STATE":"IL","ZIP":60651,"LATTITUDE":41.908096029677004,"ADDRESS":"1515 N LOTUS AVE  ","YEAR":2004,"DOING_BUSINESS_AS_NAME":"ROSIE M SNYDER","POP_AT_RISK":865886,"BUSINESS_TYPE":"Peddler, non-food","LEGAL_NAME":"ROSIE M SNYDER","LONGITUDE":-87.7619862739131},
{"STATE":"IL","ZIP":60629,"LATTITUDE":41.78284958138877,"ADDRESS":"6058 S CALIFORNIA AVE  ","YEAR":2004,"DOING_BUSINESS_AS_NAME":"Willie M. Tate","POP_AT_RISK":699696,"BUSINESS_TYPE":"Peddler, non-food","LEGAL_NAME":"Willie M. Tate","LONGITUDE":-87.69364718956687},
{"STATE":"IL","ZIP":60617,"LATTITUDE":41.68630729082985,"ADDRESS":"11500 S EWING AVE  `","YEAR":2004,"DOING_BUSINESS_AS_NAME":"DANIEL GONZALEZ","POP_AT_RISK":13690,"BUSINESS_TYPE":"Peddler, non-food","LEGAL_NAME":"DANIEL GONZALEZ","LONGITUDE":-87.53541507383017},
{"STATE":"IL","ZIP":60615,"LATTITUDE":41.808674171990155,"ADDRESS":"4800 S LAKE SHORE WEST DR  2506 S","YEAR":2004,"DOING_BUSINESS_AS_NAME":"KATIE R. MILTON","POP_AT_RISK":530010,"BUSINESS_TYPE":"Peddler, non-food","LEGAL_NAME":"KATIE R. MILTON","LONGITUDE":-87.58771708240786},
{"STATE":"IL","ZIP":60621,"LATTITUDE":41.765174335410876,"ADDRESS":"7107 S VINCENNES AVE  2F","YEAR":2004,"DOING_BUSINESS_AS_NAME":"CYNTHIA D. SYKES","POP_AT_RISK":410724,"BUSINESS_TYPE":"Peddler, non-food","LEGAL_NAME":"CYNTHIA D. SYKES","LONGITUDE":-87.62789937790693},
{"STATE":"IL","ZIP":60628,"LATTITUDE":41.69420069144012,"ADDRESS":"321 W 110TH ST  ","YEAR":2004,"DOING_BUSINESS_AS_NAME":"KATHERINE VINSON","POP_AT_RISK":189455,"BUSINESS_TYPE":"Peddler, non-food","LEGAL_NAME":"KATHERINE VINSON","LONGITUDE":-87.63120405517532},
{"STATE":"IL","ZIP":60618,"LATTITUDE":41.9415970649085,"ADDRESS":"3309 N WESTERN AVE  ","YEAR":2004,"DOING_BUSINESS_AS_NAME":"THEODORE ZEGARSKI","POP_AT_RISK":991420,"BUSINESS_TYPE":"Peddler, non-food","LEGAL_NAME":"THEODORE ZEGARSKI","LONGITUDE":-87.68783508842372},
{"STATE":"IL","ZIP":60634,"LATTITUDE":41.93136328351009,"ADDRESS":"2818 N NORDICA AVE  ","YEAR":2004,"DOING_BUSINESS_AS_NAME":"JASIN SULEJMANOVSKA","POP_AT_RISK":266304,"BUSINESS_TYPE":"Peddler, non-food","LEGAL_NAME":"JASIN SULEJMANOVSKI","LONGITUDE":-87.80300057603516},
{"STATE":"IL","ZIP":60651,"LATTITUDE":41.90747211995266,"ADDRESS":"3238 W BEACH AVE  ","YEAR":2004,"DOING_BUSINESS_AS_NAME":"JOSE G ECHEVARRIA SENIOR","POP_AT_RISK":1672725,"BUSINESS_TYPE":"Peddler, non-food","LEGAL_NAME":"JOSE G ECHEVARRIA SR","LONGITUDE":-87.70845217005112},
}