{
{"STATE":"IL","ZIP":60617,"LATTITUDE":41.726329231442904,"ADDRESS":"2320 E 93RD ST  ","YEAR":2012,"DOING_BUSINESS_AS_NAME":"TOWNE PARK LTD\/ADVOCATE TRINITY HOSPITAL","POP_AT_RISK":123864,"BUSINESS_TYPE":"Valet Parking Operator","LEGAL_NAME":"TOWNE PARK, LTD","LONGITUDE":-87.56727090823563},
{"STATE":"IL","ZIP":60616,"LATTITUDE":41.83465022661981,"ADDRESS":"3258 S PRINCETON AVE  ","YEAR":2012,"DOING_BUSINESS_AS_NAME":"Y-NOT VALET II LLC\/ CORK & KERRY","POP_AT_RISK":124080,"BUSINESS_TYPE":"Valet Parking Operator","LEGAL_NAME":"Y-NOT VALET II LLC","LONGITUDE":-87.6341618168069},
{"STATE":"IL","ZIP":60625,"LATTITUDE":41.96805207285672,"ADDRESS":"4753 N LINCOLN AVE  ","YEAR":2012,"DOING_BUSINESS_AS_NAME":"BLK & WHT VALET LLC\/ TRATTORIA TRULLO","POP_AT_RISK":935536,"BUSINESS_TYPE":"Valet Parking Operator","LEGAL_NAME":"BLK & WHT VALET LLC","LONGITUDE":-87.68804000152717},
{"STATE":"IL","ZIP":60647,"LATTITUDE":41.918447569300206,"ADDRESS":"2043 N MILWAUKEE AVE  ","YEAR":2012,"DOING_BUSINESS_AS_NAME":"MIDWEST VALET INC\/ V-LIVE","POP_AT_RISK":57691,"BUSINESS_TYPE":"Valet Parking Operator","LEGAL_NAME":"MIDWEST VALET, INC.","LONGITUDE":-87.68982574887923},
{"STATE":"IL","ZIP":60616,"LATTITUDE":41.84671695664648,"ADDRESS":"2525 S MICHIGAN AVE  ","YEAR":2012,"DOING_BUSINESS_AS_NAME":"Standard Parking\/Mercy Hospital","POP_AT_RISK":42370,"BUSINESS_TYPE":"Valet Parking Operator","LEGAL_NAME":"SP PLUS CORPORATION","LONGITUDE":-87.62336972761213},
{"STATE":"IL","ZIP":60608,"LATTITUDE":41.831724396177286,"ADDRESS":"3434 S HALSTED ST 1 ","YEAR":2012,"DOING_BUSINESS_AS_NAME":"BUFFALO WINGS AND RINGS","POP_AT_RISK":157256,"BUSINESS_TYPE":"Valet Parking Operator","LEGAL_NAME":"BWR BRIDGEPORT, LLC.","LONGITUDE":-87.6462763924342},
{"STATE":"IL","ZIP":60625,"LATTITUDE":41.968359543198794,"ADDRESS":"3940 W LAWRENCE AVE 1ST ","YEAR":2012,"DOING_BUSINESS_AS_NAME":"ADMIRAL THEATRE","POP_AT_RISK":1078256,"BUSINESS_TYPE":"Valet Parking Operator","LEGAL_NAME":"ADMIRAL THEATRE, INC.","LONGITUDE":-87.72726653660831},
{"STATE":"IL","ZIP":60626,"LATTITUDE":42.008035998971195,"ADDRESS":"1330 W MORSE AVE  ","YEAR":2012,"DOING_BUSINESS_AS_NAME":"V.I.P. VALET SERVICES INC.- ACT ONE PUB CAFE","POP_AT_RISK":768492,"BUSINESS_TYPE":"Valet Parking Operator","LEGAL_NAME":"VIP VALET SERVICES INC.","LONGITUDE":-87.66497392358298},
{"STATE":"IL","ZIP":60660,"LATTITUDE":41.98357123084218,"ADDRESS":"1039 W BRYN MAWR AVE  ","YEAR":2012,"DOING_BUSINESS_AS_NAME":"USA PARKING SERVICES, LLC.\/ FRANCESCA BRYN MAWR","POP_AT_RISK":562600,"BUSINESS_TYPE":"Valet Parking Operator","LEGAL_NAME":"USA PARKING SERVICES, LLC.","LONGITUDE":-87.6567539303426},
{"STATE":"IL","ZIP":60631,"LATTITUDE":41.988741561740234,"ADDRESS":"7447 W TALCOTT AVE  ","YEAR":2012,"DOING_BUSINESS_AS_NAME":"ADVANTAGE VALET INC\/ RESURRECTION HOSPITAL","POP_AT_RISK":65232,"BUSINESS_TYPE":"Valet Parking Operator","LEGAL_NAME":"ADVANTAGE VALET PARKING INC","LONGITUDE":-87.81330905109448},
{"STATE":"IL","ZIP":60623,"LATTITUDE":41.85540289350027,"ADDRESS":"2875 W 19TH ST  ","YEAR":2012,"DOING_BUSINESS_AS_NAME":"ADVANTAGE VALET INC\/  ST. ANTHONY'S HOSPITAL","POP_AT_RISK":245485,"BUSINESS_TYPE":"Valet Parking Operator","LEGAL_NAME":"ADVANTAGE VALET PARKING INC","LONGITUDE":-87.69870754487314},
{"STATE":"IL","ZIP":60643,"LATTITUDE":41.714554470686906,"ADDRESS":"9831 S WESTERN AVE  ","YEAR":2012,"DOING_BUSINESS_AS_NAME":"ADVANTAGE VALET PARKING INC\/ ADVOCATE HEALTH CENTER","POP_AT_RISK":154826,"BUSINESS_TYPE":"Valet Parking Operator","LEGAL_NAME":"ADVANTAGE VALET PARKING INC","LONGITUDE":-87.68172059648889},
{"STATE":"IL","ZIP":60646,"LATTITUDE":41.98401086554883,"ADDRESS":"5639 N MILWAUKEE AVE  NORTH","YEAR":2012,"DOING_BUSINESS_AS_NAME":"GALA BANQUETS","POP_AT_RISK":165282,"BUSINESS_TYPE":"Valet Parking Operator","LEGAL_NAME":"CATERING CONCEPTS CORPORATION","LONGITUDE":-87.77517246896801},
{"STATE":"IL","ZIP":60623,"LATTITUDE":41.845451414064215,"ADDRESS":"2528 S KEDZIE AVE  ","YEAR":2012,"DOING_BUSINESS_AS_NAME":"LAKE SHORE PARKING VALET SERVICES INC.\/MI TIERRA","POP_AT_RISK":404604,"BUSINESS_TYPE":"Valet Parking Operator","LEGAL_NAME":"LAKE SHORE PARKING VALET SERVICES INC.","LONGITUDE":-87.70521428516844},
}