{
{"STATE":"IL","ZIP":60644,"LATTITUDE":41.88018558183858,"ADDRESS":"5425 W MADISON ST  ","YEAR":2012,"DOING_BUSINESS_AS_NAME":"MAC'S RECORDS","POP_AT_RISK":561198,"BUSINESS_TYPE":"Broker","LEGAL_NAME":"EDDIE MISTER","LONGITUDE":-87.76109289845529},
{"STATE":"IL","ZIP":60617,"LATTITUDE":41.73836365090802,"ADDRESS":"8610 S STONY ISLAND AVE  1","YEAR":2012,"DOING_BUSINESS_AS_NAME":"MCCANNS TRAVEL CONSULTANTS","POP_AT_RISK":293607,"BUSINESS_TYPE":"Broker","LEGAL_NAME":"GERALDINE MCCANN","LONGITUDE":-87.58582376980675},
{"STATE":"IL","ZIP":60632,"LATTITUDE":41.81907105140021,"ADDRESS":"4102 S ARCHER AVE 1ST ","YEAR":2012,"DOING_BUSINESS_AS_NAME":"TURI MEX TRAVEL","POP_AT_RISK":47040,"BUSINESS_TYPE":"Broker","LEGAL_NAME":"MARIA E MELENDEZ","LONGITUDE":-87.69635703054942},
{"STATE":"IL","ZIP":60638,"LATTITUDE":41.792020152973315,"ADDRESS":"6835 W ARCHER AVE 1ST ","YEAR":2012,"DOING_BUSINESS_AS_NAME":"TRAVEL FORUM,INC","POP_AT_RISK":37594,"BUSINESS_TYPE":"Broker","LEGAL_NAME":"TRAVEL FORUM,INC","LONGITUDE":-87.79293805360257},
{"STATE":"IL","ZIP":60634,"LATTITUDE":41.9380883476556,"ADDRESS":"7418 W BELMONT AVE  ","YEAR":2012,"DOING_BUSINESS_AS_NAME":"VENUS TRAVEL INC","POP_AT_RISK":42383,"BUSINESS_TYPE":"Broker","LEGAL_NAME":"VENUS TRAVEL INC","LONGITUDE":-87.81216530276042},
{"STATE":"IL","ZIP":60617,"LATTITUDE":41.72769636162106,"ADDRESS":"9214 S COMMERCIAL AVE 1ST ","YEAR":2012,"DOING_BUSINESS_AS_NAME":"AEREA TRAVELS","POP_AT_RISK":123914,"BUSINESS_TYPE":"Broker","LEGAL_NAME":"AEREA TRAVELS INC","LONGITUDE":-87.551350171216},
{"STATE":"IL","ZIP":60623,"LATTITUDE":41.8516385518156,"ADDRESS":"3239 W CERMAK RD 1ST ","YEAR":2012,"DOING_BUSINESS_AS_NAME":"AUTOBUSES EL BAJIO","POP_AT_RISK":62497,"BUSINESS_TYPE":"Broker","LEGAL_NAME":"ONESIMO G. TORRES","LONGITUDE":-87.70671251630307},
{"STATE":"IL","ZIP":60631,"LATTITUDE":41.9983154842264,"ADDRESS":"6444 N MILWAUKEE AVE 1 ","YEAR":2012,"DOING_BUSINESS_AS_NAME":"UNIDEA TRAVEL INC","POP_AT_RISK":20191,"BUSINESS_TYPE":"Broker","LEGAL_NAME":"Unidea Travel Inc","LONGITUDE":-87.78893311288257},
{"STATE":"IL","ZIP":60620,"LATTITUDE":41.74595426680885,"ADDRESS":"8116 S WESTERN AVE 1ST ","YEAR":2012,"DOING_BUSINESS_AS_NAME":"WAY TO GO TRAVEL","POP_AT_RISK":171042,"BUSINESS_TYPE":"Broker","LEGAL_NAME":"VIRGINIA L. SMITH","LONGITUDE":-87.68289677791954},
{"STATE":"IL","ZIP":60622,"LATTITUDE":41.89578536128671,"ADDRESS":"2642 W CHICAGO AVE FIRST ","YEAR":2012,"DOING_BUSINESS_AS_NAME":"BRIDGE2CUBA","POP_AT_RISK":172340,"BUSINESS_TYPE":"Broker","LEGAL_NAME":"C&T CHARTERS, INC.","LONGITUDE":-87.69350395147679},
{"STATE":"IL","ZIP":60612,"LATTITUDE":41.88142460173036,"ADDRESS":"1960 W MADISON ST 1ST ","YEAR":2012,"DOING_BUSINESS_AS_NAME":"GOLD COAST TICKETS","POP_AT_RISK":154570,"BUSINESS_TYPE":"Broker","LEGAL_NAME":"GOLD COAST TICKETS","LONGITUDE":-87.67658458679239},
{"STATE":"IL","ZIP":60636,"LATTITUDE":41.782009686930024,"ADDRESS":"6128 S WESTERN AVE  ","YEAR":2012,"DOING_BUSINESS_AS_NAME":"NORTHERN STAR INC.","POP_AT_RISK":420480,"BUSINESS_TYPE":"Broker","LEGAL_NAME":"NORTHERN STAR INC.","LONGITUDE":-87.68386309967458},
{"STATE":"IL","ZIP":60652,"LATTITUDE":41.74039116700227,"ADDRESS":"8358 S PULASKI RD 1 ","YEAR":2012,"DOING_BUSINESS_AS_NAME":"JETWAY WORLD TRAVEL","POP_AT_RISK":95526,"BUSINESS_TYPE":"Broker","LEGAL_NAME":"SCOTLIND TRAVEL LTD","LONGITUDE":-87.72176718525304},
{"STATE":"IL","ZIP":60646,"LATTITUDE":41.997129083533984,"ADDRESS":"4001 W DEVON AVE 4 405","YEAR":2012,"DOING_BUSINESS_AS_NAME":"SKYLINK TRAVEL, INC","POP_AT_RISK":40028,"BUSINESS_TYPE":"Broker","LEGAL_NAME":"SKYLINK TRAVEL, INC","LONGITUDE":-87.72896986786284},
{"STATE":"IL","ZIP":60639,"LATTITUDE":41.90979943439147,"ADDRESS":"4560 W NORTH AVE 1 1","YEAR":2012,"DOING_BUSINESS_AS_NAME":"TICKETMASER","POP_AT_RISK":45301,"BUSINESS_TYPE":"Broker","LEGAL_NAME":"TICKETMASTER L.L.C.","LONGITUDE":-87.74095425785855},
{"STATE":"IL","ZIP":60609,"LATTITUDE":41.80869986325559,"ADDRESS":"1640 W 47TH ST 1ST FLOOR 1","YEAR":2012,"DOING_BUSINESS_AS_NAME":"ACUARIO TRAVEL AGENCY","POP_AT_RISK":37859,"BUSINESS_TYPE":"Broker","LEGAL_NAME":"DORANTES CORPORATION","LONGITUDE":-87.66655836957318},
{"STATE":"IL","ZIP":60656,"LATTITUDE":41.9735836675355,"ADDRESS":"5057 N HARLEM AVE 1ST ","YEAR":2012,"DOING_BUSINESS_AS_NAME":"INTERDOME TRAVEL INC","POP_AT_RISK":30252,"BUSINESS_TYPE":"Broker","LEGAL_NAME":"INTERDOME TRAVEL INC","LONGITUDE":-87.80691645928532},
{"STATE":"IL","ZIP":60608,"LATTITUDE":41.85258059403416,"ADDRESS":"2139 S CALIFORNIA AVE  1","YEAR":2012,"DOING_BUSINESS_AS_NAME":"AUTOBUSES LATINOS INC.","POP_AT_RISK":58070,"BUSINESS_TYPE":"Broker","LEGAL_NAME":"AUTOBUSES LATINOS INC","LONGITUDE":-87.69532182802504},
{"STATE":"IL","ZIP":60666,"LATTITUDE":42.008536400868735,"ADDRESS":"11601 W TOUHY AVE  ","YEAR":2012,"DOING_BUSINESS_AS_NAME":"CONTINENTAL AIRLINES","POP_AT_RISK":4956,"BUSINESS_TYPE":"Broker","LEGAL_NAME":"UNITED AIRLINES, INC.","LONGITUDE":-87.91442843927047},
{"STATE":"IL","ZIP":60634,"LATTITUDE":41.94523859464051,"ADDRESS":"7045 W ADDISON ST 1ST ","YEAR":2012,"DOING_BUSINESS_AS_NAME":"PARADISE VACATION INC","POP_AT_RISK":29628,"BUSINESS_TYPE":"Broker","LEGAL_NAME":"PARADISE VACATIONS INC","LONGITUDE":-87.80268772927673},
{"STATE":"IL","ZIP":60616,"LATTITUDE":41.84105059239382,"ADDRESS":"2930 S MICHIGAN AVE 1ST 100","YEAR":2012,"DOING_BUSINESS_AS_NAME":"TRA-VAL SERVICES, INC.","POP_AT_RISK":65092,"BUSINESS_TYPE":"Broker","LEGAL_NAME":"TRA-VAL SERVICES, INC.","LONGITUDE":-87.62366893370942},
{"STATE":"IL","ZIP":60631,"LATTITUDE":41.986677891904584,"ADDRESS":"8501 W HIGGINS RD 2ND 210","YEAR":2012,"DOING_BUSINESS_AS_NAME":"TURKISH AIRLINES, INC.","POP_AT_RISK":70592,"BUSINESS_TYPE":"Broker","LEGAL_NAME":"TURKISH AIRLINES, INC.","LONGITUDE":-87.83935860925702},
{"STATE":"IL","ZIP":60617,"LATTITUDE":41.70261747341196,"ADDRESS":"3701 E 106TH ST  ","YEAR":2012,"DOING_BUSINESS_AS_NAME":"UNLIMITED WORLD TRAVEL III INC","POP_AT_RISK":20967,"BUSINESS_TYPE":"Broker","LEGAL_NAME":"UNLIMITED WORLD TRAVEL","LONGITUDE":-87.53402141983864},
{"STATE":"IL","ZIP":60623,"LATTITUDE":41.83517807083239,"ADDRESS":"3200 S KEDZIE AVE 1 ","YEAR":2012,"DOING_BUSINESS_AS_NAME":"CHICAGO BUS LINES COMPANY","POP_AT_RISK":59166,"BUSINESS_TYPE":"Broker","LEGAL_NAME":"CHICAGO BUS LINES COMPANY","LONGITUDE":-87.70490856262688},
{"STATE":"IL","ZIP":60608,"LATTITUDE":41.836468347729024,"ADDRESS":"3145 S ASHLAND AVE  ","YEAR":2012,"DOING_BUSINESS_AS_NAME":"DOMINICK'S # 1100","POP_AT_RISK":60056,"BUSINESS_TYPE":"Broker","LEGAL_NAME":"DOMINICK'S FINER FOODS, LLC","LONGITUDE":-87.66556690213167},
{"STATE":"IL","ZIP":60626,"LATTITUDE":42.01928855008811,"ADDRESS":"1763 W HOWARD ST  ","YEAR":2012,"DOING_BUSINESS_AS_NAME":"DOMINICK'S #160\/1698","POP_AT_RISK":375444,"BUSINESS_TYPE":"Broker","LEGAL_NAME":"DOMINICK'S FINER FOODS, LLC","LONGITUDE":-87.67505850938775},
{"STATE":"IL","ZIP":60649,"LATTITUDE":41.765990001140594,"ADDRESS":"2101 E 71ST ST  ","YEAR":2012,"DOING_BUSINESS_AS_NAME":"DOMINICK'S # 130\/1130","POP_AT_RISK":130011,"BUSINESS_TYPE":"Broker","LEGAL_NAME":"DOMINICK'S FINER FOODS, LLC","LONGITUDE":-87.57378733665412},
{"STATE":"IL","ZIP":60660,"LATTITUDE":41.99613517805707,"ADDRESS":"6257 N CLARK ST  ","YEAR":2012,"DOING_BUSINESS_AS_NAME":"PLEASANT TRAVEL & TOURS INC","POP_AT_RISK":87058,"BUSINESS_TYPE":"Broker","LEGAL_NAME":"PLEASANT TRAVEL & TOURS INC","LONGITUDE":-87.67006406174681},
{"STATE":"IL","ZIP":60656,"LATTITUDE":41.980790578622795,"ADDRESS":"7135 W HIGGINS AVE  ","YEAR":2012,"DOING_BUSINESS_AS_NAME":"COSMOPOLITAN TRAVEL SERVICE","POP_AT_RISK":29614,"BUSINESS_TYPE":"Broker","LEGAL_NAME":"COSMOPOPLITAN TRAVEL SERVICES","LONGITUDE":-87.80599226016535},
{"STATE":"IL","ZIP":60640,"LATTITUDE":41.96492575287694,"ADDRESS":"4545 N BROADWAY  1ST ","YEAR":2012,"DOING_BUSINESS_AS_NAME":"J B EXPRESS TRAVEL AGENCY INC","POP_AT_RISK":68478,"BUSINESS_TYPE":"Broker","LEGAL_NAME":"J B EXPRESS & TRAVEL AGENCY IN","LONGITUDE":-87.65700813235483},
{"STATE":"IL","ZIP":60633,"LATTITUDE":41.653769484084265,"ADDRESS":"13259 S BALTIMORE AVE 1ST ","YEAR":2012,"DOING_BUSINESS_AS_NAME":"PACK YOUR BAGS TRAVEL & CRUISE","POP_AT_RISK":40896,"BUSINESS_TYPE":"Broker","LEGAL_NAME":"PACK YOUR BAGS & TRAVEL CRUISE","LONGITUDE":-87.54700271536521},
{"STATE":"IL","ZIP":60651,"LATTITUDE":41.898867241581556,"ADDRESS":"4630 W AUGUSTA BLVD 1ST 1","YEAR":2012,"DOING_BUSINESS_AS_NAME":"TRANSPORTES GUERRERO","POP_AT_RISK":107130,"BUSINESS_TYPE":"Broker","LEGAL_NAME":"TOURS & CHARTERS SALGADO, INC.","LONGITUDE":-87.74249483200671},
{"STATE":"IL","ZIP":60647,"LATTITUDE":41.917301978826444,"ADDRESS":"3103 W ARMITAGE AVE 1 ","YEAR":2012,"DOING_BUSINESS_AS_NAME":"SAN JUAN STAR TRAVEL","POP_AT_RISK":146612,"BUSINESS_TYPE":"Broker","LEGAL_NAME":"FOUR CORNERS OF THE WORLD TRAVEL, INC.","LONGITUDE":-87.70544873331816},
{"STATE":"IL","ZIP":60617,"LATTITUDE":41.70418876858517,"ADDRESS":"10510 S EWING AVE 1 ","YEAR":2012,"DOING_BUSINESS_AS_NAME":"U.P. TRAVEL AND TAX SERVICE AGENCY","POP_AT_RISK":21953,"BUSINESS_TYPE":"Broker","LEGAL_NAME":"UNITED PROFESSIONAL TRAVEL INCORPORATED","LONGITUDE":-87.53543081954446},
}