{
{"STATE":"IL","ZIP":60617,"LATTITUDE":41.713787168999794,"ADDRESS":"10000 S AVENUE L  1 ","YEAR":2005,"DOING_BUSINESS_AS_NAME":"ADRIATIC CAFE","POP_AT_RISK":98635,"BUSINESS_TYPE":"Consumption on Premises - Incidental Activity","LEGAL_NAME":"GOLDYE, INC.","LONGITUDE":-87.53663320988323},
{"STATE":"IL","ZIP":60630,"LATTITUDE":41.97480875941948,"ADDRESS":"6166 W HIGGINS AVE  ","YEAR":2005,"DOING_BUSINESS_AS_NAME":"ROSELLI'S REST. INC.","POP_AT_RISK":35157,"BUSINESS_TYPE":"Consumption on Premises - Incidental Activity","LEGAL_NAME":"ROSELLI'S INC","LONGITUDE":-87.78292505261017},
{"STATE":"IL","ZIP":60629,"LATTITUDE":41.78624677993347,"ADDRESS":"3452-3454 W 59TH ST 1ST ","YEAR":2005,"DOING_BUSINESS_AS_NAME":"LAS QUINCE LETRAS","POP_AT_RISK":750324,"BUSINESS_TYPE":"Consumption on Premises - Incidental Activity","LEGAL_NAME":"ALFONSO GARCIA","LONGITUDE":-87.7104310729898},
{"STATE":"IL","ZIP":60613,"LATTITUDE":41.95474491770697,"ADDRESS":"4005 N BROADWAY   ","YEAR":2005,"DOING_BUSINESS_AS_NAME":"PLAYA AZUL RESTAURANT","POP_AT_RISK":151090,"BUSINESS_TYPE":"Consumption on Premises - Incidental Activity","LEGAL_NAME":"PLAYA AZUL INC","LONGITUDE":-87.65049531048885},
{"STATE":"IL","ZIP":60646,"LATTITUDE":41.98614682246569,"ADDRESS":"5760 N MILWAUKEE AVE  ","YEAR":2005,"DOING_BUSINESS_AS_NAME":"MOM'S OLD RECIPE","POP_AT_RISK":22908,"BUSINESS_TYPE":"Consumption on Premises - Incidental Activity","LEGAL_NAME":"CAFE STOA, INC.","LONGITUDE":-87.77748161332332},
{"STATE":"IL","ZIP":60647,"LATTITUDE":41.92381303714375,"ADDRESS":"2331 N CALIFORNIA AVE  ","YEAR":2005,"DOING_BUSINESS_AS_NAME":"DON CHEMA","POP_AT_RISK":67708,"BUSINESS_TYPE":"Consumption on Premises - Incidental Activity","LEGAL_NAME":"DON CHEMA, LTD.","LONGITUDE":-87.69724202060382},
{"STATE":"IL","ZIP":60612,"LATTITUDE":41.89078042413231,"ADDRESS":"2344 W GRAND AVE  ","YEAR":2005,"DOING_BUSINESS_AS_NAME":"THE COUCH","POP_AT_RISK":129750,"BUSINESS_TYPE":"Consumption on Premises - Incidental Activity","LEGAL_NAME":"GRAND DOG, INC.","LONGITUDE":-87.68604133663814},
{"STATE":"IL","ZIP":60647,"LATTITUDE":41.918680225458886,"ADDRESS":"2032 N DAMEN AVE  ","YEAR":2005,"DOING_BUSINESS_AS_NAME":"LOS ROSALES","POP_AT_RISK":52836,"BUSINESS_TYPE":"Consumption on Premises - Incidental Activity","LEGAL_NAME":"LOS ROSALES INC.","LONGITUDE":-87.67780033619368},
{"STATE":"IL","ZIP":60634,"LATTITUDE":41.93803468310132,"ADDRESS":"3143-3145 N CENTRAL AVE 1ST ","YEAR":2005,"DOING_BUSINESS_AS_NAME":"BARBAKAN RESTAURANT","POP_AT_RISK":477952,"BUSINESS_TYPE":"Consumption on Premises - Incidental Activity","LEGAL_NAME":"NEW BARBAKAN LLC","LONGITUDE":-87.76633200355475},
{"STATE":"IL","ZIP":60619,"LATTITUDE":41.75853578786506,"ADDRESS":"420-422 E 75TH ST  ","YEAR":2005,"DOING_BUSINESS_AS_NAME":"Army & Lou's Restaurant","POP_AT_RISK":190730,"BUSINESS_TYPE":"Consumption on Premises - Incidental Activity","LEGAL_NAME":"IN GOOD TASTE, INC.","LONGITUDE":-87.61420475549959},
{"STATE":"IL","ZIP":60623,"LATTITUDE":41.83676105438613,"ADDRESS":"4023-4025 W 31ST ST  MAIN","YEAR":2005,"DOING_BUSINESS_AS_NAME":"PUERTO DEL MAR, INC.","POP_AT_RISK":464816,"BUSINESS_TYPE":"Consumption on Premises - Incidental Activity","LEGAL_NAME":"PUERTO DEL MAR,INC.","LONGITUDE":-87.72527035473183},
{"STATE":"IL","ZIP":60640,"LATTITUDE":41.979943018882814,"ADDRESS":"5402 N CLARK ST  ","YEAR":2005,"DOING_BUSINESS_AS_NAME":"TOMBOY RESTAURANT","POP_AT_RISK":118206,"BUSINESS_TYPE":"Consumption on Premises - Incidental Activity","LEGAL_NAME":"L & S CHICAGO,  INC.","LONGITUDE":-87.66843346037145},
{"STATE":"IL","ZIP":60634,"LATTITUDE":41.95302030864294,"ADDRESS":"5737 W IRVING PARK RD  ","YEAR":2005,"DOING_BUSINESS_AS_NAME":"MARTINI CLUB","POP_AT_RISK":275625,"BUSINESS_TYPE":"Consumption on Premises - Incidental Activity","LEGAL_NAME":"O'CONNOR'S PUB, INC.","LONGITUDE":-87.77096800058055},
{"STATE":"IL","ZIP":60626,"LATTITUDE":42.00201709856038,"ADDRESS":"6568 N SHERIDAN RD  ","YEAR":2005,"DOING_BUSINESS_AS_NAME":"CARMEN'S  OF LOYOLA","POP_AT_RISK":730314,"BUSINESS_TYPE":"Consumption on Premises - Incidental Activity","LEGAL_NAME":"CARMEN'S OF LOYOLA INC","LONGITUDE":-87.660908789659},
{"STATE":"IL","ZIP":60656,"LATTITUDE":41.9802687522649,"ADDRESS":"7004-7006 W HIGGINS AVE 1ST #","YEAR":2005,"DOING_BUSINESS_AS_NAME":"DINO'S PIZZA","POP_AT_RISK":118456,"BUSINESS_TYPE":"Consumption on Premises - Incidental Activity","LEGAL_NAME":"B - J RESTAURANTS, INC.","LONGITUDE":-87.80254235319276},
{"STATE":"IL","ZIP":60659,"LATTITUDE":41.997535204364794,"ADDRESS":"3106 W DEVON AVE  ","YEAR":2005,"DOING_BUSINESS_AS_NAME":"DU SHONG RESTAURANT INC","POP_AT_RISK":621269,"BUSINESS_TYPE":"Consumption on Premises - Incidental Activity","LEGAL_NAME":"DU SHONG RESTAURANT INC","LONGITUDE":-87.70726013559047},
{"STATE":"IL","ZIP":60657,"LATTITUDE":41.935989256760124,"ADDRESS":"2936 N BROADWAY   ","YEAR":2005,"DOING_BUSINESS_AS_NAME":"Koryo","POP_AT_RISK":625000,"BUSINESS_TYPE":"Consumption on Premises - Incidental Activity","LEGAL_NAME":"Y & J  RESTAURANT, INC.","LONGITUDE":-87.64440858727015},
{"STATE":"IL","ZIP":60666,"LATTITUDE":42.008536400868735,"ADDRESS":"11601 W TOUHY AVE  B 21","YEAR":2005,"DOING_BUSINESS_AS_NAME":"GALILEO BAR","POP_AT_RISK":4956,"BUSINESS_TYPE":"Consumption on Premises - Incidental Activity","LEGAL_NAME":"HOST INTERNATIONAL, INC.","LONGITUDE":-87.91442843927047},
{"STATE":"IL","ZIP":60646,"LATTITUDE":41.997435233866156,"ADDRESS":"5310 W DEVON AVE  ","YEAR":2005,"DOING_BUSINESS_AS_NAME":"MOHER","POP_AT_RISK":53868,"BUSINESS_TYPE":"Consumption on Premises - Incidental Activity","LEGAL_NAME":"FALLING OFF THE CLIFF, LLC","LONGITUDE":-87.76125861652775},
{"STATE":"IL","ZIP":60625,"LATTITUDE":41.96427235567267,"ADDRESS":"4539 N LINCOLN AVE  1ST F","YEAR":2005,"DOING_BUSINESS_AS_NAME":"Soiree Bar and Restaurant","POP_AT_RISK":126462,"BUSINESS_TYPE":"Consumption on Premises - Incidental Activity","LEGAL_NAME":"SHE' SHE' RESTAURANT CORP.","LONGITUDE":-87.68554256570745},
{"STATE":"IL","ZIP":60618,"LATTITUDE":41.93326666253037,"ADDRESS":"2860 N MILWAUKEE AVE  ","YEAR":2005,"DOING_BUSINESS_AS_NAME":"ZACATECAS MEXICAN RESTAURANT","POP_AT_RISK":208998,"BUSINESS_TYPE":"Consumption on Premises - Incidental Activity","LEGAL_NAME":"ZACATECAS ON MILWAUKEE INC","LONGITUDE":-87.71451866341309},
{"STATE":"IL","ZIP":60647,"LATTITUDE":41.924503482934156,"ADDRESS":"3565-3567 W FULLERTON AVE  ","YEAR":2005,"DOING_BUSINESS_AS_NAME":"LUNA MEXICANA RESTAURANT","POP_AT_RISK":598920,"BUSINESS_TYPE":"Consumption on Premises - Incidental Activity","LEGAL_NAME":"LUNA MEXICANA RESTAURANT INC.","LONGITUDE":-87.71630080860683},
{"STATE":"IL","ZIP":60625,"LATTITUDE":41.96827685611473,"ADDRESS":"3433 W LAWRENCE AVE  ","YEAR":2005,"DOING_BUSINESS_AS_NAME":"LA FOGATA RESTAURANT","POP_AT_RISK":70124,"BUSINESS_TYPE":"Consumption on Premises - Incidental Activity","LEGAL_NAME":"LAWRENCE AVENUE PEPE'S TACOS, INC.","LONGITUDE":-87.7147250873443},
{"STATE":"IL","ZIP":60605,"LATTITUDE":41.865732312266495,"ADDRESS":"1300 S LAKE SHORE DR  ","YEAR":2005,"DOING_BUSINESS_AS_NAME":"Galileo's","POP_AT_RISK":69252,"BUSINESS_TYPE":"Consumption on Premises - Incidental Activity","LEGAL_NAME":"Food For Thought Cafe at the Adler, Ltd.","LONGITUDE":-87.61966863731983},
{"STATE":"IL","ZIP":60643,"LATTITUDE":41.677565550357954,"ADDRESS":"11901 S LOOMIS ST 1ST ","YEAR":2005,"DOING_BUSINESS_AS_NAME":"HARAMBEE HOUSE BANQUETS & DUSTIES BUFFETS, INC.","POP_AT_RISK":97255,"BUSINESS_TYPE":"Consumption on Premises - Incidental Activity","LEGAL_NAME":"HARAMBEE HOUSE BANQUETS & DUSTIES BUFFETS, INC.","LONGITUDE":-87.65638236856995},
{"STATE":"IL","ZIP":60634,"LATTITUDE":41.93952779973338,"ADDRESS":"8600 W FOREST PRESERVE AVE  ","YEAR":2005,"DOING_BUSINESS_AS_NAME":"INDIAN BOUNDARY GOLF COURSE","POP_AT_RISK":67912,"BUSINESS_TYPE":"Consumption on Premises - Incidental Activity","LEGAL_NAME":"INDIAN BOUNDARY FOOD AND BEVERAGE MANAGEMENT, LLC","LONGITUDE":-87.84003995465112},
}