{
{"STATE":"IL","ZIP":60707,"LATTITUDE":41.93035713474608,"ADDRESS":"2745-2747 N HARLEM AVE  ","YEAR":2010,"DOING_BUSINESS_AS_NAME":"POLAMER INC","POP_AT_RISK":50813,"BUSINESS_TYPE":"Broker","LEGAL_NAME":"POLAMER INC","LONGITUDE":-87.8063300970017},
{"STATE":"IL","ZIP":60644,"LATTITUDE":41.88018558183858,"ADDRESS":"5425 W MADISON ST  ","YEAR":2010,"DOING_BUSINESS_AS_NAME":"MAC'S RECORDS","POP_AT_RISK":561198,"BUSINESS_TYPE":"Broker","LEGAL_NAME":"EDDIE MISTER","LONGITUDE":-87.76109289845529},
{"STATE":"IL","ZIP":60617,"LATTITUDE":41.73209646754598,"ADDRESS":"8943 S STONY ISLAND AVE 1ST ","YEAR":2010,"DOING_BUSINESS_AS_NAME":"SKYLARK TRAVEL AGENCY INC","POP_AT_RISK":18937,"BUSINESS_TYPE":"Broker","LEGAL_NAME":"LINDA M JONES","LONGITUDE":-87.58495319684926},
{"STATE":"IL","ZIP":60617,"LATTITUDE":41.73836365090802,"ADDRESS":"8610 S STONY ISLAND AVE  1","YEAR":2010,"DOING_BUSINESS_AS_NAME":"MCCANNS TRAVEL CONSULTANTS","POP_AT_RISK":97869,"BUSINESS_TYPE":"Broker","LEGAL_NAME":"GERALDINE MCCANN","LONGITUDE":-87.58582376980675},
{"STATE":"IL","ZIP":60638,"LATTITUDE":41.792020152973315,"ADDRESS":"6835 W ARCHER AVE 1ST ","YEAR":2010,"DOING_BUSINESS_AS_NAME":"TRAVEL FORUM,INC","POP_AT_RISK":37594,"BUSINESS_TYPE":"Broker","LEGAL_NAME":"TRAVEL FORUM,INC","LONGITUDE":-87.79293805360257},
{"STATE":"IL","ZIP":60634,"LATTITUDE":41.9380883476556,"ADDRESS":"7418 W BELMONT AVE  ","YEAR":2010,"DOING_BUSINESS_AS_NAME":"VENUS TRAVEL INC","POP_AT_RISK":42383,"BUSINESS_TYPE":"Broker","LEGAL_NAME":"VENUS TRAVEL INC","LONGITUDE":-87.81216530276042},
{"STATE":"IL","ZIP":60620,"LATTITUDE":41.74595426680885,"ADDRESS":"8116 S WESTERN AVE 1ST ","YEAR":2010,"DOING_BUSINESS_AS_NAME":"WAY TO GO TRAVEL","POP_AT_RISK":171042,"BUSINESS_TYPE":"Broker","LEGAL_NAME":"VIRGINIA L. SMITH","LONGITUDE":-87.68289677791954},
{"STATE":"IL","ZIP":60643,"LATTITUDE":41.706631713956725,"ADDRESS":"1439 W 103RD ST  2","YEAR":2010,"DOING_BUSINESS_AS_NAME":"TWINS TRAVEL UNLIMITED","POP_AT_RISK":51508,"BUSINESS_TYPE":"Broker","LEGAL_NAME":"EVELYN  M.ANDERSON","LONGITUDE":-87.65896142211443},
{"STATE":"IL","ZIP":60652,"LATTITUDE":41.74039116700227,"ADDRESS":"8358 S PULASKI RD 1 ","YEAR":2010,"DOING_BUSINESS_AS_NAME":"JETWAY WORLD TRAVEL","POP_AT_RISK":95526,"BUSINESS_TYPE":"Broker","LEGAL_NAME":"SCOTLIND TRAVEL LTD","LONGITUDE":-87.72176718525304},
{"STATE":"IL","ZIP":60646,"LATTITUDE":41.997129083533984,"ADDRESS":"4001 W DEVON AVE 4 405","YEAR":2010,"DOING_BUSINESS_AS_NAME":"SKYLINK TRAVEL, INC","POP_AT_RISK":20014,"BUSINESS_TYPE":"Broker","LEGAL_NAME":"SKYLINK TRAVEL, INC","LONGITUDE":-87.72896986786284},
{"STATE":"IL","ZIP":60655,"LATTITUDE":41.69163599044943,"ADDRESS":"2559 W 111TH ST  ","YEAR":2010,"DOING_BUSINESS_AS_NAME":"DISCOVER TRAVEL, INC","POP_AT_RISK":21672,"BUSINESS_TYPE":"Broker","LEGAL_NAME":"DISCOVER TRAVEL, INC","LONGITUDE":-87.68577418115912},
{"STATE":"IL","ZIP":60609,"LATTITUDE":41.80869986325559,"ADDRESS":"1640 W 47TH ST 1ST FLOOR 1","YEAR":2010,"DOING_BUSINESS_AS_NAME":"ACUARIO TRAVEL AGENCY","POP_AT_RISK":37859,"BUSINESS_TYPE":"Broker","LEGAL_NAME":"DORANTES CORPORATION","LONGITUDE":-87.66655836957318},
{"STATE":"IL","ZIP":60656,"LATTITUDE":41.9735836675355,"ADDRESS":"5057 N HARLEM AVE 1ST ","YEAR":2010,"DOING_BUSINESS_AS_NAME":"INTERDOME TRAVEL INC","POP_AT_RISK":30252,"BUSINESS_TYPE":"Broker","LEGAL_NAME":"INTERDOME TRAVEL INC","LONGITUDE":-87.80691645928532},
{"STATE":"IL","ZIP":60643,"LATTITUDE":41.716644944405935,"ADDRESS":"9723 S WESTERN AVE  STORE","YEAR":2010,"DOING_BUSINESS_AS_NAME":"WIDE WORLD TRAVEL","POP_AT_RISK":25289,"BUSINESS_TYPE":"Broker","LEGAL_NAME":"WIDE WORLD TOURS INC","LONGITUDE":-87.68178906643114},
{"STATE":"IL","ZIP":60666,"LATTITUDE":42.008536400868735,"ADDRESS":"11601 W TOUHY AVE  ","YEAR":2010,"DOING_BUSINESS_AS_NAME":"CONTINENTAL AIRLINES","POP_AT_RISK":4956,"BUSINESS_TYPE":"Broker","LEGAL_NAME":"UNITED AIRLINES, INC.","LONGITUDE":-87.91442843927047},
{"STATE":"IL","ZIP":60631,"LATTITUDE":42.01748743236638,"ADDRESS":"7512 N HARLEM AVE 1ST ","YEAR":2010,"DOING_BUSINESS_AS_NAME":"METROPOLE TRAVEL, INC.","POP_AT_RISK":56158,"BUSINESS_TYPE":"Broker","LEGAL_NAME":"METROPOLE TRAVEL, INC.","LONGITUDE":-87.80671443332021},
{"STATE":"IL","ZIP":60619,"LATTITUDE":41.758598682034524,"ADDRESS":"604 E 75TH ST  ","YEAR":2010,"DOING_BUSINESS_AS_NAME":"ALFA I TRAVEL AGENCY","POP_AT_RISK":352363,"BUSINESS_TYPE":"Broker","LEGAL_NAME":"SANDRA WILLIAMS FOSTER","LONGITUDE":-87.6100309563656},
{"STATE":"IL","ZIP":60616,"LATTITUDE":41.838333344180036,"ADDRESS":"439 E 31ST ST 1 ","YEAR":2010,"DOING_BUSINESS_AS_NAME":"TRA-VAL SERVICES","POP_AT_RISK":95896,"BUSINESS_TYPE":"Broker","LEGAL_NAME":"TRA-VAL SERVICES, INC.","LONGITUDE":-87.6156134594386},
{"STATE":"IL","ZIP":60615,"LATTITUDE":41.79944187210379,"ADDRESS":"1525 E 53RD ST 1ST 100","YEAR":2010,"DOING_BUSINESS_AS_NAME":"UNIVERSITY TRAVEL, INC.","POP_AT_RISK":661963,"BUSINESS_TYPE":"Broker","LEGAL_NAME":"UNIVERSITY TRAVEL INC.","LONGITUDE":-87.58809838930625},
{"STATE":"IL","ZIP":60626,"LATTITUDE":42.01928855008811,"ADDRESS":"1763 W HOWARD ST  ","YEAR":2010,"DOING_BUSINESS_AS_NAME":"DOMINICK'S #160\/1698","POP_AT_RISK":62574,"BUSINESS_TYPE":"Broker","LEGAL_NAME":"DOMINICK'S FINER FOODS, LLC","LONGITUDE":-87.67505850938775},
{"STATE":"IL","ZIP":60649,"LATTITUDE":41.765990001140594,"ADDRESS":"2101 E 71ST ST  ","YEAR":2010,"DOING_BUSINESS_AS_NAME":"DOMINICK'S # 130\/1130","POP_AT_RISK":130011,"BUSINESS_TYPE":"Broker","LEGAL_NAME":"DOMINICK'S FINER FOODS, LLC","LONGITUDE":-87.57378733665412},
{"STATE":"IL","ZIP":60620,"LATTITUDE":41.73589838622629,"ADDRESS":"953 W 87TH ST  ","YEAR":2010,"DOING_BUSINESS_AS_NAME":"TREASURE ISLAND TRAVEL INC","POP_AT_RISK":250096,"BUSINESS_TYPE":"Broker","LEGAL_NAME":"TREASURE ISLAND TRAVEL, INC","LONGITUDE":-87.64817738580423},
{"STATE":"IL","ZIP":60629,"LATTITUDE":41.78651545732996,"ADDRESS":"2800 W 59TH ST 1 ","YEAR":2010,"DOING_BUSINESS_AS_NAME":"PLAYA AZUL TRAVEL AGENCY","POP_AT_RISK":63855,"BUSINESS_TYPE":"Broker","LEGAL_NAME":"PLAYA AZULTRAVEL AGENCY INC.","LONGITUDE":-87.69366042292049},
{"STATE":"IL","ZIP":60622,"LATTITUDE":41.89722802800089,"ADDRESS":"849 N WESTERN AVE  ","YEAR":2010,"DOING_BUSINESS_AS_NAME":"NORTHWESTERN TRAVEL BUREAU INC","POP_AT_RISK":109028,"BUSINESS_TYPE":"Broker","LEGAL_NAME":"NORTHWESTERN TRAVEL BUREAU INC","LONGITUDE":-87.68673216244567},
{"STATE":"IL","ZIP":60633,"LATTITUDE":41.653769484084265,"ADDRESS":"13259 S BALTIMORE AVE 1ST ","YEAR":2010,"DOING_BUSINESS_AS_NAME":"PACK YOUR BAGS TRAVEL & CRUISE","POP_AT_RISK":40896,"BUSINESS_TYPE":"Broker","LEGAL_NAME":"PACK YOUR BAGS & TRAVEL CRUISE","LONGITUDE":-87.54700271536521},
{"STATE":"IL","ZIP":60651,"LATTITUDE":41.898867241581556,"ADDRESS":"4630 W AUGUSTA BLVD 1ST 1","YEAR":2010,"DOING_BUSINESS_AS_NAME":"TRANSPORTES GUERRERO","POP_AT_RISK":107130,"BUSINESS_TYPE":"Broker","LEGAL_NAME":"TOURS & CHARTERS SALGADO, INC.","LONGITUDE":-87.74249483200671},
{"STATE":"IL","ZIP":60623,"LATTITUDE":41.84426644699866,"ADDRESS":"4310 W 26TH ST  ","YEAR":2010,"DOING_BUSINESS_AS_NAME":"UNIVERSAL TRAVEL SERVICES","POP_AT_RISK":45902,"BUSINESS_TYPE":"Broker","LEGAL_NAME":"UNIVERSAL TRAVEL SERVICES, INC.","LONGITUDE":-87.73154096730023},
{"STATE":"IL","ZIP":60647,"LATTITUDE":41.917301978826444,"ADDRESS":"3103 W ARMITAGE AVE 1 ","YEAR":2010,"DOING_BUSINESS_AS_NAME":"SAN JUAN STAR TRAVEL","POP_AT_RISK":146612,"BUSINESS_TYPE":"Broker","LEGAL_NAME":"FOUR CORNERS OF THE WORLD TRAVEL, INC.","LONGITUDE":-87.70544873331816},
{"STATE":"IL","ZIP":60629,"LATTITUDE":41.778919957272954,"ADDRESS":"3021 W 63RD ST 1ST ","YEAR":2010,"DOING_BUSINESS_AS_NAME":"ECLIPSE TRAVEL & INCOME TAX SERVICES","POP_AT_RISK":65010,"BUSINESS_TYPE":"Broker","LEGAL_NAME":"ECLIPSE TRAVEL & INCOME TAX SERVICES INC.","LONGITUDE":-87.69924012830026},
}