{
{"STATE":"IL","ZIP":60628,"LATTITUDE":41.68903437009135,"ADDRESS":"11250 S HALSTED ST  ","YEAR":2013,"DOING_BUSINESS_AS_NAME":"PLANNED PARENTHOOD\/CHICAGO AREA","POP_AT_RISK":81291,"BUSINESS_TYPE":"Laboratories","LEGAL_NAME":"PLANNED PARENTHOOD OF ILLINOIS","LONGITUDE":-87.64242319439414},
{"STATE":"IL","ZIP":60651,"LATTITUDE":41.894623059786724,"ADDRESS":"5937 W CHICAGO AVE  ","YEAR":2013,"DOING_BUSINESS_AS_NAME":"PLANNED PARENTHOOD\/CHICAGO AREA","POP_AT_RISK":431570,"BUSINESS_TYPE":"Laboratories","LEGAL_NAME":"PLANNED PARENTHOOD OF ILLINOIS","LONGITUDE":-87.77378271058993},
{"STATE":"IL","ZIP":60636,"LATTITUDE":41.78320283028375,"ADDRESS":"6059 S ASHLAND AVE  ","YEAR":2013,"DOING_BUSINESS_AS_NAME":"PLANNED PARENTHOOD\/CHICAGO AREA","POP_AT_RISK":648128,"BUSINESS_TYPE":"Laboratories","LEGAL_NAME":"PLANNED PARENTHOOD OF ILLINOIS","LONGITUDE":-87.66416452684764},
{"STATE":"IL","ZIP":60642,"LATTITUDE":41.902561612837594,"ADDRESS":"1152 N MILWAUKEE AVE  ","YEAR":2013,"DOING_BUSINESS_AS_NAME":"PLANNED PARENTHOOD\/CHICAGO AREA","POP_AT_RISK":787136,"BUSINESS_TYPE":"Laboratories","LEGAL_NAME":"PLANNED PARENTHOOD OF ILLINOIS","LONGITUDE":-87.6654596337037},
{"STATE":"IL","ZIP":60603,"LATTITUDE":41.88165873896031,"ADDRESS":"18 S MICHIGAN AVE 6 ","YEAR":2013,"DOING_BUSINESS_AS_NAME":"PLANNED PARENTHOOD\/ CHICAGO AREA","POP_AT_RISK":564984,"BUSINESS_TYPE":"Laboratories","LEGAL_NAME":"PLANNED PARENTHOOD OF ILLINOIS","LONGITUDE":-87.62450009856119},
{"STATE":"IL","ZIP":60610,"LATTITUDE":41.903969211264624,"ADDRESS":"1200 N LA SALLE DR  1ST","YEAR":2013,"DOING_BUSINESS_AS_NAME":"PLANNED PARENTHOOD ASSOCIATION\/CHICAGO AREA","POP_AT_RISK":1391637,"BUSINESS_TYPE":"Laboratories","LEGAL_NAME":"PLANNED PARENTHOOD OF ILLINOIS","LONGITUDE":-87.6330707106653},
{"STATE":"IL","ZIP":60628,"LATTITUDE":41.68557088399864,"ADDRESS":"556 E 115TH ST 1ST ","YEAR":2013,"DOING_BUSINESS_AS_NAME":"CHICAGO FAMILY HEALTH CENTER","POP_AT_RISK":13745,"BUSINESS_TYPE":"Laboratories","LEGAL_NAME":"CHICAGO FAMILY HEALTH CENTER, INC.","LONGITUDE":-87.60933022434682},
{"STATE":"IL","ZIP":60617,"LATTITUDE":41.72945712008797,"ADDRESS":"9119 S EXCHANGE AVE  ","YEAR":2013,"DOING_BUSINESS_AS_NAME":"CHICAGO FAMILY MEDICAL CENTER","POP_AT_RISK":123914,"BUSINESS_TYPE":"Laboratories","LEGAL_NAME":"CHICAGO FAMILY HEALTH CENTER, INC.","LONGITUDE":-87.5524778181968},
{"STATE":"IL","ZIP":60628,"LATTITUDE":41.692651314791675,"ADDRESS":"120 W 111TH ST 1 ","YEAR":2013,"DOING_BUSINESS_AS_NAME":"CHICAGO FAMILY HEALTH CENTER, INC.","POP_AT_RISK":69044,"BUSINESS_TYPE":"Laboratories","LEGAL_NAME":"CHICAGO FAMILY HEALTH CENTER, INC.","LONGITUDE":-87.62668640556926},
{"STATE":"IL","ZIP":60629,"LATTITUDE":41.778848206367265,"ADDRESS":"3223 W 63RD ST 1 ","YEAR":2013,"DOING_BUSINESS_AS_NAME":"CHICAGO FAMILY HEALTH CENTER, INC.","POP_AT_RISK":751728,"BUSINESS_TYPE":"Laboratories","LEGAL_NAME":"CHICAGO FAMILY HEALTH CENTER, INC.","LONGITUDE":-87.7040813020541},
{"STATE":"IL","ZIP":60617,"LATTITUDE":41.70345044795604,"ADDRESS":"10536 S EWING AVE 1 ","YEAR":2013,"DOING_BUSINESS_AS_NAME":"CHICAGO FAMILY HEALTH CENTER, INC.","POP_AT_RISK":146982,"BUSINESS_TYPE":"Laboratories","LEGAL_NAME":"CHICAGO FAMILY HEALTH CENTER, INC.","LONGITUDE":-87.53543213286827},
}