{
{"STATE":"IL","ZIP":60616,"LATTITUDE":41.85964842024526,"ADDRESS":"1629 S PRAIRIE AVE  ","YEAR":2008,"DOING_BUSINESS_AS_NAME":"JOHN HOWELL","POP_AT_RISK":40211,"BUSINESS_TYPE":"Street Performer","LEGAL_NAME":"JOHN HOWELL","LONGITUDE":-87.62066053872472},
{"STATE":"IL","ZIP":60609,"LATTITUDE":41.79624808776697,"ADDRESS":"5347 S WOOD ST 1ST #","YEAR":2008,"DOING_BUSINESS_AS_NAME":"CECIL D LOCKE","POP_AT_RISK":48881,"BUSINESS_TYPE":"Street Performer","LEGAL_NAME":"CECIL D LOCKE","LONGITUDE":-87.66936060628221},
{"STATE":"IL","ZIP":60653,"LATTITUDE":41.82949170098098,"ADDRESS":"3556 S GILES AVE 1ST ","YEAR":2008,"DOING_BUSINESS_AS_NAME":"DASHAUN LOUIS","POP_AT_RISK":64908,"BUSINESS_TYPE":"Street Performer","LEGAL_NAME":"DASHAUN LOUIS","LONGITUDE":-87.61944530498445},
{"STATE":"IL","ZIP":60643,"LATTITUDE":41.71887462307871,"ADDRESS":"9606 S CLAREMONT AVE 1 1","YEAR":2008,"DOING_BUSINESS_AS_NAME":"EVAN T. NOBLE","POP_AT_RISK":18196,"BUSINESS_TYPE":"Street Performer","LEGAL_NAME":"EVAN T. NOBLE","LONGITUDE":-87.68091802870475},
{"STATE":"IL","ZIP":60617,"LATTITUDE":41.7442957449369,"ADDRESS":"2215 E 83RD ST  ","YEAR":2008,"DOING_BUSINESS_AS_NAME":"LEE M. DARROW","POP_AT_RISK":60310,"BUSINESS_TYPE":"Street Performer","LEGAL_NAME":"LEE M. DARROW","LONGITUDE":-87.57033646193504},
{"STATE":"IL","ZIP":60629,"LATTITUDE":41.76051931731633,"ADDRESS":"7310 S CALIFORNIA AVE  ","YEAR":2008,"DOING_BUSINESS_AS_NAME":"MARK R. NAMBO","POP_AT_RISK":32897,"BUSINESS_TYPE":"Street Performer","LEGAL_NAME":"MARK R. NAMBO","LONGITUDE":-87.69306260727865},
{"STATE":"IL","ZIP":60609,"LATTITUDE":41.830481857029845,"ADDRESS":"2038 W 35TH ST  ","YEAR":2008,"DOING_BUSINESS_AS_NAME":"CARMEN SALINAS","POP_AT_RISK":97036,"BUSINESS_TYPE":"Street Performer","LEGAL_NAME":"CARMEN SALINAS","LONGITUDE":-87.67687807638355},
{"STATE":"IL","ZIP":60628,"LATTITUDE":41.66959333607829,"ADDRESS":"12333 S LOWE AVE  ","YEAR":2008,"DOING_BUSINESS_AS_NAME":"HENRY D. MOSES","POP_AT_RISK":26583,"BUSINESS_TYPE":"Street Performer","LEGAL_NAME":"HENRY D. MOSES","LONGITUDE":-87.63788093024625},
{"STATE":"IL","ZIP":60632,"LATTITUDE":41.80321042739489,"ADDRESS":"4929 S KOSTNER AVE 1 1","YEAR":2008,"DOING_BUSINESS_AS_NAME":"JEANNA JOHNSON","POP_AT_RISK":70008,"BUSINESS_TYPE":"Street Performer","LEGAL_NAME":"JEANNA JOHNSON","LONGITUDE":-87.73309941520434},
{"STATE":"IL","ZIP":60656,"LATTITUDE":41.97776488462049,"ADDRESS":"7135 W SUMMERDALE AVE  ","YEAR":2008,"DOING_BUSINESS_AS_NAME":"LORRAINE RUNGE","POP_AT_RISK":177684,"BUSINESS_TYPE":"Street Performer","LEGAL_NAME":"LORRAINE RUNGE","LONGITUDE":-87.80614694151342},
{"STATE":"IL","ZIP":60632,"LATTITUDE":41.79552296985734,"ADDRESS":"3018 W 54TH ST  ","YEAR":2008,"DOING_BUSINESS_AS_NAME":"ADRIAN SANTIAGO","POP_AT_RISK":63168,"BUSINESS_TYPE":"Street Performer","LEGAL_NAME":"ADRIAN SANTIAGO","LONGITUDE":-87.69953757396537},
{"STATE":"IL","ZIP":60659,"LATTITUDE":41.994949015821724,"ADDRESS":"6243 N SPRINGFIELD AVE HSE ","YEAR":2008,"DOING_BUSINESS_AS_NAME":"DANIEL A. GOODE","POP_AT_RISK":50156,"BUSINESS_TYPE":"Street Performer","LEGAL_NAME":"DANIEL A. GOODE","LONGITUDE":-87.72627487106308},
{"STATE":"IL","ZIP":60643,"LATTITUDE":41.7071723243098,"ADDRESS":"10243 S SEELEY AVE  ","YEAR":2008,"DOING_BUSINESS_AS_NAME":"ETHAN M. CRAVEN","POP_AT_RISK":39922,"BUSINESS_TYPE":"Street Performer","LEGAL_NAME":"ETHAN M. CRAVEN","LONGITUDE":-87.67225711469388},
{"STATE":"IL","ZIP":60643,"LATTITUDE":41.68585173166372,"ADDRESS":"1510 W 114TH PL  ","YEAR":2008,"DOING_BUSINESS_AS_NAME":"JASON M. NEWMAN","POP_AT_RISK":23487,"BUSINESS_TYPE":"Street Performer","LEGAL_NAME":"JASON M. NEWMAN","LONGITUDE":-87.66049501212929},
{"STATE":"IL","ZIP":60619,"LATTITUDE":41.74211158148651,"ADDRESS":"8404 S DORCHESTER AVE  ","YEAR":2008,"DOING_BUSINESS_AS_NAME":"OTTO C RICHARD","POP_AT_RISK":37320,"BUSINESS_TYPE":"Street Performer","LEGAL_NAME":"OTTO C. RICHARD","LONGITUDE":-87.59054968051807},
{"STATE":"IL","ZIP":60632,"LATTITUDE":41.80212112484893,"ADDRESS":"5023 S FAIRFIELD  BSMT ","YEAR":2008,"DOING_BUSINESS_AS_NAME":"RONALD L MILLER","POP_AT_RISK":109230,"BUSINESS_TYPE":"Street Performer","LEGAL_NAME":"RONALD L MILLER","LONGITUDE":-87.69266205513807},
{"STATE":"IL","ZIP":60656,"LATTITUDE":41.961202594862584,"ADDRESS":"8615 W SUNNYSIDE AVE 1ST ","YEAR":2008,"DOING_BUSINESS_AS_NAME":"THOMAS M SEXTON","POP_AT_RISK":68328,"BUSINESS_TYPE":"Street Performer","LEGAL_NAME":"THOMAS M SEXTON","LONGITUDE":-87.8423017391636},
{"STATE":"IL","ZIP":60651,"LATTITUDE":41.90321674438855,"ADDRESS":"1241 N AUSTIN BLVD  ","YEAR":2008,"DOING_BUSINESS_AS_NAME":"ALLEN G. HOLLAND","POP_AT_RISK":182632,"BUSINESS_TYPE":"Street Performer","LEGAL_NAME":"ALLEN G. HOLLAND","LONGITUDE":-87.77525530458828},
{"STATE":"IL","ZIP":60645,"LATTITUDE":42.00668075852073,"ADDRESS":"2940 W MORSE AVE  ","YEAR":2008,"DOING_BUSINESS_AS_NAME":"AVRAHAM B KAPLAN","POP_AT_RISK":99928,"BUSINESS_TYPE":"Street Performer","LEGAL_NAME":"AVRAHAM B KAPLAN","LONGITUDE":-87.70378439625557},
{"STATE":"IL","ZIP":60634,"LATTITUDE":41.93248494007717,"ADDRESS":"2842 N MENARD AVE  ","YEAR":2008,"DOING_BUSINESS_AS_NAME":"JOSEPH L. ALCALA","POP_AT_RISK":122712,"BUSINESS_TYPE":"Street Performer","LEGAL_NAME":"JOSEPH L. ALCALA","LONGITUDE":-87.77129575139928},
{"STATE":"IL","ZIP":60629,"LATTITUDE":41.7755330983029,"ADDRESS":"6437 S KILPATRICK AVE  ","YEAR":2008,"DOING_BUSINESS_AS_NAME":"LEONEL LOEZA JR.","POP_AT_RISK":23535,"BUSINESS_TYPE":"Street Performer","LEGAL_NAME":"LEONEL LOEZA JR.","LONGITUDE":-87.73961115561566},
{"STATE":"IL","ZIP":60645,"LATTITUDE":42.015513753247824,"ADDRESS":"2927 W JARVIS AVE  ","YEAR":2008,"DOING_BUSINESS_AS_NAME":"ELIZABETH A. LAND","POP_AT_RISK":24043,"BUSINESS_TYPE":"Street Performer","LEGAL_NAME":"ELIZABETH A. LAND","LONGITUDE":-87.7030787692355},
{"STATE":"IL","ZIP":60617,"LATTITUDE":41.72173971187443,"ADDRESS":"9525 S CLYDE AVE 1 ","YEAR":2008,"DOING_BUSINESS_AS_NAME":"JANE WRIGHT","POP_AT_RISK":83716,"BUSINESS_TYPE":"Street Performer","LEGAL_NAME":"JANE MARIE WRIGHT","LONGITUDE":-87.57155310349063},
{"STATE":"IL","ZIP":60628,"LATTITUDE":41.703684473874304,"ADDRESS":"739 E 105TH ST  ","YEAR":2008,"DOING_BUSINESS_AS_NAME":"LARRY LEE STEWART","POP_AT_RISK":60927,"BUSINESS_TYPE":"Street Performer","LEGAL_NAME":"LARRY LEE STEWART","LONGITUDE":-87.6047419252213},
{"STATE":"IL","ZIP":60630,"LATTITUDE":41.980383564676934,"ADDRESS":"5481 N NORTHWEST HWY 2ND 2","YEAR":2008,"DOING_BUSINESS_AS_NAME":"LISA L. JANOSCHKA","POP_AT_RISK":55094,"BUSINESS_TYPE":"Street Performer","LEGAL_NAME":"LISA L. JANOSCHKA","LONGITUDE":-87.77747659864201},
{"STATE":"IL","ZIP":60638,"LATTITUDE":41.796324314286394,"ADDRESS":"5814 S ARCHER AVE  ","YEAR":2008,"DOING_BUSINESS_AS_NAME":"LORITA ANN METLOW","POP_AT_RISK":39098,"BUSINESS_TYPE":"Street Performer","LEGAL_NAME":"LORITA ANN METLOW","LONGITUDE":-87.75916833211738},
{"STATE":"IL","ZIP":60638,"LATTITUDE":41.7975340108513,"ADDRESS":"5200 S NORDICA AVE  ","YEAR":2008,"DOING_BUSINESS_AS_NAME":"MICHAEL P. MOLARO","POP_AT_RISK":46821,"BUSINESS_TYPE":"Street Performer","LEGAL_NAME":"MICHAEL P. MOLARO","LONGITUDE":-87.79802113918083},
{"STATE":"IL","ZIP":60623,"LATTITUDE":41.8422306390621,"ADDRESS":"2715 S TROY ST BASEMENT ","YEAR":2008,"DOING_BUSINESS_AS_NAME":"GILBERT R. CORONEL","POP_AT_RISK":244864,"BUSINESS_TYPE":"Street Performer","LEGAL_NAME":"GILBERT R. CORONEL","LONGITUDE":-87.70359877060741},
{"STATE":"IL","ZIP":60643,"LATTITUDE":41.69022226453646,"ADDRESS":"2206 W 112TH ST  ","YEAR":2008,"DOING_BUSINESS_AS_NAME":"LEE BRANDON HOWARD","POP_AT_RISK":32916,"BUSINESS_TYPE":"Street Performer","LEGAL_NAME":"LEE BRANDON HOWARD","LONGITUDE":-87.67658412424299},
{"STATE":"IL","ZIP":60628,"LATTITUDE":41.693982121732034,"ADDRESS":"11008 S NORMAL AVE  ","YEAR":2008,"DOING_BUSINESS_AS_NAME":"EUGENE S. LOGAN III","POP_AT_RISK":34293,"BUSINESS_TYPE":"Street Performer","LEGAL_NAME":"EUGENE S. LOGAN III","LONGITUDE":-87.63533329646631},
{"STATE":"IN","ZIP":46408,"LATTITUDE":41.87086175134461,"ADDRESS":"3870  POLK ST  ","YEAR":2008,"DOING_BUSINESS_AS_NAME":"RASHON CHEROD DAVIS","POP_AT_RISK":39901,"BUSINESS_TYPE":"Street Performer","LEGAL_NAME":"RASHON CHEROD DAVIS","LONGITUDE":-87.72275837834114},
{"STATE":"IL","ZIP":60652,"LATTITUDE":41.7533343388514,"ADDRESS":"4260 W FORD CITY DR  104","YEAR":2008,"DOING_BUSINESS_AS_NAME":"VIMONT F. BROGSDALE","POP_AT_RISK":33516,"BUSINESS_TYPE":"Street Performer","LEGAL_NAME":"VIMONT F. BROGSDALE","LONGITUDE":-87.72906554788531},
{"STATE":"IL","ZIP":60637,"LATTITUDE":41.783394260578476,"ADDRESS":"6124 S WOODLAWN AVE  ","YEAR":2008,"DOING_BUSINESS_AS_NAME":"RAY KENNETH RIPERTON","POP_AT_RISK":27938,"BUSINESS_TYPE":"Street Performer","LEGAL_NAME":"RAY KENNETH RIPERTON","LONGITUDE":-87.59641684509036},
{"STATE":"IL","ZIP":60620,"LATTITUDE":41.72344597370197,"ADDRESS":"9356 S EMERALD AVE  ","YEAR":2008,"DOING_BUSINESS_AS_NAME":"BRIAN D. CORLEY-JONES","POP_AT_RISK":133532,"BUSINESS_TYPE":"Street Performer","LEGAL_NAME":"BRIAN D. CORLEY-JONES","LONGITUDE":-87.64219897022485},
{"STATE":"IL","ZIP":60619,"LATTITUDE":41.73645547394651,"ADDRESS":"541 E 87TH ST  ","YEAR":2008,"DOING_BUSINESS_AS_NAME":"JONATHAN K. ST. CLAIR","POP_AT_RISK":101196,"BUSINESS_TYPE":"Street Performer","LEGAL_NAME":"JONATHAN K. ST. CLAIR","LONGITUDE":-87.61043650713029},
{"STATE":"IL","ZIP":60623,"LATTITUDE":41.85735883126501,"ADDRESS":"1662 S TROY ST  ","YEAR":2008,"DOING_BUSINESS_AS_NAME":"RICHARD LAMONT CEASAR","POP_AT_RISK":56282,"BUSINESS_TYPE":"Street Performer","LEGAL_NAME":"RICHARD LAMONT CEASAR","LONGITUDE":-87.7043476270793},
{"STATE":"IL","ZIP":60626,"LATTITUDE":42.0169871580824,"ADDRESS":"7411 N WINCHESTER AVE  ","YEAR":2008,"DOING_BUSINESS_AS_NAME":"JONATHAN M. WINTERBURN","POP_AT_RISK":62574,"BUSINESS_TYPE":"Street Performer","LEGAL_NAME":"JONATHAN M. WINTERBURN","LONGITUDE":-87.67891161781962},
{"STATE":"IL","ZIP":60827,"LATTITUDE":41.655935656403656,"ADDRESS":"1124 E 132ND ST  ","YEAR":2008,"DOING_BUSINESS_AS_NAME":"MICHAEL KERRELL SANDERS","POP_AT_RISK":12964,"BUSINESS_TYPE":"Street Performer","LEGAL_NAME":"MICHAEL KERRELL SANDERS","LONGITUDE":-87.59439222455137},
{"STATE":"IL","ZIP":60628,"LATTITUDE":41.710989683553585,"ADDRESS":"10058 S PRAIRIE AVE  ","YEAR":2008,"DOING_BUSINESS_AS_NAME":"DEBORAH A. HUBBARD-PARKS","POP_AT_RISK":24321,"BUSINESS_TYPE":"Street Performer","LEGAL_NAME":"DEBORAH A. HUBBARD-PARKS","LONGITUDE":-87.61766135145801},
}