{
{"STATE":"IL","ZIP":60622,"LATTITUDE":41.90584332514768,"ADDRESS":"1321 N MILWAUKEE AVE 1ST ","YEAR":2011,"DOING_BUSINESS_AS_NAME":"COPY MAX","POP_AT_RISK":159858,"BUSINESS_TYPE":"Retail Computing Center","LEGAL_NAME":"JEONG S KIM","LONGITUDE":-87.67014702982526},
{"STATE":"IL","ZIP":60647,"LATTITUDE":41.91723148759262,"ADDRESS":"3401 W ARMITAGE AVE 1ST ","YEAR":2011,"DOING_BUSINESS_AS_NAME":"ECUANET","POP_AT_RISK":682983,"BUSINESS_TYPE":"Retail Computing Center","LEGAL_NAME":"EDISON S. CUZCO","LONGITUDE":-87.71198338879492},
{"STATE":"IL","ZIP":60615,"LATTITUDE":41.79535600927198,"ADDRESS":"1744 E 55TH ST  ","YEAR":2011,"DOING_BUSINESS_AS_NAME":"FUTUREWORLD","POP_AT_RISK":58412,"BUSINESS_TYPE":"Retail Computing Center","LEGAL_NAME":"FUTUREWORLD NFP","LONGITUDE":-87.58222060804295},
{"STATE":"IL","ZIP":60629,"LATTITUDE":41.7787725408632,"ADDRESS":"3950-3952 W 63RD ST 1 1","YEAR":2011,"DOING_BUSINESS_AS_NAME":"PASTELERIA EL NUEVO MUNDO","POP_AT_RISK":109904,"BUSINESS_TYPE":"Retail Computing Center","LEGAL_NAME":"J. PINEDA, INC.","LONGITUDE":-87.72233581164832},
{"STATE":"IL","ZIP":60610,"LATTITUDE":41.898198096788455,"ADDRESS":"858 N ORLEANS ST 1ST A21","YEAR":2011,"DOING_BUSINESS_AS_NAME":"GOGOL CO","POP_AT_RISK":77821,"BUSINESS_TYPE":"Retail Computing Center","LEGAL_NAME":"KHALIF ALI ADEN","LONGITUDE":-87.63738015364876},
{"STATE":"IL","ZIP":60631,"LATTITUDE":41.981143964082634,"ADDRESS":"8550 W BRYN MAWR AVE 400 ","YEAR":2011,"DOING_BUSINESS_AS_NAME":"NH CHICAGO LLC","POP_AT_RISK":105845,"BUSINESS_TYPE":"Retail Computing Center","LEGAL_NAME":"NH CHICAGO, LLC","LONGITUDE":-87.84108737455419},
{"STATE":"IL","ZIP":60632,"LATTITUDE":41.812138754991516,"ADDRESS":"4440 S PULASKI RD 1 1","YEAR":2011,"DOING_BUSINESS_AS_NAME":"SUPERATEC","POP_AT_RISK":17199,"BUSINESS_TYPE":"Retail Computing Center","LEGAL_NAME":"SUPERATEC, INC.","LONGITUDE":-87.72388884190333},
{"STATE":"IL","ZIP":60639,"LATTITUDE":41.92384038399135,"ADDRESS":"5649 W FULLERTON AVE 1ST 1","YEAR":2011,"DOING_BUSINESS_AS_NAME":"SUPERATEC","POP_AT_RISK":68079,"BUSINESS_TYPE":"Retail Computing Center","LEGAL_NAME":"SUPERATEC, INC.","LONGITUDE":-87.76796675121247},
{"STATE":"IL","ZIP":60613,"LATTITUDE":41.961588676924826,"ADDRESS":"1924 W MONTROSE AVE 1 ","YEAR":2011,"DOING_BUSINESS_AS_NAME":"ZAI CARGO, INC.","POP_AT_RISK":129550,"BUSINESS_TYPE":"Retail Computing Center","LEGAL_NAME":"ZAI CARGO, INC.","LONGITUDE":-87.67708197936676},
{"STATE":"IL","ZIP":60623,"LATTITUDE":41.85156567840713,"ADDRESS":"3535-3537 W CERMAK RD 1ST ","YEAR":2011,"DOING_BUSINESS_AS_NAME":"ANTHONY'S DOLLAR AND MORE","POP_AT_RISK":70819,"BUSINESS_TYPE":"Retail Computing Center","LEGAL_NAME":"JOSE M. CASTILLO","LONGITUDE":-87.71383534266239},
{"STATE":"IL","ZIP":60645,"LATTITUDE":42.01195388843777,"ADDRESS":"2801 W TOUHY AVE  ","YEAR":2011,"DOING_BUSINESS_AS_NAME":"OFFICE MART","POP_AT_RISK":77808,"BUSINESS_TYPE":"Retail Computing Center","LEGAL_NAME":"OFFICE MART INC.","LONGITUDE":-87.69983023199094},
{"STATE":"IL","ZIP":60623,"LATTITUDE":41.842403950499424,"ADDRESS":"2700 S RIDGEWAY AVE 1ST ","YEAR":2011,"DOING_BUSINESS_AS_NAME":"COMPUTERWOW, INC.","POP_AT_RISK":63898,"BUSINESS_TYPE":"Retail Computing Center","LEGAL_NAME":"COMPUTERWOW, INC.","LONGITUDE":-87.71855052411769},
{"STATE":"IL","ZIP":60632,"LATTITUDE":41.801114147503455,"ADDRESS":"5078 S ARCHER AVE 1ST ","YEAR":2011,"DOING_BUSINESS_AS_NAME":"BITS N BYTEZ, LTD.","POP_AT_RISK":33821,"BUSINESS_TYPE":"Retail Computing Center","LEGAL_NAME":"BITS N BYTEZ, LTD.","LONGITUDE":-87.72792013428698},
{"STATE":"IL","ZIP":60643,"LATTITUDE":41.69445854283245,"ADDRESS":"10931 S WESTERN AVE 1ST ","YEAR":2011,"DOING_BUSINESS_AS_NAME":"DCW TECHNICAL MECHANICS","POP_AT_RISK":151704,"BUSINESS_TYPE":"Retail Computing Center","LEGAL_NAME":"DCW TECH MECHS LLC","LONGITUDE":-87.68109494709279},
{"STATE":"IL","ZIP":60659,"LATTITUDE":41.99760194883742,"ADDRESS":"2425 W DEVON AVE 1 B","YEAR":2011,"DOING_BUSINESS_AS_NAME":"THE NEW STAR","POP_AT_RISK":73613,"BUSINESS_TYPE":"Retail Computing Center","LEGAL_NAME":"WORLD CONNECT, INC","LONGITUDE":-87.69095612130864},
{"STATE":"IL","ZIP":60634,"LATTITUDE":41.937404050825975,"ADDRESS":"3134 N HARLEM AVE 1ST ","YEAR":2011,"DOING_BUSINESS_AS_NAME":"ANGEL'S TECH","POP_AT_RISK":575124,"BUSINESS_TYPE":"Retail Computing Center","LEGAL_NAME":"DAVID A WEATHERSTON","LONGITUDE":-87.80687483093067},
{"STATE":"IL","ZIP":60619,"LATTITUDE":41.751211574824836,"ADDRESS":"358 E 79TH ST 1 ","YEAR":2011,"DOING_BUSINESS_AS_NAME":"COMPUTERS BY THE HOUR & COPYING TOO","POP_AT_RISK":188570,"BUSINESS_TYPE":"Retail Computing Center","LEGAL_NAME":"KIERKEN CORPORATION","LONGITUDE":-87.61583018670413},
{"STATE":"IL","ZIP":60632,"LATTITUDE":41.82134431810515,"ADDRESS":"3982 S ARCHER AVE 1 ","YEAR":2011,"DOING_BUSINESS_AS_NAME":"CYBERK COMPUTEK INC.","POP_AT_RISK":56648,"BUSINESS_TYPE":"Retail Computing Center","LEGAL_NAME":"CYBERK COMPUTEK INC.","LONGITUDE":-87.69264968521705},
{"STATE":"IL","ZIP":60623,"LATTITUDE":41.844004597432054,"ADDRESS":"4379 W 26TH ST 1 ","YEAR":2011,"DOING_BUSINESS_AS_NAME":"CONECTA","POP_AT_RISK":45902,"BUSINESS_TYPE":"Retail Computing Center","LEGAL_NAME":"YESENIA I MONTES INC.","LONGITUDE":-87.73413154858753},
{"STATE":"IL","ZIP":60608,"LATTITUDE":41.85212641996553,"ADDRESS":"1819 W CERMAK RD 1 ","YEAR":2011,"DOING_BUSINESS_AS_NAME":"DEKACHE BODY WORK'S CORP.","POP_AT_RISK":36290,"BUSINESS_TYPE":"Retail Computing Center","LEGAL_NAME":"DEKACHE BODY WORK'S CORP.","LONGITUDE":-87.67174258992257},
{"STATE":"IL","ZIP":60649,"LATTITUDE":41.76590410915596,"ADDRESS":"1723 E 71ST ST  ","YEAR":2011,"DOING_BUSINESS_AS_NAME":"DJW INFORMATION SERVICE INC","POP_AT_RISK":513058,"BUSINESS_TYPE":"Retail Computing Center","LEGAL_NAME":"DJW INFORMATION SERVICE INC","LONGITUDE":-87.58267495583883},
{"STATE":"IL","ZIP":60616,"LATTITUDE":41.830986702567515,"ADDRESS":"329 E 35TH ST 1 ","YEAR":2011,"DOING_BUSINESS_AS_NAME":"CHICAGO COMPUTER CLUB","POP_AT_RISK":119036,"BUSINESS_TYPE":"Retail Computing Center","LEGAL_NAME":"CHICAGO COMPUTER CLUB, CORP.","LONGITUDE":-87.61807593164153},
{"STATE":"IL","ZIP":60616,"LATTITUDE":41.8382635962444,"ADDRESS":"215 E 31ST ST 1 ","YEAR":2011,"DOING_BUSINESS_AS_NAME":"BRONZEVILLE CORPORATIUM","POP_AT_RISK":118408,"BUSINESS_TYPE":"Retail Computing Center","LEGAL_NAME":"BRONZEVILLE CORPORATIUM, INC.","LONGITUDE":-87.62123336655749},
{"STATE":"IL","ZIP":60639,"LATTITUDE":41.9171431364255,"ADDRESS":"4420 W ARMITAGE AVE 1ST ","YEAR":2011,"DOING_BUSINESS_AS_NAME":"V & J AMERICA MULTISERVICES","POP_AT_RISK":57728,"BUSINESS_TYPE":"Retail Computing Center","LEGAL_NAME":"VICTOR VIDAL AND JUANA MORATO","LONGITUDE":-87.73731121989375},
{"STATE":"IL","ZIP":60622,"LATTITUDE":41.91061444059618,"ADDRESS":"1934 - 1942 W NORTH AVE  ","YEAR":2011,"DOING_BUSINESS_AS_NAME":"CHEETAH GYM","POP_AT_RISK":128598,"BUSINESS_TYPE":"Retail Computing Center","LEGAL_NAME":"JUNGLE GYM FITNESS CORPORATION","LONGITUDE":-87.67633917507685},
{"STATE":"IL","ZIP":60641,"LATTITUDE":41.95345484739207,"ADDRESS":"5024 W IRVING PARK RD 1ST ","YEAR":2011,"DOING_BUSINESS_AS_NAME":"ACADEMIA DCITELLY","POP_AT_RISK":55383,"BUSINESS_TYPE":"Retail Computing Center","LEGAL_NAME":"ACADEMIA DCITELLY NORTH CHICAGO","LONGITUDE":-87.75324859125674},
{"STATE":"IL","ZIP":60629,"LATTITUDE":41.78613781763369,"ADDRESS":"3201 W 59TH ST  ","YEAR":2011,"DOING_BUSINESS_AS_NAME":"ENVIOS XPRESS AND SERVICES","POP_AT_RISK":214122,"BUSINESS_TYPE":"Retail Computing Center","LEGAL_NAME":"INDIO IMPORT & EXPORT CORPORATION","LONGITUDE":-87.70340704141421},
{"STATE":"IL","ZIP":60614,"LATTITUDE":41.9255723272499,"ADDRESS":"744 W FULLERTON AVE 1ST 1C","YEAR":2011,"DOING_BUSINESS_AS_NAME":"FEDEX KINKO'S #1935","POP_AT_RISK":77513,"BUSINESS_TYPE":"Retail Computing Center","LEGAL_NAME":"FEDEX OFFICE AND PRINT SERVICES, INC.","LONGITUDE":-87.6481109289284},
{"STATE":"IL","ZIP":60661,"LATTITUDE":41.885814492017886,"ADDRESS":"608 W LAKE ST  ","YEAR":2011,"DOING_BUSINESS_AS_NAME":"FEDEX OFFICE AND PRINT SVCS, INC.","POP_AT_RISK":48612,"BUSINESS_TYPE":"Retail Computing Center","LEGAL_NAME":"FEDEX OFFICE AND PRINT SERVICES, INC.","LONGITUDE":-87.64319994224046},
{"STATE":"IL","ZIP":60637,"LATTITUDE":41.79135958090396,"ADDRESS":"1315 E 57TH ST  1","YEAR":2011,"DOING_BUSINESS_AS_NAME":"FEDEX OFFICE AND PRINT SVCS, INC.","POP_AT_RISK":294824,"BUSINESS_TYPE":"Retail Computing Center","LEGAL_NAME":"FEDEX OFFICE AND PRINT SERVICES, INC.","LONGITUDE":-87.59418728522255},
{"STATE":"IL","ZIP":60610,"LATTITUDE":41.90401954694065,"ADDRESS":"1201 N DEARBORN ST  1","YEAR":2011,"DOING_BUSINESS_AS_NAME":"FEDEX OFFICE AND PRINT SVCS, INC.","POP_AT_RISK":74829,"BUSINESS_TYPE":"Retail Computing Center","LEGAL_NAME":"FEDEX OFFICE AND PRINT SERVICES, INC.","LONGITUDE":-87.62984192085615},
{"STATE":"IL","ZIP":60619,"LATTITUDE":41.743567680303435,"ADDRESS":"33 E 83RD ST 1ST ","YEAR":2011,"DOING_BUSINESS_AS_NAME":"MATHER'S MORE THAN A CAFE","POP_AT_RISK":81714,"BUSINESS_TYPE":"Retail Computing Center","LEGAL_NAME":"MATHER LIFEWAYS COMMUNITY INITIATIVES","LONGITUDE":-87.6229553664139},
{"STATE":"IL","ZIP":60656,"LATTITUDE":41.98100034161097,"ADDRESS":"7134 W HIGGINS AVE 1ST ","YEAR":2011,"DOING_BUSINESS_AS_NAME":"MATHER'S MORE THAN A CAFE","POP_AT_RISK":177684,"BUSINESS_TYPE":"Retail Computing Center","LEGAL_NAME":"MATHER LIFEWAYS COMMUNITY INITIATIVES","LONGITUDE":-87.8059054660053},
}