{
{"STATE":"IL","ZIP":60608,"LATTITUDE":41.83811710808821,"ADDRESS":"908 W 31ST ST 1ST ","YEAR":2015,"DOING_BUSINESS_AS_NAME":"VITE MART","POP_AT_RISK":283731,"BUSINESS_TYPE":"Secondhand Dealer (No Valuable Objects)","LEGAL_NAME":"ALEIN CORP.","LONGITUDE":-87.6492477697445},
{"STATE":"IL","ZIP":60644,"LATTITUDE":41.880615068075336,"ADDRESS":"4744 W MADISON ST 1ST ","YEAR":2015,"DOING_BUSINESS_AS_NAME":"BEST PRICES ELECTRONICS","POP_AT_RISK":548220,"BUSINESS_TYPE":"Secondhand Dealer (No Valuable Objects)","LEGAL_NAME":"CLELA GOOCH","LONGITUDE":-87.74462552083253},
{"STATE":"IL","ZIP":60633,"LATTITUDE":41.65228371217927,"ADDRESS":"13347 S BRANDON AVE 1ST FL ","YEAR":2015,"DOING_BUSINESS_AS_NAME":"CRAZY STORE","POP_AT_RISK":21668,"BUSINESS_TYPE":"Secondhand Dealer (No Valuable Objects)","LEGAL_NAME":"RAFAELA LEON","LONGITUDE":-87.54577467351069},
{"STATE":"IL","ZIP":60638,"LATTITUDE":41.79218689434603,"ADDRESS":"6459 W ARCHER AVE 1ST ","YEAR":2015,"DOING_BUSINESS_AS_NAME":"IGADGETZ","POP_AT_RISK":61450,"BUSINESS_TYPE":"Secondhand Dealer (No Valuable Objects)","LEGAL_NAME":"IGADGETZ INC.","LONGITUDE":-87.78418654919427},
{"STATE":"IL","ZIP":60613,"LATTITUDE":41.95649687526554,"ADDRESS":"4075 N BROADWAY  1 1","YEAR":2015,"DOING_BUSINESS_AS_NAME":"A NEARLY NEW SHOP","POP_AT_RISK":360560,"BUSINESS_TYPE":"Secondhand Dealer (No Valuable Objects)","LEGAL_NAME":"RONALD ASHLEY","LONGITUDE":-87.65161853705216},
{"STATE":"IL","ZIP":60622,"LATTITUDE":41.91071357774028,"ADDRESS":"1648 W NORTH AVE 1ST ","YEAR":2015,"DOING_BUSINESS_AS_NAME":"ZYVATECH","POP_AT_RISK":53997,"BUSINESS_TYPE":"Secondhand Dealer (No Valuable Objects)","LEGAL_NAME":"ZYVACTECH INC","LONGITUDE":-87.66965252585078},
{"STATE":"IL","ZIP":60641,"LATTITUDE":41.943831137552905,"ADDRESS":"3437 N MILWAUKEE AVE 1ST ","YEAR":2015,"DOING_BUSINESS_AS_NAME":"BACARDI BIKES","POP_AT_RISK":98326,"BUSINESS_TYPE":"Secondhand Dealer (No Valuable Objects)","LEGAL_NAME":"FIDEL TALAVERA","LONGITUDE":-87.7313846139903},
{"STATE":"IL","ZIP":60626,"LATTITUDE":42.00344265564368,"ADDRESS":"6660 N CLARK ST 1ST ","YEAR":2015,"DOING_BUSINESS_AS_NAME":"CYBER TEK","POP_AT_RISK":411990,"BUSINESS_TYPE":"Secondhand Dealer (No Valuable Objects)","LEGAL_NAME":"OMOTAYO ASUNMO","LONGITUDE":-87.67260765651258},
{"STATE":"IL","ZIP":60642,"LATTITUDE":41.90026937086086,"ADDRESS":"1000 N NORTH BRANCH ST 1ST F","YEAR":2015,"DOING_BUSINESS_AS_NAME":"ProCENTER CAMERA","POP_AT_RISK":53241,"BUSINESS_TYPE":"Secondhand Dealer (No Valuable Objects)","LEGAL_NAME":"PROCAMERA, LLC","LONGITUDE":-87.65058740639262},
{"STATE":"IL","ZIP":60651,"LATTITUDE":41.902219350908794,"ADDRESS":"5656 W DIVISION ST 1ST ","YEAR":2015,"DOING_BUSINESS_AS_NAME":"GADGETS REPAIR","POP_AT_RISK":376187,"BUSINESS_TYPE":"Secondhand Dealer (No Valuable Objects)","LEGAL_NAME":"FREE PLUS, INC.","LONGITUDE":-87.76793941689144},
{"STATE":"IL","ZIP":60620,"LATTITUDE":41.75081915698485,"ADDRESS":"49 W 79TH ST 1 ","YEAR":2015,"DOING_BUSINESS_AS_NAME":"Boost Mobile","POP_AT_RISK":102582,"BUSINESS_TYPE":"Secondhand Dealer (No Valuable Objects)","LEGAL_NAME":"NoContract Corp","LONGITUDE":-87.62662739939628},
{"STATE":"IL","ZIP":60632,"LATTITUDE":41.80024559493103,"ADDRESS":"5101 S CICERO AVE 1 103","YEAR":2015,"DOING_BUSINESS_AS_NAME":"Boost Mobile","POP_AT_RISK":175008,"BUSINESS_TYPE":"Secondhand Dealer (No Valuable Objects)","LEGAL_NAME":"NoContract Corp","LONGITUDE":-87.74281052198738},
{"STATE":"IL","ZIP":60632,"LATTITUDE":41.807734521167596,"ADDRESS":"4713 S KEDZIE AVE 1ST ","YEAR":2015,"DOING_BUSINESS_AS_NAME":"PLAY N TRADE VIDEO GAMES","POP_AT_RISK":207988,"BUSINESS_TYPE":"Secondhand Dealer (No Valuable Objects)","LEGAL_NAME":"KEDZIE PNT, INC.","LONGITUDE":-87.70381686054981},
{"STATE":"IL","ZIP":60643,"LATTITUDE":41.72094595809509,"ADDRESS":"2039 W 95TH ST 1ST ","YEAR":2015,"DOING_BUSINESS_AS_NAME":"CHICAGO COMPUTER CLUB","POP_AT_RISK":39544,"BUSINESS_TYPE":"Secondhand Dealer (No Valuable Objects)","LEGAL_NAME":"JZ COMPUTER CORP.","LONGITUDE":-87.67394622318758},
{"STATE":"IL","ZIP":60647,"LATTITUDE":41.91014893479623,"ADDRESS":"3428 W NORTH AVE 1ST ","YEAR":2015,"DOING_BUSINESS_AS_NAME":"IN & OUT MOBILES","POP_AT_RISK":62236,"BUSINESS_TYPE":"Secondhand Dealer (No Valuable Objects)","LEGAL_NAME":"MARIA  M CALDERON","LONGITUDE":-87.71301030889471},
{"STATE":"IL","ZIP":60608,"LATTITUDE":41.865188763426644,"ADDRESS":"1600 W 13TH ST 1 ","YEAR":2015,"DOING_BUSINESS_AS_NAME":"T-Mobile","POP_AT_RISK":384080,"BUSINESS_TYPE":"Secondhand Dealer (No Valuable Objects)","LEGAL_NAME":"TCC WIRELESS, INC.","LONGITUDE":-87.66646924032864},
{"STATE":"IL","ZIP":60654,"LATTITUDE":41.89651998351704,"ADDRESS":"754 N CLARK ST 1 ","YEAR":2015,"DOING_BUSINESS_AS_NAME":"T-Mobile","POP_AT_RISK":332516,"BUSINESS_TYPE":"Secondhand Dealer (No Valuable Objects)","LEGAL_NAME":"TCC WIRELESS, INC.","LONGITUDE":-87.6313903929158},
{"STATE":"IL","ZIP":60647,"LATTITUDE":41.909965330809804,"ADDRESS":"3311 W NORTH AVE 1 ","YEAR":2015,"DOING_BUSINESS_AS_NAME":"T-Mobile","POP_AT_RISK":65268,"BUSINESS_TYPE":"Secondhand Dealer (No Valuable Objects)","LEGAL_NAME":"TCC WIRELESS, INC.","LONGITUDE":-87.70994742882037},
{"STATE":"IL","ZIP":60646,"LATTITUDE":41.996914777223296,"ADDRESS":"6342 N CICERO AVE 1 ","YEAR":2015,"DOING_BUSINESS_AS_NAME":"T-Mobile","POP_AT_RISK":74060,"BUSINESS_TYPE":"Secondhand Dealer (No Valuable Objects)","LEGAL_NAME":"TCC WIRELESS, INC.","LONGITUDE":-87.748490224715},
{"STATE":"IL","ZIP":60634,"LATTITUDE":41.938402884323274,"ADDRESS":"5757 W BELMONT AVE 1 ","YEAR":2015,"DOING_BUSINESS_AS_NAME":"T-Mobile","POP_AT_RISK":62328,"BUSINESS_TYPE":"Secondhand Dealer (No Valuable Objects)","LEGAL_NAME":"TCC WIRELESS, INC.","LONGITUDE":-87.77121584278903},
{"STATE":"IL","ZIP":60644,"LATTITUDE":41.86567770231861,"ADDRESS":"5650 W ROOSEVELT RD 1 ","YEAR":2015,"DOING_BUSINESS_AS_NAME":"T-Mobile","POP_AT_RISK":385552,"BUSINESS_TYPE":"Secondhand Dealer (No Valuable Objects)","LEGAL_NAME":"TCC WIRELESS, INC.","LONGITUDE":-87.76640466830571},
{"STATE":"IL","ZIP":60619,"LATTITUDE":41.751398747931674,"ADDRESS":"804 E 79TH ST 1ST ","YEAR":2015,"DOING_BUSINESS_AS_NAME":"ABC CELLULAR","POP_AT_RISK":38768,"BUSINESS_TYPE":"Secondhand Dealer (No Valuable Objects)","LEGAL_NAME":"TOWN CELLULAR INC.","LONGITUDE":-87.60499423355195},
{"STATE":"IL","ZIP":60630,"LATTITUDE":41.97693688769671,"ADDRESS":"5316 N MILWAUKEE AVE 1ST 8","YEAR":2015,"DOING_BUSINESS_AS_NAME":"TRADE AND SAVE LLC","POP_AT_RISK":202536,"BUSINESS_TYPE":"Secondhand Dealer (No Valuable Objects)","LEGAL_NAME":"TRADE AND SAVE LLC","LONGITUDE":-87.76907431197014},
{"STATE":"IL","ZIP":60659,"LATTITUDE":41.9942439880472,"ADDRESS":"6170 N LINCOLN AVE 1ST ","YEAR":2015,"DOING_BUSINESS_AS_NAME":"TRADE AND SAVE (01-6838)","POP_AT_RISK":336248,"BUSINESS_TYPE":"Secondhand Dealer (No Valuable Objects)","LEGAL_NAME":"TRADE AND SAVE LLC","LONGITUDE":-87.71387598323568},
{"STATE":"IL","ZIP":60661,"LATTITUDE":41.88771166545231,"ADDRESS":"328 N DESPLAINES ST 1ST ","YEAR":2015,"DOING_BUSINESS_AS_NAME":"TRADE AND SAVE LLC (01-6203)","POP_AT_RISK":97224,"BUSINESS_TYPE":"Secondhand Dealer (No Valuable Objects)","LEGAL_NAME":"TRADE AND SAVE LLC","LONGITUDE":-87.64444851599042},
{"STATE":"IL","ZIP":60629,"LATTITUDE":41.771921799145254,"ADDRESS":"6643 S PULASKI RD 1ST ","YEAR":2015,"DOING_BUSINESS_AS_NAME":"TRADE AND SAVE LLC (01-6296)","POP_AT_RISK":284235,"BUSINESS_TYPE":"Secondhand Dealer (No Valuable Objects)","LEGAL_NAME":"TRADE AND SAVE LLC","LONGITUDE":-87.72244155850937},
{"STATE":"IL","ZIP":60639,"LATTITUDE":41.928847223323764,"ADDRESS":"2650 N NARRAGANSETT AVE 1ST ","YEAR":2015,"DOING_BUSINESS_AS_NAME":"TRADE AND SAVE LLC (01-6319)","POP_AT_RISK":259110,"BUSINESS_TYPE":"Secondhand Dealer (No Valuable Objects)","LEGAL_NAME":"TRADE AND SAVE LLC","LONGITUDE":-87.78578101920121},
{"STATE":"IL","ZIP":60607,"LATTITUDE":41.865965068521284,"ADDRESS":"1246 S CANAL ST 1ST ","YEAR":2015,"DOING_BUSINESS_AS_NAME":"TRADE AND SAVE LLC (01-6407)","POP_AT_RISK":93471,"BUSINESS_TYPE":"Secondhand Dealer (No Valuable Objects)","LEGAL_NAME":"TRADE AND SAVE LLC","LONGITUDE":-87.63935236932583},
{"STATE":"IL","ZIP":60657,"LATTITUDE":41.934968034545285,"ADDRESS":"2923 N ASHLAND AVE  1ST","YEAR":2015,"DOING_BUSINESS_AS_NAME":"TRADE AND SAVE LLC (01-6440)","POP_AT_RISK":613960,"BUSINESS_TYPE":"Secondhand Dealer (No Valuable Objects)","LEGAL_NAME":"TRADE AND SAVE LLC","LONGITUDE":-87.668341293784},
{"STATE":"IL","ZIP":60608,"LATTITUDE":41.851898382755145,"ADDRESS":"2509 W CERMAK RD 1ST ","YEAR":2015,"DOING_BUSINESS_AS_NAME":"TRADE AND SAVE LLC (01-6475)","POP_AT_RISK":363930,"BUSINESS_TYPE":"Secondhand Dealer (No Valuable Objects)","LEGAL_NAME":"TRADE AND SAVE LLC","LONGITUDE":-87.6883391138756},
{"STATE":"IL","ZIP":60639,"LATTITUDE":41.909490620704396,"ADDRESS":"4851 W NORTH AVE 1ST ","YEAR":2015,"DOING_BUSINESS_AS_NAME":"TRADE AND SAVE LLC (01-6491)","POP_AT_RISK":597770,"BUSINESS_TYPE":"Secondhand Dealer (No Valuable Objects)","LEGAL_NAME":"TRADE AND SAVE LLC","LONGITUDE":-87.74803979557645},
{"STATE":"IL","ZIP":60640,"LATTITUDE":41.9686517724643,"ADDRESS":"1965 W LAWRENCE AVE 1ST ","YEAR":2015,"DOING_BUSINESS_AS_NAME":"TRADE AND SAVE LLC (01-6495)","POP_AT_RISK":176331,"BUSINESS_TYPE":"Secondhand Dealer (No Valuable Objects)","LEGAL_NAME":"TRADE AND SAVE LLC","LONGITUDE":-87.67877351327965},
{"STATE":"IL","ZIP":60619,"LATTITUDE":41.7387135956648,"ADDRESS":"8554 S COTTAGE GROVE AVE 1ST ","YEAR":2015,"DOING_BUSINESS_AS_NAME":"TRADE AND SAVE LLC (01-6515)","POP_AT_RISK":153756,"BUSINESS_TYPE":"Secondhand Dealer (No Valuable Objects)","LEGAL_NAME":"TRADE AND SAVE LLC","LONGITUDE":-87.60502774566517},
{"STATE":"IL","ZIP":60643,"LATTITUDE":41.72085706729152,"ADDRESS":"2313 W 95TH ST 1ST B","YEAR":2015,"DOING_BUSINESS_AS_NAME":"TRADE AND SAVE LLC (01-6551)","POP_AT_RISK":14129,"BUSINESS_TYPE":"Secondhand Dealer (No Valuable Objects)","LEGAL_NAME":"TRADE AND SAVE LLC","LONGITUDE":-87.6802274901522},
{"STATE":"IL","ZIP":60640,"LATTITUDE":41.980291372417895,"ADDRESS":"5409 N BROADWAY  1ST ","YEAR":2015,"DOING_BUSINESS_AS_NAME":"TRADE AND SAVE LLC (01-6576)","POP_AT_RISK":469602,"BUSINESS_TYPE":"Secondhand Dealer (No Valuable Objects)","LEGAL_NAME":"TRADE AND SAVE LLC","LONGITUDE":-87.6598304250428},
{"STATE":"IL","ZIP":60608,"LATTITUDE":41.836280931200584,"ADDRESS":"3150 S ASHLAND AVE 1ST ","YEAR":2015,"DOING_BUSINESS_AS_NAME":"TRADE AND SAVE LLC (01-6592)","POP_AT_RISK":30028,"BUSINESS_TYPE":"Secondhand Dealer (No Valuable Objects)","LEGAL_NAME":"TRADE AND SAVE LLC","LONGITUDE":-87.66585560799108},
{"STATE":"IL","ZIP":60657,"LATTITUDE":41.93968627529373,"ADDRESS":"3168 N BROADWAY  1ST ","YEAR":2015,"DOING_BUSINESS_AS_NAME":"TRADE AND SAVE LLC (01-6594)","POP_AT_RISK":253704,"BUSINESS_TYPE":"Secondhand Dealer (No Valuable Objects)","LEGAL_NAME":"TRADE AND SAVE LLC","LONGITUDE":-87.64453553974661},
{"STATE":"IL","ZIP":60649,"LATTITUDE":41.765189524327816,"ADDRESS":"7131 S JEFFERY BLVD 1ST H","YEAR":2015,"DOING_BUSINESS_AS_NAME":"TRADE AND SAVE LLC (01-6597)","POP_AT_RISK":173348,"BUSINESS_TYPE":"Secondhand Dealer (No Valuable Objects)","LEGAL_NAME":"TRADE AND SAVE LLC","LONGITUDE":-87.57613310396634},
{"STATE":"IL","ZIP":60609,"LATTITUDE":41.82956110961632,"ADDRESS":"3541 S ARCHER AVE  ","YEAR":2015,"DOING_BUSINESS_AS_NAME":"PILSEN BIKE SHOP","POP_AT_RISK":60792,"BUSINESS_TYPE":"Secondhand Dealer (No Valuable Objects)","LEGAL_NAME":"ALEJANDRO IZQUIERDO","LONGITUDE":-87.67876881207133},
{"STATE":"IL","ZIP":60617,"LATTITUDE":41.73683392695592,"ADDRESS":"1641 E 87TH ST 1ST ","YEAR":2015,"DOING_BUSINESS_AS_NAME":"CHICAGO COMPUTER CLUB","POP_AT_RISK":163115,"BUSINESS_TYPE":"Secondhand Dealer (No Valuable Objects)","LEGAL_NAME":"APLUS COMPUTER INC.","LONGITUDE":-87.58355665959942},
{"STATE":"IL","ZIP":60634,"LATTITUDE":41.942862443127844,"ADDRESS":"3421 N CENTRAL AVE 1 ","YEAR":2015,"DOING_BUSINESS_AS_NAME":"Windy City Secondhand and Resale Shop","POP_AT_RISK":63098,"BUSINESS_TYPE":"Secondhand Dealer (No Valuable Objects)","LEGAL_NAME":"Bridget M. Campbell","LONGITUDE":-87.76650472322682},
{"STATE":"IL","ZIP":60634,"LATTITUDE":41.95279612959814,"ADDRESS":"6419 W IRVING PARK RD 1 ","YEAR":2015,"DOING_BUSINESS_AS_NAME":"G7 ELECTRONICS INC.","POP_AT_RISK":42789,"BUSINESS_TYPE":"Secondhand Dealer (No Valuable Objects)","LEGAL_NAME":"G7 ELECTRONICS INC.","LONGITUDE":-87.78735523774208},
{"STATE":"IL","ZIP":60641,"LATTITUDE":41.96054301199334,"ADDRESS":"4354 N CICERO AVE 1ST ","YEAR":2015,"DOING_BUSINESS_AS_NAME":"THE GREEN DREAM","POP_AT_RISK":94730,"BUSINESS_TYPE":"Secondhand Dealer (No Valuable Objects)","LEGAL_NAME":"THE GREEN DREAM INC","LONGITUDE":-87.74766537014423},
{"STATE":"IL","ZIP":60617,"LATTITUDE":41.73261524185334,"ADDRESS":"8936 S COMMERCIAL AVE  ","YEAR":2015,"DOING_BUSINESS_AS_NAME":"THE CHEAP STORE","POP_AT_RISK":123914,"BUSINESS_TYPE":"Secondhand Dealer (No Valuable Objects)","LEGAL_NAME":"ANDRE LAPRINCE BROWN","LONGITUDE":-87.55146243246787},
{"STATE":"IL","ZIP":60638,"LATTITUDE":41.77764117266972,"ADDRESS":"6223 W 63RD ST 1ST ","YEAR":2015,"DOING_BUSINESS_AS_NAME":"1INFOTECH CORPORATION","POP_AT_RISK":44926,"BUSINESS_TYPE":"Secondhand Dealer (No Valuable Objects)","LEGAL_NAME":"1INFOTECH CORPORATION","LONGITUDE":-87.7773012320788},
{"STATE":"IL","ZIP":60612,"LATTITUDE":41.8863656527098,"ADDRESS":"266 N KEDZIE AVE  ","YEAR":2015,"DOING_BUSINESS_AS_NAME":"AMERTEL CELLULAR INC","POP_AT_RISK":198594,"BUSINESS_TYPE":"Secondhand Dealer (No Valuable Objects)","LEGAL_NAME":"AMERTEL CELLULAR, INC","LONGITUDE":-87.70642715108946},
{"STATE":"IL","ZIP":60622,"LATTITUDE":41.90913708590372,"ADDRESS":"1524 N MILWAUKEE AVE FIRST ","YEAR":2015,"DOING_BUSINESS_AS_NAME":"The Exchange Buy Sell Trade","POP_AT_RISK":67737,"BUSINESS_TYPE":"Secondhand Dealer (No Valuable Objects)","LEGAL_NAME":"J.S. MUSIC CORPORATION","LONGITUDE":-87.67575279846864},
{"STATE":"IL","ZIP":60651,"LATTITUDE":41.89531043892463,"ADDRESS":"3745 W CHICAGO AVE 1 1","YEAR":2015,"DOING_BUSINESS_AS_NAME":"1 STOP FASHION","POP_AT_RISK":43617,"BUSINESS_TYPE":"Secondhand Dealer (No Valuable Objects)","LEGAL_NAME":"SAM & MAZ INCORPORATED","LONGITUDE":-87.72053748417568},
{"STATE":"IL","ZIP":60649,"LATTITUDE":41.76132792132938,"ADDRESS":"7336 S STONY ISLAND AVE 1ST ","YEAR":2015,"DOING_BUSINESS_AS_NAME":"ZEE'S SUPERMARKET PLUS","POP_AT_RISK":34900,"BUSINESS_TYPE":"Secondhand Dealer (No Valuable Objects)","LEGAL_NAME":"7336 STONY ISLAND, INC.","LONGITUDE":-87.58635037600584},
{"STATE":"IL","ZIP":60620,"LATTITUDE":41.75021221701967,"ADDRESS":"7903 S ASHLAND AVE 1ST ","YEAR":2015,"DOING_BUSINESS_AS_NAME":"ABC CHOICE","POP_AT_RISK":207555,"BUSINESS_TYPE":"Secondhand Dealer (No Valuable Objects)","LEGAL_NAME":"ASHLAND ABC CHOICE, INC.","LONGITUDE":-87.6632847593253},
{"STATE":"IL","ZIP":60609,"LATTITUDE":41.80299024852183,"ADDRESS":"5002 S ASHLAND AVE  ","YEAR":2015,"DOING_BUSINESS_AS_NAME":"THE CONNECTION","POP_AT_RISK":77004,"BUSINESS_TYPE":"Secondhand Dealer (No Valuable Objects)","LEGAL_NAME":"ASHLAND CONNECTION, INC.","LONGITUDE":-87.66496693821772},
{"STATE":"IL","ZIP":60618,"LATTITUDE":41.93915694889602,"ADDRESS":"3413 W BELMONT AVE 1ST A","YEAR":2015,"DOING_BUSINESS_AS_NAME":"DR. CELL","POP_AT_RISK":70710,"BUSINESS_TYPE":"Secondhand Dealer (No Valuable Objects)","LEGAL_NAME":"GENIUS ELECTRONICS, INC.","LONGITUDE":-87.71305529659774},
{"STATE":"IL","ZIP":60622,"LATTITUDE":41.90115303048925,"ADDRESS":"1101 N CALIFORNIA AVE  ","YEAR":2015,"DOING_BUSINESS_AS_NAME":"PARK DOLLAR & FOOD","POP_AT_RISK":50447,"BUSINESS_TYPE":"Secondhand Dealer (No Valuable Objects)","LEGAL_NAME":"PARK DOLLAR & FOOD, INC.","LONGITUDE":-87.69668997374622},
{"STATE":"IL","ZIP":60609,"LATTITUDE":41.80850672020838,"ADDRESS":"1539 W 47TH ST 1 1","YEAR":2015,"DOING_BUSINESS_AS_NAME":"DEL SOL PRINTING","POP_AT_RISK":39404,"BUSINESS_TYPE":"Secondhand Dealer (No Valuable Objects)","LEGAL_NAME":"TERESA CASTILLO-HERNANDEZ","LONGITUDE":-87.6640380974542},
{"STATE":"IL","ZIP":60637,"LATTITUDE":41.78030643012805,"ADDRESS":"807 E 63RD ST  ","YEAR":2015,"DOING_BUSINESS_AS_NAME":"QUICK FIX","POP_AT_RISK":404748,"BUSINESS_TYPE":"Secondhand Dealer (No Valuable Objects)","LEGAL_NAME":"JARADAT COMMUNICATION INC.","LONGITUDE":-87.60559709943512},
{"STATE":"IL","ZIP":60616,"LATTITUDE":41.830986702567515,"ADDRESS":"329 E 35TH ST 1 1","YEAR":2015,"DOING_BUSINESS_AS_NAME":"CHICAGO COMPUTER CLUB","POP_AT_RISK":29759,"BUSINESS_TYPE":"Secondhand Dealer (No Valuable Objects)","LEGAL_NAME":"ITECH COMPUTER INCORPORATED","LONGITUDE":-87.61807593164153},
{"STATE":"IL","ZIP":60652,"LATTITUDE":41.75466012439374,"ADDRESS":"7601 S CICERO AVE 1 T10","YEAR":2015,"DOING_BUSINESS_AS_NAME":"UNLOCK CELLULAR","POP_AT_RISK":103288,"BUSINESS_TYPE":"Secondhand Dealer (No Valuable Objects)","LEGAL_NAME":"UNLOCK CELL PHONE IAR, INC.","LONGITUDE":-87.74138475860521},
{"STATE":"IL","ZIP":60636,"LATTITUDE":41.77957043618697,"ADDRESS":"1600 W 63RD ST 1ST ","YEAR":2015,"DOING_BUSINESS_AS_NAME":"THE CONNECTION","POP_AT_RISK":37746,"BUSINESS_TYPE":"Secondhand Dealer (No Valuable Objects)","LEGAL_NAME":"THE CONNECTION ON 63RD, INC.","LONGITUDE":-87.66429387512882},
{"STATE":"IL","ZIP":60620,"LATTITUDE":41.7562717189879,"ADDRESS":"7554 S HALSTED ST FIRST ","YEAR":2015,"DOING_BUSINESS_AS_NAME":"SIMPLY PREPAID T RETAILER","POP_AT_RISK":37988,"BUSINESS_TYPE":"Secondhand Dealer (No Valuable Objects)","LEGAL_NAME":"SPARK TECHNOLOGY SERVICES, INC","LONGITUDE":-87.64433439896648},
{"STATE":"IL","ZIP":60621,"LATTITUDE":41.77951054606415,"ADDRESS":"1141 W 63RD ST  ","YEAR":2015,"DOING_BUSINESS_AS_NAME":"THE CONNECTION CLOTHING & CELLULAR, INC.","POP_AT_RISK":110898,"BUSINESS_TYPE":"Secondhand Dealer (No Valuable Objects)","LEGAL_NAME":"THE CONNECTION CLOTHING & CELLULAR, INC.","LONGITUDE":-87.65368143541859},
{"STATE":"IL","ZIP":60640,"LATTITUDE":41.975947305416334,"ADDRESS":"1929 W FOSTER AVE 1ST 4","YEAR":2015,"DOING_BUSINESS_AS_NAME":"DIGITAL IMAGE COMPUTERS & ELECTRONICS","POP_AT_RISK":108014,"BUSINESS_TYPE":"Secondhand Dealer (No Valuable Objects)","LEGAL_NAME":"DIGITAL IMAGE COMPUTERS & ELECTRONICS, INC.","LONGITUDE":-87.6776416247748},
{"STATE":"IL","ZIP":60615,"LATTITUDE":41.795082096806134,"ADDRESS":"1521 E 55TH ST 1 ","YEAR":2015,"DOING_BUSINESS_AS_NAME":"CHICAGO COMPUTER CLUB","POP_AT_RISK":40389,"BUSINESS_TYPE":"Secondhand Dealer (No Valuable Objects)","LEGAL_NAME":"GREAT LAKE COMPUTER TECHNOLOGY, INCORPORATED","LONGITUDE":-87.58826812316532},
}