{
{"STATE":"IL","ZIP":60645,"LATTITUDE":42.015060035775996,"ADDRESS":"7344 N ALBANY AVE 1 ","YEAR":2012,"DOING_BUSINESS_AS_NAME":"ERICK G. MATEO","POP_AT_RISK":31488,"BUSINESS_TYPE":"Peddler License","LEGAL_NAME":"ERICK G. MATEO","LONGITUDE":-87.70689724240283},
{"STATE":"IL","ZIP":60655,"LATTITUDE":41.68556100263544,"ADDRESS":"11431 S ST LOUIS AVE  ","YEAR":2012,"DOING_BUSINESS_AS_NAME":"JOSHUA JAMES SOICH","POP_AT_RISK":73892,"BUSINESS_TYPE":"Peddler License","LEGAL_NAME":"JOSHUA J. SOICH","LONGITUDE":-87.70778792327808},
{"STATE":"IL","ZIP":60646,"LATTITUDE":41.987234552868365,"ADDRESS":"5823 N MULLIGAN AVE  ","YEAR":2012,"DOING_BUSINESS_AS_NAME":"SCOTT A. MARVEL","POP_AT_RISK":36314,"BUSINESS_TYPE":"Peddler License","LEGAL_NAME":"SCOTT A. MARVEL","LONGITUDE":-87.7862944557037},
{"STATE":"IL","ZIP":60628,"LATTITUDE":41.658146251542945,"ADDRESS":"629 W 129TH PL  ","YEAR":2012,"DOING_BUSINESS_AS_NAME":"EVIN R J RUSSELL","POP_AT_RISK":12940,"BUSINESS_TYPE":"Peddler License","LEGAL_NAME":"EVIN R J RUSSELL","LONGITUDE":-87.63761292903398},
{"STATE":"IL","ZIP":60644,"LATTITUDE":41.88023523529787,"ADDRESS":"5912 W MADISON ST  ","YEAR":2012,"DOING_BUSINESS_AS_NAME":"BARBARA L WARMACK","POP_AT_RISK":46733,"BUSINESS_TYPE":"Peddler License","LEGAL_NAME":"BARBARA L WARMACK","LONGITUDE":-87.77232918177985},
{"STATE":"IL","ZIP":60652,"LATTITUDE":41.73571339120002,"ADDRESS":"8629 S KENNETH AVE 1 ","YEAR":2012,"DOING_BUSINESS_AS_NAME":"LAURA NICOLE ZARO","POP_AT_RISK":19810,"BUSINESS_TYPE":"Peddler License","LEGAL_NAME":"LAURA NICOLE ZARO","LONGITUDE":-87.73224099889644},
{"STATE":"IL","ZIP":60655,"LATTITUDE":41.71329864243373,"ADDRESS":"9911 S ARTESIAN AVE  ","YEAR":2012,"DOING_BUSINESS_AS_NAME":"MATTHEW JAMES KERR","POP_AT_RISK":24155,"BUSINESS_TYPE":"Peddler License","LEGAL_NAME":"MATTHEW JAMES KERR","LONGITUDE":-87.68296739421811},
{"STATE":"MN","ZIP":55427,"LATTITUDE":41.99704975036067,"ADDRESS":"6411  OLYMPIA ST  ","YEAR":2012,"DOING_BUSINESS_AS_NAME":"MANKWE MONIKA NDOSI","POP_AT_RISK":27040,"BUSINESS_TYPE":"Peddler License","LEGAL_NAME":"MANKWE MONIKA NDOSI","LONGITUDE":-87.81869481858155},
{"STATE":"IL","ZIP":60707,"LATTITUDE":41.91900397937436,"ADDRESS":"2131 N NORDICA AVE 1 1","YEAR":2012,"DOING_BUSINESS_AS_NAME":"RICHARD FRANK WELLS","POP_AT_RISK":38446,"BUSINESS_TYPE":"Peddler License","LEGAL_NAME":"RICHARD FRANK WELLS","LONGITUDE":-87.80228131029853},
{"STATE":"IL","ZIP":60643,"LATTITUDE":41.674052619031144,"ADDRESS":"12056 S JUSTINE ST 1 ","YEAR":2012,"DOING_BUSINESS_AS_NAME":"ROBERT L. JOHNSON JR.","POP_AT_RISK":25360,"BUSINESS_TYPE":"Peddler License","LEGAL_NAME":"ROBERT L. JOHNSON, JR","LONGITUDE":-87.66020570250922},
{"STATE":"IL","ZIP":60638,"LATTITUDE":41.793727199169396,"ADDRESS":"6201 S ARCHER AVE 2-F 2","YEAR":2012,"DOING_BUSINESS_AS_NAME":"ALEJANDRA BARANDA LUNA","POP_AT_RISK":34645,"BUSINESS_TYPE":"Peddler License","LEGAL_NAME":"ALEJANDRA BARANDA LUNA","LONGITUDE":-87.77457290234543},
{"STATE":"IL","ZIP":60656,"LATTITUDE":41.964432581175124,"ADDRESS":"4623 N CHESTER AVE  201","YEAR":2012,"DOING_BUSINESS_AS_NAME":"JERRY DANIEL HERNANDEZ","POP_AT_RISK":17082,"BUSINESS_TYPE":"Peddler License","LEGAL_NAME":"JERRY DANIEL HERNANDEZ","LONGITUDE":-87.83869227967783},
{"STATE":"IL","ZIP":60634,"LATTITUDE":41.93945406332852,"ADDRESS":"3300 N PANAMA AVE  ","YEAR":2012,"DOING_BUSINESS_AS_NAME":"ALLISON VICTORIA PINCSAK","POP_AT_RISK":27736,"BUSINESS_TYPE":"Peddler License","LEGAL_NAME":"ALLISON VICTORIA PINCSAK","LONGITUDE":-87.82898482892645},
}