{
{"STATE":"IL","ZIP":60620,"LATTITUDE":41.73604613500343,"ADDRESS":"1158 W 87TH ST  ","YEAR":2005,"DOING_BUSINESS_AS_NAME":"TIFFANY'S FAMILY STORE","POP_AT_RISK":82906,"BUSINESS_TYPE":"Retail Food Establishment","LEGAL_NAME":"JAKE TATE","LONGITUDE":-87.65328285521976},
{"STATE":"IL","ZIP":60615,"LATTITUDE":41.79962235142029,"ADDRESS":"1400 E 53RD ST  1ST","YEAR":2005,"DOING_BUSINESS_AS_NAME":"BASKIN ROBBINS","POP_AT_RISK":534450,"BUSINESS_TYPE":"Retail Food Establishment","LEGAL_NAME":"LI WHA LU","LONGITUDE":-87.59172040988271},
{"STATE":"IL","ZIP":60619,"LATTITUDE":41.75098857985615,"ADDRESS":"353 E 79TH ST  ","YEAR":2005,"DOING_BUSINESS_AS_NAME":"BARON SMITH SEAFOOD","POP_AT_RISK":37714,"BUSINESS_TYPE":"Retail Food Establishment","LEGAL_NAME":"BARON SMITH","LONGITUDE":-87.61606139122512},
{"STATE":"IL","ZIP":60634,"LATTITUDE":41.93803296673745,"ADDRESS":"7616 W BELMONT AVE  ","YEAR":2005,"DOING_BUSINESS_AS_NAME":"DENNY'S PIZZA","POP_AT_RISK":35096,"BUSINESS_TYPE":"Retail Food Establishment","LEGAL_NAME":"FELIX OCHOA","LONGITUDE":-87.81725960200333},
{"STATE":"IL","ZIP":60656,"LATTITUDE":41.98139132042581,"ADDRESS":"5509 N HARLEM AVE  ","YEAR":2005,"DOING_BUSINESS_AS_NAME":"TACO BURRITO KING","POP_AT_RISK":118456,"BUSINESS_TYPE":"Retail Food Establishment","LEGAL_NAME":"URIEL LAMAS","LONGITUDE":-87.80679539042062},
{"STATE":"IL","ZIP":60639,"LATTITUDE":41.93121276602796,"ADDRESS":"6102 W DIVERSEY AVE  ","YEAR":2005,"DOING_BUSINESS_AS_NAME":"ELBA'S LATIN CAFE","POP_AT_RISK":55898,"BUSINESS_TYPE":"Retail Food Establishment","LEGAL_NAME":"ELBA RAMIREZ","LONGITUDE":-87.77853673674818},
{"STATE":"IL","ZIP":60617,"LATTITUDE":41.713787168999794,"ADDRESS":"10000 S AVENUE L  1 ","YEAR":2005,"DOING_BUSINESS_AS_NAME":"ADRIATIC CAFE","POP_AT_RISK":19727,"BUSINESS_TYPE":"Retail Food Establishment","LEGAL_NAME":"GOLDYE, INC.","LONGITUDE":-87.53663320988323},
{"STATE":"IL","ZIP":60617,"LATTITUDE":41.70264905300071,"ADDRESS":"3335 E 106TH ST  ","YEAR":2005,"DOING_BUSINESS_AS_NAME":"EL TACONAZO TAQUERIA","POP_AT_RISK":24497,"BUSINESS_TYPE":"Retail Food Establishment","LEGAL_NAME":"ISRAEL ARCEO","LONGITUDE":-87.54241659790318},
{"STATE":"IL","ZIP":60631,"LATTITUDE":42.0029364359685,"ADDRESS":"6710 N NORTHWEST HWY  ","YEAR":2005,"DOING_BUSINESS_AS_NAME":"CONCA D'ORO BAKERY","POP_AT_RISK":75672,"BUSINESS_TYPE":"Retail Food Establishment","LEGAL_NAME":"JULIA ADDANTE","LONGITUDE":-87.81663013826069},
{"STATE":"IL","ZIP":60653,"LATTITUDE":41.80918391171004,"ADDRESS":"109 E 47TH ST  ","YEAR":2005,"DOING_BUSINESS_AS_NAME":"C & C CANDY STORE AND GENERAL MERCHANDISE","POP_AT_RISK":269088,"BUSINESS_TYPE":"Retail Food Establishment","LEGAL_NAME":"MELVIN MADDOX","LONGITUDE":-87.62238657246479},
{"STATE":"IL","ZIP":60632,"LATTITUDE":41.79677719244404,"ADDRESS":"5265 S CICERO AVE  ","YEAR":2005,"DOING_BUSINESS_AS_NAME":"MASTERS PANCAKE HOUSE","POP_AT_RISK":54894,"BUSINESS_TYPE":"Retail Food Establishment","LEGAL_NAME":"PETER MASTERS","LONGITUDE":-87.74271808989684},
{"STATE":"IL","ZIP":60617,"LATTITUDE":41.7430796625925,"ADDRESS":"8357 S BUFFALO AVE 1ST ","YEAR":2005,"DOING_BUSINESS_AS_NAME":"83RD STREET GROCERY","POP_AT_RISK":53252,"BUSINESS_TYPE":"Retail Food Establishment","LEGAL_NAME":"RAMON MIRANDA","LONGITUDE":-87.54408605663065},
{"STATE":"IL","ZIP":60625,"LATTITUDE":41.97582181741593,"ADDRESS":"3312-3314 W FOSTER AVE  ","YEAR":2005,"DOING_BUSINESS_AS_NAME":"DELICIAS CRUCITA","POP_AT_RISK":67898,"BUSINESS_TYPE":"Retail Food Establishment","LEGAL_NAME":"SONIA CABRERA","LONGITUDE":-87.71172940864518},
{"STATE":"IL","ZIP":60628,"LATTITUDE":41.71262455008975,"ADDRESS":"10000 S MICHIGAN AVE  ","YEAR":2005,"DOING_BUSINESS_AS_NAME":"A AND W DOLLAR PLUS","POP_AT_RISK":28709,"BUSINESS_TYPE":"Retail Food Establishment","LEGAL_NAME":"WANDA MADISON","LONGITUDE":-87.62027851925964},
{"STATE":"IL","ZIP":60633,"LATTITUDE":41.65378868832864,"ADDRESS":"3146 E 133RD ST  ","YEAR":2005,"DOING_BUSINESS_AS_NAME":"DARCY'S DOGS & SHRIMP SHACK","POP_AT_RISK":40896,"BUSINESS_TYPE":"Retail Food Establishment","LEGAL_NAME":"BRIAN M. SIUBA","LONGITUDE":-87.5464896320053},
{"STATE":"IL","ZIP":60649,"LATTITUDE":41.751651293829745,"ADDRESS":"2455-2457 E 79TH ST  ","YEAR":2005,"DOING_BUSINESS_AS_NAME":"HEAL THYSELF HEALTH STORE","POP_AT_RISK":132512,"BUSINESS_TYPE":"Retail Food Establishment","LEGAL_NAME":"CAMILLA ALFRED","LONGITUDE":-87.56403300154837},
{"STATE":"IL","ZIP":60616,"LATTITUDE":41.83796578686669,"ADDRESS":"701 W 31ST ST 1 ","YEAR":2005,"DOING_BUSINESS_AS_NAME":"FREDDIES","POP_AT_RISK":123741,"BUSINESS_TYPE":"Retail Food Establishment","LEGAL_NAME":"FREDDIE'S INC.","LONGITUDE":-87.64390672735786},
{"STATE":"IL","ZIP":60608,"LATTITUDE":41.857856567514325,"ADDRESS":"1714 W 18TH ST  ","YEAR":2005,"DOING_BUSINESS_AS_NAME":"LUCIANO'S GROCERY-18TH ST","POP_AT_RISK":241482,"BUSINESS_TYPE":"Retail Food Establishment","LEGAL_NAME":"SABINO'S, INC.","LONGITUDE":-87.66941959556328},
{"STATE":"IL","ZIP":60628,"LATTITUDE":41.71587020321599,"ADDRESS":"9800 S HALSTED ST  ","YEAR":2005,"DOING_BUSINESS_AS_NAME":"SHARK FISH AND CHICKEN","POP_AT_RISK":24033,"BUSINESS_TYPE":"Retail Food Establishment","LEGAL_NAME":"79TH STREET INC","LONGITUDE":-87.64321013954779},
{"STATE":"IL","ZIP":60628,"LATTITUDE":41.66347801657855,"ADDRESS":"144 E 127TH ST  ","YEAR":2005,"DOING_BUSINESS_AS_NAME":"READY RIBS BARBECUE","POP_AT_RISK":39984,"BUSINESS_TYPE":"Retail Food Establishment","LEGAL_NAME":"EVERETT  COLLINS","LONGITUDE":-87.61822174729889},
{"STATE":"IL","ZIP":60649,"LATTITUDE":41.75161294973518,"ADDRESS":"1640 E 79TH ST  1ST F","YEAR":2005,"DOING_BUSINESS_AS_NAME":"LEON'S BAR-B-QUE","POP_AT_RISK":119235,"BUSINESS_TYPE":"Retail Food Establishment","LEGAL_NAME":"LEON'S BAR-B-QUE","LONGITUDE":-87.58417449985856},
{"STATE":"IL","ZIP":60657,"LATTITUDE":41.9352934991878,"ADDRESS":"2930 N SHERIDAN RD  ","YEAR":2005,"DOING_BUSINESS_AS_NAME":"OAK DALE FOOD MART","POP_AT_RISK":63863,"BUSINESS_TYPE":"Retail Food Establishment","LEGAL_NAME":"NEW BERACHAH INC","LONGITUDE":-87.63953546157597},
{"STATE":"IL","ZIP":60651,"LATTITUDE":41.894897804583955,"ADDRESS":"5752-5754 W CHICAGO AVE  1","YEAR":2005,"DOING_BUSINESS_AS_NAME":"COLEMAN'S BAR B QUE #2","POP_AT_RISK":59446,"BUSINESS_TYPE":"Retail Food Establishment","LEGAL_NAME":"HENRY L COLEMAN SR","LONGITUDE":-87.76984310664683},
{"STATE":"IL","ZIP":60657,"LATTITUDE":41.939570356107744,"ADDRESS":"1629 W BELMONT AVE  ","YEAR":2005,"DOING_BUSINESS_AS_NAME":"SEATTLE SUTTONS HEALTHY EATING","POP_AT_RISK":266940,"BUSINESS_TYPE":"Retail Food Establishment","LEGAL_NAME":"LORI REBECCA TYBON","LONGITUDE":-87.66983770870691},
{"STATE":"IL","ZIP":60623,"LATTITUDE":41.843909947800626,"ADDRESS":"2605 S KOSTNER AVE  ","YEAR":2005,"DOING_BUSINESS_AS_NAME":"CELIS PIZZERIA  INC","POP_AT_RISK":45902,"BUSINESS_TYPE":"Retail Food Establishment","LEGAL_NAME":"CELIS PIZZERIA INC.","LONGITUDE":-87.73412957877233},
{"STATE":"IL","ZIP":60634,"LATTITUDE":41.95256564111005,"ADDRESS":"7329 W IRVING PARK RD  ","YEAR":2005,"DOING_BUSINESS_AS_NAME":"JIMMY JOHN OF CHICAGO","POP_AT_RISK":65290,"BUSINESS_TYPE":"Retail Food Establishment","LEGAL_NAME":"KMH ASTRONAUTS, LLC","LONGITUDE":-87.81127429615809},
{"STATE":"IL","ZIP":60655,"LATTITUDE":41.691507475209015,"ADDRESS":"3011 W 111TH ST 1 #","YEAR":2005,"DOING_BUSINESS_AS_NAME":"HIPPO'S","POP_AT_RISK":42786,"BUSINESS_TYPE":"Retail Food Establishment","LEGAL_NAME":"MUNCHIE'S PUB, INC.","LONGITUDE":-87.69662197864443},
{"STATE":"IL","ZIP":60643,"LATTITUDE":41.67790873988534,"ADDRESS":"11836 S WESTERN AVE  ","YEAR":2005,"DOING_BUSINESS_AS_NAME":"SWEET LIL MEME BAKERY","POP_AT_RISK":38986,"BUSINESS_TYPE":"Retail Food Establishment","LEGAL_NAME":"SHAFEEQ H. MUHAMMAD","LONGITUDE":-87.68087006820383},
{"STATE":"IL","ZIP":60619,"LATTITUDE":41.72208716744946,"ADDRESS":"1153 E 95TH ST  ","YEAR":2005,"DOING_BUSINESS_AS_NAME":"SUNNY'S FOODS","POP_AT_RISK":16968,"BUSINESS_TYPE":"Retail Food Establishment","LEGAL_NAME":"SUNNY'S FOODS, INC.","LONGITUDE":-87.59510270832115},
{"STATE":"IL","ZIP":60609,"LATTITUDE":41.80956565965064,"ADDRESS":"4627 S HERMITAGE AVE 1ST ","YEAR":2005,"DOING_BUSINESS_AS_NAME":"BALTIC BAKERY","POP_AT_RISK":239868,"BUSINESS_TYPE":"Retail Food Establishment","LEGAL_NAME":"DONAL BAKERY LIMITED","LONGITUDE":-87.66849768157388},
{"STATE":"IL","ZIP":60618,"LATTITUDE":41.953538937105,"ADDRESS":"3965 W IRVING PARK RD  ","YEAR":2005,"DOING_BUSINESS_AS_NAME":"M B FOOD MART","POP_AT_RISK":65479,"BUSINESS_TYPE":"Retail Food Establishment","LEGAL_NAME":"MATHEW EDUKUTHARAYIL","LONGITUDE":-87.7275531608253},
{"STATE":"IL","ZIP":60631,"LATTITUDE":41.981143964082634,"ADDRESS":"8550 W BRYN MAWR AVE  ","YEAR":2005,"DOING_BUSINESS_AS_NAME":"DELIS OF AMERICA","POP_AT_RISK":21169,"BUSINESS_TYPE":"Retail Food Establishment","LEGAL_NAME":"DELIS OF AMERICA INC.","LONGITUDE":-87.84108737455419},
{"STATE":"IL","ZIP":60652,"LATTITUDE":41.73635838870971,"ADDRESS":"8618 S KEDZIE AVE 1ST ","YEAR":2005,"DOING_BUSINESS_AS_NAME":"E & D RESTAURANT INC.","POP_AT_RISK":24391,"BUSINESS_TYPE":"Retail Food Establishment","LEGAL_NAME":"E & D RESTAURANT INC.","LONGITUDE":-87.70219142499292},
{"STATE":"IL","ZIP":60651,"LATTITUDE":41.90191358699433,"ADDRESS":"5915 W DIVISION ST  ","YEAR":2005,"DOING_BUSINESS_AS_NAME":"M.S.A. RESTAURANT","POP_AT_RISK":40933,"BUSINESS_TYPE":"Retail Food Establishment","LEGAL_NAME":"M.S.A. RESTAURANT, INC.","LONGITUDE":-87.77363179265902},
{"STATE":"IL","ZIP":60644,"LATTITUDE":41.88633173591688,"ADDRESS":"321 N LARAMIE AVE  ","YEAR":2005,"DOING_BUSINESS_AS_NAME":"SUN  SUMRINE FAST FOOD","POP_AT_RISK":54242,"BUSINESS_TYPE":"Retail Food Establishment","LEGAL_NAME":"GURMEET KAUR, TAREM SINAH","LONGITUDE":-87.75513776619906},
{"STATE":"IL","ZIP":60636,"LATTITUDE":41.792082981941036,"ADDRESS":"5606 S RACINE AVE  ","YEAR":2005,"DOING_BUSINESS_AS_NAME":"56TH STREET FAMILY KITCHEN","POP_AT_RISK":71652,"BUSINESS_TYPE":"Retail Food Establishment","LEGAL_NAME":"56TH STREET FAMILY KITCHEN","LONGITUDE":-87.65496841611146},
{"STATE":"IL","ZIP":60643,"LATTITUDE":41.70933147991459,"ADDRESS":"10123 S WESTERN AVE  ","YEAR":2005,"DOING_BUSINESS_AS_NAME":"CHUCK'S PIZZA","POP_AT_RISK":24497,"BUSINESS_TYPE":"Retail Food Establishment","LEGAL_NAME":"CHUCK'S PIZZA & RESTAURANT","LONGITUDE":-87.68156400297771},
{"STATE":"IL","ZIP":60652,"LATTITUDE":41.73585223621957,"ADDRESS":"3977 W COLUMBUS AVE  ","YEAR":2005,"DOING_BUSINESS_AS_NAME":"DUNKIN DONUTS & BASKIN ROBINS","POP_AT_RISK":25233,"BUSINESS_TYPE":"Retail Food Establishment","LEGAL_NAME":"THOMAS MANAGEMENT ASSOCIATE","LONGITUDE":-87.72094571100703},
{"STATE":"IL","ZIP":60655,"LATTITUDE":41.70527429965785,"ADDRESS":"10319 S PULASKI RD  ","YEAR":2005,"DOING_BUSINESS_AS_NAME":"SUBWAY STORE 26462 INCORPORATED","POP_AT_RISK":68406,"BUSINESS_TYPE":"Retail Food Establishment","LEGAL_NAME":"SUBWAY STORE 26462 INCORPORATED","LONGITUDE":-87.72074788790215},
{"STATE":"IL","ZIP":60655,"LATTITUDE":41.68399181564351,"ADDRESS":"4200 W 115TH ST  ","YEAR":2005,"DOING_BUSINESS_AS_NAME":"QUEST FOOD MANAGEMENT SERVICE","POP_AT_RISK":25840,"BUSINESS_TYPE":"Retail Food Establishment","LEGAL_NAME":"QUEST FOOD MANAGEMENT SERVICES, INC.","LONGITUDE":-87.72501727575752},
{"STATE":"IL","ZIP":60632,"LATTITUDE":41.807682027157476,"ADDRESS":"4235 W 47TH ST  ","YEAR":2005,"DOING_BUSINESS_AS_NAME":"PFC TED STEMPIEN POST 8821 VFW","POP_AT_RISK":27802,"BUSINESS_TYPE":"Retail Food Establishment","LEGAL_NAME":"PFC TED M. STEMPIEN POST NO. 8821 VFW, INC.","LONGITUDE":-87.72984725145503},
}