{
{"STATE":"IL","ZIP":60620,"LATTITUDE":41.73948850835696,"ADDRESS":"8501 S RACINE AVE  1ST","YEAR":2005,"DOING_BUSINESS_AS_NAME":"E & J TIRE SERVICE","POP_AT_RISK":483444,"BUSINESS_TYPE":"Motor Vehicle Repair
{"STATE":"IL","ZIP":60618,"LATTITUDE":41.95525802826585,"ADDRESS":"4100 N ELSTON AVE  ","YEAR":2005,"DOING_BUSINESS_AS_NAME":"EAGLE TIRE SHOP","POP_AT_RISK":1127066,"BUSINESS_TYPE":"Motor Vehicle Repair
{"STATE":"IL","ZIP":60643,"LATTITUDE":41.70993287163702,"ADDRESS":"10101 S WESTERN AVE  ","YEAR":2005,"DOING_BUSINESS_AS_NAME":"EXOTIC WHEEL BOUTIQUE","POP_AT_RISK":153769,"BUSINESS_TYPE":"Motor Vehicle Repair
{"STATE":"IL","ZIP":60634,"LATTITUDE":41.937851717173146,"ADDRESS":"7517 W BELMONT AVE 1ST ","YEAR":2005,"DOING_BUSINESS_AS_NAME":"ONCE OVER CAR DETAILING","POP_AT_RISK":296681,"BUSINESS_TYPE":"Motor Vehicle Repair
{"STATE":"IL","ZIP":60618,"LATTITUDE":41.944491246229944,"ADDRESS":"3447 N WESTERN AVE 1ST ","YEAR":2005,"DOING_BUSINESS_AS_NAME":"SOUNDZ GOOD INC","POP_AT_RISK":813040,"BUSINESS_TYPE":"Motor Vehicle Repair
{"STATE":"IL","ZIP":60647,"LATTITUDE":41.91736186433281,"ADDRESS":"3700 W ARMITAGE AVE 1ST ","YEAR":2005,"DOING_BUSINESS_AS_NAME":"LUIS & SON TIRE SHOP","POP_AT_RISK":540701,"BUSINESS_TYPE":"Motor Vehicle Repair
{"STATE":"IL","ZIP":60652,"LATTITUDE":41.74149141951151,"ADDRESS":"8323 S PULASKI RD  ","YEAR":2005,"DOING_BUSINESS_AS_NAME":"SAFETRONICS II INC.","POP_AT_RISK":95526,"BUSINESS_TYPE":"Motor Vehicle Repair
{"STATE":"IL","ZIP":60652,"LATTITUDE":41.746206759824155,"ADDRESS":"3431 W COLUMBUS AVE  1ST","YEAR":2005,"DOING_BUSINESS_AS_NAME":"GLASS DOCTOR OF CHICAGO","POP_AT_RISK":53996,"BUSINESS_TYPE":"Motor Vehicle Repair
{"STATE":"IL","ZIP":60622,"LATTITUDE":41.91093166110219,"ADDRESS":"1030 W NORTH AVE  ","YEAR":2005,"DOING_BUSINESS_AS_NAME":"CIRCUIT CITY","POP_AT_RISK":849024,"BUSINESS_TYPE":"Motor Vehicle Repair
{"STATE":"IL","ZIP":60647,"LATTITUDE":41.92693095884883,"ADDRESS":"2500 N ELSTON AVE  ","YEAR":2005,"DOING_BUSINESS_AS_NAME":"CIRCUIT CITY #3131","POP_AT_RISK":703360,"BUSINESS_TYPE":"Motor Vehicle Repair
{"STATE":"IL","ZIP":60629,"LATTITUDE":41.78491760292054,"ADDRESS":"5934 S PULASKI RD  ","YEAR":2005,"DOING_BUSINESS_AS_NAME":"TRI-STAR ELECTRONICS INC","POP_AT_RISK":581174,"BUSINESS_TYPE":"Motor Vehicle Repair
{"STATE":"IL","ZIP":60634,"LATTITUDE":41.952530291787475,"ADDRESS":"7413 W IRVING PARK RD  ","YEAR":2005,"DOING_BUSINESS_AS_NAME":"IRVING PARK HAND CARWASH, INC.","POP_AT_RISK":163225,"BUSINESS_TYPE":"Motor Vehicle Repair
{"STATE":"IL","ZIP":60607,"LATTITUDE":41.88537020133907,"ADDRESS":"1239 W LAKE ST  ","YEAR":2005,"DOING_BUSINESS_AS_NAME":"REX RADIATOR & WELDING CO INC","POP_AT_RISK":515892,"BUSINESS_TYPE":"Motor Vehicle Repair
}