{
{"STATE":"IL","ZIP":60646,"LATTITUDE":41.99093763109051,"ADDRESS":"6024 N KEYSTONE AVE 1ST ","YEAR":2009,"DOING_BUSINESS_AS_NAME":"EL GREG","POP_AT_RISK":53922,"BUSINESS_TYPE":"Wholesale Food Establishment","LEGAL_NAME":"EL GREG INC","LONGITUDE":-87.73022073672183},
{"STATE":"IL","ZIP":60621,"LATTITUDE":41.78873025430791,"ADDRESS":"809 W 58TH ST  ","YEAR":2009,"DOING_BUSINESS_AS_NAME":"VITAMINS INC","POP_AT_RISK":31290,"BUSINESS_TYPE":"Wholesale Food Establishment","LEGAL_NAME":"VITAMINS INC","LONGITUDE":-87.64543855633937},
{"STATE":"IL","ZIP":60609,"LATTITUDE":41.81064440590946,"ADDRESS":"125 W 46TH PL  ","YEAR":2009,"DOING_BUSINESS_AS_NAME":"ARTOPOLIS BAKERY, CAFE & A GORA","POP_AT_RISK":94632,"BUSINESS_TYPE":"Wholesale Food Establishment","LEGAL_NAME":"ARTOS LIMITED","LONGITUDE":-87.62945032101811},
{"STATE":"IL","ZIP":60827,"LATTITUDE":41.64471651864612,"ADDRESS":"612 E 138TH ST  ","YEAR":2009,"DOING_BUSINESS_AS_NAME":"INNOPHOS INC.","POP_AT_RISK":40143,"BUSINESS_TYPE":"Wholesale Food Establishment","LEGAL_NAME":"INNOPHOS INC.","LONGITUDE":-87.60679330792205},
{"STATE":"IL","ZIP":60637,"LATTITUDE":41.77220370005425,"ADDRESS":"6717 S STATE ST 1ST ","YEAR":2009,"DOING_BUSINESS_AS_NAME":"CORNELUIS RYAN","POP_AT_RISK":32512,"BUSINESS_TYPE":"Wholesale Food Establishment","LEGAL_NAME":"CORNELUIS RYAN","LONGITUDE":-87.62496810528351},
{"STATE":"IL","ZIP":60619,"LATTITUDE":41.73441096044655,"ADDRESS":"8815 S DOBSON AVE  ","YEAR":2009,"DOING_BUSINESS_AS_NAME":"MARIGOLD, INC.","POP_AT_RISK":87207,"BUSINESS_TYPE":"Wholesale Food Establishment","LEGAL_NAME":"MARIGOLD, INC.","LONGITUDE":-87.59893837985673},
{"STATE":"IL","ZIP":60707,"LATTITUDE":41.90922989499976,"ADDRESS":"6454 W NORTH AVE 1ST ","YEAR":2009,"DOING_BUSINESS_AS_NAME":"SERRELLI'S FOODS","POP_AT_RISK":35237,"BUSINESS_TYPE":"Wholesale Food Establishment","LEGAL_NAME":"DANIEL SERRELLI","LONGITUDE":-87.78712882071771},
{"STATE":"IL","ZIP":60629,"LATTITUDE":41.786196544925204,"ADDRESS":"3600 W 59TH ST  1","YEAR":2009,"DOING_BUSINESS_AS_NAME":"LANG ICE COMPANY","POP_AT_RISK":484141,"BUSINESS_TYPE":"Wholesale Food Establishment","LEGAL_NAME":"LANG ICE COMPANY","LONGITUDE":-87.71348942184615},
{"STATE":"IL","ZIP":60604,"LATTITUDE":41.878025655260835,"ADDRESS":"141 W JACKSON BLVD  LOBBY","YEAR":2009,"DOING_BUSINESS_AS_NAME":"LA SALLE NEWS INC","POP_AT_RISK":151533,"BUSINESS_TYPE":"Wholesale Food Establishment","LEGAL_NAME":"LASALLE NEWS INC","LONGITUDE":-87.63206228626693},
{"STATE":"IL","ZIP":60613,"LATTITUDE":41.95180634357866,"ADDRESS":"3830 N CLARK ST  ","YEAR":2009,"DOING_BUSINESS_AS_NAME":"NUTS ON CLARK INC","POP_AT_RISK":83060,"BUSINESS_TYPE":"Wholesale Food Establishment","LEGAL_NAME":"NUTS ON CLARK INC","LONGITUDE":-87.66038145990446},
{"STATE":"IL","ZIP":60634,"LATTITUDE":41.953005691813,"ADDRESS":"4120 N NASHVILLE AVE 1 ","YEAR":2009,"DOING_BUSINESS_AS_NAME":"RIMCO FOODS, INC.","POP_AT_RISK":34740,"BUSINESS_TYPE":"Wholesale Food Establishment","LEGAL_NAME":"RIMCO FOODS, INC.","LONGITUDE":-87.79150425135782},
{"STATE":"IL","ZIP":60628,"LATTITUDE":41.684079079941675,"ADDRESS":"304 -328 E KENSINGTON AVE 1ST ","YEAR":2009,"DOING_BUSINESS_AS_NAME":"GONNELLA BAKING","POP_AT_RISK":88416,"BUSINESS_TYPE":"Wholesale Food Establishment","LEGAL_NAME":"GONNELLA BAKING CO.","LONGITUDE":-87.61644380536383},
{"STATE":"IL","ZIP":60707,"LATTITUDE":41.9289626042484,"ADDRESS":"2701 N HARLEM AVE 1ST ","YEAR":2009,"DOING_BUSINESS_AS_NAME":"MICHAELANGELO'S FOODS","POP_AT_RISK":87052,"BUSINESS_TYPE":"Wholesale Food Establishment","LEGAL_NAME":"MICHAEL CIAMPANELLI","LONGITUDE":-87.80628280360719},
{"STATE":"IL","ZIP":60018,"LATTITUDE":42.00519055693345,"ADDRESS":"1769  PRATT AVE 1ST ","YEAR":2009,"DOING_BUSINESS_AS_NAME":"RONALD G MULHOLLAND","POP_AT_RISK":261066,"BUSINESS_TYPE":"Wholesale Food Establishment","LEGAL_NAME":"RONALD G MULHOLLAND","LONGITUDE":-87.6754482343933},
{"STATE":"IL","ZIP":60616,"LATTITUDE":41.84989139764734,"ADDRESS":"2341 S MICHIGAN AVE 1 ","YEAR":2009,"DOING_BUSINESS_AS_NAME":"THE COCOA ROOM, INC.","POP_AT_RISK":76398,"BUSINESS_TYPE":"Wholesale Food Establishment","LEGAL_NAME":"THE COCOA ROOM,INC.","LONGITUDE":-87.62358338092812},
{"STATE":"IL","ZIP":60644,"LATTITUDE":41.868444563183594,"ADDRESS":"5610 W TAYLOR ST  ","YEAR":2009,"DOING_BUSINESS_AS_NAME":"THE PUCKERED PICKLE","POP_AT_RISK":91034,"BUSINESS_TYPE":"Wholesale Food Establishment","LEGAL_NAME":"PICKLES SORRELL, INC","LONGITUDE":-87.76497544455088},
{"STATE":"IL","ZIP":60628,"LATTITUDE":41.66008633887119,"ADDRESS":"12847 S HALSTED ST  1ST","YEAR":2009,"DOING_BUSINESS_AS_NAME":"THE MEAT FACTORY INC","POP_AT_RISK":81390,"BUSINESS_TYPE":"Wholesale Food Establishment","LEGAL_NAME":"THE MEAT FACTORY INC","LONGITUDE":-87.64116883216026},
{"STATE":"IL","ZIP":60631,"LATTITUDE":41.99412935894236,"ADDRESS":"6186 N NORTHWEST HWY 1ST ","YEAR":2009,"DOING_BUSINESS_AS_NAME":"UNION FISHERIES CORP","POP_AT_RISK":95712,"BUSINESS_TYPE":"Wholesale Food Establishment","LEGAL_NAME":"UNION FISHERIES CORP","LONGITUDE":-87.80226201134202},
{"STATE":"IL","ZIP":60634,"LATTITUDE":41.952632794111594,"ADDRESS":"6851 W IRVING PARK RD 1ST FL ","YEAR":2009,"DOING_BUSINESS_AS_NAME":"CHEF EARL'S","POP_AT_RISK":72032,"BUSINESS_TYPE":"Wholesale Food Establishment","LEGAL_NAME":"GOOD FOODS GROUP, INC.","LONGITUDE":-87.79830631114467},
{"STATE":"IL","ZIP":60610,"LATTITUDE":41.90508513218503,"ADDRESS":"1240 N SEDGWICK ST  1","YEAR":2009,"DOING_BUSINESS_AS_NAME":"IDEAL PROVISION CO INC.","POP_AT_RISK":66774,"BUSINESS_TYPE":"Wholesale Food Establishment","LEGAL_NAME":"IDEAL PROVISION CO INC","LONGITUDE":-87.63854897436143},
{"STATE":"IL","ZIP":60620,"LATTITUDE":41.754837071331025,"ADDRESS":"7651 S VINCENNES AVE  ","YEAR":2009,"DOING_BUSINESS_AS_NAME":"R & MMM BURRITOS, INC","POP_AT_RISK":36591,"BUSINESS_TYPE":"Wholesale Food Establishment","LEGAL_NAME":"R & MMM BURRITOS, INC.","LONGITUDE":-87.63278741562769},
{"STATE":"IL","ZIP":60645,"LATTITUDE":42.019181973030165,"ADDRESS":"2841 W HOWARD ST  ","YEAR":2009,"DOING_BUSINESS_AS_NAME":"JR DESSERT BAKERY","POP_AT_RISK":132128,"BUSINESS_TYPE":"Wholesale Food Establishment","LEGAL_NAME":"CHEESECAKES BY JR, INC.","LONGITUDE":-87.70116444187651},
{"STATE":"IL","ZIP":60609,"LATTITUDE":41.81901264253939,"ADDRESS":"215 W ROOT ST  ","YEAR":2009,"DOING_BUSINESS_AS_NAME":"DANIELSON FOOD PROD INC","POP_AT_RISK":41374,"BUSINESS_TYPE":"Wholesale Food Establishment","LEGAL_NAME":"DANIELSON FOOD PROD INC","LONGITUDE":-87.63184863563215},
{"STATE":"IL","ZIP":60619,"LATTITUDE":41.72565184476607,"ADDRESS":"945 E 93RD ST  ","YEAR":2009,"DOING_BUSINESS_AS_NAME":"FOOD & PAPER SUPPLY CO.","POP_AT_RISK":41092,"BUSINESS_TYPE":"Wholesale Food Establishment","LEGAL_NAME":"FOOD & PAPER SUPPLY CO.","LONGITUDE":-87.60079152053679},
{"STATE":"IL","ZIP":60619,"LATTITUDE":41.763518738292134,"ADDRESS":"7247-7249 S SOUTH CHICAGO AVE  1ST","YEAR":2009,"DOING_BUSINESS_AS_NAME":"FOOD & PAPER SUPPLY CO.","POP_AT_RISK":142640,"BUSINESS_TYPE":"Wholesale Food Establishment","LEGAL_NAME":"FOOD & PAPER SUPPLY CO.","LONGITUDE":-87.6020811928112},
{"STATE":"IL","ZIP":60617,"LATTITUDE":41.72552276451634,"ADDRESS":"9332 S ANTHONY AVE  ","YEAR":2009,"DOING_BUSINESS_AS_NAME":"ALL UNITED IMPORTS","POP_AT_RISK":36858,"BUSINESS_TYPE":"Wholesale Food Establishment","LEGAL_NAME":"ALL UNITED IMPORTS, INC.","LONGITUDE":-87.55287606866008},
{"STATE":"IL","ZIP":60629,"LATTITUDE":41.76066858314362,"ADDRESS":"7300 S KEDZIE AVE  ","YEAR":2009,"DOING_BUSINESS_AS_NAME":"KRAFT FOODS","POP_AT_RISK":26650,"BUSINESS_TYPE":"Wholesale Food Establishment","LEGAL_NAME":"KRAFT FOODS GLOBAL, INC.","LONGITUDE":-87.7028547971541},
{"STATE":"IL","ZIP":60614,"LATTITUDE":41.924966179088,"ADDRESS":"2345 N CLARK ST  ","YEAR":2009,"DOING_BUSINESS_AS_NAME":"BIG APPLE FINER FOODS INC","POP_AT_RISK":340734,"BUSINESS_TYPE":"Wholesale Food Establishment","LEGAL_NAME":"BIG APPLE FINER FOODS INC","LONGITUDE":-87.63992601896568},
{"STATE":"IL","ZIP":60625,"LATTITUDE":41.96836730905349,"ADDRESS":"3055 W LAWRENCE AVE 1ST ","YEAR":2009,"DOING_BUSINESS_AS_NAME":"LEE'S SEAFOOD MARKET, INC","POP_AT_RISK":80584,"BUSINESS_TYPE":"Wholesale Food Establishment","LEGAL_NAME":"LEE'S SEAFOOD MARKET, INC","LONGITUDE":-87.70581227358586},
{"STATE":"IL","ZIP":60652,"LATTITUDE":41.74150692710327,"ADDRESS":"3636 W 83RD PL  ","YEAR":2009,"DOING_BUSINESS_AS_NAME":"NADER WHOLESALE GROCERS INC","POP_AT_RISK":82479,"BUSINESS_TYPE":"Wholesale Food Establishment","LEGAL_NAME":"NADER WHOLESALE GROCERS INC","LONGITUDE":-87.7135424197768},
{"STATE":"IL","ZIP":60638,"LATTITUDE":41.78519267395424,"ADDRESS":"5757 W 59TH ST 1ST ","YEAR":2009,"DOING_BUSINESS_AS_NAME":"OLYMPIA FOOD INDUSTRIES INC","POP_AT_RISK":139165,"BUSINESS_TYPE":"Wholesale Food Establishment","LEGAL_NAME":"OLYMPIA FOOD INDUSTRIES INC","LONGITUDE":-87.7667534323291},
{"STATE":"IL","ZIP":60629,"LATTITUDE":41.75872799769038,"ADDRESS":"7401 S CICERO AVE  ","YEAR":2009,"DOING_BUSINESS_AS_NAME":"TOOTSIE ROLL INDUSTRIES, LLC","POP_AT_RISK":32094,"BUSINESS_TYPE":"Wholesale Food Establishment","LEGAL_NAME":"TOOTSIE ROLL INDUSTRIES, LLC","LONGITUDE":-87.74153566231715},
{"STATE":"IL","ZIP":60620,"LATTITUDE":41.75016167702497,"ADDRESS":"1841 W 79TH ST 1 #","YEAR":2009,"DOING_BUSINESS_AS_NAME":"DEARBORN WHOLESALE GROCER LP","POP_AT_RISK":118808,"BUSINESS_TYPE":"Wholesale Food Establishment","LEGAL_NAME":"DEARBORN WHOLESALE GROCERS LP","LONGITUDE":-87.66988951666725},
{"STATE":"IL","ZIP":60613,"LATTITUDE":41.96190984490327,"ADDRESS":"918 W MONTROSE AVE 1ST #","YEAR":2009,"DOING_BUSINESS_AS_NAME":"DEARBORN WHOLESALE GROCERS INC","POP_AT_RISK":78611,"BUSINESS_TYPE":"Wholesale Food Establishment","LEGAL_NAME":"DEARBORN WHOLESALE GROCERS LP","LONGITUDE":-87.65312737854316},
{"STATE":"IL","ZIP":60633,"LATTITUDE":41.65928603914349,"ADDRESS":"2400 E 130TH ST  ","YEAR":2009,"DOING_BUSINESS_AS_NAME":"AMERICAN SWEETENER CORPORATION","POP_AT_RISK":2798,"BUSINESS_TYPE":"Wholesale Food Establishment","LEGAL_NAME":"AMERICAN SWEETENER CORPORATION","LONGITUDE":-87.565517863218},
{"STATE":"IL","ZIP":60644,"LATTITUDE":41.873092477389,"ADDRESS":"5070 W HARRISON ST  ","YEAR":2009,"DOING_BUSINESS_AS_NAME":"Salad Oils International Corp.","POP_AT_RISK":38547,"BUSINESS_TYPE":"Wholesale Food Establishment","LEGAL_NAME":"Salad Oils International Corp.","LONGITUDE":-87.75201236878274},
{"STATE":"IL","ZIP":60638,"LATTITUDE":41.79468154402482,"ADDRESS":"5370 S CICERO AVE 1ST ","YEAR":2009,"DOING_BUSINESS_AS_NAME":"FLYING FOOD FARE MIDWAY L.L.C.","POP_AT_RISK":28658,"BUSINESS_TYPE":"Wholesale Food Establishment","LEGAL_NAME":"FLYING FOOD FARE MIDWAY, L.L.C.","LONGITUDE":-87.74292108541009},
{"STATE":"IL","ZIP":60617,"LATTITUDE":41.682696264898055,"ADDRESS":"11700 S TORRENCE AVE  ","YEAR":2009,"DOING_BUSINESS_AS_NAME":"CHICAGO & ILLINOIS RIVER MARKETING,  LLC","POP_AT_RISK":3233,"BUSINESS_TYPE":"Wholesale Food Establishment","LEGAL_NAME":"CHICAGO & ILLINOIS  RIVER MARKETING,  LLC","LONGITUDE":-87.55950138523278},
}