{
{"STATE":"IL","ZIP":60625,"LATTITUDE":41.98212243595131,"ADDRESS":"2601 W GREGORY ST  ","YEAR":2003,"DOING_BUSINESS_AS_NAME":"CAPITAL SEARCH AND RECOVERY","POP_AT_RISK":280128,"BUSINESS_TYPE":"Home Occupation","LEGAL_NAME":"YOLK Y WONG","LONGITUDE":-87.69439006915245},
{"STATE":"IL","ZIP":60646,"LATTITUDE":41.98910851112524,"ADDRESS":"5944 N KILPATRICK AVE  ","YEAR":2003,"DOING_BUSINESS_AS_NAME":"ELLBEES FRIENDS POWERFUN","POP_AT_RISK":62888,"BUSINESS_TYPE":"Home Occupation","LEGAL_NAME":"DODOLOCO INC","LONGITUDE":-87.74604013150038},
{"STATE":"IL","ZIP":60628,"LATTITUDE":41.70101683246083,"ADDRESS":"10616 S EGGLESTON AVE # 1","YEAR":2003,"DOING_BUSINESS_AS_NAME":"LOUIS BOATNER","POP_AT_RISK":76038,"BUSINESS_TYPE":"Home Occupation","LEGAL_NAME":"LOUIS BOATNER","LONGITUDE":-87.63435276322238},
{"STATE":"IL","ZIP":60707,"LATTITUDE":41.91066726978433,"ADDRESS":"1655 N NORMANDY AVE 1ST ","YEAR":2003,"DOING_BUSINESS_AS_NAME":"PROFESSIONAL MAINTENANACE CO","POP_AT_RISK":54648,"BUSINESS_TYPE":"Home Occupation","LEGAL_NAME":"AUREL C CINCAN","LONGITUDE":-87.7922454396652},
{"STATE":"IL","ZIP":60660,"LATTITUDE":41.99247322685175,"ADDRESS":"6101 N SHERIDAN RD  8-H","YEAR":2003,"DOING_BUSINESS_AS_NAME":"NUKE CLEAR","POP_AT_RISK":63926,"BUSINESS_TYPE":"Home Occupation","LEGAL_NAME":"GENO M. ADDAMS","LONGITUDE":-87.6553123790606},
{"STATE":"IL","ZIP":60632,"LATTITUDE":41.79886437170867,"ADDRESS":"5208 S FAIRFIELD AVE 1ST ","YEAR":2003,"DOING_BUSINESS_AS_NAME":"IN MY CASA INC","POP_AT_RISK":541926,"BUSINESS_TYPE":"Home Occupation","LEGAL_NAME":"IN MY CASA INC","LONGITUDE":-87.69286789582216},
{"STATE":"IL","ZIP":60639,"LATTITUDE":41.91133361787018,"ADDRESS":"1705 N MENARD AVE 2 ","YEAR":2003,"DOING_BUSINESS_AS_NAME":"GJMC MAC MOE RECORDS","POP_AT_RISK":332962,"BUSINESS_TYPE":"Home Occupation","LEGAL_NAME":"GREGORY C MOORE","LONGITUDE":-87.77020316304144},
{"STATE":"IL","ZIP":60628,"LATTITUDE":41.7065031768866,"ADDRESS":"10325 S RHODES AVE 1ST ","YEAR":2003,"DOING_BUSINESS_AS_NAME":"TONY'S LANDSCAPING & SNOW REMO","POP_AT_RISK":95880,"BUSINESS_TYPE":"Home Occupation","LEGAL_NAME":"ANTHONY D MALONE","LONGITUDE":-87.60993961957442},
{"STATE":"IL","ZIP":60614,"LATTITUDE":41.920798370853454,"ADDRESS":"2126 N WAYNE AVE 1ST ","YEAR":2003,"DOING_BUSINESS_AS_NAME":"HRT INTERNET LLC","POP_AT_RISK":232888,"BUSINESS_TYPE":"Home Occupation","LEGAL_NAME":"HRT INTERNET LLC","LONGITUDE":-87.6621006659894},
{"STATE":"IL","ZIP":60643,"LATTITUDE":41.69829562127334,"ADDRESS":"10739 S PROSPECT AVE 1ST ","YEAR":2003,"DOING_BUSINESS_AS_NAME":"BEAR JOHNSON MECHANICAL CO","POP_AT_RISK":54873,"BUSINESS_TYPE":"Home Occupation","LEGAL_NAME":"EDWARD JOHNSON JR","LONGITUDE":-87.66231620467194},
{"STATE":"IL","ZIP":60617,"LATTITUDE":41.74081219042276,"ADDRESS":"8503 S BURNHAM AVE 1ST ","YEAR":2003,"DOING_BUSINESS_AS_NAME":"VISION PLUMBING","POP_AT_RISK":132192,"BUSINESS_TYPE":"Home Occupation","LEGAL_NAME":"JAMES C UNDERWOOD","LONGITUDE":-87.55619975021801},
{"STATE":"IL","ZIP":60634,"LATTITUDE":41.95267204426473,"ADDRESS":"4018 N PONTIAC AVE  ","YEAR":2003,"DOING_BUSINESS_AS_NAME":"MONT CLARE FENCE","POP_AT_RISK":59212,"BUSINESS_TYPE":"Home Occupation","LEGAL_NAME":"THOMAS D. BAGNALL","LONGITUDE":-87.83563051144856},
{"STATE":"IL","ZIP":60634,"LATTITUDE":41.945357201789975,"ADDRESS":"6815 W ADDISON ST 1ST ","YEAR":2003,"DOING_BUSINESS_AS_NAME":"CORPORATE COMPUTER DESIGN","POP_AT_RISK":338670,"BUSINESS_TYPE":"Home Occupation","LEGAL_NAME":"CARLO DICRISTOFANO","LONGITUDE":-87.79663219153494},
{"STATE":"IL","ZIP":60605,"LATTITUDE":41.872294238849875,"ADDRESS":"124 W POLK ST  804","YEAR":2003,"DOING_BUSINESS_AS_NAME":"CREATIVE  SPACES INC","POP_AT_RISK":191700,"BUSINESS_TYPE":"Home Occupation","LEGAL_NAME":"CREATIVE SPACES INC","LONGITUDE":-87.63144219820761},
{"STATE":"IL","ZIP":60640,"LATTITUDE":41.9737121663091,"ADDRESS":"5043 N WINCHESTER AVE 2 2-R","YEAR":2003,"DOING_BUSINESS_AS_NAME":"Josephine E. Konradt","POP_AT_RISK":637000,"BUSINESS_TYPE":"Home Occupation","LEGAL_NAME":"Josephine E. Konradt","LONGITUDE":-87.67767133159562},
{"STATE":"IL","ZIP":60628,"LATTITUDE":41.68663005092809,"ADDRESS":"11409 S LOWE AVE  ","YEAR":2003,"DOING_BUSINESS_AS_NAME":"CASTLE HOME BUILDERS","POP_AT_RISK":97497,"BUSINESS_TYPE":"Home Occupation","LEGAL_NAME":"STEVEN ANTHONY SNEED","LONGITUDE":-87.63842169868839},
{"STATE":"IL","ZIP":60611,"LATTITUDE":41.89245520082696,"ADDRESS":"207 E OHIO ST  254","YEAR":2003,"DOING_BUSINESS_AS_NAME":"CORPORATETRENDZ.COM","POP_AT_RISK":896545,"BUSINESS_TYPE":"Home Occupation","LEGAL_NAME":"ARNETTE JEAN MCKENZIE","LONGITUDE":-87.62233923814819},
{"STATE":"IL","ZIP":60616,"LATTITUDE":41.848026855051344,"ADDRESS":"501 W 24TH PL  909","YEAR":2003,"DOING_BUSINESS_AS_NAME":"C & G CONSULTING INC","POP_AT_RISK":416338,"BUSINESS_TYPE":"Home Occupation","LEGAL_NAME":"C & G CONSULTING INC.","LONGITUDE":-87.64010281222166},
{"STATE":"IL","ZIP":60649,"LATTITUDE":41.756295531730984,"ADDRESS":"7627 S PAXTON AVE  1ST","YEAR":2003,"DOING_BUSINESS_AS_NAME":"L & J BUILDING SERVICES","POP_AT_RISK":420642,"BUSINESS_TYPE":"Home Occupation","LEGAL_NAME":"L.JONES JR.\/M.GREGORY","LONGITUDE":-87.57105578109282},
{"STATE":"IL","ZIP":60660,"LATTITUDE":41.99164942488297,"ADDRESS":"1401 W NORWOOD ST  ","YEAR":2003,"DOING_BUSINESS_AS_NAME":"LA BOCCARIA CO SA LTD","POP_AT_RISK":67604,"BUSINESS_TYPE":"Home Occupation","LEGAL_NAME":"LA BOCCARIA CO SA LTD","LONGITUDE":-87.66531488944173},
{"STATE":"IL","ZIP":60620,"LATTITUDE":41.72367806142227,"ADDRESS":"9329 S CLAREMONT AVE  ","YEAR":2003,"DOING_BUSINESS_AS_NAME":"DIRTY WORK MAID & CLEANING SERV","POP_AT_RISK":58695,"BUSINESS_TYPE":"Home Occupation","LEGAL_NAME":"DIRTY WORK MAID & CLEANING","LONGITUDE":-87.68077095427068},
{"STATE":"IL","ZIP":60619,"LATTITUDE":41.73495114828113,"ADDRESS":"377 E 87TH PL  1ST","YEAR":2003,"DOING_BUSINESS_AS_NAME":"DD.S CLEANING SERVICES INC","POP_AT_RISK":238042,"BUSINESS_TYPE":"Home Occupation","LEGAL_NAME":"DD.S CLEANING SERVICES INC.","LONGITUDE":-87.6146499072761},
{"STATE":"IL","ZIP":60638,"LATTITUDE":41.78834943891156,"ADDRESS":"5704 S NORMANDY AVE 1ST ","YEAR":2003,"DOING_BUSINESS_AS_NAME":"SECONDCITY PLUMBING & SEWER CO.","POP_AT_RISK":166170,"BUSINESS_TYPE":"Home Occupation","LEGAL_NAME":"SOUTHWEST CHICAGO PLUMBING\/HEA","LONGITUDE":-87.78913498991596},
{"STATE":"IL","ZIP":60619,"LATTITUDE":41.73796987755201,"ADDRESS":"8642 S KIMBARK AVE  ","YEAR":2003,"DOING_BUSINESS_AS_NAME":"TECHNICAL RESOURCE SYSTEMS INC","POP_AT_RISK":31048,"BUSINESS_TYPE":"Home Occupation","LEGAL_NAME":"TECHNACIAL RESOURCE SYSTEMS INC","LONGITUDE":-87.5925882598309},
{"STATE":"IL","ZIP":60613,"LATTITUDE":41.9513353690103,"ADDRESS":"3804 N WILTON AVE  ","YEAR":2003,"DOING_BUSINESS_AS_NAME":"MARIGOLD PARTNERS, LTD","POP_AT_RISK":1888875,"BUSINESS_TYPE":"Home Occupation","LEGAL_NAME":"MARY S  BLAKE\/ CLAUDIA N  ADAMSON","LONGITUDE":-87.65338809652424},
{"STATE":"IL","ZIP":60619,"LATTITUDE":41.74742646627553,"ADDRESS":"8108 S AVALON AVE  ","YEAR":2003,"DOING_BUSINESS_AS_NAME":"SKILL BUILDER LEARNING GROUP","POP_AT_RISK":73662,"BUSINESS_TYPE":"Home Occupation","LEGAL_NAME":"SKILL BUILDER LEARNING GROUP INC.","LONGITUDE":-87.59432540461663},
{"STATE":"IL","ZIP":60614,"LATTITUDE":41.92090973265184,"ADDRESS":"2125 N CLARK ST  ","YEAR":2003,"DOING_BUSINESS_AS_NAME":"CHICAGO BUSINESS INTELLIGENCE GROUP INC","POP_AT_RISK":746823,"BUSINESS_TYPE":"Home Occupation","LEGAL_NAME":"CHICAGO BUSINESS INTELLIGENCE GROUP INC","LONGITUDE":-87.63748582424955},
{"STATE":"IL","ZIP":60617,"LATTITUDE":41.732317816962976,"ADDRESS":"8937 S CHAPPEL AVE 1ST ","YEAR":2003,"DOING_BUSINESS_AS_NAME":"TECHNOLOGY LEARNING CURRICULUM","POP_AT_RISK":18610,"BUSINESS_TYPE":"Home Occupation","LEGAL_NAME":"TECHNOLOGY LEARNING & CURRICULUM DESIGN INC.","LONGITUDE":-87.57423976383087},
}