{
{"STATE":"IL","ZIP":60652,"LATTITUDE":41.745826944647085,"ADDRESS":"4138 W 81ST ST  ","YEAR":2012,"DOING_BUSINESS_AS_NAME":"BENITA ORTIZ","POP_AT_RISK":109972,"BUSINESS_TYPE":"Peddler, food (fruits and vegtables only)","LEGAL_NAME":"BENITA ORTIZ","LONGITUDE":-87.72563085493813},
{"STATE":"IL","ZIP":60612,"LATTITUDE":41.881881738455725,"ADDRESS":"2803 W WARREN BLVD  ","YEAR":2012,"DOING_BUSINESS_AS_NAME":"CRAIG OUSLEY","POP_AT_RISK":107028,"BUSINESS_TYPE":"Peddler, food (fruits and vegtables only)","LEGAL_NAME":"CRAIG OUSLEY","LONGITUDE":-87.69650459063416},
{"STATE":"IL","ZIP":60609,"LATTITUDE":41.807662005385204,"ADDRESS":"4734 S ELIZABETH ST  ","YEAR":2012,"DOING_BUSINESS_AS_NAME":"DAVID ENCISO","POP_AT_RISK":31553,"BUSINESS_TYPE":"Peddler, food (fruits and vegtables only)","LEGAL_NAME":"DAVID ENCISO","LONGITUDE":-87.65657992801899},
{"STATE":"IL","ZIP":60621,"LATTITUDE":41.772785904188524,"ADDRESS":"258 W MARQUETTE RD  ","YEAR":2012,"DOING_BUSINESS_AS_NAME":"MARCUS LYONS","POP_AT_RISK":110037,"BUSINESS_TYPE":"Peddler, food (fruits and vegtables only)","LEGAL_NAME":"MARCUS LYONS","LONGITUDE":-87.63226993015333},
{"STATE":"IL","ZIP":60601,"LATTITUDE":41.884750538499375,"ADDRESS":"155 N HARBOR DR 42ND 4210","YEAR":2012,"DOING_BUSINESS_AS_NAME":"DAVID T MAHER","POP_AT_RISK":556963,"BUSINESS_TYPE":"Peddler, food (fruits and vegtables only)","LEGAL_NAME":"DAVID T MAHER","LONGITUDE":-87.61560395647253},
{"STATE":"IL","ZIP":60707,"LATTITUDE":41.92972324122959,"ADDRESS":"2725 N NEVA AVE  ","YEAR":2012,"DOING_BUSINESS_AS_NAME":"LUIGI ADDANTE","POP_AT_RISK":50813,"BUSINESS_TYPE":"Peddler, food (fruits and vegtables only)","LEGAL_NAME":"LUIGI ADDANTE","LONGITUDE":-87.80508781506443},
{"STATE":"IL","ZIP":60618,"LATTITUDE":41.95002031343088,"ADDRESS":"3744 N DAMEN AVE  ","YEAR":2012,"DOING_BUSINESS_AS_NAME":"PEDRO HAISLER","POP_AT_RISK":939182,"BUSINESS_TYPE":"Peddler, food (fruits and vegtables only)","LEGAL_NAME":"PEDRO HAISLER","LONGITUDE":-87.67878756024841},
{"STATE":"IL","ZIP":60637,"LATTITUDE":41.773618654616996,"ADDRESS":"6642 S CHAMPLAIN AVE  ","YEAR":2012,"DOING_BUSINESS_AS_NAME":"GREGORY WAGNER","POP_AT_RISK":38296,"BUSINESS_TYPE":"Peddler, food (fruits and vegtables only)","LEGAL_NAME":"GREGORY WAGNER","LONGITUDE":-87.60957726746145},
{"STATE":"IL","ZIP":60619,"LATTITUDE":41.72760774190779,"ADDRESS":"9153 S LANGLEY AVE  ","YEAR":2012,"DOING_BUSINESS_AS_NAME":"LAKEVIA TAYLOR","POP_AT_RISK":47758,"BUSINESS_TYPE":"Peddler, food (fruits and vegtables only)","LEGAL_NAME":"LAKEVIA TAYLOR","LONGITUDE":-87.60688259824913},
{"STATE":"IL","ZIP":60622,"LATTITUDE":41.90173350456632,"ADDRESS":"1109 N WOOD ST  1","YEAR":2012,"DOING_BUSINESS_AS_NAME":"MINERVA  CARLOS","POP_AT_RISK":63499,"BUSINESS_TYPE":"Peddler, food (fruits and vegtables only)","LEGAL_NAME":"MINERVA CARLOS","LONGITUDE":-87.67219473048699},
{"STATE":"IL","ZIP":60620,"LATTITUDE":41.74435968188464,"ADDRESS":"8220 S ELIZABETH ST 2ND ","YEAR":2012,"DOING_BUSINESS_AS_NAME":"ANDREA C. SMITH","POP_AT_RISK":81106,"BUSINESS_TYPE":"Peddler, food (fruits and vegtables only)","LEGAL_NAME":"ANDREA C. SMITH","LONGITUDE":-87.654934662638},
{"STATE":"IL","ZIP":60617,"LATTITUDE":41.749422563456335,"ADDRESS":"8013 S PHILLIPS AVE 1ST ","YEAR":2012,"DOING_BUSINESS_AS_NAME":"CHARLEY CARROLL","POP_AT_RISK":68102,"BUSINESS_TYPE":"Peddler, food (fruits and vegtables only)","LEGAL_NAME":"CHARLEY CARROLL","LONGITUDE":-87.5648359299573},
{"STATE":"IL","ZIP":60608,"LATTITUDE":41.85854122022426,"ADDRESS":"1710 S CARPENTER ST  1ST","YEAR":2012,"DOING_BUSINESS_AS_NAME":"GRACIELA CORONA","POP_AT_RISK":38457,"BUSINESS_TYPE":"Peddler, food (fruits and vegtables only)","LEGAL_NAME":"GRACIELA CORONA","LONGITUDE":-87.65354846763567},
{"STATE":"IL","ZIP":60608,"LATTITUDE":41.85722331804696,"ADDRESS":"1021 W 18TH PL 2 ","YEAR":2012,"DOING_BUSINESS_AS_NAME":"JOSE LUIS ISLAS","POP_AT_RISK":40730,"BUSINESS_TYPE":"Peddler, food (fruits and vegtables only)","LEGAL_NAME":"JOSE LUIS ISLAS","LONGITUDE":-87.65240680329778},
{"STATE":"IL","ZIP":60630,"LATTITUDE":41.96502095988501,"ADDRESS":"4619 N KNOX AVE  ","YEAR":2012,"DOING_BUSINESS_AS_NAME":"MARTIN SOSTENES","POP_AT_RISK":46525,"BUSINESS_TYPE":"Peddler, food (fruits and vegtables only)","LEGAL_NAME":"MARTIN SOSTENES","LONGITUDE":-87.74381548404494},
{"STATE":"IL","ZIP":60628,"LATTITUDE":41.71662882141444,"ADDRESS":"9754 S DR MARTIN LUTHER KING JR DR  ","YEAR":2012,"DOING_BUSINESS_AS_NAME":"RONNIE D NELSON","POP_AT_RISK":25328,"BUSINESS_TYPE":"Peddler, food (fruits and vegtables only)","LEGAL_NAME":"RONNIE D NELSON","LONGITUDE":-87.6141540953251},
{"STATE":"IL","ZIP":60644,"LATTITUDE":41.89293424018102,"ADDRESS":"703 N AUSTIN BLVD  2A","YEAR":2012,"DOING_BUSINESS_AS_NAME":"RUTHIE M DUNCAN","POP_AT_RISK":104208,"BUSINESS_TYPE":"Peddler, food (fruits and vegtables only)","LEGAL_NAME":"RUTHIE M DUNCAN","LONGITUDE":-87.77492356425344},
{"STATE":"IL","ZIP":60629,"LATTITUDE":41.76258640220072,"ADDRESS":"3416 W 72ND ST 1 ","YEAR":2012,"DOING_BUSINESS_AS_NAME":"WENDY M. CAUSEY","POP_AT_RISK":30822,"BUSINESS_TYPE":"Peddler, food (fruits and vegtables only)","LEGAL_NAME":"WENDY M. CAUSEY","LONGITUDE":-87.70838044647353},
{"STATE":"IL","ZIP":60643,"LATTITUDE":41.695212098174196,"ADDRESS":"10925 S RACINE AVE  ","YEAR":2012,"DOING_BUSINESS_AS_NAME":"KENNETH C. HARDY","POP_AT_RISK":49078,"BUSINESS_TYPE":"Peddler, food (fruits and vegtables only)","LEGAL_NAME":"KENNETH C. HARDY","LONGITUDE":-87.65204416433163},
{"STATE":"IL","ZIP":60614,"LATTITUDE":41.917182200195676,"ADDRESS":"1922 N CLEVELAND AVE  1","YEAR":2012,"DOING_BUSINESS_AS_NAME":"LARRY IAN NELSON","POP_AT_RISK":926184,"BUSINESS_TYPE":"Peddler, food (fruits and vegtables only)","LEGAL_NAME":"LARRY IAN NELSON","LONGITUDE":-87.64135948489452},
{"STATE":"IL","ZIP":60649,"LATTITUDE":41.71745792110694,"ADDRESS":"9755  VANVLISSIGEN   ","YEAR":2012,"DOING_BUSINESS_AS_NAME":"MATTHEW K. DARKO","POP_AT_RISK":14222,"BUSINESS_TYPE":"Peddler, food (fruits and vegtables only)","LEGAL_NAME":"MATTHEW K. DARKO","LONGITUDE":-87.57584688787625},
{"STATE":"IL","ZIP":60620,"LATTITUDE":41.74812021832005,"ADDRESS":"8030 S LA SALLE ST  ","YEAR":2012,"DOING_BUSINESS_AS_NAME":"ROBERT E. V BEVERLY","POP_AT_RISK":25155,"BUSINESS_TYPE":"Peddler, food (fruits and vegtables only)","LEGAL_NAME":"ROBERT E BEVERLY","LONGITUDE":-87.62831955806598},
{"STATE":"IL","ZIP":60619,"LATTITUDE":41.765198566328344,"ADDRESS":"1226 E 71ST PL  ","YEAR":2012,"DOING_BUSINESS_AS_NAME":"ANQUANEYCE S WEST","POP_AT_RISK":149868,"BUSINESS_TYPE":"Peddler, food (fruits and vegtables only)","LEGAL_NAME":"ANQUANEYCE S WEST","LONGITUDE":-87.59479825249757},
{"STATE":"IL","ZIP":60624,"LATTITUDE":41.86699618215448,"ADDRESS":"4528 W GRENSHAW ST  ","YEAR":2012,"DOING_BUSINESS_AS_NAME":"CATHERINE BURNETT","POP_AT_RISK":48000,"BUSINESS_TYPE":"Peddler, food (fruits and vegtables only)","LEGAL_NAME":"CATHERINE BURNETT","LONGITUDE":-87.73865305959102},
{"STATE":"IL","ZIP":60638,"LATTITUDE":41.77780886433097,"ADDRESS":"6324 W 63RD ST  ","YEAR":2012,"DOING_BUSINESS_AS_NAME":"DEBORAH P. GARCIA","POP_AT_RISK":55248,"BUSINESS_TYPE":"Peddler, food (fruits and vegtables only)","LEGAL_NAME":"DEBORAH P. GARCIA","LONGITUDE":-87.77998611458555},
{"STATE":"IL","ZIP":60615,"LATTITUDE":41.802879778113265,"ADDRESS":"5050 S LAKE SHORE WEST DR 6TH 601","YEAR":2012,"DOING_BUSINESS_AS_NAME":"MARILYN DAUGHERTY","POP_AT_RISK":144955,"BUSINESS_TYPE":"Peddler, food (fruits and vegtables only)","LEGAL_NAME":"MARILYN DAUGHERTY","LONGITUDE":-87.58184369392683},
{"STATE":"IL","ZIP":60608,"LATTITUDE":41.83242096379753,"ADDRESS":"3357 S PAULINA ST  ","YEAR":2012,"DOING_BUSINESS_AS_NAME":"ROBERTO CERVANTES","POP_AT_RISK":57840,"BUSINESS_TYPE":"Peddler, food (fruits and vegtables only)","LEGAL_NAME":"ROBERTO CERVANTES","LONGITUDE":-87.6678541490871},
{"STATE":"IL","ZIP":60632,"LATTITUDE":41.81091741135504,"ADDRESS":"4510 S KEATING AVE  ","YEAR":2012,"DOING_BUSINESS_AS_NAME":"ALMA ROSA MARTINEZ","POP_AT_RISK":81912,"BUSINESS_TYPE":"Peddler, food (fruits and vegtables only)","LEGAL_NAME":"ALMA ROSA MARTINEZ","LONGITUDE":-87.7421732353587},
{"STATE":"IL","ZIP":60643,"LATTITUDE":41.70108210250723,"ADDRESS":"10557 S OAKLEY AVE  ","YEAR":2012,"DOING_BUSINESS_AS_NAME":"JEFFREY T. PINZINO","POP_AT_RISK":110850,"BUSINESS_TYPE":"Peddler, food (fruits and vegtables only)","LEGAL_NAME":"JEFFREY T. PINZINO","LONGITUDE":-87.67886779715505},
{"STATE":"IL","ZIP":60617,"LATTITUDE":41.72280827749986,"ADDRESS":"3507 E 95TH ST 1ST ","YEAR":2012,"DOING_BUSINESS_AS_NAME":"MARGARITA ALMAGUER","POP_AT_RISK":13632,"BUSINESS_TYPE":"Peddler, food (fruits and vegtables only)","LEGAL_NAME":"MARGARITA ALMAGUER","LONGITUDE":-87.53860695110573},
{"STATE":"IL","ZIP":60619,"LATTITUDE":41.74960044985911,"ADDRESS":"910 E 80TH ST 1 1","YEAR":2012,"DOING_BUSINESS_AS_NAME":"PEDRO L. CASTANEDA","POP_AT_RISK":38768,"BUSINESS_TYPE":"Peddler, food (fruits and vegtables only)","LEGAL_NAME":"PEDRO L. CASTANEDA","LONGITUDE":-87.60223018420787},
{"STATE":"IL","ZIP":60615,"LATTITUDE":41.79808749177498,"ADDRESS":"5316 S MARYLAND AVE  ","YEAR":2012,"DOING_BUSINESS_AS_NAME":"TAMELA YVETTE DOWD","POP_AT_RISK":442440,"BUSINESS_TYPE":"Peddler, food (fruits and vegtables only)","LEGAL_NAME":"TAMELA YVETTE DOWD","LONGITUDE":-87.60526510036368},
{"STATE":"IL","ZIP":60634,"LATTITUDE":41.94523771347506,"ADDRESS":"3547 N NARRAGANSETT AVE  ","YEAR":2012,"DOING_BUSINESS_AS_NAME":"JUAN DE JESUS RIVERA","POP_AT_RISK":44835,"BUSINESS_TYPE":"Peddler, food (fruits and vegtables only)","LEGAL_NAME":"JUAN DE JESUS RIVERA","LONGITUDE":-87.78620304774938},
{"STATE":"IL","ZIP":60625,"LATTITUDE":41.96931018962226,"ADDRESS":"4824 N TALMAN AVE 2 2B","YEAR":2012,"DOING_BUSINESS_AS_NAME":"PAULA MIRANDA-HUERTA","POP_AT_RISK":138482,"BUSINESS_TYPE":"Peddler, food (fruits and vegtables only)","LEGAL_NAME":"PAULA MIRANDA-HUERTA","LONGITUDE":-87.69519318439971},
{"STATE":"IL","ZIP":60643,"LATTITUDE":41.674052619031144,"ADDRESS":"12056 S JUSTINE ST 1 ","YEAR":2012,"DOING_BUSINESS_AS_NAME":"ROBERT L. JOHNSON JR.","POP_AT_RISK":126800,"BUSINESS_TYPE":"Peddler, food (fruits and vegtables only)","LEGAL_NAME":"ROBERT L. JOHNSON, JR","LONGITUDE":-87.66020570250922},
{"STATE":"IL","ZIP":60638,"LATTITUDE":41.793727199169396,"ADDRESS":"6201 S ARCHER AVE 2-F 2","YEAR":2012,"DOING_BUSINESS_AS_NAME":"ALEJANDRA BARANDA LUNA","POP_AT_RISK":69290,"BUSINESS_TYPE":"Peddler, food (fruits and vegtables only)","LEGAL_NAME":"ALEJANDRA BARANDA LUNA","LONGITUDE":-87.77457290234543},
{"STATE":"IL","ZIP":60621,"LATTITUDE":41.7841947831494,"ADDRESS":"6030 S MORGAN ST 1ST ","YEAR":2012,"DOING_BUSINESS_AS_NAME":"COSTON PERNELL PLUMMER","POP_AT_RISK":33568,"BUSINESS_TYPE":"Peddler, food (fruits and vegtables only)","LEGAL_NAME":"COSTON PERNELL PLUMMER","LONGITUDE":-87.6499037553329},
{"STATE":"IL","ZIP":60639,"LATTITUDE":41.91755375507022,"ADDRESS":"2034 N NARRAGANSETT AVE  ","YEAR":2012,"DOING_BUSINESS_AS_NAME":"LEONARDO FLORES-MATIAS","POP_AT_RISK":43692,"BUSINESS_TYPE":"Peddler, food (fruits and vegtables only)","LEGAL_NAME":"LEONARDO FLORES-MATIAS","LONGITUDE":-87.78540528913746},
{"STATE":"IL","ZIP":60634,"LATTITUDE":41.95966347848037,"ADDRESS":"5632 W PENSACOLA AVE  ","YEAR":2012,"DOING_BUSINESS_AS_NAME":"EMPERATRIZ FRUIT","POP_AT_RISK":154497,"BUSINESS_TYPE":"Peddler, food (fruits and vegtables only)","LEGAL_NAME":"EMPERATRIZ M. MALDONADO","LONGITUDE":-87.76855204500197},
{"STATE":"IL","ZIP":60645,"LATTITUDE":42.01522278082824,"ADDRESS":"7340 N DAMEN AVE  ","YEAR":2012,"DOING_BUSINESS_AS_NAME":"MARIA MAGDALENA AGUILAR","POP_AT_RISK":75861,"BUSINESS_TYPE":"Peddler, food (fruits and vegtables only)","LEGAL_NAME":"MARIA MAGDALENA AGUILAR","LONGITUDE":-87.68063033338018},
{"STATE":"IL","ZIP":60617,"LATTITUDE":41.74947813946925,"ADDRESS":"8018 S ESCANABA AVE 1 1","YEAR":2012,"DOING_BUSINESS_AS_NAME":"WILLIE MAE THOMAS - HAFIZ","POP_AT_RISK":44195,"BUSINESS_TYPE":"Peddler, food (fruits and vegtables only)","LEGAL_NAME":"WILLIE MAE THOMAS-HAFIZ","LONGITUDE":-87.55421296997248},
{"STATE":"IL","ZIP":60640,"LATTITUDE":41.98057495530794,"ADDRESS":"5417 N KENMORE AVE  409","YEAR":2012,"DOING_BUSINESS_AS_NAME":"RUFINA S VIVAR-CRUZ","POP_AT_RISK":335430,"BUSINESS_TYPE":"Peddler, food (fruits and vegtables only)","LEGAL_NAME":"RUFINA SABINA VIVAR-CRUZ","LONGITUDE":-87.65638221473901},
{"STATE":"IL","ZIP":60645,"LATTITUDE":42.00284831679693,"ADDRESS":"6650 N ARTESIAN AVE 2 2","YEAR":2012,"DOING_BUSINESS_AS_NAME":"MARIA VICTORIA REZA VARGAS","POP_AT_RISK":73649,"BUSINESS_TYPE":"Peddler, food (fruits and vegtables only)","LEGAL_NAME":"MARIA VICTORIA REZA VARGAS","LONGITUDE":-87.69138256515097},
}