{
{"STATE":"IL","ZIP":60625,"LATTITUDE":41.967114771432584,"ADDRESS":"4714 N KEDZIE AVE 1ST ","YEAR":1997,"DOING_BUSINESS_AS_NAME":"BEIRUT RESTURANT","POP_AT_RISK":1375113,"BUSINESS_TYPE":"Public Place of Amusement","LEGAL_NAME":"MOHAMED FARAJ","LONGITUDE":-87.70857709253173},
{"STATE":"IL","ZIP":60610,"LATTITUDE":41.90779866244772,"ADDRESS":"1403  -01405 N WELLS ST  1","YEAR":1997,"DOING_BUSINESS_AS_NAME":"SWINGING TIMES ADULT BOOKSTORE","POP_AT_RISK":555210,"BUSINESS_TYPE":"Public Place of Amusement","LEGAL_NAME":"CHARLES W AGER","LONGITUDE":-87.6344622532244},
{"STATE":"IL","ZIP":60620,"LATTITUDE":41.74577418544017,"ADDRESS":"8130 S ASHLAND AVE 1ST ","YEAR":1997,"DOING_BUSINESS_AS_NAME":"FAMILY BILLIARDS","POP_AT_RISK":440847,"BUSINESS_TYPE":"Public Place of Amusement","LEGAL_NAME":"THADDEUS MOODY","LONGITUDE":-87.66346862058643},
{"STATE":"IL","ZIP":60624,"LATTITUDE":41.866323424808314,"ADDRESS":"3846 W ROOSEVELT RD  ","YEAR":1997,"DOING_BUSINESS_AS_NAME":"PEOPLES RECREATION CENTER","POP_AT_RISK":818388,"BUSINESS_TYPE":"Public Place of Amusement","LEGAL_NAME":"PRESTON PEOPLES","LONGITUDE":-87.72212816532065},
{"STATE":"IL","ZIP":60642,"LATTITUDE":41.89623151378124,"ADDRESS":"925 W CHICAGO AVE 1ST ","YEAR":1997,"DOING_BUSINESS_AS_NAME":"RIVER WEST BREWING COMPANY","POP_AT_RISK":147996,"BUSINESS_TYPE":"Public Place of Amusement","LEGAL_NAME":"RIVER WEST BREWING CORP.","LONGITUDE":-87.65082896270799},
{"STATE":"IL","ZIP":60610,"LATTITUDE":41.89166230350862,"ADDRESS":"318 W GRAND AVE  ","YEAR":1997,"DOING_BUSINESS_AS_NAME":"GRANDOR ENTERPRISES","POP_AT_RISK":495845,"BUSINESS_TYPE":"Public Place of Amusement","LEGAL_NAME":"GRANDOR ENTERPRISES, INC.","LONGITUDE":-87.63638655689698},
{"STATE":"IL","ZIP":60659,"LATTITUDE":41.988471038115065,"ADDRESS":"5912-5930 N LINCOLN AVE  ","YEAR":1997,"DOING_BUSINESS_AS_NAME":"SHILLA INTERNATIONAL INC.","POP_AT_RISK":436072,"BUSINESS_TYPE":"Public Place of Amusement","LEGAL_NAME":"SHILLA INTERNATIONAL INC.","LONGITUDE":-87.70439416667826},
{"STATE":"IL","ZIP":60609,"LATTITUDE":41.81692865954655,"ADDRESS":"4220 S HALSTED ST  WHOLE","YEAR":1997,"DOING_BUSINESS_AS_NAME":"NEW INTERNATIONAL AMPHITHEATER","POP_AT_RISK":56160,"BUSINESS_TYPE":"Public Place of Amusement","LEGAL_NAME":"CHICAGO SPORTS & ENT. COMPLEX","LONGITUDE":-87.64589410091182},
}