{
{"STATE":"IL","ZIP":60620,"LATTITUDE":41.7539508775714,"ADDRESS":"7658 S SEELEY AVE  ","YEAR":2011,"DOING_BUSINESS_AS_NAME":"JMJ CHOICE","POP_AT_RISK":325035,"BUSINESS_TYPE":"Food - Shared Kitchen Long-Term User","LEGAL_NAME":"MARY E. SHERROD","LONGITUDE":-87.67460160326002},
{"STATE":"IL","ZIP":60623,"LATTITUDE":41.857453046187985,"ADDRESS":"1652 S HOMAN AVE 2ND ","YEAR":2011,"DOING_BUSINESS_AS_NAME":"JUST LIKE U LIKE IT","POP_AT_RISK":704522,"BUSINESS_TYPE":"Food - Shared Kitchen Long-Term User","LEGAL_NAME":"ANDREA ALEXANDER","LONGITUDE":-87.71043668036471},
{"STATE":"IL","ZIP":60406,"LATTITUDE":41.67712859277384,"ADDRESS":"2323 W 119TH ST  ","YEAR":2011,"DOING_BUSINESS_AS_NAME":"HUMBLE BEGINNINGS","POP_AT_RISK":77972,"BUSINESS_TYPE":"Food - Shared Kitchen Long-Term User","LEGAL_NAME":"HUMBLE BEGINNINGS","LONGITUDE":-87.67993313309341},
{"STATE":"IL","ZIP":60643,"LATTITUDE":41.699931443969454,"ADDRESS":"10649 S SANGAMON ST  ","YEAR":2011,"DOING_BUSINESS_AS_NAME":"CAKE LADY'S HOMEMADE CAKES","POP_AT_RISK":181846,"BUSINESS_TYPE":"Food - Shared Kitchen Long-Term User","LEGAL_NAME":"SHARNELL HENDERSON","LONGITUDE":-87.64611776901188},
{"STATE":"IL","ZIP":60649,"LATTITUDE":41.75423781207263,"ADDRESS":"7735 S MERRILL AVE 1 1","YEAR":2011,"DOING_BUSINESS_AS_NAME":"SOUL VEGAN","POP_AT_RISK":568113,"BUSINESS_TYPE":"Food - Shared Kitchen Long-Term User","LEGAL_NAME":"STABLE FOODS, INC.","LONGITUDE":-87.57223040473296},
{"STATE":"IL","ZIP":60625,"LATTITUDE":41.96653271473776,"ADDRESS":"4646 N SEELEY AVE  1S","YEAR":2011,"DOING_BUSINESS_AS_NAME":"SUNDAY DINNER","POP_AT_RISK":813596,"BUSINESS_TYPE":"Food - Shared Kitchen Long-Term User","LEGAL_NAME":"SUNDAY DINNER INC.","LONGITUDE":-87.68088580619055},
{"STATE":"IL","ZIP":60615,"LATTITUDE":41.79946313707875,"ADDRESS":"5302 S CORNELL AVE 1 1","YEAR":2011,"DOING_BUSINESS_AS_NAME":"SOUL GOURMENT","POP_AT_RISK":199248,"BUSINESS_TYPE":"Food - Shared Kitchen Long-Term User","LEGAL_NAME":"Soul Gourmet, Inc.","LONGITUDE":-87.58565976641292},
{"STATE":"IL","ZIP":60607,"LATTITUDE":41.87924663645916,"ADDRESS":"1000 W ADAMS ST  817","YEAR":2011,"DOING_BUSINESS_AS_NAME":"GETTA POLPETTA","POP_AT_RISK":108114,"BUSINESS_TYPE":"Food - Shared Kitchen Long-Term User","LEGAL_NAME":"WHEELS2FREEDOM, LLC","LONGITUDE":-87.65208561253912},
{"STATE":"IL","ZIP":60605,"LATTITUDE":41.86507557459421,"ADDRESS":"1322 S WABASH AVE 209 ","YEAR":2011,"DOING_BUSINESS_AS_NAME":"WANNAHAVACOOKIE INC.","POP_AT_RISK":197455,"BUSINESS_TYPE":"Food - Shared Kitchen Long-Term User","LEGAL_NAME":"WANNAHAVACOOKIE INC.","LONGITUDE":-87.62592494964363},
{"STATE":"IL","ZIP":60651,"LATTITUDE":41.90745488535499,"ADDRESS":"3304 W BEACH AVE  3","YEAR":2011,"DOING_BUSINESS_AS_NAME":"CHEAP TART BAKERY LLC","POP_AT_RISK":948405,"BUSINESS_TYPE":"Food - Shared Kitchen Long-Term User","LEGAL_NAME":"CHEAP TART BAKERY LLC","LONGITUDE":-87.70965592618334},
{"STATE":"IL","ZIP":60647,"LATTITUDE":41.92693682488171,"ADDRESS":"2510 N KEDZIE BLVD 1ST 1S","YEAR":2011,"DOING_BUSINESS_AS_NAME":"THE BAKED ESCAPE","POP_AT_RISK":1355580,"BUSINESS_TYPE":"Food - Shared Kitchen Long-Term User","LEGAL_NAME":"THE BAKED ESCAPE, LLC","LONGITUDE":-87.70742975869817},
{"STATE":"IL","ZIP":60660,"LATTITUDE":41.99169545921701,"ADDRESS":"1235 W NORWOOD ST 1ST ","YEAR":2011,"DOING_BUSINESS_AS_NAME":"VERUCA CHOCOLATES CO.","POP_AT_RISK":1495263,"BUSINESS_TYPE":"Food - Shared Kitchen Long-Term User","LEGAL_NAME":"VERUCA CHOCOLATES CO.","LONGITUDE":-87.661680442188},
{"STATE":"IL","ZIP":60654,"LATTITUDE":41.89408694421236,"ADDRESS":"222 W ERIE ST 6TH 610","YEAR":2011,"DOING_BUSINESS_AS_NAME":"BEAVERS COFFEE & DONUTS","POP_AT_RISK":162232,"BUSINESS_TYPE":"Food - Shared Kitchen Long-Term User","LEGAL_NAME":"AFTER HOURS PIZZA, LLC","LONGITUDE":-87.6351422333781},
{"STATE":"IL","ZIP":60615,"LATTITUDE":41.808029980166026,"ADDRESS":"4752 S ELLIS AVE  ","YEAR":2011,"DOING_BUSINESS_AS_NAME":"COCO COOKS","POP_AT_RISK":79210,"BUSINESS_TYPE":"Food - Shared Kitchen Long-Term User","LEGAL_NAME":"COURTNEY  NGOZI NZERIBE","LONGITUDE":-87.60181505452654},
{"STATE":"IL","ZIP":60618,"LATTITUDE":41.96118296120938,"ADDRESS":"3550 W MONTROSE AVE 1ST 108","YEAR":2011,"DOING_BUSINESS_AS_NAME":"GLUTTON FORCE FIVE","POP_AT_RISK":1286220,"BUSINESS_TYPE":"Food - Shared Kitchen Long-Term User","LEGAL_NAME":"GLUTTON FORCE FIVE, LLC","LONGITUDE":-87.7176637218556},
{"STATE":"IL","ZIP":60637,"LATTITUDE":41.791946935907305,"ADDRESS":"5632 S PRAIRIE AVE 1ST 1N","YEAR":2011,"DOING_BUSINESS_AS_NAME":"MS PATTI SWEET CAKES LLC","POP_AT_RISK":252954,"BUSINESS_TYPE":"Food - Shared Kitchen Long-Term User","LEGAL_NAME":"MS PATTI SWEET CAKES LLC","LONGITUDE":-87.61929863127808},
{"STATE":"IL","ZIP":60622,"LATTITUDE":41.89435487007355,"ADDRESS":"1616 W HURON ST  ","YEAR":2011,"DOING_BUSINESS_AS_NAME":"SEA AND CANE SWEETS","POP_AT_RISK":49495,"BUSINESS_TYPE":"Food - Shared Kitchen Long-Term User","LEGAL_NAME":"SEA AND CANE SWEETS INC.","LONGITUDE":-87.66796544850337},
{"STATE":"IL","ZIP":60625,"LATTITUDE":41.9793819272681,"ADDRESS":"2637 W BALMORAL AVE 1ST 1 E","YEAR":2011,"DOING_BUSINESS_AS_NAME":"AUNTIE JO'S YUMMIES, INC.","POP_AT_RISK":210475,"BUSINESS_TYPE":"Food - Shared Kitchen Long-Term User","LEGAL_NAME":"AUNTIE JO'S YUMMIES, INC.","LONGITUDE":-87.69565541685394},
{"STATE":"IL","ZIP":60615,"LATTITUDE":41.80696641710408,"ADDRESS":"4820 S FORRESTVILLE AVE  ","YEAR":2011,"DOING_BUSINESS_AS_NAME":"LOU'S GOURMET SWEETS, LLC","POP_AT_RISK":36820,"BUSINESS_TYPE":"Food - Shared Kitchen Long-Term User","LEGAL_NAME":"LOU'S GOURMET SWEETS, LLC","LONGITUDE":-87.61276126903668},
{"STATE":"IL","ZIP":60610,"LATTITUDE":41.90407704430228,"ADDRESS":"343 W OLD TOWN CT 410 ","YEAR":2011,"DOING_BUSINESS_AS_NAME":"TIWALADE VEGAN FOODS","POP_AT_RISK":79582,"BUSINESS_TYPE":"Food - Shared Kitchen Long-Term User","LEGAL_NAME":"TIWALADE WOMEN'S MINISTRY","LONGITUDE":-87.6378591685959},
{"STATE":"IL","ZIP":60614,"LATTITUDE":41.923692122559224,"ADDRESS":"325 W BELDEN AVE  1","YEAR":2011,"DOING_BUSINESS_AS_NAME":"ZFT","POP_AT_RISK":54427,"BUSINESS_TYPE":"Food - Shared Kitchen Long-Term User","LEGAL_NAME":"ZULLO'S FOOD TRUCKS, INC.","LONGITUDE":-87.63751076847325},
{"STATE":"IL","ZIP":60612,"LATTITUDE":41.87163438026416,"ADDRESS":"738 S KEDZIE AVE  3","YEAR":2011,"DOING_BUSINESS_AS_NAME":"THE BAKEHOUSE","POP_AT_RISK":549318,"BUSINESS_TYPE":"Food - Shared Kitchen Long-Term User","LEGAL_NAME":"BAYLOR WATSON ENTERPRISES INC.","LONGITUDE":-87.70598837949326},
}