{
{"STATE":"IL","ZIP":60625,"LATTITUDE":41.96836730905349,"ADDRESS":"3055 W LAWRENCE AVE  ","YEAR":2006,"DOING_BUSINESS_AS_NAME":"DONNA AQUATIC PET SHOP","POP_AT_RISK":644672,"BUSINESS_TYPE":"Pet Shop","LEGAL_NAME":"KIEM NGUYEN","LONGITUDE":-87.70581227358586},
{"STATE":"IL","ZIP":60641,"LATTITUDE":41.938517967432716,"ADDRESS":"5423 W BELMONT AVE  ","YEAR":2006,"DOING_BUSINESS_AS_NAME":"AQUA-ZOO INC","POP_AT_RISK":550977,"BUSINESS_TYPE":"Pet Shop","LEGAL_NAME":"AQUA-ZOO INC","LONGITUDE":-87.76252172746399},
{"STATE":"IL","ZIP":60609,"LATTITUDE":41.80865270371698,"ADDRESS":"1836 W 47TH ST 1ST ","YEAR":2006,"DOING_BUSINESS_AS_NAME":"PARADISE DE AVES","POP_AT_RISK":179225,"BUSINESS_TYPE":"Pet Shop","LEGAL_NAME":"JOSE M PEREZ","LONGITUDE":-87.67127397220543},
{"STATE":"IL","ZIP":60629,"LATTITUDE":41.78379850866344,"ADDRESS":"6009 S PULASKI RD 1ST ","YEAR":2006,"DOING_BUSINESS_AS_NAME":"CHICAGO GROOMING PARLOR","POP_AT_RISK":216316,"BUSINESS_TYPE":"Pet Shop","LEGAL_NAME":"ROSA ALVAREZ","LONGITUDE":-87.72275964715965},
{"STATE":"IL","ZIP":60632,"LATTITUDE":41.797991869962225,"ADDRESS":"5220 S PULASKI RD  ","YEAR":2006,"DOING_BUSINESS_AS_NAME":"Super Pets","POP_AT_RISK":40702,"BUSINESS_TYPE":"Pet Shop","LEGAL_NAME":"MARTIN ZARATE","LONGITUDE":-87.723443740796},
{"STATE":"IL","ZIP":60633,"LATTITUDE":41.65330346047707,"ADDRESS":"13311 S BRANDON AVE 1ST ","YEAR":2006,"DOING_BUSINESS_AS_NAME":"7 SEAS TROPAQUARIUM","POP_AT_RISK":40896,"BUSINESS_TYPE":"Pet Shop","LEGAL_NAME":"ROBERT ELLMAN","LONGITUDE":-87.54576881121099},
{"STATE":"IL","ZIP":60640,"LATTITUDE":41.98079618888139,"ADDRESS":"5430 N CLARK ST  1","YEAR":2006,"DOING_BUSINESS_AS_NAME":"RUFF N STUFF","POP_AT_RISK":610146,"BUSINESS_TYPE":"Pet Shop","LEGAL_NAME":"RUFF N' STUFF","LONGITUDE":-87.66850258743811},
{"STATE":"IL","ZIP":60615,"LATTITUDE":41.8007445275756,"ADDRESS":"5210 S HARPER AVE  ","YEAR":2006,"DOING_BUSINESS_AS_NAME":"HYDE PARK PET INC.","POP_AT_RISK":570080,"BUSINESS_TYPE":"Pet Shop","LEGAL_NAME":"HYDE PARK INC.","LONGITUDE":-87.58922936512862},
{"STATE":"IL","ZIP":60632,"LATTITUDE":41.79326180955464,"ADDRESS":"4222 W 55TH ST  1","YEAR":2006,"DOING_BUSINESS_AS_NAME":"FRANK KOLODZIEJ","POP_AT_RISK":45225,"BUSINESS_TYPE":"Pet Shop","LEGAL_NAME":"FRANK KOLODZIEJ","LONGITUDE":-87.72913638586823},
{"STATE":"IL","ZIP":60630,"LATTITUDE":41.977464175215516,"ADDRESS":"5342 N NORTHWEST HWY  ","YEAR":2006,"DOING_BUSINESS_AS_NAME":"Blue Planet Aquarium Services","POP_AT_RISK":284432,"BUSINESS_TYPE":"Pet Shop","LEGAL_NAME":"AQUARICLEAN, INC","LONGITUDE":-87.77274573784965},
{"STATE":"IL","ZIP":60630,"LATTITUDE":41.96223481162694,"ADDRESS":"4445 N PULASKI RD  B & C","YEAR":2006,"DOING_BUSINESS_AS_NAME":"JULE'S PETS","POP_AT_RISK":403914,"BUSINESS_TYPE":"Pet Shop","LEGAL_NAME":"JULE'S PETS, LLC","LONGITUDE":-87.72771371816451},
{"STATE":"IL","ZIP":60632,"LATTITUDE":41.80103192267782,"ADDRESS":"2417 W 51ST ST 1ST ","YEAR":2006,"DOING_BUSINESS_AS_NAME":"CERMAK PETS & SUPPLYS","POP_AT_RISK":242140,"BUSINESS_TYPE":"Pet Shop","LEGAL_NAME":"MARIA F. DELGADO","LONGITUDE":-87.68502893957555},
{"STATE":"IL","ZIP":60638,"LATTITUDE":41.77776662058085,"ADDRESS":"5941 W 63RD ST  1","YEAR":2006,"DOING_BUSINESS_AS_NAME":"MIDWAY PET & HOBBIE","POP_AT_RISK":75752,"BUSINESS_TYPE":"Pet Shop","LEGAL_NAME":"VICTORIA KRASHAK","LONGITUDE":-87.77072412243025},
{"STATE":"IL","ZIP":60639,"LATTITUDE":41.924095643270135,"ADDRESS":"5550 1\/2-52 W FULLERTON AVE  ","YEAR":2006,"DOING_BUSINESS_AS_NAME":"BIT O TROPICS","POP_AT_RISK":68079,"BUSINESS_TYPE":"Pet Shop","LEGAL_NAME":"BIT O TROPICS INC","LONGITUDE":-87.76561615253081},
{"STATE":"IL","ZIP":60618,"LATTITUDE":41.935364501560954,"ADDRESS":"2980 N MILWAUKEE AVE  ","YEAR":2006,"DOING_BUSINESS_AS_NAME":"ANIMAL KINGDOM INCORPORATED","POP_AT_RISK":121270,"BUSINESS_TYPE":"Pet Shop","LEGAL_NAME":"ANIMAL KINGDOM INC","LONGITUDE":-87.71795714421246},
{"STATE":"IL","ZIP":60626,"LATTITUDE":42.00246695357373,"ADDRESS":"6623 N CLARK ST  ","YEAR":2006,"DOING_BUSINESS_AS_NAME":"LIVING AQUARIUM GEMS","POP_AT_RISK":1246016,"BUSINESS_TYPE":"Pet Shop","LEGAL_NAME":"AQUARIUM GEMS,LLC.","LONGITUDE":-87.67196930473186},
{"STATE":"IL","ZIP":60643,"LATTITUDE":41.71080448383775,"ADDRESS":"10035 S WESTERN AVE  1","YEAR":2006,"DOING_BUSINESS_AS_NAME":"BEVERLY PET","POP_AT_RISK":56454,"BUSINESS_TYPE":"Pet Shop","LEGAL_NAME":"AUDREY ANN FISCHER","LONGITUDE":-87.68160723017458},
{"STATE":"IL","ZIP":60622,"LATTITUDE":41.89563034854132,"ADDRESS":"2403 W CHICAGO AVE 1ST ","YEAR":2006,"DOING_BUSINESS_AS_NAME":"LIZ'S PET SHOP","POP_AT_RISK":901328,"BUSINESS_TYPE":"Pet Shop","LEGAL_NAME":"ELIZABETH M VARELA","LONGITUDE":-87.68703920845005},
{"STATE":"IL","ZIP":60655,"LATTITUDE":41.703470270354465,"ADDRESS":"10429 S KEDZIE AVE 1ST ","YEAR":2006,"DOING_BUSINESS_AS_NAME":"PARK PET SHOP INC","POP_AT_RISK":104644,"BUSINESS_TYPE":"Pet Shop","LEGAL_NAME":"PARK PET SHOP INC.","LONGITUDE":-87.70110404556713},
{"STATE":"IL","ZIP":60707,"LATTITUDE":41.92345973283187,"ADDRESS":"6919 W GRAND AVE  ","YEAR":2006,"DOING_BUSINESS_AS_NAME":"PUPPY PETITE INC.","POP_AT_RISK":351736,"BUSINESS_TYPE":"Pet Shop","LEGAL_NAME":"PUPPY PETITTE INC.","LONGITUDE":-87.79884307511517},
{"STATE":"IL","ZIP":60649,"LATTITUDE":41.75196502179656,"ADDRESS":"2734 E 79TH ST 1ST ","YEAR":2006,"DOING_BUSINESS_AS_NAME":"BLUE MAGIC PET SHOP","POP_AT_RISK":524052,"BUSINESS_TYPE":"Pet Shop","LEGAL_NAME":"JACQUELINE R WILSON","LONGITUDE":-87.55701855522801},
{"STATE":"IL","ZIP":60608,"LATTITUDE":41.84653404320674,"ADDRESS":"2516 S HALSTED ST  ","YEAR":2006,"DOING_BUSINESS_AS_NAME":"BUYER SOLUTION","POP_AT_RISK":512440,"BUSINESS_TYPE":"Pet Shop","LEGAL_NAME":"GOLDEN AQUARIUM INC.","LONGITUDE":-87.64661506620588},
{"STATE":"IL","ZIP":60639,"LATTITUDE":41.90976452703277,"ADDRESS":"4650 W NORTH AVE  ","YEAR":2006,"DOING_BUSINESS_AS_NAME":"WALMART #5402","POP_AT_RISK":336744,"BUSINESS_TYPE":"Pet Shop","LEGAL_NAME":"WAL-MART STORES, INC.","LONGITUDE":-87.74337629570627},
{"STATE":"IL","ZIP":60628,"LATTITUDE":41.662549681874204,"ADDRESS":"12721 S HALSTED ST 1ST ","YEAR":2006,"DOING_BUSINESS_AS_NAME":"PINK POODLE PALACE","POP_AT_RISK":167321,"BUSINESS_TYPE":"Pet Shop","LEGAL_NAME":"GLORIA & TRACY MCBRIDE","LONGITUDE":-87.64125124497521},
{"STATE":"IL","ZIP":60652,"LATTITUDE":41.74602291961784,"ADDRESS":"8057 S CICERO AVE  ","YEAR":2006,"DOING_BUSINESS_AS_NAME":"PET LUV PET CENTER INC","POP_AT_RISK":80444,"BUSINESS_TYPE":"Pet Shop","LEGAL_NAME":"PET LUV PET CENTER INC","LONGITUDE":-87.7411015602688},
{"STATE":"IL","ZIP":60609,"LATTITUDE":41.83084736424192,"ADDRESS":"824 W 35TH ST  1","YEAR":2006,"DOING_BUSINESS_AS_NAME":"BRIDGEPORT PET BOUTIQUE","POP_AT_RISK":187640,"BUSINESS_TYPE":"Pet Shop","LEGAL_NAME":"BRIDGEPORT PET BOUTIQUE","LONGITUDE":-87.64710286653462},
{"STATE":"IL","ZIP":60634,"LATTITUDE":41.95298420287931,"ADDRESS":"6500 W IRVING PARK RD  1","YEAR":2006,"DOING_BUSINESS_AS_NAME":"OCEAN DESIGN AQUARIUM","POP_AT_RISK":299523,"BUSINESS_TYPE":"Pet Shop","LEGAL_NAME":"OCEAN DESIGN AQUARIUM INC","LONGITUDE":-87.78908383095457},
{"STATE":"IL","ZIP":60613,"LATTITUDE":41.95339443707063,"ADDRESS":"3920 N BROADWAY  1ST ","YEAR":2006,"DOING_BUSINESS_AS_NAME":"PARADISE PET SALON","POP_AT_RISK":413850,"BUSINESS_TYPE":"Pet Shop","LEGAL_NAME":"HUMBERTO BRAVO & MARTHA COHEN","LONGITUDE":-87.6499504381135},
{"STATE":"IL","ZIP":60647,"LATTITUDE":41.91870069748277,"ADDRESS":"2062-2064 N MILWAUKEE AVE  1","YEAR":2006,"DOING_BUSINESS_AS_NAME":"JULE'S 5 cent TO $1 STORES, INC","POP_AT_RISK":180951,"BUSINESS_TYPE":"Pet Shop","LEGAL_NAME":"JULE'S 5 cent TO $1 STORES, INC","LONGITUDE":-87.69070292634873},
{"STATE":"IL","ZIP":60640,"LATTITUDE":41.96896555380091,"ADDRESS":"1710 W LAWRENCE AVE 1ST ","YEAR":2006,"DOING_BUSINESS_AS_NAME":"DOGS AND CATS GROOMING SALON","POP_AT_RISK":621504,"BUSINESS_TYPE":"Pet Shop","LEGAL_NAME":"DOGS AND CATS GROOMING SALON, INC.","LONGITUDE":-87.67151804860681},
{"STATE":"IL","ZIP":60614,"LATTITUDE":41.91758179156386,"ADDRESS":"2000 N CLYBOURN AVE 1ST ","YEAR":2006,"DOING_BUSINESS_AS_NAME":"PETCO #869","POP_AT_RISK":329094,"BUSINESS_TYPE":"Pet Shop","LEGAL_NAME":"PETCO ANIMAL SUPPLIES STORES, INC.","LONGITUDE":-87.6590228976662},
{"STATE":"IL","ZIP":60610,"LATTITUDE":41.890341971280506,"ADDRESS":"440 N ORLEANS ST  ","YEAR":2006,"DOING_BUSINESS_AS_NAME":"PETCO #1965","POP_AT_RISK":659510,"BUSINESS_TYPE":"Pet Shop","LEGAL_NAME":"PETCO ANIMAL SUPPLIES STORES, INC.","LONGITUDE":-87.63714472645873},
{"STATE":"IL","ZIP":60639,"LATTITUDE":41.92426646598735,"ADDRESS":"4337 W FULLERTON AVE 1ST ","YEAR":2006,"DOING_BUSINESS_AS_NAME":"TROPICAL BIRD PARADISE DIVISION OF HANDICAP INC","POP_AT_RISK":286400,"BUSINESS_TYPE":"Pet Shop","LEGAL_NAME":"TROPICAL BIRD PARADISE DIVISION OF HANDICAP INC","LONGITUDE":-87.73563584102945},
{"STATE":"IL","ZIP":60656,"LATTITUDE":41.97462951006733,"ADDRESS":"7220 W FOSTER AVE  ","YEAR":2006,"DOING_BUSINESS_AS_NAME":"PET SUPPLIES PLUS # 53","POP_AT_RISK":156325,"BUSINESS_TYPE":"Pet Shop","LEGAL_NAME":"PET SUPPLIES PLUS  CHICAGO CITY CENTER LIMITED PARTNERSHIP","LONGITUDE":-87.80798109934157},
}