{
{"STATE":"IL","ZIP":60652,"LATTITUDE":41.735274089541285,"ADDRESS":"3250 W 87TH ST 1 ","YEAR":2008,"DOING_BUSINESS_AS_NAME":"ULTRA FOODS","POP_AT_RISK":69064,"BUSINESS_TYPE":"Grocery","LEGAL_NAME":"SVT, LLC","LONGITUDE":-87.70351128350617},
{"STATE":"IL","ZIP":60637,"LATTITUDE":41.77430588118815,"ADDRESS":"6621 S COTTAGE GROVE AVE 1 ","YEAR":2008,"DOING_BUSINESS_AS_NAME":"ALDI","POP_AT_RISK":39863,"BUSINESS_TYPE":"Grocery","LEGAL_NAME":"ALDI INC.","LONGITUDE":-87.6056480253388},
{"STATE":"IL","ZIP":60619,"LATTITUDE":41.760880871985314,"ADDRESS":"7333 S STATE ST 1ST FLOOR 1","YEAR":2008,"DOING_BUSINESS_AS_NAME":"ALDI'S #08","POP_AT_RISK":31368,"BUSINESS_TYPE":"Grocery","LEGAL_NAME":"ALDI INC.","LONGITUDE":-87.62466578461063},
{"STATE":"IL","ZIP":60620,"LATTITUDE":41.75603509101783,"ADDRESS":"7545 S WESTERN AVE 1ST FLOOR ","YEAR":2008,"DOING_BUSINESS_AS_NAME":"ALDI'S #93","POP_AT_RISK":89301,"BUSINESS_TYPE":"Grocery","LEGAL_NAME":"ALDI INC.","LONGITUDE":-87.68285832156675},
{"STATE":"IL","ZIP":60638,"LATTITUDE":41.79638048949907,"ADDRESS":"5775 S ARCHER AVE  ","YEAR":2008,"DOING_BUSINESS_AS_NAME":"ALDI INC #53","POP_AT_RISK":39098,"BUSINESS_TYPE":"Grocery","LEGAL_NAME":"ALDI INC.","LONGITUDE":-87.75734757218696},
{"STATE":"IL","ZIP":60652,"LATTITUDE":41.74091106536457,"ADDRESS":"8333 S CICERO AVE  -","YEAR":2008,"DOING_BUSINESS_AS_NAME":"ALDI INC #83","POP_AT_RISK":77772,"BUSINESS_TYPE":"Grocery","LEGAL_NAME":"ALDI INC.","LONGITUDE":-87.74092285938536},
{"STATE":"IL","ZIP":60621,"LATTITUDE":41.77992004734145,"ADDRESS":"620 W 63RD ST  ","YEAR":2008,"DOING_BUSINESS_AS_NAME":"ALDI INC #92","POP_AT_RISK":239477,"BUSINESS_TYPE":"Grocery","LEGAL_NAME":"ALDI INC.","LONGITUDE":-87.64092551074862},
{"STATE":"IL","ZIP":60643,"LATTITUDE":41.68496064035157,"ADDRESS":"821 W 115TH ST 1 ","YEAR":2008,"DOING_BUSINESS_AS_NAME":"ALDI INC. #96","POP_AT_RISK":151040,"BUSINESS_TYPE":"Grocery","LEGAL_NAME":"ALDI INC.","LONGITUDE":-87.64302230955846},
{"STATE":"IL","ZIP":60644,"LATTITUDE":41.86731564787871,"ADDRESS":"5629 W FILLMORE ST  ","YEAR":2008,"DOING_BUSINESS_AS_NAME":"ALDI INC STORE 14","POP_AT_RISK":182068,"BUSINESS_TYPE":"Grocery","LEGAL_NAME":"ALDI INC.","LONGITUDE":-87.76559794296058},
{"STATE":"IL","ZIP":60619,"LATTITUDE":41.736915345975234,"ADDRESS":"1246 E 87TH ST  ","YEAR":2008,"DOING_BUSINESS_AS_NAME":"ALDI INC STORE #16","POP_AT_RISK":67316,"BUSINESS_TYPE":"Grocery","LEGAL_NAME":"ALDI INC.","LONGITUDE":-87.59365662175371},
{"STATE":"IL","ZIP":60634,"LATTITUDE":41.932157679147515,"ADDRESS":"2828 N CENTRAL AVE  ","YEAR":2008,"DOING_BUSINESS_AS_NAME":"ALDI FOODS STORE #90B","POP_AT_RISK":133854,"BUSINESS_TYPE":"Grocery","LEGAL_NAME":"ALDI INC.","LONGITUDE":-87.76642459883053},
{"STATE":"IL","ZIP":60643,"LATTITUDE":41.69723820878015,"ADDRESS":"10800 S WESTERN AVE  ","YEAR":2008,"DOING_BUSINESS_AS_NAME":"COUNTY FAIR FOODS","POP_AT_RISK":20809,"BUSINESS_TYPE":"Grocery","LEGAL_NAME":"BAFKAP CORP.","LONGITUDE":-87.6814748041818},
{"STATE":"IL","ZIP":60620,"LATTITUDE":41.73574485136591,"ADDRESS":"1411 W 87TH ST  ","YEAR":2008,"DOING_BUSINESS_AS_NAME":"PETE'S PRODUCE","POP_AT_RISK":80032,"BUSINESS_TYPE":"Grocery","LEGAL_NAME":"KOUNYADO INC.","LONGITUDE":-87.65871770565929},
{"STATE":"IL","ZIP":60623,"LATTITUDE":41.844032796507406,"ADDRESS":"4335 W 26TH ST  ","YEAR":2008,"DOING_BUSINESS_AS_NAME":"LA MERCED INC","POP_AT_RISK":45902,"BUSINESS_TYPE":"Grocery","LEGAL_NAME":"LA MERCED INC","LONGITUDE":-87.73243286472002},
{"STATE":"IL","ZIP":60643,"LATTITUDE":41.69167920403068,"ADDRESS":"2323 W 111TH ST  1ST","YEAR":2008,"DOING_BUSINESS_AS_NAME":"FAIRPLAY FOODS","POP_AT_RISK":18624,"BUSINESS_TYPE":"Grocery","LEGAL_NAME":"FAIRPLAY, INC.","LONGITUDE":-87.67977917252558},
{"STATE":"IL","ZIP":60609,"LATTITUDE":41.809629768022035,"ADDRESS":"4640 S HALSTED ST # 1ST","YEAR":2008,"DOING_BUSINESS_AS_NAME":"FAIRPLAY FOODS","POP_AT_RISK":61113,"BUSINESS_TYPE":"Grocery","LEGAL_NAME":"FAIRPLAY, INC.","LONGITUDE":-87.64570756512876},
{"STATE":"IL","ZIP":60629,"LATTITUDE":41.768365835791016,"ADDRESS":"2600-2604 W LITHUANIAN PLAZA CT  ","YEAR":2008,"DOING_BUSINESS_AS_NAME":"OGIES FOOD, INC","POP_AT_RISK":40810,"BUSINESS_TYPE":"Grocery","LEGAL_NAME":"OGIES FOOD INC.","LONGITUDE":-87.68830090772079},
{"STATE":"IL","ZIP":60625,"LATTITUDE":41.9686702258988,"ADDRESS":"2632 W LAWRENCE AVE 1ST ","YEAR":2008,"DOING_BUSINESS_AS_NAME":"HARVESTIME FOODS","POP_AT_RISK":69241,"BUSINESS_TYPE":"Grocery","LEGAL_NAME":"HARVESTIME FOODS","LONGITUDE":-87.69516274750163},
{"STATE":"IL","ZIP":60827,"LATTITUDE":41.65176106451563,"ADDRESS":"505 E 134TH ST  ","YEAR":2008,"DOING_BUSINESS_AS_NAME":"J R GROCERY STORE","POP_AT_RISK":3373,"BUSINESS_TYPE":"Grocery","LEGAL_NAME":"JOSEPHINE RANDLE","LONGITUDE":-87.60936661232194},
{"STATE":"IL","ZIP":60617,"LATTITUDE":41.718912156347386,"ADDRESS":"9704 S COMMERCIAL AVE  1ST","YEAR":2008,"DOING_BUSINESS_AS_NAME":"LA FERIA GROCERY","POP_AT_RISK":53247,"BUSINESS_TYPE":"Grocery","LEGAL_NAME":"LA FERIA GROCERY","LONGITUDE":-87.55117429715926},
{"STATE":"IL","ZIP":60629,"LATTITUDE":41.77841597436495,"ADDRESS":"4439 W 63RD ST  ","YEAR":2008,"DOING_BUSINESS_AS_NAME":"SAVE-A-LOT #860","POP_AT_RISK":69346,"BUSINESS_TYPE":"Grocery","LEGAL_NAME":"MORAN FOODS, LLC","LONGITUDE":-87.7340575714638},
{"STATE":"IL","ZIP":60628,"LATTITUDE":41.69954741466738,"ADDRESS":"10700 S HALSTED ST  ","YEAR":2008,"DOING_BUSINESS_AS_NAME":"SAVE-A-LOT  #851","POP_AT_RISK":77934,"BUSINESS_TYPE":"Grocery","LEGAL_NAME":"MORAN FOODS, LLC","LONGITUDE":-87.64275191512002},
{"STATE":"IL","ZIP":60624,"LATTITUDE":41.874537312208965,"ADDRESS":"420 S PULASKI RD  ","YEAR":2008,"DOING_BUSINESS_AS_NAME":"SAVE-A-LOT  #859","POP_AT_RISK":84642,"BUSINESS_TYPE":"Grocery","LEGAL_NAME":"MORAN FOODS, LLC","LONGITUDE":-87.7255969016521},
{"STATE":"IL","ZIP":60615,"LATTITUDE":41.80948924653102,"ADDRESS":"4701 S COTTAGE GROVE AVE  ","YEAR":2008,"DOING_BUSINESS_AS_NAME":"SAVE-A-LOT  #862","POP_AT_RISK":127530,"BUSINESS_TYPE":"Grocery","LEGAL_NAME":"MORAN FOODS, LLC","LONGITUDE":-87.60641742939396},
{"STATE":"IL","ZIP":60639,"LATTITUDE":41.90927456671192,"ADDRESS":"5555 W NORTH AVE  ","YEAR":2008,"DOING_BUSINESS_AS_NAME":"SAVE-A-LOT   #856","POP_AT_RISK":48853,"BUSINESS_TYPE":"Grocery","LEGAL_NAME":"MORAN FOODS, LLC","LONGITUDE":-87.76518778496151},
{"STATE":"IL","ZIP":60617,"LATTITUDE":41.74473083947384,"ADDRESS":"2858 E 83RD ST  ","YEAR":2008,"DOING_BUSINESS_AS_NAME":"SAVE-A-LOT  # 858","POP_AT_RISK":152665,"BUSINESS_TYPE":"Grocery","LEGAL_NAME":"MORAN FOODS, LLC","LONGITUDE":-87.55403913753914},
{"STATE":"IL","ZIP":60646,"LATTITUDE":41.99786001391069,"ADDRESS":"6415 N CENTRAL AVE  ","YEAR":2008,"DOING_BUSINESS_AS_NAME":"HAPPY FOODS","POP_AT_RISK":35912,"BUSINESS_TYPE":"Grocery","LEGAL_NAME":"HAPPY FOODS, INC.","LONGITUDE":-87.76344579856082},
{"STATE":"IL","ZIP":60631,"LATTITUDE":42.0043992612229,"ADDRESS":"6783 N NORTHWEST HWY  ","YEAR":2008,"DOING_BUSINESS_AS_NAME":"HAPPY FOODS","POP_AT_RISK":98700,"BUSINESS_TYPE":"Grocery","LEGAL_NAME":"HAPPY FOODS, INC.","LONGITUDE":-87.81848575539418},
{"STATE":"IL","ZIP":60616,"LATTITUDE":41.848237165925426,"ADDRESS":"520 W 24TH PL 1ST ","YEAR":2008,"DOING_BUSINESS_AS_NAME":"HONG KONG MARKET","POP_AT_RISK":160130,"BUSINESS_TYPE":"Grocery","LEGAL_NAME":"HOP KEE INCORPORATED","LONGITUDE":-87.64095552751985},
{"STATE":"IL","ZIP":60634,"LATTITUDE":41.938237375991335,"ADDRESS":"6850 W BELMONT AVE 1 ","YEAR":2008,"DOING_BUSINESS_AS_NAME":"AVENUE FOOD MAR INC","POP_AT_RISK":145914,"BUSINESS_TYPE":"Grocery","LEGAL_NAME":"AVENUE FOOD MART, INC.","LONGITUDE":-87.79776034825164},
{"STATE":"IL","ZIP":60615,"LATTITUDE":41.79957680216707,"ADDRESS":"1226 E 53RD ST STROE FRONT ","YEAR":2008,"DOING_BUSINESS_AS_NAME":"HYDE PARK PRODUCE, LTD","POP_AT_RISK":291004,"BUSINESS_TYPE":"Grocery","LEGAL_NAME":"HYDE PARK PRODUCE LTD.","LONGITUDE":-87.5955129218999},
{"STATE":"IL","ZIP":60636,"LATTITUDE":41.76579077043187,"ADDRESS":"7030 S ASHLAND AVE  ","YEAR":2008,"DOING_BUSINESS_AS_NAME":"Food 4 Less Midwest #552","POP_AT_RISK":81344,"BUSINESS_TYPE":"Grocery","LEGAL_NAME":"RALPHS GROCERY COMPANY","LONGITUDE":-87.66396688645497},
{"STATE":"IL","ZIP":60655,"LATTITUDE":41.691445910285765,"ADDRESS":"3804 W 111TH ST  ","YEAR":2008,"DOING_BUSINESS_AS_NAME":"S & T PROVISION CO INC","POP_AT_RISK":28636,"BUSINESS_TYPE":"Grocery","LEGAL_NAME":"S & T PROVISION CO INC","LONGITUDE":-87.71567310388504},
{"STATE":"IL","ZIP":60616,"LATTITUDE":41.833044738178955,"ADDRESS":"443 E 34TH ST  ","YEAR":2008,"DOING_BUSINESS_AS_NAME":"JEWEL FOOD STORE #3043","POP_AT_RISK":325556,"BUSINESS_TYPE":"Grocery","LEGAL_NAME":"JEWEL FOOD STORES, INC.","LONGITUDE":-87.61461136443168},
{"STATE":"IL","ZIP":60617,"LATTITUDE":41.722263198133774,"ADDRESS":"1655 E 95TH ST  1ST","YEAR":2008,"DOING_BUSINESS_AS_NAME":"JEWEL FOOD STORE #3092","POP_AT_RISK":22526,"BUSINESS_TYPE":"Grocery","LEGAL_NAME":"JEWEL FOOD STORES, INC.","LONGITUDE":-87.58291763461929},
{"STATE":"IL","ZIP":60655,"LATTITUDE":41.70631284461492,"ADDRESS":"3128 W 103RD ST 1ST ","YEAR":2008,"DOING_BUSINESS_AS_NAME":"JEWEL FOOD STORE #3114","POP_AT_RISK":57936,"BUSINESS_TYPE":"Grocery","LEGAL_NAME":"JEWEL FOOD STORES, INC.","LONGITUDE":-87.6997671192086},
{"STATE":"IL","ZIP":60620,"LATTITUDE":41.7361451282369,"ADDRESS":"87 W 87TH ST 1 #","YEAR":2008,"DOING_BUSINESS_AS_NAME":"JEWEL FOOD STORE #3181","POP_AT_RISK":82533,"BUSINESS_TYPE":"Grocery","LEGAL_NAME":"JEWEL FOOD STORES, INC.","LONGITUDE":-87.62691784397349},
{"STATE":"IL","ZIP":60634,"LATTITUDE":41.953010233234615,"ADDRESS":"6430 W IRVING PARK RD  ","YEAR":2008,"DOING_BUSINESS_AS_NAME":"JEWEL FOOD STORE #3224","POP_AT_RISK":42789,"BUSINESS_TYPE":"Grocery","LEGAL_NAME":"JEWEL FOOD STORES, INC.","LONGITUDE":-87.78770716259851},
{"STATE":"IL","ZIP":60630,"LATTITUDE":41.966797112000584,"ADDRESS":"4729 N CENTRAL AVE 1ST ","YEAR":2008,"DOING_BUSINESS_AS_NAME":"JEWEL FOOD STORE #3282","POP_AT_RISK":42098,"BUSINESS_TYPE":"Grocery","LEGAL_NAME":"JEWEL FOOD STORES, INC.","LONGITUDE":-87.7672994806274},
{"STATE":"IL","ZIP":60656,"LATTITUDE":41.97454294770947,"ADDRESS":"7342 W FOSTER AVE 1ST #","YEAR":2008,"DOING_BUSINESS_AS_NAME":"JEWEL FOOD STORE #3296","POP_AT_RISK":81484,"BUSINESS_TYPE":"Grocery","LEGAL_NAME":"JEWEL FOOD STORES, INC.","LONGITUDE":-87.81134688421793},
{"STATE":"IL","ZIP":60608,"LATTITUDE":41.86625417614275,"ADDRESS":"1220 S ASHLAND AVE  ","YEAR":2008,"DOING_BUSINESS_AS_NAME":"JEWEL FOOD STORE #3344","POP_AT_RISK":80198,"BUSINESS_TYPE":"Grocery","LEGAL_NAME":"JEWEL FOOD STORES, INC.","LONGITUDE":-87.66652414013105},
{"STATE":"IL","ZIP":60640,"LATTITUDE":41.98218988461361,"ADDRESS":"5516 N CLARK ST  1ST","YEAR":2008,"DOING_BUSINESS_AS_NAME":"JEWEL FOOD STORE #3407","POP_AT_RISK":74153,"BUSINESS_TYPE":"Grocery","LEGAL_NAME":"JEWEL FOOD STORES, INC.","LONGITUDE":-87.66865162796088},
{"STATE":"IL","ZIP":60656,"LATTITUDE":41.96601140133553,"ADDRESS":"4734 N CUMBERLAND AVE 1ST #","YEAR":2008,"DOING_BUSINESS_AS_NAME":"JEWEL FOOD STORE #3477","POP_AT_RISK":68328,"BUSINESS_TYPE":"Grocery","LEGAL_NAME":"JEWEL FOOD STORES, INC.","LONGITUDE":-87.83683116913842},
{"STATE":"IL","ZIP":60638,"LATTITUDE":41.79435485319725,"ADDRESS":"6107 S ARCHER AVE  ","YEAR":2008,"DOING_BUSINESS_AS_NAME":"JEWEL FOOD STORE #3721","POP_AT_RISK":48782,"BUSINESS_TYPE":"Grocery","LEGAL_NAME":"JEWEL FOOD STORES, INC.","LONGITUDE":-87.77052715211342},
{"STATE":"IL","ZIP":60641,"LATTITUDE":41.95355443840363,"ADDRESS":"4660 W IRVING PARK RD 1ST ","YEAR":2008,"DOING_BUSINESS_AS_NAME":"JEWEL FOOD STORES #3262","POP_AT_RISK":43100,"BUSINESS_TYPE":"Grocery","LEGAL_NAME":"JEWEL FOOD STORES, INC.","LONGITUDE":-87.74505531119503},
{"STATE":"IL","ZIP":60605,"LATTITUDE":41.86672435405559,"ADDRESS":"1224 S WABASH AVE  ","YEAR":2008,"DOING_BUSINESS_AS_NAME":"JEWEL FOOD  STORE # 3345","POP_AT_RISK":118473,"BUSINESS_TYPE":"Grocery","LEGAL_NAME":"JEWEL FOOD STORES, INC.","LONGITUDE":-87.62596114837754},
{"STATE":"IL","ZIP":60612,"LATTITUDE":41.87542374509009,"ADDRESS":"413 S KEDZIE AVE  ","YEAR":2008,"DOING_BUSINESS_AS_NAME":"NEW POP-IN","POP_AT_RISK":310410,"BUSINESS_TYPE":"Grocery","LEGAL_NAME":"M & H SUPERMARKET, INC.","LONGITUDE":-87.70582036250418},
{"STATE":"IL","ZIP":60646,"LATTITUDE":41.98592799239988,"ADDRESS":"5800 N PULASKI RD  ","YEAR":2008,"DOING_BUSINESS_AS_NAME":"CHICAGO FOOD CORP","POP_AT_RISK":57282,"BUSINESS_TYPE":"Grocery","LEGAL_NAME":"CHICAGO FOOD CORPORATION","LONGITUDE":-87.72866341853141},
{"STATE":"IL","ZIP":60644,"LATTITUDE":41.88004498075895,"ADDRESS":"5817-5825 W MADISON ST  ","YEAR":2008,"DOING_BUSINESS_AS_NAME":"MARIO 'S BUTCHER SHOP FD CNTR","POP_AT_RISK":139410,"BUSINESS_TYPE":"Grocery","LEGAL_NAME":"MARIO'S BUTCHER SHOP INC","LONGITUDE":-87.77049337933958},
{"STATE":"IL","ZIP":60649,"LATTITUDE":41.75899276178537,"ADDRESS":"7500 S EXCHANGE AVE  ","YEAR":2008,"DOING_BUSINESS_AS_NAME":"S & K FOOD & LIQUOR, INC.","POP_AT_RISK":29611,"BUSINESS_TYPE":"Grocery","LEGAL_NAME":"S & K FOOD & LIQUOR, INC.","LONGITUDE":-87.56037781077926},
{"STATE":"IL","ZIP":60608,"LATTITUDE":41.836468347729024,"ADDRESS":"3145 S ASHLAND AVE  ","YEAR":2008,"DOING_BUSINESS_AS_NAME":"DOMINICK'S # 1100","POP_AT_RISK":30028,"BUSINESS_TYPE":"Grocery","LEGAL_NAME":"DOMINICK'S FINER FOODS, LLC","LONGITUDE":-87.66556690213167},
{"STATE":"IL","ZIP":60626,"LATTITUDE":42.01928855008811,"ADDRESS":"1763 W HOWARD ST  ","YEAR":2008,"DOING_BUSINESS_AS_NAME":"DOMINICK'S #160\/1698","POP_AT_RISK":62574,"BUSINESS_TYPE":"Grocery","LEGAL_NAME":"DOMINICK'S FINER FOODS, LLC","LONGITUDE":-87.67505850938775},
{"STATE":"IL","ZIP":60646,"LATTITUDE":41.99598528606219,"ADDRESS":"6312 N NAGLE AVE  ","YEAR":2008,"DOING_BUSINESS_AS_NAME":"DOMINICK'S # 113\/1113","POP_AT_RISK":22437,"BUSINESS_TYPE":"Grocery","LEGAL_NAME":"DOMINICK'S FINER FOODS, LLC","LONGITUDE":-87.78763711707086},
{"STATE":"IL","ZIP":60649,"LATTITUDE":41.765990001140594,"ADDRESS":"2101 E 71ST ST  ","YEAR":2008,"DOING_BUSINESS_AS_NAME":"DOMINICK'S # 130\/1130","POP_AT_RISK":43337,"BUSINESS_TYPE":"Grocery","LEGAL_NAME":"DOMINICK'S FINER FOODS, LLC","LONGITUDE":-87.57378733665412},
{"STATE":"IL","ZIP":60651,"LATTITUDE":41.9026337556469,"ADDRESS":"3637 W DIVISION ST 1ST ","YEAR":2008,"DOING_BUSINESS_AS_NAME":"NICKEL LIQUOR & MINI MART INC","POP_AT_RISK":56091,"BUSINESS_TYPE":"Grocery","LEGAL_NAME":"NICKEL LIQUORS & MINI MART, INC.","LONGITUDE":-87.7179312389489},
{"STATE":"IL","ZIP":60609,"LATTITUDE":41.8209574939972,"ADDRESS":"1111 W 40TH ST 1ST ","YEAR":2008,"DOING_BUSINESS_AS_NAME":"SUPERIOR NUT & CANDY  CO.I INC.","POP_AT_RISK":17032,"BUSINESS_TYPE":"Grocery","LEGAL_NAME":"SUPERIOR NUT & CANDY  CO. I INC.","LONGITUDE":-87.65377832180683},
{"STATE":"IL","ZIP":60655,"LATTITUDE":41.700355274179636,"ADDRESS":"10601 S PULASKI RD 1ST ","YEAR":2008,"DOING_BUSINESS_AS_NAME":"FAMILY PRIDE","POP_AT_RISK":92796,"BUSINESS_TYPE":"Grocery","LEGAL_NAME":"FAMILY PRIDE FOODS OF CHICAGO, INC.","LONGITUDE":-87.72054089644553},
}