{
{"STATE":"IL","ZIP":60618,"LATTITUDE":41.95847659070517,"ADDRESS":"4237 N HAMLIN AVE  ","YEAR":2011,"DOING_BUSINESS_AS_NAME":"LINDA ALANIS","POP_AT_RISK":130076,"BUSINESS_TYPE":"Residential Real Estate Developer","LEGAL_NAME":"LINDA ALANIS","LONGITUDE":-87.7227064612506},
{"STATE":"IL","ZIP":60655,"LATTITUDE":41.71071943804928,"ADDRESS":"10024 S CENTRAL PARK AVE 1ST ","YEAR":2011,"DOING_BUSINESS_AS_NAME":"MERCY CIRCLE","POP_AT_RISK":130935,"BUSINESS_TYPE":"Residential Real Estate Developer","LEGAL_NAME":"MERCY CIRCLE","LONGITUDE":-87.71141795121552},
{"STATE":"IL","ZIP":60628,"LATTITUDE":41.70853851814964,"ADDRESS":"10217 S PRAIRIE AVE 2ND ","YEAR":2011,"DOING_BUSINESS_AS_NAME":"MICHELLE REDD","POP_AT_RISK":25120,"BUSINESS_TYPE":"Residential Real Estate Developer","LEGAL_NAME":"MICHELLE REDD","LONGITUDE":-87.61730958732812},
{"STATE":"IL","ZIP":60523,"LATTITUDE":41.85185570728325,"ADDRESS":"2603 W 22ND ST  22","YEAR":2011,"DOING_BUSINESS_AS_NAME":"1401 STATE LLC","POP_AT_RISK":106956,"BUSINESS_TYPE":"Residential Real Estate Developer","LEGAL_NAME":"1401 STATE LLC","LONGITUDE":-87.69073728136568},
{"STATE":"IL","ZIP":60617,"LATTITUDE":41.727388208446705,"ADDRESS":"9219 S MERRILL AVE 1ST ","YEAR":2011,"DOING_BUSINESS_AS_NAME":"IMRI REALTY","POP_AT_RISK":19126,"BUSINESS_TYPE":"Residential Real Estate Developer","LEGAL_NAME":"BETTY J. BROWN","LONGITUDE":-87.57168640971774},
{"STATE":"IL","ZIP":60629,"LATTITUDE":41.786238442923924,"ADDRESS":"2925 W 59TH ST  ","YEAR":2011,"DOING_BUSINESS_AS_NAME":"2925 W. 59TH, LLC","POP_AT_RISK":204204,"BUSINESS_TYPE":"Residential Real Estate Developer","LEGAL_NAME":"2925 W. 59TH, LLC","LONGITUDE":-87.69719003767588},
{"STATE":"IL","ZIP":60628,"LATTITUDE":41.67508141704513,"ADDRESS":"12034 S PRINCETON AVE 1ST ","YEAR":2011,"DOING_BUSINESS_AS_NAME":"PATRICK M. PALMER","POP_AT_RISK":130150,"BUSINESS_TYPE":"Residential Real Estate Developer","LEGAL_NAME":"PATRICK M. PALMER","LONGITUDE":-87.62993130572139},
{"STATE":"IL","ZIP":60651,"LATTITUDE":41.902055924938146,"ADDRESS":"5471 W DIVISION ST 2ND ","YEAR":2011,"DOING_BUSINESS_AS_NAME":"TULU'S","POP_AT_RISK":115730,"BUSINESS_TYPE":"Residential Real Estate Developer","LEGAL_NAME":"CHARLIE R CRENSHAW","LONGITUDE":-87.76367899759654},
{"STATE":"IL","ZIP":60148,"LATTITUDE":41.85161230694275,"ADDRESS":"865 E 22ND   422","YEAR":2011,"DOING_BUSINESS_AS_NAME":"CITRUS CHICAGO LLC","POP_AT_RISK":43580,"BUSINESS_TYPE":"Residential Real Estate Developer","LEGAL_NAME":"CITRUS CHICAGO LLC","LONGITUDE":-87.6482065861969},
{"STATE":"IL","ZIP":60630,"LATTITUDE":41.96753436822175,"ADDRESS":"5371 W LAWRENCE AVE 1 ","YEAR":2011,"DOING_BUSINESS_AS_NAME":"EH DEVELOPMENT","POP_AT_RISK":156548,"BUSINESS_TYPE":"Residential Real Estate Developer","LEGAL_NAME":"EH DEVELOPMENT LLC","LONGITUDE":-87.76221940017687},
{"STATE":"IL","ZIP":60656,"LATTITUDE":41.979093128747486,"ADDRESS":"5447 N PANAMA AVE 1ST ","YEAR":2011,"DOING_BUSINESS_AS_NAME":"HB DEVELOPERS, LLC","POP_AT_RISK":98799,"BUSINESS_TYPE":"Residential Real Estate Developer","LEGAL_NAME":"HB DEVELOPERS, LLC","LONGITUDE":-87.82916136163188},
{"STATE":"IL","ZIP":60651,"LATTITUDE":41.90058121225709,"ADDRESS":"4950 W THOMAS ST 1ST ","YEAR":2011,"DOING_BUSINESS_AS_NAME":"BETHEL NEW LIFE INC","POP_AT_RISK":45691,"BUSINESS_TYPE":"Residential Real Estate Developer","LEGAL_NAME":"BETHEL NEW LIFE INC","LONGITUDE":-87.75040561250974},
{"STATE":"IL","ZIP":60659,"LATTITUDE":41.989086955147144,"ADDRESS":"5921 N DRAKE AVE  ","YEAR":2011,"DOING_BUSINESS_AS_NAME":"BCJ DEVELOPMENT, LLC","POP_AT_RISK":26829,"BUSINESS_TYPE":"Residential Real Estate Developer","LEGAL_NAME":"BCJ DEVELOPMENT, LLC","LONGITUDE":-87.7174596663076},
{"STATE":"IL","ZIP":60632,"LATTITUDE":41.82314049375089,"ADDRESS":"3800 W 38TH ST 1 1S","YEAR":2011,"DOING_BUSINESS_AS_NAME":"Smart Tech Homes","POP_AT_RISK":75405,"BUSINESS_TYPE":"Residential Real Estate Developer","LEGAL_NAME":"Eco Development, Inc","LONGITUDE":-87.71958937230791},
{"STATE":"IL","ZIP":60633,"LATTITUDE":41.651701289708825,"ADDRESS":"4000 E 134TH ST 1ST 1ST","YEAR":2011,"DOING_BUSINESS_AS_NAME":"HARBOUR POINT ESTATES","POP_AT_RISK":6628,"BUSINESS_TYPE":"Residential Real Estate Developer","LEGAL_NAME":"HARBOR 4000 EAST, LLC","LONGITUDE":-87.52749194531424},
{"STATE":"IL","ZIP":60609,"LATTITUDE":41.8192314147149,"ADDRESS":"2321 W 41ST ST  ","YEAR":2011,"DOING_BUSINESS_AS_NAME":"PROGRESS CONSTRUCTION","POP_AT_RISK":588720,"BUSINESS_TYPE":"Residential Real Estate Developer","LEGAL_NAME":"PROGRESS CONSTRUCTION","LONGITUDE":-87.68323279806654},
{"STATE":"IL","ZIP":60640,"LATTITUDE":41.976655113236305,"ADDRESS":"5206 N SHERIDAN RD 1 1ST","YEAR":2011,"DOING_BUSINESS_AS_NAME":"THE KOPLEY GROUP, INC","POP_AT_RISK":68229,"BUSINESS_TYPE":"Residential Real Estate Developer","LEGAL_NAME":"THE KOPLEY GROUP, INC","LONGITUDE":-87.65514209278054},
{"STATE":"IL","ZIP":60659,"LATTITUDE":41.99344156572163,"ADDRESS":"6142 N CALIFORNIA AVE  504","YEAR":2011,"DOING_BUSINESS_AS_NAME":"A & A DEVELOPMENT, LLC","POP_AT_RISK":60510,"BUSINESS_TYPE":"Residential Real Estate Developer","LEGAL_NAME":"A & A DEVELOPMENT, LLC","LONGITUDE":-87.69964542493904},
{"STATE":"IL","ZIP":60644,"LATTITUDE":41.86593374037215,"ADDRESS":"5000 W ROOSEVELT RD  101","YEAR":2011,"DOING_BUSINESS_AS_NAME":"BARRON DEVELOPMENT LLC","POP_AT_RISK":243885,"BUSINESS_TYPE":"Residential Real Estate Developer","LEGAL_NAME":"BARRON DEVELOPMENT LLC","LONGITUDE":-87.74970392608358},
{"STATE":"IL","ZIP":60624,"LATTITUDE":41.87908916693586,"ADDRESS":"120 S HAMLIN BLVD 1 ","YEAR":2011,"DOING_BUSINESS_AS_NAME":"L&R DEVELOPERS","POP_AT_RISK":79664,"BUSINESS_TYPE":"Residential Real Estate Developer","LEGAL_NAME":"L&R DEVELOPERS, L.L.C.","LONGITUDE":-87.72083275936721},
{"STATE":"IL","ZIP":60626,"LATTITUDE":42.006746500061745,"ADDRESS":"1522 W FARWELL AVE SECOND FLOOR 2N","YEAR":2011,"DOING_BUSINESS_AS_NAME":"BOWERS DEVELOPMENT INC.","POP_AT_RISK":218673,"BUSINESS_TYPE":"Residential Real Estate Developer","LEGAL_NAME":"BOWERS DEVELOPMENT INC.","LONGITUDE":-87.66879237329789},
{"STATE":"IL","ZIP":60640,"LATTITUDE":41.975488051342445,"ADDRESS":"1316 W WINONA ST 1 ","YEAR":2011,"DOING_BUSINESS_AS_NAME":"CALLISTO PROPERTIES","POP_AT_RISK":77884,"BUSINESS_TYPE":"Residential Real Estate Developer","LEGAL_NAME":"CALLISTO PROPERTIES LLC","LONGITUDE":-87.6631451315307},
{"STATE":"IL","ZIP":60649,"LATTITUDE":41.76965778189602,"ADDRESS":"6901 S STONY ISLAND AVE  ","YEAR":2011,"DOING_BUSINESS_AS_NAME":"PARAMOUNT GROUP, L.L.C","POP_AT_RISK":154552,"BUSINESS_TYPE":"Residential Real Estate Developer","LEGAL_NAME":"PARAMOUNT GROUP, L.L.C.","LONGITUDE":-87.58579721559974},
{"STATE":"IL","ZIP":60638,"LATTITUDE":41.790057644931764,"ADDRESS":"5611 S NASHVILLE AVE  ","YEAR":2011,"DOING_BUSINESS_AS_NAME":"A & SL CONSTRUCTION, INC.","POP_AT_RISK":184350,"BUSINESS_TYPE":"Residential Real Estate Developer","LEGAL_NAME":"A & SL CONSTRUCTION, INC.","LONGITUDE":-87.78646323276955},
{"STATE":"IL","ZIP":60619,"LATTITUDE":41.75510929548373,"ADDRESS":"7649 S CALUMET AVE 1 ","YEAR":2011,"DOING_BUSINESS_AS_NAME":"ESSLEY & ASSOCIATES, LLC.","POP_AT_RISK":39018,"BUSINESS_TYPE":"Residential Real Estate Developer","LEGAL_NAME":"ESSLEY & ASSOCIATES, LLC.","LONGITUDE":-87.61648455637193},
{"STATE":"IL","ZIP":60656,"LATTITUDE":41.971837617732454,"ADDRESS":"4970 N HARLEM   ","YEAR":2011,"DOING_BUSINESS_AS_NAME":"ZITELLA DEVELOPMENT CORP","POP_AT_RISK":60504,"BUSINESS_TYPE":"Residential Real Estate Developer","LEGAL_NAME":"ZITELLA DEVELOPMENT CORP.","LONGITUDE":-87.80723586686818},
{"STATE":"IL","ZIP":60643,"LATTITUDE":41.71476556246011,"ADDRESS":"9840 S PROSPECT AVE 1ST ","YEAR":2011,"DOING_BUSINESS_AS_NAME":"ADVANCE AREA SERVICE CORP.","POP_AT_RISK":175861,"BUSINESS_TYPE":"Residential Real Estate Developer","LEGAL_NAME":"ADVANCE AREA SERVICE CORP.","LONGITUDE":-87.66372626314511},
{"STATE":"IL","ZIP":60653,"LATTITUDE":41.82233445416222,"ADDRESS":"4020 S OAKENWALD AVE  ","YEAR":2011,"DOING_BUSINESS_AS_NAME":"LAKE FRONT ASSOCIATES I LLC","POP_AT_RISK":22777,"BUSINESS_TYPE":"Residential Real Estate Developer","LEGAL_NAME":"LAKE FRONT ASSOCIATES I  LLC","LONGITUDE":-87.60092822936635},
{"STATE":"IL","ZIP":60621,"LATTITUDE":41.764735862679856,"ADDRESS":"7122 S VINCENNES AVE 1ST FLOOR A","YEAR":2011,"DOING_BUSINESS_AS_NAME":"NEW HOMES BY NEW PISGAH, NFP","POP_AT_RISK":102681,"BUSINESS_TYPE":"Residential Real Estate Developer","LEGAL_NAME":"NEW HOMES BY NEW PISGAH, NFP","LONGITUDE":-87.62841664308885},
{"STATE":"IL","ZIP":60629,"LATTITUDE":41.779215216684705,"ADDRESS":"2816 W 63RD ST 2 ","YEAR":2011,"DOING_BUSINESS_AS_NAME":"ESOLIS GENERAL CONTRACTOR, LLC","POP_AT_RISK":173784,"BUSINESS_TYPE":"Residential Real Estate Developer","LEGAL_NAME":"ESOLIS GENERAL CONTRACTOR, LLC","LONGITUDE":-87.69413048509061},
{"STATE":"IL","ZIP":60645,"LATTITUDE":42.01235843901739,"ADDRESS":"2224 W TOUHY AVE  1W","YEAR":2011,"DOING_BUSINESS_AS_NAME":"SMB DEVELOPMENT","POP_AT_RISK":58777,"BUSINESS_TYPE":"Residential Real Estate Developer","LEGAL_NAME":"SPROUL MITCHELL BUILDERS, INC.","LONGITUDE":-87.68718562395223},
{"STATE":"IL","ZIP":60644,"LATTITUDE":41.87999358602674,"ADDRESS":"5945 W MADISON ST 1ST ","YEAR":2011,"DOING_BUSINESS_AS_NAME":"COMMUNITY MALE EMPOWERMENT PROJECT","POP_AT_RISK":167796,"BUSINESS_TYPE":"Residential Real Estate Developer","LEGAL_NAME":"COMMUNITY MALE EMPOWERMENT PROJECT","LONGITUDE":-87.77361566957164},
{"STATE":"IL","ZIP":60620,"LATTITUDE":41.74591661747167,"ADDRESS":"8130 S RACINE AVE 1 ","YEAR":2011,"DOING_BUSINESS_AS_NAME":"NA0MI & SYLVESTER SMITH SENIOR LIVING CENTER","POP_AT_RISK":38927,"BUSINESS_TYPE":"Residential Real Estate Developer","LEGAL_NAME":"NEW PISGAH MISSIONARY BAPTIST CHURCH","LONGITUDE":-87.65376178752422},
{"STATE":"IL","ZIP":60637,"LATTITUDE":41.794283590214235,"ADDRESS":"119 E GARFIELD BLVD 1ST ","YEAR":2011,"DOING_BUSINESS_AS_NAME":"K.L.E.O. COMMUNITY FAMILY LIFE CENTER","POP_AT_RISK":25565,"BUSINESS_TYPE":"Residential Real Estate Developer","LEGAL_NAME":"K.L.E.O. COMMUNITY FAMILY LIFE CENTER","LONGITUDE":-87.62155335523457},
{"STATE":"IL","ZIP":60609,"LATTITUDE":41.81274742437032,"ADDRESS":"4450 S MORGAN ST 1 ","YEAR":2011,"DOING_BUSINESS_AS_NAME":"RIVERBEND REAL ESTATE INVESTMENTS LLC","POP_AT_RISK":112250,"BUSINESS_TYPE":"Residential Real Estate Developer","LEGAL_NAME":"RIVERBEND REAL ESTATE INVESTMENTS LLC","LONGITUDE":-87.65066589354052},
{"STATE":"IL","ZIP":60617,"LATTITUDE":41.722443868825785,"ADDRESS":"2251 E 95TH ST 1ST 2","YEAR":2011,"DOING_BUSINESS_AS_NAME":"IDP","POP_AT_RISK":19461,"BUSINESS_TYPE":"Residential Real Estate Developer","LEGAL_NAME":"INNOVATIVE DEVELOPMENT PROFESSIONALS, INC.","LONGITUDE":-87.56853656272507},
{"STATE":"IL","ZIP":60620,"LATTITUDE":41.75038804576943,"ADDRESS":"1159 W 79TH ST 1 ","YEAR":2011,"DOING_BUSINESS_AS_NAME":"GREATER AUBURN-GRESHAM DEVELOPMENT CORPORATION","POP_AT_RISK":42826,"BUSINESS_TYPE":"Residential Real Estate Developer","LEGAL_NAME":"GREATER AUBURN-GRESHAM DEVELOPMENT CORPORATION","LONGITUDE":-87.65367505738665},
{"STATE":"IL","ZIP":60623,"LATTITUDE":41.85204612105239,"ADDRESS":"3843 W OGDEN AVE 1ST ","YEAR":2011,"DOING_BUSINESS_AS_NAME":"STRENGTH TOGETHER EVERLASTING LOVING LAWNDALE ALWAYS STELLA LLC","POP_AT_RISK":606879,"BUSINESS_TYPE":"Residential Real Estate Developer","LEGAL_NAME":"STRENGTH TOGETHER EVERLASTING LOVING LAWNDALE ALWAYS STELLA LLC","LONGITUDE":-87.721511511487},
}