{
{"STATE":"IL","ZIP":60622,"LATTITUDE":41.89591242187647,"ADDRESS":"2234 W CHICAGO AVE 1ST ","YEAR":2005,"DOING_BUSINESS_AS_NAME":"UKRAINIAN AMERICAN CLUB","POP_AT_RISK":1144100,"BUSINESS_TYPE":"Not-For-Profit Club","LEGAL_NAME":"UKRAINIAN AMERICAN CLUB","LONGITUDE":-87.68336605865775},
{"STATE":"IL","ZIP":60629,"LATTITUDE":41.78115807340603,"ADDRESS":"6136 S PULASKI RD # 1ST","YEAR":2005,"DOING_BUSINESS_AS_NAME":"O'DONNELL-EDDY-FLOSS POST 714","POP_AT_RISK":214288,"BUSINESS_TYPE":"Not-For-Profit Club","LEGAL_NAME":"O'DONNELL-EDDY-FLOSS POST 714","LONGITUDE":-87.72297770339657},
{"STATE":"IL","ZIP":60643,"LATTITUDE":41.68496429743599,"ADDRESS":"1462 W 115TH ST  ","YEAR":2005,"DOING_BUSINESS_AS_NAME":"CHICAGO EXECUTIVE GOLF CLUB","POP_AT_RISK":140922,"BUSINESS_TYPE":"Not-For-Profit Club","LEGAL_NAME":"CHICAGO EXECUTIVE GOLF CLUB, INC.","LONGITUDE":-87.65913315155088},
{"STATE":"IL","ZIP":60647,"LATTITUDE":41.924971739368274,"ADDRESS":"2538 W FULLERTON AVE  ","YEAR":2005,"DOING_BUSINESS_AS_NAME":"THE NORTH SIDE CONCOURSE ASSOCIATION","POP_AT_RISK":1485744,"BUSINESS_TYPE":"Not-For-Profit Club","LEGAL_NAME":"THE NORTH SIDE CONCOURSE ASSOCIATION","LONGITUDE":-87.69170629891669},
{"STATE":"IL","ZIP":60629,"LATTITUDE":41.7749649984353,"ADDRESS":"6500 S PULASKI RD 1 ","YEAR":2005,"DOING_BUSINESS_AS_NAME":"BALZEKAS MUSEUM OF LITHUANIAN","POP_AT_RISK":93130,"BUSINESS_TYPE":"Not-For-Profit Club","LEGAL_NAME":"BALZEKAS MUSEUM OF LITHUANIAN CULTURE","LONGITUDE":-87.72281222681525},
{"STATE":"IL","ZIP":60623,"LATTITUDE":41.842572203498484,"ADDRESS":"2658 S HAMLIN AVE 1ST ","YEAR":2005,"DOING_BUSINESS_AS_NAME":"MANUEL PEREZ JR POST 1017","POP_AT_RISK":1086266,"BUSINESS_TYPE":"Not-For-Profit Club","LEGAL_NAME":"AMERICAN LEGION MANUEL PEREZ POST 1017","LONGITUDE":-87.71977292662096},
{"STATE":"IL","ZIP":60632,"LATTITUDE":41.807682027157476,"ADDRESS":"4235 W 47TH ST  ","YEAR":2005,"DOING_BUSINESS_AS_NAME":"PFC TED STEMPIEN POST 8821 VFW","POP_AT_RISK":305822,"BUSINESS_TYPE":"Not-For-Profit Club","LEGAL_NAME":"PFC TED M. STEMPIEN POST NO. 8821 VFW, INC.","LONGITUDE":-87.72984725145503},
{"STATE":"IL","ZIP":60619,"LATTITUDE":41.757246515688706,"ADDRESS":"7545-7547 S COTTAGE GROVE AVE 1ST ","YEAR":2005,"DOING_BUSINESS_AS_NAME":"ARABIC TEMPLE #44 INC","POP_AT_RISK":346071,"BUSINESS_TYPE":"Not-For-Profit Club","LEGAL_NAME":"ANCIENT EGYPTIAN ARABIC ORDER NOBLES OF THE MYSTIC SHRINE PRINCE HALL AFFILIATED, ARABIC TEMPLE NO. 44, INC.","LONGITUDE":-87.60521284200343},
}