{
{"STATE":"IL","ZIP":60618,"LATTITUDE":41.961208104753815,"ADDRESS":"3500 W MONTROSE AVE 1 1","YEAR":2010,"DOING_BUSINESS_AS_NAME":"ALFREDO MEJIA","POP_AT_RISK":1361880,"BUSINESS_TYPE":"Mobile Food Dispenser","LEGAL_NAME":"ALFREDO MEJIA","LONGITUDE":-87.71565027290319},
{"STATE":"IL","ZIP":60630,"LATTITUDE":41.980383564676934,"ADDRESS":"5481 N NORTHWEST HWY  ","YEAR":2010,"DOING_BUSINESS_AS_NAME":"MAMA MADE MY LUNCH","POP_AT_RISK":165282,"BUSINESS_TYPE":"Mobile Food Dispenser","LEGAL_NAME":"GINA M. WOLFE","LONGITUDE":-87.77747659864201},
{"STATE":"IL","ZIP":60619,"LATTITUDE":41.73678088319012,"ADDRESS":"1519 E 87TH ST 1 ","YEAR":2010,"DOING_BUSINESS_AS_NAME":"Gianna's Pizza","POP_AT_RISK":257706,"BUSINESS_TYPE":"Mobile Food Dispenser","LEGAL_NAME":"Sandro Boglio","LONGITUDE":-87.5872105740143},
{"STATE":"IL","ZIP":60640,"LATTITUDE":41.963855271914156,"ADDRESS":"4507 N SHERIDAN RD 1ST ","YEAR":2010,"DOING_BUSINESS_AS_NAME":"T B S AFRICAN RESTAURNTS","POP_AT_RISK":66829,"BUSINESS_TYPE":"Mobile Food Dispenser","LEGAL_NAME":"VICTORIA ONAMUSI","LONGITUDE":-87.6546240136517},
{"STATE":"IL","ZIP":60614,"LATTITUDE":41.91820856763485,"ADDRESS":"1008 W ARMITAGE AVE  ","YEAR":2010,"DOING_BUSINESS_AS_NAME":"JA' GRILL","POP_AT_RISK":549459,"BUSINESS_TYPE":"Mobile Food Dispenser","LEGAL_NAME":"BUSTER CRAB, INC.","LONGITUDE":-87.65375768752133},
{"STATE":"IL","ZIP":60608,"LATTITUDE":41.85630665110073,"ADDRESS":"1864 S BLUE ISLAND AVE 1 ","YEAR":2010,"DOING_BUSINESS_AS_NAME":"JOE'S EAT AND GO","POP_AT_RISK":72880,"BUSINESS_TYPE":"Mobile Food Dispenser","LEGAL_NAME":"JOSE REYES IBARRA","LONGITUDE":-87.66265894498154},
{"STATE":"IL","ZIP":60611,"LATTITUDE":41.8990309819517,"ADDRESS":"1 E DELAWARE PL  ","YEAR":2010,"DOING_BUSINESS_AS_NAME":"MORE CUPCAKES","POP_AT_RISK":931476,"BUSINESS_TYPE":"Mobile Food Dispenser","LEGAL_NAME":"MORE CUPCAKES, LLC","LONGITUDE":-87.62819227491326},
{"STATE":"IL","ZIP":60661,"LATTITUDE":41.88173751621169,"ADDRESS":"555 W MADISON ST  ","YEAR":2010,"DOING_BUSINESS_AS_NAME":"ALLSTAR SPORTS BAR & GRILL","POP_AT_RISK":109266,"BUSINESS_TYPE":"Mobile Food Dispenser","LEGAL_NAME":"W Z NO. 555, L.L.C.","LONGITUDE":-87.6418080251031},
{"STATE":"IL","ZIP":60607,"LATTITUDE":41.86951345807196,"ADDRESS":"1220 W TAYLOR ST  ","YEAR":2010,"DOING_BUSINESS_AS_NAME":"TAYLOR MADE PIZZA","POP_AT_RISK":77674,"BUSINESS_TYPE":"Mobile Food Dispenser","LEGAL_NAME":"TAYLOR MADE PIZZA INC.","LONGITUDE":-87.6575526165909},
{"STATE":"IL","ZIP":60614,"LATTITUDE":41.926453319736645,"ADDRESS":"2434-2436 N CLARK ST  ","YEAR":2010,"DOING_BUSINESS_AS_NAME":"THE PASTA BOWL COMPANY","POP_AT_RISK":631340,"BUSINESS_TYPE":"Mobile Food Dispenser","LEGAL_NAME":"THE PASTA BOWL COMPANY","LONGITUDE":-87.64116965214959},
{"STATE":"IL","ZIP":60660,"LATTITUDE":41.990585629172756,"ADDRESS":"5973 N CLARK ST FIRST ","YEAR":2010,"DOING_BUSINESS_AS_NAME":"Gaztro-wagon","POP_AT_RISK":1315731,"BUSINESS_TYPE":"Mobile Food Dispenser","LEGAL_NAME":"Msquared Concept Group ","LONGITUDE":-87.6698696819702},
{"STATE":"IL","ZIP":60629,"LATTITUDE":41.77873184756822,"ADDRESS":"6310 S CALIFORNIA AVE 1 ","YEAR":2010,"DOING_BUSINESS_AS_NAME":"AP DELI","POP_AT_RISK":57928,"BUSINESS_TYPE":"Mobile Food Dispenser","LEGAL_NAME":"TNT RESTAURANTS COMPANY","LONGITUDE":-87.69352927439374},
{"STATE":"IL","ZIP":60619,"LATTITUDE":41.75821527134242,"ADDRESS":"205 E 75TH ST  ","YEAR":2010,"DOING_BUSINESS_AS_NAME":"SOUL VEGETERIAN EAST INCORPORATED","POP_AT_RISK":307760,"BUSINESS_TYPE":"Mobile Food Dispenser","LEGAL_NAME":"SOUL VEGETARIAN EAST INCORPORATED","LONGITUDE":-87.61966976634103},
}