{
{"STATE":"IL","ZIP":60618,"LATTITUDE":41.93930329166491,"ADDRESS":"3646 W BELMONT AVE  STORE","YEAR":2006,"DOING_BUSINESS_AS_NAME":"METRO PETCARE","POP_AT_RISK":67056,"BUSINESS_TYPE":"Kennels and Catteries","LEGAL_NAME":"JAN WILLS","LONGITUDE":-87.71922507502013},
{"STATE":"IL","ZIP":60629,"LATTITUDE":41.77267338910465,"ADDRESS":"6616 S PULASKI RD  STREE","YEAR":2006,"DOING_BUSINESS_AS_NAME":"CLIP JOINT","POP_AT_RISK":81210,"BUSINESS_TYPE":"Kennels and Catteries","LEGAL_NAME":"BRITA JONES","LONGITUDE":-87.7227555337837},
{"STATE":"IL","ZIP":60618,"LATTITUDE":41.95383032223158,"ADDRESS":"3806 W IRVING PARK RD  ","YEAR":2006,"DOING_BUSINESS_AS_NAME":"THE DOG HOUSE","POP_AT_RISK":120948,"BUSINESS_TYPE":"Kennels and Catteries","LEGAL_NAME":"BRANDY PRATT","LONGITUDE":-87.72301289914448},
{"STATE":"IL","ZIP":60638,"LATTITUDE":41.7920723897783,"ADDRESS":"6725 W ARCHER AVE  ","YEAR":2006,"DOING_BUSINESS_AS_NAME":"VIP POODLE SALON","POP_AT_RISK":29615,"BUSINESS_TYPE":"Kennels and Catteries","LEGAL_NAME":"MARY JO KRUK","LONGITUDE":-87.79020446550868},
{"STATE":"IL","ZIP":60629,"LATTITUDE":41.78379850866344,"ADDRESS":"6009 S PULASKI RD 1ST ","YEAR":2006,"DOING_BUSINESS_AS_NAME":"CHICAGO GROOMING PARLOR","POP_AT_RISK":216316,"BUSINESS_TYPE":"Kennels and Catteries","LEGAL_NAME":"ROSA ALVAREZ","LONGITUDE":-87.72275964715965},
{"STATE":"IL","ZIP":60631,"LATTITUDE":42.00276925583087,"ADDRESS":"6702 N NORTHWEST HWY 1ST ","YEAR":2006,"DOING_BUSINESS_AS_NAME":"V I P ALBREED GROOMING","POP_AT_RISK":18918,"BUSINESS_TYPE":"Kennels and Catteries","LEGAL_NAME":"CAPRICE SMITH","LONGITUDE":-87.81636646266041},
{"STATE":"IL","ZIP":60632,"LATTITUDE":41.82453433956464,"ADDRESS":"3789 S ARCHER AVE  ","YEAR":2006,"DOING_BUSINESS_AS_NAME":"BRIGHTON PARK ANIMAL HOSPITAL","POP_AT_RISK":500423,"BUSINESS_TYPE":"Kennels and Catteries","LEGAL_NAME":"ERNESTO PEREZ","LONGITUDE":-87.68699720971264},
{"STATE":"IL","ZIP":60634,"LATTITUDE":41.938076444262066,"ADDRESS":"7500 W BELMONT AVE 1ST ","YEAR":2006,"DOING_BUSINESS_AS_NAME":"POM POM PALACE","POP_AT_RISK":84766,"BUSINESS_TYPE":"Kennels and Catteries","LEGAL_NAME":"JULIE HERBERT","LONGITUDE":-87.81413766781473},
{"STATE":"IL","ZIP":60633,"LATTITUDE":41.65330346047707,"ADDRESS":"13311 S BRANDON AVE 1ST ","YEAR":2006,"DOING_BUSINESS_AS_NAME":"7 SEAS TROPAQUARIUM","POP_AT_RISK":40896,"BUSINESS_TYPE":"Kennels and Catteries","LEGAL_NAME":"ROBERT ELLMAN","LONGITUDE":-87.54576881121099},
{"STATE":"IL","ZIP":60619,"LATTITUDE":41.749340167099085,"ADDRESS":"749 E 80TH ST  ","YEAR":2006,"DOING_BUSINESS_AS_NAME":"THE MASTERS EDGE PET GROOMING SALON","POP_AT_RISK":232608,"BUSINESS_TYPE":"Kennels and Catteries","LEGAL_NAME":"SHEVIN T RUSS","LONGITUDE":-87.60566558065484},
{"STATE":"IL","ZIP":60615,"LATTITUDE":41.8007445275756,"ADDRESS":"5210 S HARPER AVE  ","YEAR":2006,"DOING_BUSINESS_AS_NAME":"HYDE PARK PET INC.","POP_AT_RISK":570080,"BUSINESS_TYPE":"Kennels and Catteries","LEGAL_NAME":"HYDE PARK INC.","LONGITUDE":-87.58922936512862},
{"STATE":"IL","ZIP":60611,"LATTITUDE":41.893341296312244,"ADDRESS":"401 E ONTARIO ST 1 ","YEAR":2006,"DOING_BUSINESS_AS_NAME":"STREETVILLE PET SPA & BOUTIQUE","POP_AT_RISK":115498,"BUSINESS_TYPE":"Kennels and Catteries","LEGAL_NAME":"HYDE PARK INC.","LONGITUDE":-87.61758915120579},
{"STATE":"IL","ZIP":60641,"LATTITUDE":41.93888534188782,"ADDRESS":"4934 W BELMONT AVE 1ST ","YEAR":2006,"DOING_BUSINESS_AS_NAME":"MORGAN CANINE ACADEMY","POP_AT_RISK":347118,"BUSINESS_TYPE":"Kennels and Catteries","LEGAL_NAME":"JAMES R MORGAN","LONGITUDE":-87.7508275072982},
{"STATE":"IL","ZIP":60638,"LATTITUDE":41.777771632322505,"ADDRESS":"5935 W 63RD ST  1","YEAR":2006,"DOING_BUSINESS_AS_NAME":"FEE FEE'S","POP_AT_RISK":18938,"BUSINESS_TYPE":"Kennels and Catteries","LEGAL_NAME":"LAURIE BENNETT","LONGITUDE":-87.77048696136391},
{"STATE":"IL","ZIP":60630,"LATTITUDE":41.96852535557429,"ADDRESS":"6346 W GUNNISON ST  ","YEAR":2006,"DOING_BUSINESS_AS_NAME":"DOG WORLD, INC.","POP_AT_RISK":38286,"BUSINESS_TYPE":"Kennels and Catteries","LEGAL_NAME":"DOG WORLD, INC.","LONGITUDE":-87.78743940246437},
{"STATE":"IL","ZIP":60640,"LATTITUDE":41.967311213619794,"ADDRESS":"1148 W LELAND AVE  ","YEAR":2006,"DOING_BUSINESS_AS_NAME":"SOGGY  PAWS  INC","POP_AT_RISK":67069,"BUSINESS_TYPE":"Kennels and Catteries","LEGAL_NAME":"SOGGY PAWS, INC","LONGITUDE":-87.65948778391727},
{"STATE":"IL","ZIP":60616,"LATTITUDE":41.856163133092736,"ADDRESS":"1912 S STATE ST  ","YEAR":2006,"DOING_BUSINESS_AS_NAME":"SOGGY PAWS, INC.","POP_AT_RISK":29520,"BUSINESS_TYPE":"Kennels and Catteries","LEGAL_NAME":"SOGGY PAWS, INC","LONGITUDE":-87.62731274858525},
{"STATE":"IL","ZIP":60624,"LATTITUDE":41.88995022534283,"ADDRESS":"500 N PULASKI RD  102","YEAR":2006,"DOING_BUSINESS_AS_NAME":"UNITED K-9 INC.","POP_AT_RISK":401775,"BUSINESS_TYPE":"Kennels and Catteries","LEGAL_NAME":"UNITED K-9 INC.","LONGITUDE":-87.72607520391509},
{"STATE":"IL","ZIP":60649,"LATTITUDE":41.751883323857825,"ADDRESS":"2518 E 79TH ST  ","YEAR":2006,"DOING_BUSINESS_AS_NAME":"KITS & KA POODLES PET SALON","POP_AT_RISK":298152,"BUSINESS_TYPE":"Kennels and Catteries","LEGAL_NAME":"NATALIE R. ADAMS","LONGITUDE":-87.56299535958054},
{"STATE":"IL","ZIP":60707,"LATTITUDE":41.90909396170177,"ADDRESS":"6916 W NORTH AVE  ","YEAR":2006,"DOING_BUSINESS_AS_NAME":"LE POOCH SALON","POP_AT_RISK":72654,"BUSINESS_TYPE":"Kennels and Catteries","LEGAL_NAME":"SANDRA S PORRATA","LONGITUDE":-87.79796341179787},
{"STATE":"IL","ZIP":60637,"LATTITUDE":41.76921322872776,"ADDRESS":"361 E 69TH ST 1ST ","YEAR":2006,"DOING_BUSINESS_AS_NAME":"DOGS ONLY GROOMING SALON","POP_AT_RISK":402480,"BUSINESS_TYPE":"Kennels and Catteries","LEGAL_NAME":"ARLETTA M BENNETT","LONGITUDE":-87.61623688906927},
{"STATE":"IL","ZIP":60655,"LATTITUDE":41.69137086814189,"ADDRESS":"11104 S KEDZIE AVE  ","YEAR":2006,"DOING_BUSINESS_AS_NAME":"POSH PET DAY SPA","POP_AT_RISK":72036,"BUSINESS_TYPE":"Kennels and Catteries","LEGAL_NAME":"MELISSA A. HICKEY","LONGITUDE":-87.70096676099419},
{"STATE":"IL","ZIP":60630,"LATTITUDE":41.982698624815235,"ADDRESS":"5572 N ELSTON AVE  ","YEAR":2006,"DOING_BUSINESS_AS_NAME":"DOPA DOGS","POP_AT_RISK":28232,"BUSINESS_TYPE":"Kennels and Catteries","LEGAL_NAME":"TORIANO A SANZONE","LONGITUDE":-87.76412331566713},
{"STATE":"IL","ZIP":60643,"LATTITUDE":41.71080448383775,"ADDRESS":"10035 S WESTERN AVE  1","YEAR":2006,"DOING_BUSINESS_AS_NAME":"BEVERLY PET","POP_AT_RISK":56454,"BUSINESS_TYPE":"Kennels and Catteries","LEGAL_NAME":"AUDREY ANN FISCHER","LONGITUDE":-87.68160723017458},
{"STATE":"IL","ZIP":60608,"LATTITUDE":41.854847223769696,"ADDRESS":"2007 S BLUE ISLAND AVE  ","YEAR":2006,"DOING_BUSINESS_AS_NAME":"DIFFICULT DOGS","POP_AT_RISK":425953,"BUSINESS_TYPE":"Kennels and Catteries","LEGAL_NAME":"BRIDGET A. KNOPICK","LONGITUDE":-87.6635541835748},
{"STATE":"IL","ZIP":60655,"LATTITUDE":41.703470270354465,"ADDRESS":"10429 S KEDZIE AVE 1ST ","YEAR":2006,"DOING_BUSINESS_AS_NAME":"PARK PET SHOP INC","POP_AT_RISK":26161,"BUSINESS_TYPE":"Kennels and Catteries","LEGAL_NAME":"PARK PET SHOP INC.","LONGITUDE":-87.70110404556713},
{"STATE":"IL","ZIP":60659,"LATTITUDE":41.99037818039852,"ADDRESS":"2449 W PETERSON AVE  ","YEAR":2006,"DOING_BUSINESS_AS_NAME":"COMPANIONABILITY","POP_AT_RISK":58967,"BUSINESS_TYPE":"Kennels and Catteries","LEGAL_NAME":"COMPANIONABLITY LLC","LONGITUDE":-87.69164556774892},
{"STATE":"IL","ZIP":60656,"LATTITUDE":41.98051888929613,"ADDRESS":"7040 W HIGGINS AVE  ","YEAR":2006,"DOING_BUSINESS_AS_NAME":"CANINE CORRAL","POP_AT_RISK":59228,"BUSINESS_TYPE":"Kennels and Catteries","LEGAL_NAME":"NICOLE LYNN CARFORA","LONGITUDE":-87.8036948531878},
{"STATE":"IL","ZIP":60605,"LATTITUDE":41.86495006886034,"ADDRESS":"1329 S MICHIGAN AVE  ","YEAR":2006,"DOING_BUSINESS_AS_NAME":"PET PARTICULARS LLC","POP_AT_RISK":39491,"BUSINESS_TYPE":"Kennels and Catteries","LEGAL_NAME":"PET PARTICULARS LLC","LONGITUDE":-87.6239479040354},
{"STATE":"IL","ZIP":60647,"LATTITUDE":41.91347165926542,"ADDRESS":"1757 N KIMBALL AVE  ","YEAR":2006,"DOING_BUSINESS_AS_NAME":"FOR DOGS SAKE","POP_AT_RISK":581320,"BUSINESS_TYPE":"Kennels and Catteries","LEGAL_NAME":"FOR DOG'S SAKE, INC.","LONGITUDE":-87.7116469589254},
{"STATE":"IL","ZIP":60646,"LATTITUDE":41.986481135652845,"ADDRESS":"5759 N NAGLE AVE  60646","YEAR":2006,"DOING_BUSINESS_AS_NAME":"RUB -A - DUB DOG, INC","POP_AT_RISK":72628,"BUSINESS_TYPE":"Kennels and Catteries","LEGAL_NAME":"RUB - A- DUB DOG, UNC","LONGITUDE":-87.78752100299114},
{"STATE":"IL","ZIP":60652,"LATTITUDE":41.74602291961784,"ADDRESS":"8057 S CICERO AVE  ","YEAR":2006,"DOING_BUSINESS_AS_NAME":"PET LUV PET CENTER INC","POP_AT_RISK":80444,"BUSINESS_TYPE":"Kennels and Catteries","LEGAL_NAME":"PET LUV PET CENTER INC","LONGITUDE":-87.7411015602688},
{"STATE":"IL","ZIP":60645,"LATTITUDE":42.017295118461554,"ADDRESS":"7448 N WESTERN AVE  ","YEAR":2006,"DOING_BUSINESS_AS_NAME":"DOG SPLASH","POP_AT_RISK":99670,"BUSINESS_TYPE":"Kennels and Catteries","LEGAL_NAME":"WINDY CITY TAILS, INC.","LONGITUDE":-87.6903452644412},
{"STATE":"IL","ZIP":60625,"LATTITUDE":41.968644613011605,"ADDRESS":"2752 W LAWRENCE AVE  ","YEAR":2006,"DOING_BUSINESS_AS_NAME":"ALL PHASES DOG TRAINING","POP_AT_RISK":135840,"BUSINESS_TYPE":"Kennels and Catteries","LEGAL_NAME":"ADRIAN ALEJANDRO MORENO","LONGITUDE":-87.69828568537154},
{"STATE":"IL","ZIP":60609,"LATTITUDE":41.83084736424192,"ADDRESS":"824 W 35TH ST  1","YEAR":2006,"DOING_BUSINESS_AS_NAME":"BRIDGEPORT PET BOUTIQUE","POP_AT_RISK":412808,"BUSINESS_TYPE":"Kennels and Catteries","LEGAL_NAME":"BRIDGEPORT PET BOUTIQUE","LONGITUDE":-87.64710286653462},
{"STATE":"IL","ZIP":60617,"LATTITUDE":41.74520313210401,"ADDRESS":"8227 S STONY ISLAND AVE  ","YEAR":2006,"DOING_BUSINESS_AS_NAME":"PET SALON","POP_AT_RISK":124212,"BUSINESS_TYPE":"Kennels and Catteries","LEGAL_NAME":"CECELIA S BROADUS-JONES","LONGITUDE":-87.5852403134437},
{"STATE":"IL","ZIP":60612,"LATTITUDE":41.8842379856099,"ADDRESS":"2916 W LAKE ST  ","YEAR":2006,"DOING_BUSINESS_AS_NAME":"ACTION K-9 SECURITY, INC","POP_AT_RISK":88518,"BUSINESS_TYPE":"Kennels and Catteries","LEGAL_NAME":"ACTION K-9 SECURITY, INC","LONGITUDE":-87.69957175448842},
{"STATE":"IL","ZIP":60660,"LATTITUDE":41.99028553512525,"ADDRESS":"5943 N BROADWAY  1 1","YEAR":2006,"DOING_BUSINESS_AS_NAME":"BARK BARK CLUB PET SERVICES","POP_AT_RISK":198594,"BUSINESS_TYPE":"Kennels and Catteries","LEGAL_NAME":"THE BARK BARK CLUB, INC.","LONGITUDE":-87.66012791212042},
{"STATE":"IL","ZIP":60639,"LATTITUDE":41.91316403773453,"ADDRESS":"1760 N KILBOURN AVE  ","YEAR":2006,"DOING_BUSINESS_AS_NAME":"ALL FOR DOGGIES","POP_AT_RISK":543158,"BUSINESS_TYPE":"Kennels and Catteries","LEGAL_NAME":"BEST FRIENDS PET CARE INC","LONGITUDE":-87.73883770160896},
{"STATE":"IL","ZIP":60626,"LATTITUDE":42.01594338357489,"ADDRESS":"1447 W JARVIS AVE  ","YEAR":2006,"DOING_BUSINESS_AS_NAME":"ROGERS BARK PET SALON INC","POP_AT_RISK":373776,"BUSINESS_TYPE":"Kennels and Catteries","LEGAL_NAME":"ROGERS BARK PET SALON INC","LONGITUDE":-87.66796786700539},
{"STATE":"IL","ZIP":60631,"LATTITUDE":42.011790966822375,"ADDRESS":"7236 W TOUHY AVE 1ST ","YEAR":2006,"DOING_BUSINESS_AS_NAME":"PAW & CLAW CAT GROOMING","POP_AT_RISK":38320,"BUSINESS_TYPE":"Kennels and Catteries","LEGAL_NAME":"CAROLE RINKO & DIANA DEMPSEY","LONGITUDE":-87.8080824261318},
{"STATE":"IL","ZIP":60652,"LATTITUDE":41.74989212589121,"ADDRESS":"3410 W 79TH ST 1ST ","YEAR":2006,"DOING_BUSINESS_AS_NAME":"DOGGONE RITE","POP_AT_RISK":100620,"BUSINESS_TYPE":"Kennels and Catteries","LEGAL_NAME":"DONALD CHRISTIE\/CONSTANCE BINION","LONGITUDE":-87.70776145105862},
}