{
{"STATE":"IL","ZIP":60633,"LATTITUDE":41.65194427975236,"ADDRESS":"13359 S BALTIMORE AVE 1 ","YEAR":2011,"DOING_BUSINESS_AS_NAME":"LEON'S AUTO SERVICE","POP_AT_RISK":13632,"BUSINESS_TYPE":"Motor Vehicle Repair : Engine Only (Class II)","LEGAL_NAME":"RAMON LEON","LONGITUDE":-87.54701057671743},
{"STATE":"IL","ZIP":60827,"LATTITUDE":41.64661613548738,"ADDRESS":"13701 S INDIANA AVE 1ST ","YEAR":2011,"DOING_BUSINESS_AS_NAME":"TRIANGLE SERVICE","POP_AT_RISK":17826,"BUSINESS_TYPE":"Motor Vehicle Repair : Engine Only (Class II)","LEGAL_NAME":"GUS KATSENIS","LONGITUDE":-87.61708342711016},
{"STATE":"IL","ZIP":60649,"LATTITUDE":41.75175303175989,"ADDRESS":"2801 E 79TH ST  ","YEAR":2011,"DOING_BUSINESS_AS_NAME":"GOOD SAMARITAN AUTO REPAIR","POP_AT_RISK":87342,"BUSINESS_TYPE":"Motor Vehicle Repair : Engine Only (Class II)","LEGAL_NAME":"JACQUES EUGENE","LONGITUDE":-87.55648045726758},
{"STATE":"IL","ZIP":60645,"LATTITUDE":42.017450130876114,"ADDRESS":"7501 N WESTERN AVE 1 ","YEAR":2011,"DOING_BUSINESS_AS_NAME":"MIDAS","POP_AT_RISK":49835,"BUSINESS_TYPE":"Motor Vehicle Repair : Engine Only (Class II)","LEGAL_NAME":"WESTERN 4, INC.","LONGITUDE":-87.69004936866926},
{"STATE":"IL","ZIP":60638,"LATTITUDE":41.774233101541256,"ADDRESS":"6146 W 65TH ST  ","YEAR":2011,"DOING_BUSINESS_AS_NAME":"G&M AUTO REPAIR","POP_AT_RISK":22742,"BUSINESS_TYPE":"Motor Vehicle Repair : Engine Only (Class II)","LEGAL_NAME":"ANTONIO MANDUJANO","LONGITUDE":-87.77566323830037},
{"STATE":"IL","ZIP":60655,"LATTITUDE":41.6857048697285,"ADDRESS":"11400 S PULASKI RD  ","YEAR":2011,"DOING_BUSINESS_AS_NAME":"MCCARTHY FORD INC","POP_AT_RISK":94240,"BUSINESS_TYPE":"Motor Vehicle Repair : Engine Only (Class II)","LEGAL_NAME":"MCCARTHY FORD, INC","LONGITUDE":-87.72026357236545},
{"STATE":"IL","ZIP":60637,"LATTITUDE":41.77304782188627,"ADDRESS":"6700 S COTTAGE GROVE AVE  ","YEAR":2011,"DOING_BUSINESS_AS_NAME":"CITGO FUEL & MINI MART","POP_AT_RISK":37162,"BUSINESS_TYPE":"Motor Vehicle Repair : Engine Only (Class II)","LEGAL_NAME":"COTTAGE CITGO, INC.","LONGITUDE":-87.6059130528716},
{"STATE":"IL","ZIP":60653,"LATTITUDE":41.81668404083808,"ADDRESS":"4256 S MICHIGAN AVE  ","YEAR":2011,"DOING_BUSINESS_AS_NAME":"QUICK AND FAIR AUTO","POP_AT_RISK":28851,"BUSINESS_TYPE":"Motor Vehicle Repair : Engine Only (Class II)","LEGAL_NAME":"S AND D SALES, INC.","LONGITUDE":-87.6231801307422},
{"STATE":"IL","ZIP":60656,"LATTITUDE":41.980383034707465,"ADDRESS":"7045 W HIGGINS AVE 1ST ","YEAR":2011,"DOING_BUSINESS_AS_NAME":"AUTOPOL CAR CARE, INC.","POP_AT_RISK":59228,"BUSINESS_TYPE":"Motor Vehicle Repair : Engine Only (Class II)","LEGAL_NAME":"AUTOPOL CAR CARE INC","LONGITUDE":-87.80412335118584},
{"STATE":"IL","ZIP":60644,"LATTITUDE":41.86945257139332,"ADDRESS":"4727 W ARTHINGTON ST 1 ","YEAR":2011,"DOING_BUSINESS_AS_NAME":"CHI-TOWN DONKS, INC.","POP_AT_RISK":83912,"BUSINESS_TYPE":"Motor Vehicle Repair : Engine Only (Class II)","LEGAL_NAME":"CHI-TOWN DONKS, INC.","LONGITUDE":-87.74353457172718},
{"STATE":"IL","ZIP":60631,"LATTITUDE":42.01180468633577,"ADDRESS":"7200 N HARLEM AVE 1ST ","YEAR":2011,"DOING_BUSINESS_AS_NAME":"JIFFY LUBE #1160","POP_AT_RISK":35576,"BUSINESS_TYPE":"Motor Vehicle Repair : Engine Only (Class II)","LEGAL_NAME":"PJR ENTERPRISES INC.","LONGITUDE":-87.80678440617095},
{"STATE":"IL","ZIP":60631,"LATTITUDE":42.000104228399934,"ADDRESS":"6571 N OLMSTED AVE  ","YEAR":2011,"DOING_BUSINESS_AS_NAME":"E K AUTOMOTIVE  LTD","POP_AT_RISK":21690,"BUSINESS_TYPE":"Motor Vehicle Repair : Engine Only (Class II)","LEGAL_NAME":"EK AUTOMOTIVE LIMITED","LONGITUDE":-87.8132939597512},
{"STATE":"IL","ZIP":60607,"LATTITUDE":41.86736266976161,"ADDRESS":"510 W ROOSEVELT RD 1ST ","YEAR":2011,"DOING_BUSINESS_AS_NAME":"MIDAS AUTO SERVICES EXPERTS","POP_AT_RISK":31157,"BUSINESS_TYPE":"Motor Vehicle Repair : Engine Only (Class II)","LEGAL_NAME":"POP'S AUTO SERVICE, INC.","LONGITUDE":-87.63971619649821},
{"STATE":"IL","ZIP":60616,"LATTITUDE":41.831303366547964,"ADDRESS":"460 E 35TH ST 1 ","YEAR":2011,"DOING_BUSINESS_AS_NAME":"BRONZEVILLE AUTO REPAIR","POP_AT_RISK":60228,"BUSINESS_TYPE":"Motor Vehicle Repair : Engine Only (Class II)","LEGAL_NAME":"LINDSAY ENTERPRISES, INC.","LONGITUDE":-87.61461418521799},
{"STATE":"IL","ZIP":60649,"LATTITUDE":41.76779095632842,"ADDRESS":"7000 S STONY ISLAND AVE  1","YEAR":2011,"DOING_BUSINESS_AS_NAME":"PIT STOP 500","POP_AT_RISK":37197,"BUSINESS_TYPE":"Motor Vehicle Repair : Engine Only (Class II)","LEGAL_NAME":"NATIONAL LUBE SYSTEMS INC","LONGITUDE":-87.58651631889869},
{"STATE":"IL","ZIP":60646,"LATTITUDE":41.996166547688986,"ADDRESS":"6301 N CENTRAL AVE  ","YEAR":2011,"DOING_BUSINESS_AS_NAME":"CENTRAL AND CALDWELL SERVICE","POP_AT_RISK":17956,"BUSINESS_TYPE":"Motor Vehicle Repair : Engine Only (Class II)","LEGAL_NAME":"CENTRAL AND CALDWELL SERVICE","LONGITUDE":-87.76404923745231},
{"STATE":"IL","ZIP":60614,"LATTITUDE":41.93280849685226,"ADDRESS":"824 W DIVERSEY PKWY  ","YEAR":2011,"DOING_BUSINESS_AS_NAME":"WM J CASSIDY TIRE & AUTO","POP_AT_RISK":170658,"BUSINESS_TYPE":"Motor Vehicle Repair : Engine Only (Class II)","LEGAL_NAME":"WM. J. CASSIDY TIRE & AUTO SUPPLY CO.","LONGITUDE":-87.65000549071719},
{"STATE":"IL","ZIP":60644,"LATTITUDE":41.88003805622556,"ADDRESS":"5827 W MADISON ST 1 ","YEAR":2011,"DOING_BUSINESS_AS_NAME":"AUTO REPAIR MUFFLERS & BRAKES FOR LESS","POP_AT_RISK":49686,"BUSINESS_TYPE":"Motor Vehicle Repair : Engine Only (Class II)","LEGAL_NAME":"AUTO REPAIR MUFFLERS & BRAKES FOR LESS, INC.","LONGITUDE":-87.77090308723896},
}