{
{"STATE":"IL","ZIP":60827,"LATTITUDE":41.645726299947334,"ADDRESS":"313 E 137TH ST 2 7","YEAR":2009,"DOING_BUSINESS_AS_NAME":"NIKITA WHITE","POP_AT_RISK":29698,"BUSINESS_TYPE":"Street Performer","LEGAL_NAME":"NIKITA WHITE","LONGITUDE":-87.61426912253975},
{"STATE":"IL","ZIP":60609,"LATTITUDE":41.79624808776697,"ADDRESS":"5347 S WOOD ST 1ST #","YEAR":2009,"DOING_BUSINESS_AS_NAME":"CECIL D LOCKE","POP_AT_RISK":146643,"BUSINESS_TYPE":"Street Performer","LEGAL_NAME":"CECIL D LOCKE","LONGITUDE":-87.66936060628221},
{"STATE":"IL","ZIP":60629,"LATTITUDE":41.784872979683584,"ADDRESS":"5944 S SPAULDING AVE  ","YEAR":2009,"DOING_BUSINESS_AS_NAME":"CORDERO CLARK","POP_AT_RISK":129142,"BUSINESS_TYPE":"Street Performer","LEGAL_NAME":"CORDERO CLARK","LONGITUDE":-87.70587445857451},
{"STATE":"IL","ZIP":60653,"LATTITUDE":41.82949170098098,"ADDRESS":"3556 S GILES AVE 1ST ","YEAR":2009,"DOING_BUSINESS_AS_NAME":"DASHAUN LOUIS","POP_AT_RISK":64908,"BUSINESS_TYPE":"Street Performer","LEGAL_NAME":"DASHAUN LOUIS","LONGITUDE":-87.61944530498445},
{"STATE":"IL","ZIP":60629,"LATTITUDE":41.76051931731633,"ADDRESS":"7310 S CALIFORNIA AVE  ","YEAR":2009,"DOING_BUSINESS_AS_NAME":"MARK R. NAMBO","POP_AT_RISK":32897,"BUSINESS_TYPE":"Street Performer","LEGAL_NAME":"MARK R. NAMBO","LONGITUDE":-87.69306260727865},
{"STATE":"IL","ZIP":60643,"LATTITUDE":41.70268036825839,"ADDRESS":"10500 S BELL AVE  ","YEAR":2009,"DOING_BUSINESS_AS_NAME":"SUSSAN NAVABI","POP_AT_RISK":22491,"BUSINESS_TYPE":"Street Performer","LEGAL_NAME":"SUSSAN NAVABI","LONGITUDE":-87.67800236263294},
{"STATE":"IL","ZIP":60651,"LATTITUDE":41.90040443233004,"ADDRESS":"1042 N ST LOUIS AVE  ","YEAR":2009,"DOING_BUSINESS_AS_NAME":"JAMES G. SINGH","POP_AT_RISK":42415,"BUSINESS_TYPE":"Street Performer","LEGAL_NAME":"JAMES G. SINGH","LONGITUDE":-87.7141847487972},
{"STATE":"IL","ZIP":60653,"LATTITUDE":41.81922851271394,"ADDRESS":"401 E BOWEN AVE  2001","YEAR":2009,"DOING_BUSINESS_AS_NAME":"JAMES H  WATSON","POP_AT_RISK":34249,"BUSINESS_TYPE":"Street Performer","LEGAL_NAME":"JAMES H WATSON","LONGITUDE":-87.61645177529466},
{"STATE":"IL","ZIP":60649,"LATTITUDE":41.7569550234695,"ADDRESS":"7621 S EXCHANGE AVE  ","YEAR":2009,"DOING_BUSINESS_AS_NAME":"KEVIN CALDWELL","POP_AT_RISK":33316,"BUSINESS_TYPE":"Street Performer","LEGAL_NAME":"KEVIN CALDWELL","LONGITUDE":-87.55752139032788},
{"STATE":"IL","ZIP":60656,"LATTITUDE":41.97776488462049,"ADDRESS":"7135 W SUMMERDALE AVE  ","YEAR":2009,"DOING_BUSINESS_AS_NAME":"LORRAINE RUNGE","POP_AT_RISK":88842,"BUSINESS_TYPE":"Street Performer","LEGAL_NAME":"LORRAINE RUNGE","LONGITUDE":-87.80614694151342},
{"STATE":"IL","ZIP":60659,"LATTITUDE":41.994949015821724,"ADDRESS":"6243 N SPRINGFIELD AVE HSE ","YEAR":2009,"DOING_BUSINESS_AS_NAME":"DANIEL A. GOODE","POP_AT_RISK":50156,"BUSINESS_TYPE":"Street Performer","LEGAL_NAME":"DANIEL A. GOODE","LONGITUDE":-87.72627487106308},
{"STATE":"IL","ZIP":60632,"LATTITUDE":41.80170583371649,"ADDRESS":"5019 S KEDVALE AVE 1 ","YEAR":2009,"DOING_BUSINESS_AS_NAME":"ELIZABETH REYES","POP_AT_RISK":37282,"BUSINESS_TYPE":"Street Performer","LEGAL_NAME":"ELIZABETH REYES","LONGITUDE":-87.72693243151122},
{"STATE":"IL","ZIP":60623,"LATTITUDE":41.84993978663453,"ADDRESS":"2855 W 23RD ST  ","YEAR":2009,"DOING_BUSINESS_AS_NAME":"VALDEMAR AMBRIZ","POP_AT_RISK":132880,"BUSINESS_TYPE":"Street Performer","LEGAL_NAME":"VALDEMAR AMBRIZ","LONGITUDE":-87.69773501970995},
{"STATE":"IL","ZIP":60644,"LATTITUDE":41.876861247072966,"ADDRESS":"4908 W JACKSON BLVD 2ND ","YEAR":2009,"DOING_BUSINESS_AS_NAME":"BENJAMIN SANDERS","POP_AT_RISK":112119,"BUSINESS_TYPE":"Street Performer","LEGAL_NAME":"BENJAMIN SANDERS","LONGITUDE":-87.74774722698577},
{"STATE":"IL","ZIP":60637,"LATTITUDE":41.78383977231094,"ADDRESS":"6100 S EBERHART AVE  1E","YEAR":2009,"DOING_BUSINESS_AS_NAME":"GREGORY HARDISON","POP_AT_RISK":58900,"BUSINESS_TYPE":"Street Performer","LEGAL_NAME":"GREGORY HARDISON","LONGITUDE":-87.61342912782804},
{"STATE":"IL","ZIP":60608,"LATTITUDE":41.83589731247442,"ADDRESS":"3205 S THROOP ST  ","YEAR":2009,"DOING_BUSINESS_AS_NAME":"JOEL ALLYN SKODA","POP_AT_RISK":39117,"BUSINESS_TYPE":"Street Performer","LEGAL_NAME":"JOEL ALLYN SKODA","LONGITUDE":-87.65823625389723},
{"STATE":"IL","ZIP":60617,"LATTITUDE":41.71100945109014,"ADDRESS":"10132 S EWING AVE  ","YEAR":2009,"DOING_BUSINESS_AS_NAME":"JOHN JOSEPH TAUS","POP_AT_RISK":98635,"BUSINESS_TYPE":"Street Performer","LEGAL_NAME":"JOHN JOSEPH TAUS","LONGITUDE":-87.5354279549906},
{"STATE":"IL","ZIP":60629,"LATTITUDE":41.7755330983029,"ADDRESS":"6437 S KILPATRICK AVE  ","YEAR":2009,"DOING_BUSINESS_AS_NAME":"LEONEL LOEZA JR.","POP_AT_RISK":47070,"BUSINESS_TYPE":"Street Performer","LEGAL_NAME":"LEONEL LOEZA JR.","LONGITUDE":-87.73961115561566},
{"STATE":"IL","ZIP":60633,"LATTITUDE":41.65222326783358,"ADDRESS":"13348 S BUFFALO AVE  ","YEAR":2009,"DOING_BUSINESS_AS_NAME":"ROSEANN M SHEICK","POP_AT_RISK":10834,"BUSINESS_TYPE":"Street Performer","LEGAL_NAME":"ROSEANN M SHEICK","LONGITUDE":-87.54366037943814},
{"STATE":"IL","ZIP":60617,"LATTITUDE":41.72173971187443,"ADDRESS":"9525 S CLYDE AVE 1 ","YEAR":2009,"DOING_BUSINESS_AS_NAME":"JANE WRIGHT","POP_AT_RISK":125574,"BUSINESS_TYPE":"Street Performer","LEGAL_NAME":"JANE MARIE WRIGHT","LONGITUDE":-87.57155310349063},
{"STATE":"IL","ZIP":60628,"LATTITUDE":41.703684473874304,"ADDRESS":"739 E 105TH ST  ","YEAR":2009,"DOING_BUSINESS_AS_NAME":"LARRY LEE STEWART","POP_AT_RISK":60927,"BUSINESS_TYPE":"Street Performer","LEGAL_NAME":"LARRY LEE STEWART","LONGITUDE":-87.6047419252213},
{"STATE":"IL","ZIP":60630,"LATTITUDE":41.980383564676934,"ADDRESS":"5481 N NORTHWEST HWY 2ND 2","YEAR":2009,"DOING_BUSINESS_AS_NAME":"LISA L. JANOSCHKA","POP_AT_RISK":27547,"BUSINESS_TYPE":"Street Performer","LEGAL_NAME":"LISA L. JANOSCHKA","LONGITUDE":-87.77747659864201},
{"STATE":"IL","ZIP":60638,"LATTITUDE":41.7975340108513,"ADDRESS":"5200 S NORDICA AVE  ","YEAR":2009,"DOING_BUSINESS_AS_NAME":"MICHAEL P. MOLARO","POP_AT_RISK":15607,"BUSINESS_TYPE":"Street Performer","LEGAL_NAME":"MICHAEL P. MOLARO","LONGITUDE":-87.79802113918083},
{"STATE":"IL","ZIP":60619,"LATTITUDE":41.746428470673344,"ADDRESS":"8141 S DREXEL AVE  ","YEAR":2009,"DOING_BUSINESS_AS_NAME":"BOBBY L. DAVIS III","POP_AT_RISK":33345,"BUSINESS_TYPE":"Street Performer","LEGAL_NAME":"BOBBY L. DAVIS III","LONGITUDE":-87.60246986693186},
{"STATE":"IL","ZIP":60638,"LATTITUDE":41.79891753389088,"ADDRESS":"5122 S NEENAH AVE 1 ","YEAR":2009,"DOING_BUSINESS_AS_NAME":"JASON A. MC DANIEL","POP_AT_RISK":49396,"BUSINESS_TYPE":"Street Performer","LEGAL_NAME":"JASON A. MC DANIEL","LONGITUDE":-87.78581437893766},
{"STATE":"IL","ZIP":60655,"LATTITUDE":41.70948554607259,"ADDRESS":"10115 S TALMAN AVE  ","YEAR":2009,"DOING_BUSINESS_AS_NAME":"JOHN JOSEPH AMBRIZ","POP_AT_RISK":22669,"BUSINESS_TYPE":"Street Performer","LEGAL_NAME":"JOHN JOSEPH AMBRIZ","LONGITUDE":-87.68774043845052},
{"STATE":"IL","ZIP":60651,"LATTITUDE":41.90769083902858,"ADDRESS":"1505 N MONITOR AVE  ","YEAR":2009,"DOING_BUSINESS_AS_NAME":"ABRAHAM GLADNEY JR.","POP_AT_RISK":226200,"BUSINESS_TYPE":"Street Performer","LEGAL_NAME":"ABRAHAM GLADNEY JR.","LONGITUDE":-87.77176581908103},
{"STATE":"IL","ZIP":60628,"LATTITUDE":41.693982121732034,"ADDRESS":"11008 S NORMAL AVE  ","YEAR":2009,"DOING_BUSINESS_AS_NAME":"EUGENE S. LOGAN III","POP_AT_RISK":102879,"BUSINESS_TYPE":"Street Performer","LEGAL_NAME":"EUGENE S. LOGAN III","LONGITUDE":-87.63533329646631},
{"STATE":"IL","ZIP":60652,"LATTITUDE":41.75030570327475,"ADDRESS":"7827 S KENNETH AVE 1 ","YEAR":2009,"DOING_BUSINESS_AS_NAME":"JAMES PATRICK SHINE","POP_AT_RISK":52248,"BUSINESS_TYPE":"Street Performer","LEGAL_NAME":"JAMES PATRICK SHINE","LONGITUDE":-87.73275235913809},
{"STATE":"IL","ZIP":60707,"LATTITUDE":41.92467401939218,"ADDRESS":"2431 N NEVA AVE  ","YEAR":2009,"DOING_BUSINESS_AS_NAME":"MATSON DARIUS ADAMS JR.","POP_AT_RISK":252114,"BUSINESS_TYPE":"Street Performer","LEGAL_NAME":"MATSON D. ADAMS, JR","LONGITUDE":-87.80426509000877},
{"STATE":"IN","ZIP":46408,"LATTITUDE":41.87086175134461,"ADDRESS":"3870  POLK ST  ","YEAR":2009,"DOING_BUSINESS_AS_NAME":"RASHON CHEROD DAVIS","POP_AT_RISK":119703,"BUSINESS_TYPE":"Street Performer","LEGAL_NAME":"RASHON CHEROD DAVIS","LONGITUDE":-87.72275837834114},
{"STATE":"IL","ZIP":60612,"LATTITUDE":41.878234851367566,"ADDRESS":"200 S SACRAMENTO BLVD  ","YEAR":2009,"DOING_BUSINESS_AS_NAME":"JIMMIE LEE CARPENTER","POP_AT_RISK":31404,"BUSINESS_TYPE":"Street Performer","LEGAL_NAME":"JIMMIE LEE CARPENTER","LONGITUDE":-87.70127556892912},
{"STATE":"IL","ZIP":60637,"LATTITUDE":41.77536641705357,"ADDRESS":"6546 S EVANS AVE  ","YEAR":2009,"DOING_BUSINESS_AS_NAME":"FRANKLIN LAVEL SPIGHT","POP_AT_RISK":37527,"BUSINESS_TYPE":"Street Performer","LEGAL_NAME":"FRANKLIN LAVEL SPIGHT","LONGITUDE":-87.60721840398274},
{"STATE":"IL","ZIP":60645,"LATTITUDE":42.015606341452845,"ADDRESS":"2739 W JARVIS AVE  ","YEAR":2009,"DOING_BUSINESS_AS_NAME":"JAMAAL ANTHONY MILLER","POP_AT_RISK":43650,"BUSINESS_TYPE":"Street Performer","LEGAL_NAME":"JAMAAL ANTHONY MILLER","LONGITUDE":-87.69890329779751},
{"STATE":"IL","ZIP":60619,"LATTITUDE":41.73645547394651,"ADDRESS":"541 E 87TH ST  ","YEAR":2009,"DOING_BUSINESS_AS_NAME":"JONATHAN K. ST. CLAIR","POP_AT_RISK":202392,"BUSINESS_TYPE":"Street Performer","LEGAL_NAME":"JONATHAN K. ST. CLAIR","LONGITUDE":-87.61043650713029},
{"STATE":"IL","ZIP":60631,"LATTITUDE":41.997447676366924,"ADDRESS":"6502 W DEVON AVE  ","YEAR":2009,"DOING_BUSINESS_AS_NAME":"SHARON DAWN MIDDLETON","POP_AT_RISK":79104,"BUSINESS_TYPE":"Street Performer","LEGAL_NAME":"SHARON DAWN  MIDDLETON","LONGITUDE":-87.79002110020325},
{"STATE":"IL","ZIP":60827,"LATTITUDE":41.655935656403656,"ADDRESS":"1124 E 132ND ST  ","YEAR":2009,"DOING_BUSINESS_AS_NAME":"MICHAEL KERRELL SANDERS","POP_AT_RISK":6482,"BUSINESS_TYPE":"Street Performer","LEGAL_NAME":"MICHAEL KERRELL SANDERS","LONGITUDE":-87.59439222455137},
{"STATE":"IL","ZIP":60632,"LATTITUDE":41.81509374784488,"ADDRESS":"4312 S MOZART ST  ","YEAR":2009,"DOING_BUSINESS_AS_NAME":"XAVIER ALEJANDRO CHAVEZ","POP_AT_RISK":331093,"BUSINESS_TYPE":"Street Performer","LEGAL_NAME":"XAVIER ALEJANDRO CHAVEZ","LONGITUDE":-87.69578802326906},
{"STATE":"IL","ZIP":60649,"LATTITUDE":41.752786519779455,"ADDRESS":"7821 S CHAPPEL AVE  3","YEAR":2009,"DOING_BUSINESS_AS_NAME":"JENNIFER CHRISTINE LOCKE","POP_AT_RISK":41491,"BUSINESS_TYPE":"Street Performer","LEGAL_NAME":"JENNIFER CHRISTINE LOCKE","LONGITUDE":-87.57464288709583},
{"STATE":"IL","ZIP":60644,"LATTITUDE":41.88456163698882,"ADDRESS":"215 N MASON AVE  ","YEAR":2009,"DOING_BUSINESS_AS_NAME":"THEODORE ALFRED THOMPSON","POP_AT_RISK":47116,"BUSINESS_TYPE":"Street Performer","LEGAL_NAME":"THEODORE ALFRED THOMPSON","LONGITUDE":-87.77322157113849},
{"STATE":"IL","ZIP":60639,"LATTITUDE":41.923273966550894,"ADDRESS":"2327 N KILPATRICK AVE  ","YEAR":2009,"DOING_BUSINESS_AS_NAME":"BERNARDO GABRIEL RIVERA LOPEZ","POP_AT_RISK":66957,"BUSINESS_TYPE":"Street Performer","LEGAL_NAME":"BERNARDO GABRIEL RIVERA LOPEZ","LONGITUDE":-87.74369320356091},
}