{
{"STATE":"IL","ZIP":60644,"LATTITUDE":41.87288348920551,"ADDRESS":"5049 W HARRISON ST  ","YEAR":2011,"DOING_BUSINESS_AS_NAME":"GOODCITY NFP","POP_AT_RISK":260064,"BUSINESS_TYPE":"Raffles","LEGAL_NAME":"GOODCITY NFP","LONGITUDE":-87.75117316801726},
{"STATE":"IL","ZIP":60609,"LATTITUDE":41.83075573182985,"ADDRESS":"1110 W 35TH ST  ","YEAR":2011,"DOING_BUSINESS_AS_NAME":"PAWS CHICAGO","POP_AT_RISK":35468,"BUSINESS_TYPE":"Raffles","LEGAL_NAME":"PAWS CHICAGO","LONGITUDE":-87.65387376250175},
{"STATE":"IL","ZIP":60638,"LATTITUDE":41.77646068841604,"ADDRESS":"6949 W 63RD PL  ","YEAR":2011,"DOING_BUSINESS_AS_NAME":"ST. RENE CHURCH","POP_AT_RISK":35086,"BUSINESS_TYPE":"Raffles","LEGAL_NAME":"ST RENE CHURCH","LONGITUDE":-87.79542338880776},
{"STATE":"IL","ZIP":60656,"LATTITUDE":41.97414651684552,"ADDRESS":"7958 W FOSTER AVE  ","YEAR":2011,"DOING_BUSINESS_AS_NAME":"ST EUGENE PARISH","POP_AT_RISK":30869,"BUSINESS_TYPE":"Raffles","LEGAL_NAME":"ST EUGENE PARISH","LONGITUDE":-87.82661094516166},
{"STATE":"IL","ZIP":60629,"LATTITUDE":41.770988165331374,"ADDRESS":"6727 S CALIFORNIA AVE 1ST ","YEAR":2011,"DOING_BUSINESS_AS_NAME":"MARIA HIGH SCHOOL","POP_AT_RISK":51740,"BUSINESS_TYPE":"Raffles","LEGAL_NAME":"MARIA HIGH SCHOOL","LONGITUDE":-87.69303861104268},
{"STATE":"IL","ZIP":60655,"LATTITUDE":41.68968408623634,"ADDRESS":"2445 W 112TH ST  ","YEAR":2011,"DOING_BUSINESS_AS_NAME":"St. Cajetan Church","POP_AT_RISK":86688,"BUSINESS_TYPE":"Raffles","LEGAL_NAME":"ST CAJETAN SCHOOL","LONGITUDE":-87.68297685867329},
{"STATE":"IL","ZIP":60631,"LATTITUDE":41.995875469571075,"ADDRESS":"6323 N NEWCASTLE AVE  ","YEAR":2011,"DOING_BUSINESS_AS_NAME":"ST THECLA SCHOOL","POP_AT_RISK":18239,"BUSINESS_TYPE":"Raffles","LEGAL_NAME":"ST. THECLA SCHOOL","LONGITUDE":-87.79675620156237},
{"STATE":"IL","ZIP":60649,"LATTITUDE":41.7589165985037,"ADDRESS":"2515 E 75TH ST 1ST 1","YEAR":2011,"DOING_BUSINESS_AS_NAME":"THE ISRAEL OF GOD","POP_AT_RISK":250764,"BUSINESS_TYPE":"Raffles","LEGAL_NAME":"The Israel Of God","LONGITUDE":-87.56327320306809},
{"STATE":"IL","ZIP":60637,"LATTITUDE":41.78420897848061,"ADDRESS":"950 E 61ST ST 1 ","YEAR":2011,"DOING_BUSINESS_AS_NAME":"PROJECT EXPLORATION","POP_AT_RISK":74834,"BUSINESS_TYPE":"Raffles","LEGAL_NAME":"PROJECT EXPLORATION","LONGITUDE":-87.60238292698212},
{"STATE":"IL","ZIP":60621,"LATTITUDE":41.79380108969137,"ADDRESS":"843 W GARFIELD BLVD  ","YEAR":2011,"DOING_BUSINESS_AS_NAME":"ST BASIL VISITATION","POP_AT_RISK":382998,"BUSINESS_TYPE":"Raffles","LEGAL_NAME":"ST BASIL VISITATION","LONGITUDE":-87.64688314723936},
{"STATE":"IL","ZIP":60634,"LATTITUDE":41.94528537982695,"ADDRESS":"6949 W ADDISON ST  ","YEAR":2011,"DOING_BUSINESS_AS_NAME":"ST. PRISCILLA PARISH","POP_AT_RISK":88884,"BUSINESS_TYPE":"Raffles","LEGAL_NAME":"ST PRISCILLA PARISH","LONGITUDE":-87.80026504673488},
{"STATE":"IL","ZIP":60655,"LATTITUDE":41.69311327967713,"ADDRESS":"11005 S HOMAN AVE  ","YEAR":2011,"DOING_BUSINESS_AS_NAME":"ST. CHRISTINA PARISH","POP_AT_RISK":50040,"BUSINESS_TYPE":"Raffles","LEGAL_NAME":"ST CHRISTINA  PARISH","LONGITUDE":-87.70568309627774},
{"STATE":"IL","ZIP":60643,"LATTITUDE":41.721353154497784,"ADDRESS":"1500 W 95TH ST  ","YEAR":2011,"DOING_BUSINESS_AS_NAME":"HERITAGE PLAZA","POP_AT_RISK":115784,"BUSINESS_TYPE":"Raffles","LEGAL_NAME":"THIRD BAPTIST CHURCH","LONGITUDE":-87.66027200821352},
{"STATE":"IL","ZIP":60638,"LATTITUDE":41.80530932943512,"ADDRESS":"4810 S LEAMINGTON AVE  ","YEAR":2011,"DOING_BUSINESS_AS_NAME":"OUR LADY OF THE SNOWS","POP_AT_RISK":13441,"BUSINESS_TYPE":"Raffles","LEGAL_NAME":"OUR LADY OF THE SNOWS","LONGITUDE":-87.75180113361945},
{"STATE":"IL","ZIP":60652,"LATTITUDE":41.74617952464779,"ADDRESS":"2825 W 81ST ST  ","YEAR":2011,"DOING_BUSINESS_AS_NAME":"ST THOMAS MORE CHURCH","POP_AT_RISK":78044,"BUSINESS_TYPE":"Raffles","LEGAL_NAME":"ST THOMAS MORE CHURCH","LONGITUDE":-87.69368600495662},
{"STATE":"IL","ZIP":60634,"LATTITUDE":41.93858857157271,"ADDRESS":"5900 W BELMONT AVE  ","YEAR":2011,"DOING_BUSINESS_AS_NAME":"ST. PATRICK HIGH SCHOOL","POP_AT_RISK":163920,"BUSINESS_TYPE":"Raffles","LEGAL_NAME":"ST PATRICK HIGH SCHOOL","LONGITUDE":-87.77384909269432},
{"STATE":"IL","ZIP":60638,"LATTITUDE":41.7804764713413,"ADDRESS":"6135 S AUSTIN AVE  ","YEAR":2011,"DOING_BUSINESS_AS_NAME":"ST. SYMPHOROSA SCHOOL","POP_AT_RISK":15782,"BUSINESS_TYPE":"Raffles","LEGAL_NAME":"SAINT SYMPHOROSA SCHOOL","LONGITUDE":-87.77144779252228},
{"STATE":"IL","ZIP":60655,"LATTITUDE":41.70612377529006,"ADDRESS":"3700 W 103RD ST  ","YEAR":2011,"DOING_BUSINESS_AS_NAME":"SAINT XAVIER UNIVERSITY","POP_AT_RISK":31083,"BUSINESS_TYPE":"Raffles","LEGAL_NAME":"SAINT XAVIER UNIVERSITY","LONGITUDE":-87.71369359633356},
{"STATE":"IL","ZIP":60617,"LATTITUDE":41.6927262269317,"ADDRESS":"11128 S AVENUE G   ","YEAR":2011,"DOING_BUSINESS_AS_NAME":"CHURCH OF THE ANNUNCIATA","POP_AT_RISK":34300,"BUSINESS_TYPE":"Raffles","LEGAL_NAME":"CHURCH OF THE ANNUNCIATA","LONGITUDE":-87.53181130195797},
{"STATE":"IL","ZIP":60616,"LATTITUDE":41.835282155235944,"ADDRESS":"3241 S MICHIGAN AVE  1ST","YEAR":2011,"DOING_BUSINESS_AS_NAME":"ILL COLLEGE OF OPTOMETRY","POP_AT_RISK":62896,"BUSINESS_TYPE":"Raffles","LEGAL_NAME":"ILL COLLEGE OF OPTOMETRY","LONGITUDE":-87.62320119675837},
{"STATE":"IL","ZIP":60609,"LATTITUDE":41.82702833680521,"ADDRESS":"653 W 37TH ST  ","YEAR":2011,"DOING_BUSINESS_AS_NAME":"NATIVITY OF OUR LORD CHU","POP_AT_RISK":28235,"BUSINESS_TYPE":"Raffles","LEGAL_NAME":"NATIVITY OF OUR LORD CHU","LONGITUDE":-87.64325887171155},
{"STATE":"IL","ZIP":60629,"LATTITUDE":41.780471717777914,"ADDRESS":"3721 W 62ND ST  ","YEAR":2011,"DOING_BUSINESS_AS_NAME":"ST NICHOLAS OF TOLENTINE","POP_AT_RISK":173871,"BUSINESS_TYPE":"Raffles","LEGAL_NAME":"ST NICHOLAS OF TOLENTINE","LONGITUDE":-87.71633291158312},
{"STATE":"IL","ZIP":60634,"LATTITUDE":41.94488499131698,"ADDRESS":"8033 W ADDISON ST  ","YEAR":2011,"DOING_BUSINESS_AS_NAME":"ST. FRANCIS BORGIA CHURCH","POP_AT_RISK":93492,"BUSINESS_TYPE":"Raffles","LEGAL_NAME":"ST. FRANCIS BORGIA CHURCH","LONGITUDE":-87.82789364052087},
{"STATE":"IL","ZIP":60656,"LATTITUDE":41.97481593505411,"ADDRESS":"5136 N NOTTINGHAM AVE  ","YEAR":2011,"DOING_BUSINESS_AS_NAME":"ST MONICA CHURCH","POP_AT_RISK":93795,"BUSINESS_TYPE":"Raffles","LEGAL_NAME":"CATHOLIC BISHOP OF CHICAGO","LONGITUDE":-87.80372387225738},
{"STATE":"IL","ZIP":60645,"LATTITUDE":42.01419883821492,"ADDRESS":"2324 W CHASE AVE  ","YEAR":2011,"DOING_BUSINESS_AS_NAME":"St. Margaret Mary","POP_AT_RISK":176331,"BUSINESS_TYPE":"Raffles","LEGAL_NAME":"Catholic Bishop of Chicago","LONGITUDE":-87.68864244044346},
{"STATE":"IL","ZIP":60646,"LATTITUDE":41.99946016477578,"ADDRESS":"6525 N HIAWATHA AVE 1 ","YEAR":2011,"DOING_BUSINESS_AS_NAME":"EDGEBROOK SCHOOL FOUNDATION","POP_AT_RISK":53868,"BUSINESS_TYPE":"Raffles","LEGAL_NAME":"EDGEBROOK SCHOOL FOUNDATION","LONGITUDE":-87.7618211032257},
{"STATE":"IL","ZIP":60629,"LATTITUDE":41.7790727247982,"ADDRESS":"2609 W 63RD ST  ","YEAR":2011,"DOING_BUSINESS_AS_NAME":"SOUTHWEST ORGANIZING PROJECT","POP_AT_RISK":104186,"BUSINESS_TYPE":"Raffles","LEGAL_NAME":"SOUTHWEST ORGANIZING PROJECT","LONGITUDE":-87.68891743213281},
{"STATE":"IL","ZIP":60632,"LATTITUDE":41.799313736534394,"ADDRESS":"5157 S CALIFORNIA AVE  ","YEAR":2011,"DOING_BUSINESS_AS_NAME":"ST. SIMON THE APOSTLE CHURCH","POP_AT_RISK":273145,"BUSINESS_TYPE":"Raffles","LEGAL_NAME":"ST. SIMON THE APOSTLE CHRUCH","LONGITUDE":-87.6938087219452},
{"STATE":"IL","ZIP":60633,"LATTITUDE":41.65273813820103,"ADDRESS":"13330 S BALTIMORE AVE 1ST ","YEAR":2011,"DOING_BUSINESS_AS_NAME":"HEGEWISCH CHAMBER OF COMMERCE","POP_AT_RISK":13632,"BUSINESS_TYPE":"Raffles","LEGAL_NAME":"HEGEWISCH CHAMBER OF COMMERCE","LONGITUDE":-87.54729939337413},
{"STATE":"IL","ZIP":60649,"LATTITUDE":41.77665367240929,"ADDRESS":"6501 S PROMONTORY DR  1ST","YEAR":2011,"DOING_BUSINESS_AS_NAME":"LA RABIDA CHILDRENS HOSPITAL","POP_AT_RISK":23490,"BUSINESS_TYPE":"Raffles","LEGAL_NAME":"LA RABIDA CHILDREN'S HOSPITAL","LONGITUDE":-87.57082460978235},
{"STATE":"IL","ZIP":60656,"LATTITUDE":41.966321787965484,"ADDRESS":"8747 W LAWRENCE AVE 1 ","YEAR":2011,"DOING_BUSINESS_AS_NAME":"OUR LADY MOTHER OF THE CHURCH","POP_AT_RISK":12033,"BUSINESS_TYPE":"Raffles","LEGAL_NAME":"OUR LADY MOTHER OF THE CHURCH","LONGITUDE":-87.84558414351311},
{"STATE":"IL","ZIP":60629,"LATTITUDE":41.77179080736167,"ADDRESS":"2601 W MARQUETTE RD  ","YEAR":2011,"DOING_BUSINESS_AS_NAME":"SISTERS OF ST CASIMIR CHICAGO","POP_AT_RISK":45573,"BUSINESS_TYPE":"Raffles","LEGAL_NAME":"SISTERS OF ST CASIMIR CHICAGO","LONGITUDE":-87.68839005046314},
{"STATE":"IL","ZIP":60638,"LATTITUDE":41.79586265022726,"ADDRESS":"5300 S NATOMA AVE 1ST ","YEAR":2011,"DOING_BUSINESS_AS_NAME":"ST. DANIEL THE PROPHET CHURCH","POP_AT_RISK":26425,"BUSINESS_TYPE":"Raffles","LEGAL_NAME":"ST. DANIEL THE PROPHET CHURCH","LONGITUDE":-87.78816407940643},
{"STATE":"IL","ZIP":60639,"LATTITUDE":41.91595538076389,"ADDRESS":"1921 N KEDVALE AVE  ","YEAR":2011,"DOING_BUSINESS_AS_NAME":"ST PHILOMENA CHURCH","POP_AT_RISK":257948,"BUSINESS_TYPE":"Raffles","LEGAL_NAME":"ST. PHILOMENA CATHOLIC CHURCH","LONGITUDE":-87.73003588302274},
{"STATE":"IL","ZIP":60655,"LATTITUDE":41.71125823220511,"ADDRESS":"10001 S PULASKI RD  ","YEAR":2011,"DOING_BUSINESS_AS_NAME":"BROTHER RICE HIGH SCHOOL","POP_AT_RISK":23776,"BUSINESS_TYPE":"Raffles","LEGAL_NAME":"BROTHER RICE HIGH SCHOOL, INC.","LONGITUDE":-87.72093947340284},
{"STATE":"IL","ZIP":60637,"LATTITUDE":41.79253620872735,"ADDRESS":"1701 E 57TH DR  ","YEAR":2011,"DOING_BUSINESS_AS_NAME":"MUSEUM OF SCIENCE AND INDUSTRY","POP_AT_RISK":102375,"BUSINESS_TYPE":"Raffles","LEGAL_NAME":"MUSEUM OF SCIENCE AND INDUSTRY","LONGITUDE":-87.58379120622547},
{"STATE":"IL","ZIP":60639,"LATTITUDE":41.92233137131519,"ADDRESS":"5352 W BELDEN AVE  ","YEAR":2011,"DOING_BUSINESS_AS_NAME":"ST. STANISLAUS BISHOP & MARTYR","POP_AT_RISK":394800,"BUSINESS_TYPE":"Raffles","LEGAL_NAME":"ST. STANISLAUS BISHOP & MARTYR","LONGITUDE":-87.76071250983351},
{"STATE":"IL","ZIP":60638,"LATTITUDE":41.796497571691084,"ADDRESS":"5252 S AUSTIN AVE  ","YEAR":2011,"DOING_BUSINESS_AS_NAME":"ST JANE DE CHANTAL","POP_AT_RISK":23021,"BUSINESS_TYPE":"Raffles","LEGAL_NAME":"CATHOLIC ARCHDIOCESE OF CHICAGO","LONGITUDE":-87.77232894377225},
{"STATE":"IL","ZIP":60626,"LATTITUDE":42.01926576756868,"ADDRESS":"1607 W HOWARD ST 2ND ","YEAR":2011,"DOING_BUSINESS_AS_NAME":"HOUSING OPPORTUNITIES FOR WOMEN","POP_AT_RISK":54153,"BUSINESS_TYPE":"Raffles","LEGAL_NAME":"HOUSING OPPORTUNITIES FOR WOMEN","LONGITUDE":-87.67167773086105},
{"STATE":"IL","ZIP":60622,"LATTITUDE":41.89911060064597,"ADDRESS":"3059 W AUGUSTA BLVD  ","YEAR":2011,"DOING_BUSINESS_AS_NAME":"The Children's Place Association","POP_AT_RISK":104576,"BUSINESS_TYPE":"Raffles","LEGAL_NAME":"THE CHILDREN'S PLACE ASSOCIATION","LONGITUDE":-87.70400352669111},
{"STATE":"IL","ZIP":60647,"LATTITUDE":41.92471241419424,"ADDRESS":"3600 W FULLERTON AVE  ","YEAR":2011,"DOING_BUSINESS_AS_NAME":"INFANT WELFARE SOCIETY OF CHICAGO","POP_AT_RISK":80292,"BUSINESS_TYPE":"Raffles","LEGAL_NAME":"INFANT WELFARE SOCIETY OF CHICAGO","LONGITUDE":-87.71705735148927},
{"STATE":"IL","ZIP":60631,"LATTITUDE":41.98946579936816,"ADDRESS":"7500 W TALCOTT AVE  ","YEAR":2011,"DOING_BUSINESS_AS_NAME":"RESURRECTION HIGH SCHOOL","POP_AT_RISK":43488,"BUSINESS_TYPE":"Raffles","LEGAL_NAME":"RESURRECTION COLLEGE PREP HIGH SCHOOL","LONGITUDE":-87.81421066629487},
{"STATE":"IL","ZIP":60623,"LATTITUDE":41.842572203498484,"ADDRESS":"2658 S HAMLIN AVE 1ST ","YEAR":2011,"DOING_BUSINESS_AS_NAME":"MANUEL PEREZ JR POST 1017","POP_AT_RISK":511184,"BUSINESS_TYPE":"Raffles","LEGAL_NAME":"AMERICAN LEGION MANUEL PEREZ POST 1017","LONGITUDE":-87.71977292662096},
{"STATE":"IL","ZIP":60625,"LATTITUDE":41.96219065391025,"ADDRESS":"4432 N TROY ST  ","YEAR":2011,"DOING_BUSINESS_AS_NAME":"OUR LADY OF MERCY","POP_AT_RISK":161118,"BUSINESS_TYPE":"Raffles","LEGAL_NAME":"CATHOLIC CHURCH ARCHDIOCESE OF CHICAGO","LONGITUDE":-87.7072035366742},
{"STATE":"IL","ZIP":60655,"LATTITUDE":41.71314689252262,"ADDRESS":"3737 W 99TH ST  ","YEAR":2011,"DOING_BUSINESS_AS_NAME":"MOTHER MCAULEY LIBERAL ARTS HIGH SCHOOL","POP_AT_RISK":29932,"BUSINESS_TYPE":"Raffles","LEGAL_NAME":"MOTHER MCAULEY LIBERAL ARTS HIGH SCHOOL","LONGITUDE":-87.71531464852806},
{"STATE":"IL","ZIP":60625,"LATTITUDE":41.97941814172241,"ADDRESS":"5400 N ST LOUIS AVE  ","YEAR":2011,"DOING_BUSINESS_AS_NAME":"WINDOW TO THE WORLD COMMUNICATIONS, INC.","POP_AT_RISK":85134,"BUSINESS_TYPE":"Raffles","LEGAL_NAME":"WINDOW TO THE WORLD COMMUNICATIONS, INC.","LONGITUDE":-87.71621617812202},
{"STATE":"IL","ZIP":60619,"LATTITUDE":41.752458960555494,"ADDRESS":"7822 S DOBSON AVE  ","YEAR":2011,"DOING_BUSINESS_AS_NAME":"BETTY SHABAZZ INTERNATIONAL CHARTER SCHOOL","POP_AT_RISK":460944,"BUSINESS_TYPE":"Raffles","LEGAL_NAME":"BETTY SHABAZZ INTERNATIONAL CHARTER SCHOOL","LONGITUDE":-87.5993078618137},
{"STATE":"IL","ZIP":60632,"LATTITUDE":41.81472363423928,"ADDRESS":"4325 S RICHMOND ST 1ST ","YEAR":2011,"DOING_BUSINESS_AS_NAME":"CATHOLIC BISHOP OF CHICAGO\/POPE JOHN PAUL II CATHOLIC SCHOOL","POP_AT_RISK":331093,"BUSINESS_TYPE":"Raffles","LEGAL_NAME":"Catholic Bishop of Chicago\/Pope John Paul II Catholic School","LONGITUDE":-87.69794253337163},
{"STATE":"IL","ZIP":60653,"LATTITUDE":41.81784170356951,"ADDRESS":"809 E 42ND PL 1 1","YEAR":2011,"DOING_BUSINESS_AS_NAME":"M.W. PRINCE HALL GRAND LODGE","POP_AT_RISK":37058,"BUSINESS_TYPE":"Raffles","LEGAL_NAME":"THE MOST WORSHIPFUL PRINCE HALL GRAND LODGE FREE AND ACCEPTED MASONS OF THE STATE OF ILLINOIS","LONGITUDE":-87.60630226085362},
}