{
{"STATE":"IL","ZIP":60625,"LATTITUDE":41.96549427981225,"ADDRESS":"4619 N LINCOLN AVE 1ST ","YEAR":2005,"DOING_BUSINESS_AS_NAME":"ADRIATIC SUNSHINE TOURS","POP_AT_RISK":701724,"BUSINESS_TYPE":"Broker","LEGAL_NAME":"MIRNA SUGAR","LONGITUDE":-87.68633818927108},
{"STATE":"IL","ZIP":60625,"LATTITUDE":41.96824854706049,"ADDRESS":"3543 W LAWRENCE AVE  ","YEAR":2005,"DOING_BUSINESS_AS_NAME":"LAWRENCE TRAVEL & PHOTO","POP_AT_RISK":981736,"BUSINESS_TYPE":"Broker","LEGAL_NAME":"HEE SOOK CHO","LONGITUDE":-87.7175632405124},
{"STATE":"IL","ZIP":60640,"LATTITUDE":41.97475239385421,"ADDRESS":"5104 N BROADWAY   ","YEAR":2005,"DOING_BUSINESS_AS_NAME":"TTT PROEXPERT","POP_AT_RISK":436854,"BUSINESS_TYPE":"Broker","LEGAL_NAME":"DANG THE NGUYEN","LONGITUDE":-87.65997340896573},
{"STATE":"IL","ZIP":60614,"LATTITUDE":41.92949258760718,"ADDRESS":"2570 N CLARK ST  ","YEAR":2005,"DOING_BUSINESS_AS_NAME":"STA TRAVEL","POP_AT_RISK":1650066,"BUSINESS_TYPE":"Broker","LEGAL_NAME":"STA TRAVEL, INC.","LONGITUDE":-87.64295119954515},
{"STATE":"IL","ZIP":60606,"LATTITUDE":41.87801092371806,"ADDRESS":"300 S WACKER DR  2450","YEAR":2005,"DOING_BUSINESS_AS_NAME":"BEREAN CAPITAL INCORPORATED","POP_AT_RISK":39368,"BUSINESS_TYPE":"Broker","LEGAL_NAME":"BEREAN CAPITAL INC","LONGITUDE":-87.63705852233733},
{"STATE":"IL","ZIP":60626,"LATTITUDE":42.01933062895617,"ADDRESS":"1949 W HOWARD ST  ","YEAR":2005,"DOING_BUSINESS_AS_NAME":"PETER PAN TRAVEL","POP_AT_RISK":576246,"BUSINESS_TYPE":"Broker","LEGAL_NAME":"PATRICIA A. BRINKER","LONGITUDE":-87.67965516831983},
{"STATE":"IL","ZIP":60660,"LATTITUDE":41.99045622850997,"ADDRESS":"5948 N BROADWAY   ","YEAR":2005,"DOING_BUSINESS_AS_NAME":"UNITED INVESTORS TRAVEL INC.","POP_AT_RISK":728178,"BUSINESS_TYPE":"Broker","LEGAL_NAME":"UNITED INVESTORS TVL INC","LONGITUDE":-87.66042818283907},
{"STATE":"IL","ZIP":60611,"LATTITUDE":41.897146735826645,"ADDRESS":"811 N MICHIGAN AVE MAIN ","YEAR":2005,"DOING_BUSINESS_AS_NAME":"WATER TOWER HOT TIX","POP_AT_RISK":84412,"BUSINESS_TYPE":"Broker","LEGAL_NAME":"LEAGUE OF CHICAGO THEATRES","LONGITUDE":-87.62403332438542},
{"STATE":"IL","ZIP":60610,"LATTITUDE":41.89462001040801,"ADDRESS":"409 W HURON ST  LL","YEAR":2005,"DOING_BUSINESS_AS_NAME":"GALLAGER TRAVEL SERVICE","POP_AT_RISK":209628,"BUSINESS_TYPE":"Broker","LEGAL_NAME":"GALLAGHER TRAVEL SERVICE, INC","LONGITUDE":-87.63894328973825},
{"STATE":"IL","ZIP":60622,"LATTITUDE":41.89722802800089,"ADDRESS":"849 N WESTERN AVE  ","YEAR":2005,"DOING_BUSINESS_AS_NAME":"NORTHWESTERN TRAVEL BUREAU INC","POP_AT_RISK":1090280,"BUSINESS_TYPE":"Broker","LEGAL_NAME":"NORTHWESTERN TRAVEL BUREAU INC","LONGITUDE":-87.68673216244567},
}