{
{"STATE":"IL","ZIP":60657,"LATTITUDE":41.94169634075317,"ADDRESS":"3257 N HALSTED ST  ","YEAR":2011,"DOING_BUSINESS_AS_NAME":"YOSHI'S CAFE","POP_AT_RISK":179406,"BUSINESS_TYPE":"Valet Parking Operator","LEGAL_NAME":"Y KATSUMURA CORP","LONGITUDE":-87.64917656601214},
{"STATE":"IL","ZIP":60607,"LATTITUDE":41.86953071519485,"ADDRESS":"1154 W TAYLOR ST  ","YEAR":2011,"DOING_BUSINESS_AS_NAME":"ROSAL'S CUCINA","POP_AT_RISK":41968,"BUSINESS_TYPE":"Valet Parking Operator","LEGAL_NAME":"ROSAL'S CUCINA INC","LONGITUDE":-87.65642986541329},
{"STATE":"IL","ZIP":60613,"LATTITUDE":41.94993920264151,"ADDRESS":"3734 N SOUTHPORT AVE  ","YEAR":2011,"DOING_BUSINESS_AS_NAME":"BL & WHT VALET LLC\/ BLUE BAYOU","POP_AT_RISK":716520,"BUSINESS_TYPE":"Valet Parking Operator","LEGAL_NAME":"BLK & WHT VALET LLC","LONGITUDE":-87.6642434255836},
{"STATE":"IL","ZIP":60616,"LATTITUDE":41.84671695664648,"ADDRESS":"2525 S MICHIGAN AVE  ","YEAR":2011,"DOING_BUSINESS_AS_NAME":"Standard Parking\/Mercy Hospital","POP_AT_RISK":211850,"BUSINESS_TYPE":"Valet Parking Operator","LEGAL_NAME":"SP PLUS CORPORATION","LONGITUDE":-87.62336972761213},
{"STATE":"IL","ZIP":60618,"LATTITUDE":41.95744728247397,"ADDRESS":"4156 N KEDZIE AVE  ","YEAR":2011,"DOING_BUSINESS_AS_NAME":"ARUN'S","POP_AT_RISK":1208173,"BUSINESS_TYPE":"Valet Parking Operator","LEGAL_NAME":"VPS OF ILLINOIS LLC","LONGITUDE":-87.70827183208556},
{"STATE":"IL","ZIP":60608,"LATTITUDE":41.847385062646644,"ADDRESS":"2435 S WESTERN AVE  ","YEAR":2011,"DOING_BUSINESS_AS_NAME":"IL VICINATO","POP_AT_RISK":172560,"BUSINESS_TYPE":"Valet Parking Operator","LEGAL_NAME":"VPS OF ILLINOIS LLC","LONGITUDE":-87.68536343468041},
{"STATE":"IL","ZIP":60607,"LATTITUDE":41.86960862593537,"ADDRESS":"1014 W TAYLOR ST  ","YEAR":2011,"DOING_BUSINESS_AS_NAME":"TUSCANY RESTAURANT","POP_AT_RISK":33514,"BUSINESS_TYPE":"Valet Parking Operator","LEGAL_NAME":"VPS OF ILLINOIS LLC","LONGITUDE":-87.65171626165753},
{"STATE":"IL","ZIP":60631,"LATTITUDE":41.9867885856625,"ADDRESS":"8535 W HIGGINS RD  ","YEAR":2011,"DOING_BUSINESS_AS_NAME":"MILE HI VALET SERVICE\/  Chicago Marriott Ohare","POP_AT_RISK":70592,"BUSINESS_TYPE":"Valet Parking Operator","LEGAL_NAME":"MILE HI VALET SERVICE INC","LONGITUDE":-87.84012417346162},
{"STATE":"IL","ZIP":60640,"LATTITUDE":41.96935748217429,"ADDRESS":"4810 N BROADWAY   ","YEAR":2011,"DOING_BUSINESS_AS_NAME":"SHAY'S VALET PARKING\/CARAVAN","POP_AT_RISK":1128675,"BUSINESS_TYPE":"Valet Parking Operator","LEGAL_NAME":"SHAY'S VALET PARKING, INC.","LONGITUDE":-87.65982656853042},
{"STATE":"IL","ZIP":60607,"LATTITUDE":41.86944827658881,"ADDRESS":"1400 W TAYLOR ST  ","YEAR":2011,"DOING_BUSINESS_AS_NAME":"USA PARKING\/FRANCESCA'S ON TAYLOR","POP_AT_RISK":84026,"BUSINESS_TYPE":"Valet Parking Operator","LEGAL_NAME":"USA PARKING SERVICES, LLC.","LONGITUDE":-87.66170604551814},
{"STATE":"IL","ZIP":60647,"LATTITUDE":41.92405910959705,"ADDRESS":"2342 N DAMEN AVE  ","YEAR":2011,"DOING_BUSINESS_AS_NAME":"VALET PARKING AUTHORITY, LTD.","POP_AT_RISK":50840,"BUSINESS_TYPE":"Valet Parking Operator","LEGAL_NAME":"VALET PARKING AUTHORITY, LTD.","LONGITUDE":-87.67799893257983},
{"STATE":"IL","ZIP":60623,"LATTITUDE":41.845451414064215,"ADDRESS":"2528 S KEDZIE AVE  ","YEAR":2011,"DOING_BUSINESS_AS_NAME":"LAKE SHORE PARKING VALET SERVICES INC.\/MI TIERRA","POP_AT_RISK":809208,"BUSINESS_TYPE":"Valet Parking Operator","LEGAL_NAME":"LAKE SHORE PARKING VALET SERVICES INC.","LONGITUDE":-87.70521428516844},
}