{
{"STATE":"IL","ZIP":60639,"LATTITUDE":41.92148535721011,"ADDRESS":"2230 N LAPORTE AVE 2ND 2N","YEAR":2011,"DOING_BUSINESS_AS_NAME":"ARTEMIDA CONSTRUCTION","POP_AT_RISK":292880,"BUSINESS_TYPE":"Expediter - Class B","LEGAL_NAME":"ANNA KORNAS","LONGITUDE":-87.75006838034615},
{"STATE":"IL","ZIP":60645,"LATTITUDE":42.01028306275302,"ADDRESS":"2946 W ESTES AVE  ","YEAR":2011,"DOING_BUSINESS_AS_NAME":"CHES CONSULTANTS","POP_AT_RISK":159088,"BUSINESS_TYPE":"Expediter - Class B","LEGAL_NAME":"HARVEY LUPU","LONGITUDE":-87.70393397489583},
{"STATE":"IL","ZIP":60637,"LATTITUDE":41.776342392702325,"ADDRESS":"6514 S ELLIS AVE  1 N","YEAR":2011,"DOING_BUSINESS_AS_NAME":"DY-KEMI EXPEDITING","POP_AT_RISK":141280,"BUSINESS_TYPE":"Expediter - Class B","LEGAL_NAME":"PARIS BROWN","LONGITUDE":-87.60111890980376},
{"STATE":"IL","ZIP":60619,"LATTITUDE":41.7257741006334,"ADDRESS":"1301 E 93RD ST 2ND ","YEAR":2011,"DOING_BUSINESS_AS_NAME":"RAY'S PERMITS & EXPEDITORS","POP_AT_RISK":103010,"BUSINESS_TYPE":"Expediter - Class B","LEGAL_NAME":"RAY WINTERS","LONGITUDE":-87.5924177517481},
{"STATE":"IL","ZIP":60631,"LATTITUDE":41.99381135999219,"ADDRESS":"6670 W RAVEN ST  ","YEAR":2011,"DOING_BUSINESS_AS_NAME":"EILEEN BOYLE","POP_AT_RISK":54717,"BUSINESS_TYPE":"Expediter - Class B","LEGAL_NAME":"EILEEN BOYLE","LONGITUDE":-87.79444620775332},
{"STATE":"IL","ZIP":60608,"LATTITUDE":41.85905810833332,"ADDRESS":"1623 S BLUE ISLAND AVE  ","YEAR":2011,"DOING_BUSINESS_AS_NAME":"ULISES M. VILLA","POP_AT_RISK":542052,"BUSINESS_TYPE":"Expediter - Class B","LEGAL_NAME":"ULISES VILLA","LONGITUDE":-87.6599568064921},
{"STATE":"IL","ZIP":60632,"LATTITUDE":41.793610473557656,"ADDRESS":"3218 W 55TH ST 1 ","YEAR":2011,"DOING_BUSINESS_AS_NAME":"ANSELMO GOMEZ","POP_AT_RISK":61497,"BUSINESS_TYPE":"Expediter - Class B","LEGAL_NAME":"ANSELMO GOMEZ","LONGITUDE":-87.70444634321306},
{"STATE":"IL","ZIP":60647,"LATTITUDE":41.921483071021285,"ADDRESS":"2026 W WEBSTER AVE 3RD ","YEAR":2011,"DOING_BUSINESS_AS_NAME":"ANTHONY ORTIZ","POP_AT_RISK":94664,"BUSINESS_TYPE":"Expediter - Class B","LEGAL_NAME":"ANTHONY ORTIZ","LONGITUDE":-87.6788476457194},
{"STATE":"IL","ZIP":60637,"LATTITUDE":41.78304879200861,"ADDRESS":"6139 S DORCHESTER AVE 1ST ","YEAR":2011,"DOING_BUSINESS_AS_NAME":"MARKO STAMBUK","POP_AT_RISK":90207,"BUSINESS_TYPE":"Expediter - Class B","LEGAL_NAME":"MARKO STAMBUK","LONGITUDE":-87.59125848739828},
{"STATE":"IL","ZIP":60659,"LATTITUDE":41.99792922712074,"ADDRESS":"2150 W DEVON AVE 1 1W","YEAR":2011,"DOING_BUSINESS_AS_NAME":"MINHAJ AKHTAR","POP_AT_RISK":286624,"BUSINESS_TYPE":"Expediter - Class B","LEGAL_NAME":"MINHAJ AKHTAR","LONGITUDE":-87.68461661009121},
{"STATE":"IL","ZIP":60618,"LATTITUDE":41.93252806254941,"ADDRESS":"2814 N ALBANY AVE 1ST ","YEAR":2011,"DOING_BUSINESS_AS_NAME":"JESUS GONZALEZ","POP_AT_RISK":917956,"BUSINESS_TYPE":"Expediter - Class B","LEGAL_NAME":"JESUS GONZALEZ","LONGITUDE":-87.70513964329243},
{"STATE":"IL","ZIP":60628,"LATTITUDE":41.68663985168138,"ADDRESS":"11416 S PRAIRIE AVE  ","YEAR":2011,"DOING_BUSINESS_AS_NAME":"ANTHONY DANIEL ROWE","POP_AT_RISK":56691,"BUSINESS_TYPE":"Expediter - Class B","LEGAL_NAME":"ANTHONY D. ROWE","LONGITUDE":-87.61699006178297},
{"STATE":"IL","ZIP":60639,"LATTITUDE":41.91921804753989,"ADDRESS":"2107 N PULASKI RD 2 ","YEAR":2011,"DOING_BUSINESS_AS_NAME":"BOGUSLAW J. BIL","POP_AT_RISK":74185,"BUSINESS_TYPE":"Expediter - Class B","LEGAL_NAME":"BOGUSLAW J. BIL","LONGITUDE":-87.72647396053416},
{"STATE":"IL","ZIP":60629,"LATTITUDE":41.78148284279124,"ADDRESS":"6124 S KEDVALE AVE  ","YEAR":2011,"DOING_BUSINESS_AS_NAME":"EZEQUIEL FLORES","POP_AT_RISK":44898,"BUSINESS_TYPE":"Expediter - Class B","LEGAL_NAME":"EZEQUIEL FLORES","LONGITUDE":-87.72665004803716},
{"STATE":"IL","ZIP":60618,"LATTITUDE":41.94058303002447,"ADDRESS":"2022 W MELROSE ST 1ST ","YEAR":2011,"DOING_BUSINESS_AS_NAME":"GSJ DESIGN","POP_AT_RISK":1051099,"BUSINESS_TYPE":"Expediter - Class B","LEGAL_NAME":"JOANNA DRUZGALA","LONGITUDE":-87.67933140636097},
{"STATE":"IL","ZIP":60641,"LATTITUDE":41.94807916723761,"ADDRESS":"4700 W WAVELAND AVE 3RD 3","YEAR":2011,"DOING_BUSINESS_AS_NAME":"PERMIT EXPRESS","POP_AT_RISK":125770,"BUSINESS_TYPE":"Expediter - Class B","LEGAL_NAME":"THOMAS  WASSMER","LONGITUDE":-87.74471700316647},
{"STATE":"IL","ZIP":60625,"LATTITUDE":41.966524543804326,"ADDRESS":"4701 N HARDING AVE 1 ","YEAR":2011,"DOING_BUSINESS_AS_NAME":"PERIC","POP_AT_RISK":65979,"BUSINESS_TYPE":"Expediter - Class B","LEGAL_NAME":"ALEKSANDAR PERIC","LONGITUDE":-87.72661303401586},
{"STATE":"IL","ZIP":60632,"LATTITUDE":41.82745366263485,"ADDRESS":"3622 S CALIFORNIA AVE 1ST ","YEAR":2011,"DOING_BUSINESS_AS_NAME":"CARMEN VELASQUEZ","POP_AT_RISK":479450,"BUSINESS_TYPE":"Expediter - Class B","LEGAL_NAME":"CARMEN VELASQUEZ","LONGITUDE":-87.69488944721468},
{"STATE":"IL","ZIP":60659,"LATTITUDE":41.98575737407811,"ADDRESS":"5724 N WESTERN AVE 1 1","YEAR":2011,"DOING_BUSINESS_AS_NAME":"GREGORY ALTMAN","POP_AT_RISK":149787,"BUSINESS_TYPE":"Expediter - Class B","LEGAL_NAME":"GREGORY B ALTMAN","LONGITUDE":-87.68966263003519},
{"STATE":"IL","ZIP":60643,"LATTITUDE":41.70213265269745,"ADDRESS":"10534 S VINCENNES AVE 1ST ","YEAR":2011,"DOING_BUSINESS_AS_NAME":"JOEY T.  RICHMOND","POP_AT_RISK":207368,"BUSINESS_TYPE":"Expediter - Class B","LEGAL_NAME":"JOEY T. RICHMOND","LONGITUDE":-87.65789970617794},
{"STATE":"IL","ZIP":60609,"LATTITUDE":41.798809991243985,"ADDRESS":"2055 W 52ND ST 1ST ","YEAR":2011,"DOING_BUSINESS_AS_NAME":"J' S EXPEDITING","POP_AT_RISK":704955,"BUSINESS_TYPE":"Expediter - Class B","LEGAL_NAME":"JOLIVET L RUFFIN","LONGITUDE":-87.67659184527024},
{"STATE":"IL","ZIP":60619,"LATTITUDE":41.735725476257784,"ADDRESS":"8725 S CALUMET AVE 1 1","YEAR":2011,"DOING_BUSINESS_AS_NAME":"THE LACOLE GROUP","POP_AT_RISK":306054,"BUSINESS_TYPE":"Expediter - Class B","LEGAL_NAME":"MICHELLE RANKINS","LONGITUDE":-87.61596531517176},
{"STATE":"IL","ZIP":60634,"LATTITUDE":41.93394574208832,"ADDRESS":"2942 N NEW ENGLAND AVE 1 ","YEAR":2011,"DOING_BUSINESS_AS_NAME":"NATALIA A RUSZAJ","POP_AT_RISK":196995,"BUSINESS_TYPE":"Expediter - Class B","LEGAL_NAME":"NATALIA A RUSZAJ","LONGITUDE":-87.79816306586932},
{"STATE":"IL","ZIP":60630,"LATTITUDE":41.970600171274654,"ADDRESS":"4921 N KILPATRICK AVE 1 ","YEAR":2011,"DOING_BUSINESS_AS_NAME":"O.G CONSULTING","POP_AT_RISK":117672,"BUSINESS_TYPE":"Expediter - Class B","LEGAL_NAME":"ORLANDO GONZALEZ","LONGITUDE":-87.74280875926763},
{"STATE":"IL","ZIP":60707,"LATTITUDE":41.91513575400795,"ADDRESS":"1925 N HARLEM AVE 1 ","YEAR":2011,"DOING_BUSINESS_AS_NAME":"REGINALD SANDERS","POP_AT_RISK":166965,"BUSINESS_TYPE":"Expediter - Class B","LEGAL_NAME":"REGINALD SANDERS","LONGITUDE":-87.80582621181154},
{"STATE":"IL","ZIP":60632,"LATTITUDE":41.81003268687499,"ADDRESS":"4542 S KNOX AVE 1ST ","YEAR":2011,"DOING_BUSINESS_AS_NAME":"JESUS ELIZONDO JR","POP_AT_RISK":143346,"BUSINESS_TYPE":"Expediter - Class B","LEGAL_NAME":"JESUS ELIZONDO JR","LONGITUDE":-87.7397143711772},
{"STATE":"IL","ZIP":60638,"LATTITUDE":41.777007321473675,"ADDRESS":"5649 W 63RD PL 2 ","YEAR":2011,"DOING_BUSINESS_AS_NAME":"DCPS","POP_AT_RISK":18938,"BUSINESS_TYPE":"Expediter - Class B","LEGAL_NAME":"KARRIE ANN MCEVOY","LONGITUDE":-87.76363040725518},
{"STATE":"IL","ZIP":60615,"LATTITUDE":41.79983589909504,"ADDRESS":"5220 S DREXEL AVE 2 211","YEAR":2011,"DOING_BUSINESS_AS_NAME":"UNSTOPPABLE EXPEDITING","POP_AT_RISK":746154,"BUSINESS_TYPE":"Expediter - Class B","LEGAL_NAME":"STEVEN P. MONDISA","LONGITUDE":-87.60407530365929},
{"STATE":"IL","ZIP":60646,"LATTITUDE":41.99573557505261,"ADDRESS":"6319 N SPOKANE AVE 1 ","YEAR":2011,"DOING_BUSINESS_AS_NAME":"ROONEY CONSULTING","POP_AT_RISK":71824,"BUSINESS_TYPE":"Expediter - Class B","LEGAL_NAME":"WILLIAM J. ROONEY","LONGITUDE":-87.76190814207617},
{"STATE":"IL","ZIP":60612,"LATTITUDE":41.893271864900484,"ADDRESS":"641 N WESTERN AVE  ","YEAR":2011,"DOING_BUSINESS_AS_NAME":"Windy City Contracting\/Consulting","POP_AT_RISK":49875,"BUSINESS_TYPE":"Expediter - Class B","LEGAL_NAME":"Joseph M. Glorioso","LONGITUDE":-87.68662305904685},
{"STATE":"IL","ZIP":60610,"LATTITUDE":41.90424750275757,"ADDRESS":"1211 N LA SALLE DR 1ST ","YEAR":2011,"DOING_BUSINESS_AS_NAME":"CONSTRUCTION PERMIT CONSULTANT","POP_AT_RISK":818610,"BUSINESS_TYPE":"Expediter - Class B","LEGAL_NAME":"MARICELA A. ANSANI","LONGITUDE":-87.63278644738897},
{"STATE":"IL","ZIP":60659,"LATTITUDE":41.99206408807547,"ADDRESS":"6056 N WASHTENAW AVE 3 3N","YEAR":2011,"DOING_BUSINESS_AS_NAME":"MIHAELA SPRINCEANA","POP_AT_RISK":128062,"BUSINESS_TYPE":"Expediter - Class B","LEGAL_NAME":"MIHAELA SPRINCEANA","LONGITUDE":-87.6971659243691},
{"STATE":"IL","ZIP":60641,"LATTITUDE":41.95421269741754,"ADDRESS":"4921 W CUYLER AVE  2","YEAR":2011,"DOING_BUSINESS_AS_NAME":"EXPEDITING SERVICE","POP_AT_RISK":44806,"BUSINESS_TYPE":"Expediter - Class B","LEGAL_NAME":"MIROSLAW E. OGIDEL","LONGITUDE":-87.75001158696419},
{"STATE":"IL","ZIP":60614,"LATTITUDE":41.92751309450429,"ADDRESS":"2503 N BURLING ST 1 ","YEAR":2011,"DOING_BUSINESS_AS_NAME":"VIOLETA CONSTANTIN","POP_AT_RISK":1365498,"BUSINESS_TYPE":"Expediter - Class B","LEGAL_NAME":"VIOLETA CONSTANTIN","LONGITUDE":-87.64746133707013},
{"STATE":"IL","ZIP":60656,"LATTITUDE":41.974329657993984,"ADDRESS":"7700 W FOSTER AVE BSMT ","YEAR":2011,"DOING_BUSINESS_AS_NAME":"ED ZIELINSKI CONSTRUCTION CONSULTANT","POP_AT_RISK":28468,"BUSINESS_TYPE":"Expediter - Class B","LEGAL_NAME":"EDWARD A. ZIELINSKI","LONGITUDE":-87.81952493201254},
{"STATE":"IL","ZIP":60629,"LATTITUDE":41.78615363547364,"ADDRESS":"3135 W 59TH ST 1ST ","YEAR":2011,"DOING_BUSINESS_AS_NAME":"PATRICK NEAL DEACON","POP_AT_RISK":308956,"BUSINESS_TYPE":"Expediter - Class B","LEGAL_NAME":"PATRICK NEAL DEACON","LONGITUDE":-87.70226964681864},
{"STATE":"IL","ZIP":60634,"LATTITUDE":41.94586223309432,"ADDRESS":"3618 N OVERHILL AVE 1 ","YEAR":2011,"DOING_BUSINESS_AS_NAME":"UNIQUE EXPEDITING","POP_AT_RISK":125430,"BUSINESS_TYPE":"Expediter - Class B","LEGAL_NAME":"SUSAN THERESA BIVINS","LONGITUDE":-87.81977096516052},
{"STATE":"IL","ZIP":60601,"LATTITUDE":41.88463624920333,"ADDRESS":"155 N MICHIGAN AVE  730","YEAR":2011,"DOING_BUSINESS_AS_NAME":"ADVANTAGE PERMIT EXPEDITING SERVICES","POP_AT_RISK":58115,"BUSINESS_TYPE":"Expediter - Class B","LEGAL_NAME":"RENESE JOSEPH-JOHNSON","LONGITUDE":-87.62431388722874},
{"STATE":"IL","ZIP":60656,"LATTITUDE":41.97734070250861,"ADDRESS":"8503 W CATHERINE AVE 2ND 204","YEAR":2011,"DOING_BUSINESS_AS_NAME":"BIVRIC PERMIT EXPEDITING","POP_AT_RISK":19154,"BUSINESS_TYPE":"Expediter - Class B","LEGAL_NAME":"RICHARD D. BIVINS JR.","LONGITUDE":-87.83926767247684},
{"STATE":"IL","ZIP":60642,"LATTITUDE":41.89119182821673,"ADDRESS":"1164 W GRAND AVE  ","YEAR":2011,"DOING_BUSINESS_AS_NAME":"EILEEN P. BOYLE","POP_AT_RISK":75806,"BUSINESS_TYPE":"Expediter - Class B","LEGAL_NAME":"ON TIME EXPEDITING INC","LONGITUDE":-87.65722399505667},
}