{
{"STATE":"IL","ZIP":60647,"LATTITUDE":41.91080584441617,"ADDRESS":"1618  -01622 N CALIFORNIA AVE  1ST","YEAR":2005,"DOING_BUSINESS_AS_NAME":"NORTH HOTEL","POP_AT_RISK":926549,"BUSINESS_TYPE":"Single Room Occupancy Class I","LEGAL_NAME":"NORTH HOTEL","LONGITUDE":-87.6971595317246},
{"STATE":"IL","ZIP":60640,"LATTITUDE":41.968958572837174,"ADDRESS":"1039 W LAWRENCE AVE  1","YEAR":2005,"DOING_BUSINESS_AS_NAME":"THE LORALI","POP_AT_RISK":145730,"BUSINESS_TYPE":"Single Room Occupancy Class I","LEGAL_NAME":"THE LORALI LLC.","LONGITUDE":-87.65636686737149},
{"STATE":"IL","ZIP":60637,"LATTITUDE":41.79032329843091,"ADDRESS":"5727-29 S CALUMET AVE  ","YEAR":2005,"DOING_BUSINESS_AS_NAME":"AW  WILLIAMS APARTMENTS","POP_AT_RISK":337557,"BUSINESS_TYPE":"Single Room Occupancy Class I","LEGAL_NAME":"ARNETTA MAY-WILLIAMS","LONGITUDE":-87.6173422147317},
{"STATE":"IL","ZIP":60624,"LATTITUDE":41.88369802211018,"ADDRESS":"3300 W MAYPOLE AVE  1ST","YEAR":2005,"DOING_BUSINESS_AS_NAME":"EAST PARK APARTMENTS","POP_AT_RISK":169630,"BUSINESS_TYPE":"Single Room Occupancy Class I","LEGAL_NAME":"East Park Apartments","LONGITUDE":-87.70890250016994},
{"STATE":"IL","ZIP":60612,"LATTITUDE":41.893176642492996,"ADDRESS":"642 N KEDZIE AVE  ","YEAR":2005,"DOING_BUSINESS_AS_NAME":"SANCTUARY PLACE","POP_AT_RISK":181260,"BUSINESS_TYPE":"Single Room Occupancy Class I","LEGAL_NAME":"SANCTUARY PLACE, INC.","LONGITUDE":-87.70663121852863},
{"STATE":"IL","ZIP":60660,"LATTITUDE":41.991518533123674,"ADDRESS":"6018 N WINTHROP AVE  1ST","YEAR":2005,"DOING_BUSINESS_AS_NAME":"6018 N WINTHROP BUILDING","POP_AT_RISK":412188,"BUSINESS_TYPE":"Single Room Occupancy Class I","LEGAL_NAME":"6018 N WINTHROP BUILDING","LONGITUDE":-87.65840800691804},
{"STATE":"IL","ZIP":60612,"LATTITUDE":41.87756621797501,"ADDRESS":"2710-2714 W JACKSON BLVD  ","YEAR":2005,"DOING_BUSINESS_AS_NAME":"D.S. TAX ASSOCIATES, LTD.  SRO","POP_AT_RISK":229920,"BUSINESS_TYPE":"Single Room Occupancy Class I","LEGAL_NAME":"D.S. TAX ASSOCIATES, LTD.","LONGITUDE":-87.69427747852605},
{"STATE":"IL","ZIP":60622,"LATTITUDE":41.90876873588834,"ADDRESS":"1527 N WICKER PARK AVE  1","YEAR":2005,"DOING_BUSINESS_AS_NAME":"WICKER PARK PLACE","POP_AT_RISK":948318,"BUSINESS_TYPE":"Single Room Occupancy Class I","LEGAL_NAME":"WICKER PARK PLACE LIMITED P","LONGITUDE":-87.67689151819697},
}