{
{"STATE":"IL","ZIP":60655,"LATTITUDE":41.691726074994705,"ADDRESS":"3012 W 111TH ST 1ST FLOOR 1","YEAR":2010,"DOING_BUSINESS_AS_NAME":"MADAVA, INC.","POP_AT_RISK":42786,"BUSINESS_TYPE":"Residential Real Estate Developer","LEGAL_NAME":"MADAVA, INC.","LONGITUDE":-87.69670919858626},
{"STATE":"IL","ZIP":60655,"LATTITUDE":41.71071943804928,"ADDRESS":"10024 S CENTRAL PARK AVE 1ST ","YEAR":2010,"DOING_BUSINESS_AS_NAME":"MERCY CIRCLE","POP_AT_RISK":130935,"BUSINESS_TYPE":"Residential Real Estate Developer","LEGAL_NAME":"MERCY CIRCLE","LONGITUDE":-87.71141795121552},
{"STATE":"IL","ZIP":60628,"LATTITUDE":41.70853851814964,"ADDRESS":"10217 S PRAIRIE AVE 2ND ","YEAR":2010,"DOING_BUSINESS_AS_NAME":"MICHELLE REDD","POP_AT_RISK":25120,"BUSINESS_TYPE":"Residential Real Estate Developer","LEGAL_NAME":"MICHELLE REDD","LONGITUDE":-87.61730958732812},
{"STATE":"IL","ZIP":60523,"LATTITUDE":41.85185570728325,"ADDRESS":"2603 W 22ND ST  22","YEAR":2010,"DOING_BUSINESS_AS_NAME":"1401 STATE LLC","POP_AT_RISK":213912,"BUSINESS_TYPE":"Residential Real Estate Developer","LEGAL_NAME":"1401 STATE LLC","LONGITUDE":-87.69073728136568},
{"STATE":"IL","ZIP":60617,"LATTITUDE":41.727388208446705,"ADDRESS":"9219 S MERRILL AVE 1ST ","YEAR":2010,"DOING_BUSINESS_AS_NAME":"IMRI REALTY","POP_AT_RISK":76504,"BUSINESS_TYPE":"Residential Real Estate Developer","LEGAL_NAME":"BETTY J. BROWN","LONGITUDE":-87.57168640971774},
{"STATE":"IL","ZIP":60656,"LATTITUDE":41.978676827898234,"ADDRESS":"7637 W RASCHER AVE 1ST ","YEAR":2010,"DOING_BUSINESS_AS_NAME":"ROSE REALTY","POP_AT_RISK":50612,"BUSINESS_TYPE":"Residential Real Estate Developer","LEGAL_NAME":"ROSE REALTY, LLC","LONGITUDE":-87.81837350559029},
{"STATE":"IL","ZIP":60644,"LATTITUDE":41.86966815609325,"ADDRESS":"920 S MASON AVE 1 ","YEAR":2010,"DOING_BUSINESS_AS_NAME":"MANGUS DOMUS, LLC","POP_AT_RISK":90340,"BUSINESS_TYPE":"Residential Real Estate Developer","LEGAL_NAME":"MANGUS DOMUS, LLC","LONGITUDE":-87.77320096385512},
{"STATE":"IL","ZIP":60628,"LATTITUDE":41.67508141704513,"ADDRESS":"12034 S PRINCETON AVE 1ST ","YEAR":2010,"DOING_BUSINESS_AS_NAME":"PATRICK M. PALMER","POP_AT_RISK":104120,"BUSINESS_TYPE":"Residential Real Estate Developer","LEGAL_NAME":"PATRICK M. PALMER","LONGITUDE":-87.62993130572139},
{"STATE":"IL","ZIP":60639,"LATTITUDE":41.91314852599623,"ADDRESS":"1753 N TRIPP AVE 1ST ","YEAR":2010,"DOING_BUSINESS_AS_NAME":"RPM VENTURE, INC.","POP_AT_RISK":102618,"BUSINESS_TYPE":"Residential Real Estate Developer","LEGAL_NAME":"RPM VENTURE, INC.","LONGITUDE":-87.73239283318017},
{"STATE":"IL","ZIP":60148,"LATTITUDE":41.85161230694275,"ADDRESS":"865 E 22ND   422","YEAR":2010,"DOING_BUSINESS_AS_NAME":"CITRUS CHICAGO LLC","POP_AT_RISK":43580,"BUSINESS_TYPE":"Residential Real Estate Developer","LEGAL_NAME":"CITRUS CHICAGO LLC","LONGITUDE":-87.6482065861969},
{"STATE":"IL","ZIP":60643,"LATTITUDE":41.69408668145939,"ADDRESS":"2350 W 110TH ST  ","YEAR":2010,"DOING_BUSINESS_AS_NAME":"JACK E CHANINSON REAL ESTATE","POP_AT_RISK":43344,"BUSINESS_TYPE":"Residential Real Estate Developer","LEGAL_NAME":"JACLYN A. THORNTON","LONGITUDE":-87.68063902575948},
{"STATE":"IL","ZIP":60643,"LATTITUDE":41.67759605873797,"ADDRESS":"1700 W 119TH ST 1ST ","YEAR":2010,"DOING_BUSINESS_AS_NAME":"PRIMESTOR 119, LLC","POP_AT_RISK":101816,"BUSINESS_TYPE":"Residential Real Estate Developer","LEGAL_NAME":"PRIMESTOR 119, LLC","LONGITUDE":-87.66419631320602},
{"STATE":"IL","ZIP":60639,"LATTITUDE":41.919082031620384,"ADDRESS":"2141 N MOODY AVE 1 ","YEAR":2010,"DOING_BUSINESS_AS_NAME":"SABIR INVESTORS LP","POP_AT_RISK":41849,"BUSINESS_TYPE":"Residential Real Estate Developer","LEGAL_NAME":"SABIR INVESTORS LP","LONGITUDE":-87.7790619762948},
{"STATE":"IL","ZIP":60651,"LATTITUDE":41.90058121225709,"ADDRESS":"4950 W THOMAS ST 1ST ","YEAR":2010,"DOING_BUSINESS_AS_NAME":"BETHEL NEW LIFE INC","POP_AT_RISK":137073,"BUSINESS_TYPE":"Residential Real Estate Developer","LEGAL_NAME":"BETHEL NEW LIFE INC","LONGITUDE":-87.75040561250974},
{"STATE":"IL","ZIP":60634,"LATTITUDE":41.96050154743046,"ADDRESS":"5848 W MONTROSE AVE  ","YEAR":2010,"DOING_BUSINESS_AS_NAME":"5907 W MONTROSE, LLC","POP_AT_RISK":175836,"BUSINESS_TYPE":"Residential Real Estate Developer","LEGAL_NAME":"5907 W MONTROSE, LLC","LONGITUDE":-87.77412366777395},
{"STATE":"IL","ZIP":60630,"LATTITUDE":41.9812932686101,"ADDRESS":"5479 N MILWAUKEE AVE  ","YEAR":2010,"DOING_BUSINESS_AS_NAME":"CHICAGO REALTORS INC","POP_AT_RISK":82641,"BUSINESS_TYPE":"Residential Real Estate Developer","LEGAL_NAME":"CHICAGO REALTORS INC","LONGITUDE":-87.77269861537762},
{"STATE":"IL","ZIP":60633,"LATTITUDE":41.651701289708825,"ADDRESS":"4000 E 134TH ST 1ST 1ST","YEAR":2010,"DOING_BUSINESS_AS_NAME":"HARBOUR POINT ESTATES","POP_AT_RISK":6628,"BUSINESS_TYPE":"Residential Real Estate Developer","LEGAL_NAME":"HARBOR 4000 EAST, LLC","LONGITUDE":-87.52749194531424},
{"STATE":"IL","ZIP":60609,"LATTITUDE":41.8192314147149,"ADDRESS":"2321 W 41ST ST  ","YEAR":2010,"DOING_BUSINESS_AS_NAME":"PROGRESS CONSTRUCTION","POP_AT_RISK":196240,"BUSINESS_TYPE":"Residential Real Estate Developer","LEGAL_NAME":"PROGRESS CONSTRUCTION","LONGITUDE":-87.68323279806654},
{"STATE":"IL","ZIP":60644,"LATTITUDE":41.892306402598024,"ADDRESS":"640 N PARKSIDE AVE  ","YEAR":2010,"DOING_BUSINESS_AS_NAME":"R. W. INVESTORS, INC.","POP_AT_RISK":118892,"BUSINESS_TYPE":"Residential Real Estate Developer","LEGAL_NAME":"R. W. INVESTORS, INC.","LONGITUDE":-87.76672385994254},
{"STATE":"IL","ZIP":60644,"LATTITUDE":41.86593374037215,"ADDRESS":"5000 W ROOSEVELT RD  101","YEAR":2010,"DOING_BUSINESS_AS_NAME":"BARRON DEVELOPMENT LLC","POP_AT_RISK":146331,"BUSINESS_TYPE":"Residential Real Estate Developer","LEGAL_NAME":"BARRON DEVELOPMENT LLC","LONGITUDE":-87.74970392608358},
{"STATE":"IL","ZIP":60641,"LATTITUDE":41.933205615424065,"ADDRESS":"2847 N PULASKI RD CS ","YEAR":2010,"DOING_BUSINESS_AS_NAME":"Bartlomiej A. Przyjemski","POP_AT_RISK":144640,"BUSINESS_TYPE":"Residential Real Estate Developer","LEGAL_NAME":"Barlomiej A Przyjemski","LONGITUDE":-87.72687054626223},
{"STATE":"IL","ZIP":60615,"LATTITUDE":41.80747454542918,"ADDRESS":"427 E 48TH ST 2ND 2","YEAR":2010,"DOING_BUSINESS_AS_NAME":"CLICK DEVELOPMENT, LLC","POP_AT_RISK":37097,"BUSINESS_TYPE":"Residential Real Estate Developer","LEGAL_NAME":"CLICK DEVELOPMENT, LLC","LONGITUDE":-87.61517690630338},
{"STATE":"IL","ZIP":60624,"LATTITUDE":41.87908916693586,"ADDRESS":"120 S HAMLIN BLVD 1 ","YEAR":2010,"DOING_BUSINESS_AS_NAME":"L&R DEVELOPERS","POP_AT_RISK":79664,"BUSINESS_TYPE":"Residential Real Estate Developer","LEGAL_NAME":"L&R DEVELOPERS, L.L.C.","LONGITUDE":-87.72083275936721},
{"STATE":"IL","ZIP":60649,"LATTITUDE":41.76965778189602,"ADDRESS":"6901 S STONY ISLAND AVE  ","YEAR":2010,"DOING_BUSINESS_AS_NAME":"PARAMOUNT GROUP, L.L.C","POP_AT_RISK":154552,"BUSINESS_TYPE":"Residential Real Estate Developer","LEGAL_NAME":"PARAMOUNT GROUP, L.L.C.","LONGITUDE":-87.58579721559974},
{"STATE":"IL","ZIP":60638,"LATTITUDE":41.790057644931764,"ADDRESS":"5611 S NASHVILLE AVE  ","YEAR":2010,"DOING_BUSINESS_AS_NAME":"A & SL CONSTRUCTION, INC.","POP_AT_RISK":184350,"BUSINESS_TYPE":"Residential Real Estate Developer","LEGAL_NAME":"A & SL CONSTRUCTION, INC.","LONGITUDE":-87.78646323276955},
{"STATE":"IL","ZIP":60619,"LATTITUDE":41.75510929548373,"ADDRESS":"7649 S CALUMET AVE 1 ","YEAR":2010,"DOING_BUSINESS_AS_NAME":"ESSLEY & ASSOCIATES, LLC.","POP_AT_RISK":78036,"BUSINESS_TYPE":"Residential Real Estate Developer","LEGAL_NAME":"ESSLEY & ASSOCIATES, LLC.","LONGITUDE":-87.61648455637193},
{"STATE":"IL","ZIP":60656,"LATTITUDE":41.971837617732454,"ADDRESS":"4970 N HARLEM   ","YEAR":2010,"DOING_BUSINESS_AS_NAME":"ZITELLA DEVELOPMENT CORP","POP_AT_RISK":60504,"BUSINESS_TYPE":"Residential Real Estate Developer","LEGAL_NAME":"ZITELLA DEVELOPMENT CORP.","LONGITUDE":-87.80723586686818},
{"STATE":"IL","ZIP":60643,"LATTITUDE":41.71476556246011,"ADDRESS":"9840 S PROSPECT AVE 1ST ","YEAR":2010,"DOING_BUSINESS_AS_NAME":"ADVANCE AREA SERVICE CORP.","POP_AT_RISK":175861,"BUSINESS_TYPE":"Residential Real Estate Developer","LEGAL_NAME":"ADVANCE AREA SERVICE CORP.","LONGITUDE":-87.66372626314511},
{"STATE":"IL","ZIP":60617,"LATTITUDE":41.729803341911,"ADDRESS":"9108 S BRANDON AVE 1 ","YEAR":2010,"DOING_BUSINESS_AS_NAME":"CLARETIAN ASSOCIATES","POP_AT_RISK":88510,"BUSINESS_TYPE":"Residential Real Estate Developer","LEGAL_NAME":"CLARETIAN ASSOCIATES, INC.","LONGITUDE":-87.547069977307},
{"STATE":"IL","ZIP":60707,"LATTITUDE":41.93105474729783,"ADDRESS":"6560 W DIVERSEY AVE 3RD 302D","YEAR":2010,"DOING_BUSINESS_AS_NAME":"CHICAGO URBAN INVESTORS, LLC","POP_AT_RISK":215505,"BUSINESS_TYPE":"Residential Real Estate Developer","LEGAL_NAME":"CHICAGO URBAN INVESTORS, LLC","LONGITUDE":-87.7904389703128},
{"STATE":"IL","ZIP":60621,"LATTITUDE":41.764735862679856,"ADDRESS":"7122 S VINCENNES AVE 1ST FLOOR A","YEAR":2010,"DOING_BUSINESS_AS_NAME":"NEW HOMES BY NEW PISGAH, NFP","POP_AT_RISK":102681,"BUSINESS_TYPE":"Residential Real Estate Developer","LEGAL_NAME":"NEW HOMES BY NEW PISGAH, NFP","LONGITUDE":-87.62841664308885},
{"STATE":"IL","ZIP":60632,"LATTITUDE":41.82041986211976,"ADDRESS":"4016 S CALIFORNIA AVE 1ST ","YEAR":2010,"DOING_BUSINESS_AS_NAME":"Sustainable Realty Group LLC","POP_AT_RISK":141120,"BUSINESS_TYPE":"Residential Real Estate Developer","LEGAL_NAME":"Sustainable Realty Group LLC","LONGITUDE":-87.69472664048283},
{"STATE":"IL","ZIP":60652,"LATTITUDE":41.7414182887951,"ADDRESS":"3325 W 83RD PL 1ST ","YEAR":2010,"DOING_BUSINESS_AS_NAME":"TAYLOR MADE CONSTRUCTION","POP_AT_RISK":166908,"BUSINESS_TYPE":"Residential Real Estate Developer","LEGAL_NAME":"TAYLOR MADE CONSTRUCTION, LLC","LONGITUDE":-87.70563173897821},
{"STATE":"IL","ZIP":60659,"LATTITUDE":41.984761496195354,"ADDRESS":"5683 N LINCOLN AVE  ","YEAR":2010,"DOING_BUSINESS_AS_NAME":"REGENT PARK CITY HOMES II, LLC","POP_AT_RISK":52125,"BUSINESS_TYPE":"Residential Real Estate Developer","LEGAL_NAME":"REGENT PARK CITY HOMES II, LLC","LONGITUDE":-87.69766403787162},
{"STATE":"IL","ZIP":60645,"LATTITUDE":42.01235843901739,"ADDRESS":"2224 W TOUHY AVE  1W","YEAR":2010,"DOING_BUSINESS_AS_NAME":"SMB DEVELOPMENT","POP_AT_RISK":58777,"BUSINESS_TYPE":"Residential Real Estate Developer","LEGAL_NAME":"SPROUL MITCHELL BUILDERS, INC.","LONGITUDE":-87.68718562395223},
{"STATE":"IL","ZIP":60660,"LATTITUDE":41.99331461153644,"ADDRESS":"6135 N BROADWAY  1ST ","YEAR":2010,"DOING_BUSINESS_AS_NAME":"640 EAST 50TH STREET CORPORATION","POP_AT_RISK":145770,"BUSINESS_TYPE":"Residential Real Estate Developer","LEGAL_NAME":"640 EAST 50TH STREET CORPORATION","LONGITUDE":-87.66022201286383},
{"STATE":"IL","ZIP":60629,"LATTITUDE":41.779215216684705,"ADDRESS":"2816 W 63RD ST  ","YEAR":2010,"DOING_BUSINESS_AS_NAME":"E SOLIS GENERAL CONTRACTORS, INC.","POP_AT_RISK":695136,"BUSINESS_TYPE":"Residential Real Estate Developer","LEGAL_NAME":"E SOLIS GENERAL CONTRACTORS, INC.","LONGITUDE":-87.69413048509061},
{"STATE":"IL","ZIP":60644,"LATTITUDE":41.87999358602674,"ADDRESS":"5945 W MADISON ST 1ST ","YEAR":2010,"DOING_BUSINESS_AS_NAME":"COMMUNITY MALE EMPOWERMENT PROJECT","POP_AT_RISK":41949,"BUSINESS_TYPE":"Residential Real Estate Developer","LEGAL_NAME":"COMMUNITY MALE EMPOWERMENT PROJECT","LONGITUDE":-87.77361566957164},
{"STATE":"IL","ZIP":60620,"LATTITUDE":41.74591661747167,"ADDRESS":"8130 S RACINE AVE 1 ","YEAR":2010,"DOING_BUSINESS_AS_NAME":"NA0MI & SYLVESTER SMITH SENIOR LIVING CENTER","POP_AT_RISK":38927,"BUSINESS_TYPE":"Residential Real Estate Developer","LEGAL_NAME":"NEW PISGAH MISSIONARY BAPTIST CHURCH","LONGITUDE":-87.65376178752422},
{"STATE":"IL","ZIP":60609,"LATTITUDE":41.81274742437032,"ADDRESS":"4450 S MORGAN ST 1 ","YEAR":2010,"DOING_BUSINESS_AS_NAME":"RIVERBEND REAL ESTATE INVESTMENTS LLC","POP_AT_RISK":157150,"BUSINESS_TYPE":"Residential Real Estate Developer","LEGAL_NAME":"RIVERBEND REAL ESTATE INVESTMENTS LLC","LONGITUDE":-87.65066589354052},
{"STATE":"IL","ZIP":60628,"LATTITUDE":41.7192414966984,"ADDRESS":"9633 S COTTAGE GROVE AVE  ","YEAR":2010,"DOING_BUSINESS_AS_NAME":"HABITAT DEVELOPMENT'S SOUTH PROJECT","POP_AT_RISK":121866,"BUSINESS_TYPE":"Residential Real Estate Developer","LEGAL_NAME":"HABITAT DEVELOPMENT'S SOUTH PROJECT LLC","LONGITUDE":-87.60368425355065},
{"STATE":"IL","ZIP":60616,"LATTITUDE":41.84202905467341,"ADDRESS":"2850 S MICHIGAN AVE  ","YEAR":2010,"DOING_BUSINESS_AS_NAME":"EASTLAKE MANAGEMENT","POP_AT_RISK":28902,"BUSINESS_TYPE":"Residential Real Estate Developer","LEGAL_NAME":"EAST LAKE MANAGEMENT & DEVELOPMENT CORP.","LONGITUDE":-87.62369326720368},
{"STATE":"IL","ZIP":60620,"LATTITUDE":41.75038804576943,"ADDRESS":"1159 W 79TH ST 1 ","YEAR":2010,"DOING_BUSINESS_AS_NAME":"GREATER AUBURN-GRESHAM DEVELOPMENT CORPORATION","POP_AT_RISK":42826,"BUSINESS_TYPE":"Residential Real Estate Developer","LEGAL_NAME":"GREATER AUBURN-GRESHAM DEVELOPMENT CORPORATION","LONGITUDE":-87.65367505738665},
{"STATE":"IL","ZIP":60624,"LATTITUDE":41.86728931604929,"ADDRESS":"3642 W GRENSHAW ST  ","YEAR":2010,"DOING_BUSINESS_AS_NAME":"JOHNSON DEVELOPMENT","POP_AT_RISK":45719,"BUSINESS_TYPE":"Residential Real Estate Developer","LEGAL_NAME":"MICHELLE D. JOHNSON, WALLACE E. JOHNSON, SR.  AND WALLACE E. JOHNSON, JR.","LONGITUDE":-87.71711638426036},
}