{
{"STATE":"IL","ZIP":60631,"LATTITUDE":41.99696184317762,"ADDRESS":"7760 W DEVON AVE 1ST C","YEAR":2011,"DOING_BUSINESS_AS_NAME":"Hearth LTD","POP_AT_RISK":20863,"BUSINESS_TYPE":"Home Repair","LEGAL_NAME":"Hearth LTD","LONGITUDE":-87.82137995923948},
{"STATE":"IL","ZIP":60651,"LATTITUDE":41.89484898099712,"ADDRESS":"5924 W CHICAGO AVE  ","YEAR":2011,"DOING_BUSINESS_AS_NAME":"UNIQUE EPOXY FLOORING SYSTEM","POP_AT_RISK":49255,"BUSINESS_TYPE":"Home Repair","LEGAL_NAME":"BEMIS LESTER","LONGITUDE":-87.77333781998448},
{"STATE":"IL","ZIP":60644,"LATTITUDE":41.87462899533072,"ADDRESS":"5557 W VAN BUREN ST 1ST ","YEAR":2011,"DOING_BUSINESS_AS_NAME":"MCCOY HOME REMODELING","POP_AT_RISK":44639,"BUSINESS_TYPE":"Home Repair","LEGAL_NAME":"MICHAEL MCCOY","LONGITUDE":-87.76383916882062},
{"STATE":"IL","ZIP":60645,"LATTITUDE":42.01752454246515,"ADDRESS":"2956 W BIRCHWOOD AVE 2ND ","YEAR":2011,"DOING_BUSINESS_AS_NAME":"ED'S ELECTRIC","POP_AT_RISK":33833,"BUSINESS_TYPE":"Home Repair","LEGAL_NAME":"EDWARD NAPOLEON","LONGITUDE":-87.7041524897349},
{"STATE":"IL","ZIP":60302,"LATTITUDE":41.90881595805628,"ADDRESS":"7115 W NORTH AVE  316","YEAR":2011,"DOING_BUSINESS_AS_NAME":"BULLDOG MECHANICAL","POP_AT_RISK":61522,"BUSINESS_TYPE":"Home Repair","LEGAL_NAME":"BULLDOG MECHANICAL INC.","LONGITUDE":-87.80277515583533},
{"STATE":"IL","ZIP":60623,"LATTITUDE":41.851984360096004,"ADDRESS":"2140 S KILBOURN AVE 1ST ","YEAR":2011,"DOING_BUSINESS_AS_NAME":"LEO' S METAL WORKS INC.","POP_AT_RISK":97052,"BUSINESS_TYPE":"Home Repair","LEGAL_NAME":"LEO' S METAL WORKS INC.","LONGITUDE":-87.73711445332178},
{"STATE":"IL","ZIP":60634,"LATTITUDE":41.93943106382529,"ADDRESS":"3300 N PARIS AVE 1 ","YEAR":2011,"DOING_BUSINESS_AS_NAME":"R & C TUCKPOINTING, INC.","POP_AT_RISK":27736,"BUSINESS_TYPE":"Home Repair","LEGAL_NAME":"R & C TUCKPOINTING, INC.","LONGITUDE":-87.83022174874291},
{"STATE":"IL","ZIP":60644,"LATTITUDE":41.88449664002291,"ADDRESS":"212 N MASON AVE  ","YEAR":2011,"DOING_BUSINESS_AS_NAME":"PKP REMODELING AND CONSTRUCTION SERVICES","POP_AT_RISK":47116,"BUSINESS_TYPE":"Home Repair","LEGAL_NAME":"SHAWN PEA ENTERPRISES INC.","LONGITUDE":-87.77351348848879},
{"STATE":"IL","ZIP":60655,"LATTITUDE":41.68404315198033,"ADDRESS":"4052 W 115TH ST 4 408","YEAR":2011,"DOING_BUSINESS_AS_NAME":"INNOVATIVE CONSTRUCTION","POP_AT_RISK":17633,"BUSINESS_TYPE":"Home Repair","LEGAL_NAME":"INNOVATIVE CONSTRUCTION LLC","LONGITUDE":-87.72202679774166},
{"STATE":"IL","ZIP":60655,"LATTITUDE":41.704138271482805,"ADDRESS":"10359 S PULASKI RD  ","YEAR":2011,"DOING_BUSINESS_AS_NAME":"MURPHY'S WINDOWS & SUNROOMS","POP_AT_RISK":22802,"BUSINESS_TYPE":"Home Repair","LEGAL_NAME":"MURPHY'S WINDOW & SIDING SYS","LONGITUDE":-87.72068680605787},
{"STATE":"IL","ZIP":60633,"LATTITUDE":41.653782181313034,"ADDRESS":"3324 E 133RD ST 2ND ","YEAR":2011,"DOING_BUSINESS_AS_NAME":"ARREDONDO MECHANICAL","POP_AT_RISK":10834,"BUSINESS_TYPE":"Home Repair","LEGAL_NAME":"SUSAN,TIMOTHY AND JASON ARREDONDO","LONGITUDE":-87.54244878711766},
{"STATE":"IL","ZIP":60656,"LATTITUDE":41.97940227832213,"ADDRESS":"8432 W CATALPA AVE 1 501","YEAR":2011,"DOING_BUSINESS_AS_NAME":"ABOVE STANDARD GARAGE BUILDERS, INC.","POP_AT_RISK":26948,"BUSINESS_TYPE":"Home Repair","LEGAL_NAME":"ABOVE STANDARD GARAGE BUILDERS,INC.","LONGITUDE":-87.83798441412998},
{"STATE":"IL","ZIP":60628,"LATTITUDE":41.66302480345031,"ADDRESS":"12706 S EMERALD AVE 1ST ","YEAR":2011,"DOING_BUSINESS_AS_NAME":"RAY'S DECORATING AND REMODELING CO.","POP_AT_RISK":23903,"BUSINESS_TYPE":"Home Repair","LEGAL_NAME":"GHME INTERNATIONAL DEVELOPMENT COMPANY, INC.","LONGITUDE":-87.64035729898147},
}