{
{"STATE":"IL","ZIP":60640,"LATTITUDE":41.98233782248874,"ADDRESS":"5521 N CLARK ST 1ST REAR","YEAR":2015,"DOING_BUSINESS_AS_NAME":"TELLO AUTO REPAIR","POP_AT_RISK":74153,"BUSINESS_TYPE":"Motor Vehicle Services License","LEGAL_NAME":"ARTURO TELLO","LONGITUDE":-87.66837894306158},
{"STATE":"IL","ZIP":60827,"LATTITUDE":41.64661613548738,"ADDRESS":"13701 S INDIANA AVE 1ST ","YEAR":2015,"DOING_BUSINESS_AS_NAME":"TRIANGLE SERVICE","POP_AT_RISK":17826,"BUSINESS_TYPE":"Motor Vehicle Services License","LEGAL_NAME":"GUS KATSENIS","LONGITUDE":-87.61708342711016},
{"STATE":"IL","ZIP":60621,"LATTITUDE":41.79246520910892,"ADDRESS":"5610 S STATE ST  ","YEAR":2015,"DOING_BUSINESS_AS_NAME":"SPEEDWAY AUTO","POP_AT_RISK":24289,"BUSINESS_TYPE":"Motor Vehicle Services License","LEGAL_NAME":"DUANE M JONES","LONGITUDE":-87.6257897597827},
{"STATE":"IL","ZIP":60655,"LATTITUDE":41.69165058893481,"ADDRESS":"2517 W 111TH ST 1ST ","YEAR":2015,"DOING_BUSINESS_AS_NAME":"MR TRANSMISSION #349","POP_AT_RISK":43344,"BUSINESS_TYPE":"Motor Vehicle Services License","LEGAL_NAME":"TANMORE 2 INC","LONGITUDE":-87.6843801677472},
{"STATE":"IL","ZIP":60657,"LATTITUDE":41.94504834246033,"ADDRESS":"3454 N SHEFFIELD AVE  ","YEAR":2015,"DOING_BUSINESS_AS_NAME":"I-C SPRING","POP_AT_RISK":87219,"BUSINESS_TYPE":"Motor Vehicle Services License","LEGAL_NAME":"I-C SPRING INC.","LONGITUDE":-87.654410059451},
{"STATE":"IL","ZIP":60634,"LATTITUDE":41.93793702742557,"ADDRESS":"7053-55 W BELMONT AVE  ","YEAR":2015,"DOING_BUSINESS_AS_NAME":"UTIRES","POP_AT_RISK":48366,"BUSINESS_TYPE":"Motor Vehicle Services License","LEGAL_NAME":"UNITED TIRES, LLC","LONGITUDE":-87.8033323876368},
{"STATE":"IL","ZIP":60615,"LATTITUDE":41.802831120070785,"ADDRESS":"5048 S CORNELL AVE 1ST ","YEAR":2015,"DOING_BUSINESS_AS_NAME":"BP","POP_AT_RISK":575056,"BUSINESS_TYPE":"Motor Vehicle Services License","LEGAL_NAME":"CORNELL AMOCO, INC.","LONGITUDE":-87.58659252529138},
{"STATE":"IL","ZIP":60605,"LATTITUDE":41.87331073325086,"ADDRESS":"700 S CLARK ST 1ST ","YEAR":2015,"DOING_BUSINESS_AS_NAME":"DOWNTOWN AUTO & TIRE SERVICE","POP_AT_RISK":85596,"BUSINESS_TYPE":"Motor Vehicle Services License","LEGAL_NAME":"ESHA KHOSHABA KENDO","LONGITUDE":-87.63078781601038},
{"STATE":"IL","ZIP":60653,"LATTITUDE":41.81668404083808,"ADDRESS":"4256 S MICHIGAN AVE  ","YEAR":2015,"DOING_BUSINESS_AS_NAME":"QUICK AND FAIR AUTO","POP_AT_RISK":115404,"BUSINESS_TYPE":"Motor Vehicle Services License","LEGAL_NAME":"S AND D SALES, INC.","LONGITUDE":-87.6231801307422},
{"STATE":"IL","ZIP":60626,"LATTITUDE":42.018609810846804,"ADDRESS":"7523  -07525 N WOLCOTT AVE 1ST ","YEAR":2015,"DOING_BUSINESS_AS_NAME":"AMBER AUTOMOTIVE INC","POP_AT_RISK":62574,"BUSINESS_TYPE":"Motor Vehicle Services License","LEGAL_NAME":"AMBER AUTOMOTIVE INC","LONGITUDE":-87.67749309655181},
{"STATE":"IL","ZIP":60630,"LATTITUDE":41.97170908200497,"ADDRESS":"5748 W HIGGINS AVE  ","YEAR":2015,"DOING_BUSINESS_AS_NAME":"M&M AUTO CLINIC INC.","POP_AT_RISK":35833,"BUSINESS_TYPE":"Motor Vehicle Services License","LEGAL_NAME":"M&M AUTO CLINIC INC.","LONGITUDE":-87.7722878646383},
{"STATE":"IL","ZIP":60628,"LATTITUDE":41.67234697234078,"ADDRESS":"12209 S INDIANA AVE  ","YEAR":2015,"DOING_BUSINESS_AS_NAME":"SAM'S PLACE AUTO CLINIC","POP_AT_RISK":20908,"BUSINESS_TYPE":"Motor Vehicle Services License","LEGAL_NAME":"SAMUEL CORBBINS, JR.","LONGITUDE":-87.61750416654964},
{"STATE":"IL","ZIP":60631,"LATTITUDE":42.000104228399934,"ADDRESS":"6571 N OLMSTED AVE  ","YEAR":2015,"DOING_BUSINESS_AS_NAME":"E K AUTOMOTIVE  LTD","POP_AT_RISK":21690,"BUSINESS_TYPE":"Motor Vehicle Services License","LEGAL_NAME":"EK AUTOMOTIVE LIMITED","LONGITUDE":-87.8132939597512},
{"STATE":"IL","ZIP":60620,"LATTITUDE":41.72616754095205,"ADDRESS":"9205 S WESTERN AVE  ","YEAR":2015,"DOING_BUSINESS_AS_NAME":"EVERGREEN KIA","POP_AT_RISK":17244,"BUSINESS_TYPE":"Motor Vehicle Services License","LEGAL_NAME":"EVERGREEN MOTORS, INC","LONGITUDE":-87.68208155982708},
{"STATE":"IL","ZIP":60646,"LATTITUDE":41.99343746173311,"ADDRESS":"6152 N PULASKI RD  ","YEAR":2015,"DOING_BUSINESS_AS_NAME":"SNAPPY CAR WASH, INC.","POP_AT_RISK":52980,"BUSINESS_TYPE":"Motor Vehicle Services License","LEGAL_NAME":"SNAPPY CAR WASH, INC.","LONGITUDE":-87.72903033512165},
{"STATE":"IL","ZIP":60634,"LATTITUDE":41.94636306771919,"ADDRESS":"3636 N HARLEM AVE 1 ","YEAR":2015,"DOING_BUSINESS_AS_NAME":"Deville Automotive LLC","POP_AT_RISK":75544,"BUSINESS_TYPE":"Motor Vehicle Services License","LEGAL_NAME":"Deville Automotive LLC","LONGITUDE":-87.80719094931474},
{"STATE":"IL","ZIP":60649,"LATTITUDE":41.76779095632842,"ADDRESS":"7000-7008 S STONY ISLAND AVE 1ST ","YEAR":2015,"DOING_BUSINESS_AS_NAME":"PIT STOP 500","POP_AT_RISK":37197,"BUSINESS_TYPE":"Motor Vehicle Services License","LEGAL_NAME":"PETROLEUM EXPRESS INC.","LONGITUDE":-87.58651631889869},
{"STATE":"IL","ZIP":60628,"LATTITUDE":41.69323607289417,"ADDRESS":"11030-11038 S HALSTED ST 1ST ","YEAR":2015,"DOING_BUSINESS_AS_NAME":"MUFFLER MEN","POP_AT_RISK":138700,"BUSINESS_TYPE":"Motor Vehicle Services License","LEGAL_NAME":"JUAN CARLOS HUERTA PARDO","LONGITUDE":-87.64255267937406},
{"STATE":"IL","ZIP":60651,"LATTITUDE":41.90192358523146,"ADDRESS":"5901-5911 W DIVISION ST 1 ","YEAR":2015,"DOING_BUSINESS_AS_NAME":"J M MUFFLERS & AUTO REPAIR","POP_AT_RISK":93902,"BUSINESS_TYPE":"Motor Vehicle Services License","LEGAL_NAME":"EDUARDO'S CORPORATION INC.","LONGITUDE":-87.77299574395475},
{"STATE":"IL","ZIP":60623,"LATTITUDE":41.851984360096004,"ADDRESS":"2140 S KILBOURN AVE  ","YEAR":2015,"DOING_BUSINESS_AS_NAME":"EL MALECHO UPHOLSTERY UPHOLSTERY INC.","POP_AT_RISK":48526,"BUSINESS_TYPE":"Motor Vehicle Services License","LEGAL_NAME":"EL MALECHO UPHOLSTERY INC.","LONGITUDE":-87.73711445332178},
{"STATE":"IL","ZIP":60628,"LATTITUDE":41.66035373956465,"ADDRESS":"12836 S HALSTED ST 1ST ","YEAR":2015,"DOING_BUSINESS_AS_NAME":"TOP SPEED AUTOMOTIVE, INC","POP_AT_RISK":48834,"BUSINESS_TYPE":"Motor Vehicle Services License","LEGAL_NAME":"TOP SPEED AUTOMOTIVE, INC.","LONGITUDE":-87.64147062649928},
{"STATE":"IL","ZIP":60617,"LATTITUDE":41.72772743839113,"ADDRESS":"9200 S STONY ISLAND AVE 1ST ","YEAR":2015,"DOING_BUSINESS_AS_NAME":"Stony Island Automotive \/ Mr Transmission","POP_AT_RISK":20682,"BUSINESS_TYPE":"Motor Vehicle Services License","LEGAL_NAME":"UNDER YOUR CAR AT STONY INC","LONGITUDE":-87.5855943092932},
{"STATE":"IL","ZIP":60646,"LATTITUDE":41.996166547688986,"ADDRESS":"6301 N CENTRAL AVE  ","YEAR":2015,"DOING_BUSINESS_AS_NAME":"CENTRAL AND CALDWELL SERVICE","POP_AT_RISK":17956,"BUSINESS_TYPE":"Motor Vehicle Services License","LEGAL_NAME":"CENTRAL AND CALDWELL SERVICE","LONGITUDE":-87.76404923745231},
{"STATE":"IL","ZIP":60637,"LATTITUDE":41.77304782188627,"ADDRESS":"6700 S COTTAGE GROVE AVE  ","YEAR":2015,"DOING_BUSINESS_AS_NAME":"CITGO FUEL & MINI MART","POP_AT_RISK":111486,"BUSINESS_TYPE":"Motor Vehicle Services License","LEGAL_NAME":"CHICAGO FUEL & MINI MART, INC.","LONGITUDE":-87.6059130528716},
{"STATE":"IL","ZIP":60633,"LATTITUDE":41.669933560483834,"ADDRESS":"12359 S BURLEY AVE  ","YEAR":2015,"DOING_BUSINESS_AS_NAME":"TROY DESIGN & MANUFACTURING CO.","POP_AT_RISK":6628,"BUSINESS_TYPE":"Motor Vehicle Services License","LEGAL_NAME":"TROY DESIGN & MANUFACTURING CO.","LONGITUDE":-87.54396951156461},
{"STATE":"IL","ZIP":60628,"LATTITUDE":41.69085028417954,"ADDRESS":"11201 S COTTAGE GROVE AVE  ","YEAR":2015,"DOING_BUSINESS_AS_NAME":"KEVIN AND SONS KREATIVE AUTO INC.","POP_AT_RISK":104230,"BUSINESS_TYPE":"Motor Vehicle Services License","LEGAL_NAME":"KEVIN AND SONS KREATIVE AUTO INC.","LONGITUDE":-87.61013935143248},
{"STATE":"IL","ZIP":60652,"LATTITUDE":41.75150016593125,"ADDRESS":"7743 S CICERO AVE  ","YEAR":2015,"DOING_BUSINESS_AS_NAME":"AZTECAS MUFFLERS & BRAKES SHOP","POP_AT_RISK":51644,"BUSINESS_TYPE":"Motor Vehicle Services License","LEGAL_NAME":"AZTECAS MUFFLERS & BRAKE SHOP, INC.","LONGITUDE":-87.741297909736},
{"STATE":"IL","ZIP":60614,"LATTITUDE":41.93280849685226,"ADDRESS":"824 W DIVERSEY PKWY  ","YEAR":2015,"DOING_BUSINESS_AS_NAME":"WM J CASSIDY TIRE & AUTO","POP_AT_RISK":511974,"BUSINESS_TYPE":"Motor Vehicle Services License","LEGAL_NAME":"WM. J. CASSIDY TIRE & AUTO SUPPLY CO.","LONGITUDE":-87.65000549071719},
{"STATE":"IL","ZIP":60652,"LATTITUDE":41.73628922702488,"ADDRESS":"8601-8611 S CICERO AVE 1 ","YEAR":2015,"DOING_BUSINESS_AS_NAME":"PAISANO MUFFLERS AND AUTO SERVICE, LLC","POP_AT_RISK":23923,"BUSINESS_TYPE":"Motor Vehicle Services License","LEGAL_NAME":"PAISANO MUFFLERS AND AUTO SERVICE, LLC","LONGITUDE":-87.74078193737448},
}