{
{"STATE":"IL","ZIP":60647,"LATTITUDE":41.910921967966566,"ADDRESS":"1620 N ROCKWELL ST  ","YEAR":2006,"DOING_BUSINESS_AS_NAME":"JOSE G MATA","POP_AT_RISK":74716,"BUSINESS_TYPE":"Peddler, food (fruits and vegtables only)","LEGAL_NAME":"JOSE G MATA","LONGITUDE":-87.69226594946988},
{"STATE":"IL","ZIP":60652,"LATTITUDE":41.745826944647085,"ADDRESS":"4138 W 81ST ST  ","YEAR":2006,"DOING_BUSINESS_AS_NAME":"BENITA ORTIZ","POP_AT_RISK":137465,"BUSINESS_TYPE":"Peddler, food (fruits and vegtables only)","LEGAL_NAME":"BENITA ORTIZ","LONGITUDE":-87.72563085493813},
{"STATE":"IL","ZIP":60621,"LATTITUDE":41.772785904188524,"ADDRESS":"258 W MARQUETTE RD  ","YEAR":2006,"DOING_BUSINESS_AS_NAME":"MARCUS LYONS","POP_AT_RISK":256753,"BUSINESS_TYPE":"Peddler, food (fruits and vegtables only)","LEGAL_NAME":"MARCUS LYONS","LONGITUDE":-87.63226993015333},
{"STATE":"IL","ZIP":60640,"LATTITUDE":41.96326227355917,"ADDRESS":"4453 N MAGNOLIA AVE 1 ","YEAR":2006,"DOING_BUSINESS_AS_NAME":"ROSA MIRANDA","POP_AT_RISK":1230079,"BUSINESS_TYPE":"Peddler, food (fruits and vegtables only)","LEGAL_NAME":"ROSA MIRANDA","LONGITUDE":-87.6608397306229},
{"STATE":"IL","ZIP":60617,"LATTITUDE":41.734912611427056,"ADDRESS":"8820 S HOUSTON AVE  ","YEAR":2006,"DOING_BUSINESS_AS_NAME":"ANABEL URBINA","POP_AT_RISK":126050,"BUSINESS_TYPE":"Peddler, food (fruits and vegtables only)","LEGAL_NAME":"ANABEL URBINA","LONGITUDE":-87.55013298851996},
{"STATE":"IL","ZIP":60646,"LATTITUDE":41.99031082001758,"ADDRESS":"5946 W PETERSON AVE 2 ","YEAR":2006,"DOING_BUSINESS_AS_NAME":"CARMEN GARICA","POP_AT_RISK":121710,"BUSINESS_TYPE":"Peddler, food (fruits and vegtables only)","LEGAL_NAME":"CARMEN GARCIA","LONGITUDE":-87.77735674419407},
{"STATE":"IL","ZIP":60628,"LATTITUDE":41.68270158069215,"ADDRESS":"318 E 116TH ST 1ST ","YEAR":2006,"DOING_BUSINESS_AS_NAME":"JESUS CERRATO","POP_AT_RISK":154728,"BUSINESS_TYPE":"Peddler, food (fruits and vegtables only)","LEGAL_NAME":"JESUS CERRATO","LONGITUDE":-87.61592907433824},
{"STATE":"IL","ZIP":60609,"LATTITUDE":41.81185674968635,"ADDRESS":"242 W 45TH PL  ","YEAR":2006,"DOING_BUSINESS_AS_NAME":"JOHN WELCH JR.","POP_AT_RISK":92125,"BUSINESS_TYPE":"Peddler, food (fruits and vegtables only)","LEGAL_NAME":"JOHN WELCH JR","LONGITUDE":-87.63270858882261},
{"STATE":"IL","ZIP":60644,"LATTITUDE":41.886727420687684,"ADDRESS":"334 N MENARD AVE  301","YEAR":2006,"DOING_BUSINESS_AS_NAME":"LAURA R. DOSS","POP_AT_RISK":258725,"BUSINESS_TYPE":"Peddler, food (fruits and vegtables only)","LEGAL_NAME":"LAURA R. DOSS","LONGITUDE":-87.7701332901046},
{"STATE":"IL","ZIP":60707,"LATTITUDE":41.92972324122959,"ADDRESS":"2725 N NEVA AVE  ","YEAR":2006,"DOING_BUSINESS_AS_NAME":"LUIGI ADDANTE","POP_AT_RISK":50813,"BUSINESS_TYPE":"Peddler, food (fruits and vegtables only)","LEGAL_NAME":"LUIGI ADDANTE","LONGITUDE":-87.80508781506443},
{"STATE":"IL","ZIP":60619,"LATTITUDE":41.75619457777317,"ADDRESS":"7612 S EBERHART AVE  ","YEAR":2006,"DOING_BUSINESS_AS_NAME":"HOGAN","POP_AT_RISK":83046,"BUSINESS_TYPE":"Peddler, food (fruits and vegtables only)","LEGAL_NAME":"ROBERTA HOGAN","LONGITUDE":-87.61276996803532},
{"STATE":"IL","ZIP":60620,"LATTITUDE":41.75636252722522,"ADDRESS":"400 W 76TH ST  201","YEAR":2006,"DOING_BUSINESS_AS_NAME":"TODD D TUCKER","POP_AT_RISK":37109,"BUSINESS_TYPE":"Peddler, food (fruits and vegtables only)","LEGAL_NAME":"TODD D TUCKER","LONGITUDE":-87.63450381551364},
{"STATE":"IL","ZIP":60620,"LATTITUDE":41.74592336883523,"ADDRESS":"8129 S ADA ST  ","YEAR":2006,"DOING_BUSINESS_AS_NAME":"VICTOR TEAGUE","POP_AT_RISK":44578,"BUSINESS_TYPE":"Peddler, food (fruits and vegtables only)","LEGAL_NAME":"VICTOR TEAGUE","LONGITUDE":-87.65711016885588},
{"STATE":"IL","ZIP":60616,"LATTITUDE":41.849230490078256,"ADDRESS":"268 W 24TH ST  2","YEAR":2006,"DOING_BUSINESS_AS_NAME":"BRUNO F. THOME","POP_AT_RISK":29877,"BUSINESS_TYPE":"Peddler, food (fruits and vegtables only)","LEGAL_NAME":"BRUNO F. THOME","LONGITUDE":-87.63458260268492},
{"STATE":"IL","ZIP":60617,"LATTITUDE":41.70630204741836,"ADDRESS":"10400 S AVENUE L   ","YEAR":2006,"DOING_BUSINESS_AS_NAME":"ISAI F. PAGAZA","POP_AT_RISK":87812,"BUSINESS_TYPE":"Peddler, food (fruits and vegtables only)","LEGAL_NAME":"ISAI F. PAGAZA","LONGITUDE":-87.5366401357901},
{"STATE":"IL","ZIP":60643,"LATTITUDE":41.67742535055515,"ADDRESS":"2106 W 119TH ST 1 ","YEAR":2006,"DOING_BUSINESS_AS_NAME":"JAYDE L. PUGAS","POP_AT_RISK":38986,"BUSINESS_TYPE":"Peddler, food (fruits and vegtables only)","LEGAL_NAME":"JAYDE L. PUGAS","LONGITUDE":-87.67358376983911},
{"STATE":"IL","ZIP":60624,"LATTITUDE":41.878969754901625,"ADDRESS":"4018 W WILCOX ST 1 ","YEAR":2006,"DOING_BUSINESS_AS_NAME":"LORRAINE BROWN","POP_AT_RISK":393460,"BUSINESS_TYPE":"Peddler, food (fruits and vegtables only)","LEGAL_NAME":"LORRAINE BROWN","LONGITUDE":-87.72641658969663},
{"STATE":"IL","ZIP":60707,"LATTITUDE":41.92191412700363,"ADDRESS":"2325 N NORMANDY AVE 1 ","YEAR":2006,"DOING_BUSINESS_AS_NAME":"MARIA ENRIQUEZ","POP_AT_RISK":41414,"BUSINESS_TYPE":"Peddler, food (fruits and vegtables only)","LEGAL_NAME":"MARIA ENRIQUEZ","LONGITUDE":-87.79220893184925},
{"STATE":"IL","ZIP":60609,"LATTITUDE":41.80208236728028,"ADDRESS":"5040 S ABERDEEN ST  ","YEAR":2006,"DOING_BUSINESS_AS_NAME":"SALVADOR SALAS","POP_AT_RISK":32510,"BUSINESS_TYPE":"Peddler, food (fruits and vegtables only)","LEGAL_NAME":"SALVADOR SALAS","LONGITUDE":-87.65279428091057},
{"STATE":"IL","ZIP":60645,"LATTITUDE":42.01140623249728,"ADDRESS":"2018 W ESTES AVE  ","YEAR":2006,"DOING_BUSINESS_AS_NAME":"SOCORRO FLORES","POP_AT_RISK":160620,"BUSINESS_TYPE":"Peddler, food (fruits and vegtables only)","LEGAL_NAME":"SOCORRO FLORES","LONGITUDE":-87.68104913040304},
{"STATE":"IL","ZIP":60649,"LATTITUDE":41.75254141810218,"ADDRESS":"7828 S JEFFERY BLVD  ","YEAR":2006,"DOING_BUSINESS_AS_NAME":"ANGELA M HARRIS","POP_AT_RISK":94300,"BUSINESS_TYPE":"Peddler, food (fruits and vegtables only)","LEGAL_NAME":"ANGELA M HARRIS","LONGITUDE":-87.57615306898978},
{"STATE":"IL","ZIP":60612,"LATTITUDE":41.87976209246967,"ADDRESS":"2329 W MONROE ST  1E","YEAR":2006,"DOING_BUSINESS_AS_NAME":"FREDERIKA BERRY","POP_AT_RISK":235072,"BUSINESS_TYPE":"Peddler, food (fruits and vegtables only)","LEGAL_NAME":"FREDERIKA BERRY","LONGITUDE":-87.68503526602909},
{"STATE":"IL","ZIP":60620,"LATTITUDE":41.74828775573167,"ADDRESS":"8008 S LOOMIS BLVD  ","YEAR":2006,"DOING_BUSINESS_AS_NAME":"HAROLD L. NEWELL","POP_AT_RISK":85052,"BUSINESS_TYPE":"Peddler, food (fruits and vegtables only)","LEGAL_NAME":"HAROLD L NEWELL","LONGITUDE":-87.65867812044843},
{"STATE":"IL","ZIP":60620,"LATTITUDE":41.73642454163479,"ADDRESS":"8640 S LAFLIN ST  ","YEAR":2006,"DOING_BUSINESS_AS_NAME":"WILLIAM WEBSTER","POP_AT_RISK":194005,"BUSINESS_TYPE":"Peddler, food (fruits and vegtables only)","LEGAL_NAME":"WILLIAM WEBSTER","LONGITUDE":-87.66079556875044},
{"STATE":"IL","ZIP":60616,"LATTITUDE":41.838232696382015,"ADDRESS":"532 W 31ST ST  ","YEAR":2006,"DOING_BUSINESS_AS_NAME":"ALINA T. MALESKY","POP_AT_RISK":341292,"BUSINESS_TYPE":"Peddler, food (fruits and vegtables only)","LEGAL_NAME":"ALINA T. MALESKY","LONGITUDE":-87.6402591864712},
{"STATE":"IL","ZIP":60644,"LATTITUDE":41.89309901678538,"ADDRESS":"4647 W HURON ST  1","YEAR":2006,"DOING_BUSINESS_AS_NAME":"MARCELO APARICIO","POP_AT_RISK":35421,"BUSINESS_TYPE":"Peddler, food (fruits and vegtables only)","LEGAL_NAME":"MARCELO APARICIO","LONGITUDE":-87.7430502755122},
{"STATE":"IL","ZIP":60641,"LATTITUDE":41.949853297397084,"ADDRESS":"4854 W GRACE ST  ","YEAR":2006,"DOING_BUSINESS_AS_NAME":"MARIA OLIVA BACA","POP_AT_RISK":148458,"BUSINESS_TYPE":"Peddler, food (fruits and vegtables only)","LEGAL_NAME":"MARIA OLIVA BACA","LONGITUDE":-87.74936199731113},
{"STATE":"IL","ZIP":60619,"LATTITUDE":41.73419069670633,"ADDRESS":"8814 S CALUMET AVE 1ST ","YEAR":2006,"DOING_BUSINESS_AS_NAME":"WILLIAM S MARTIN","POP_AT_RISK":260514,"BUSINESS_TYPE":"Peddler, food (fruits and vegtables only)","LEGAL_NAME":"WILLIAM S MARTIN","LONGITUDE":-87.61622754774335},
{"STATE":"IL","ZIP":60653,"LATTITUDE":41.81043740313377,"ADDRESS":"4655 S LAKE PARK AVE  221","YEAR":2006,"DOING_BUSINESS_AS_NAME":"CARMEN M. BENFORD","POP_AT_RISK":149920,"BUSINESS_TYPE":"Peddler, food (fruits and vegtables only)","LEGAL_NAME":"CARMEN M. BENFORD","LONGITUDE":-87.59313036835363},
{"STATE":"IL","ZIP":60617,"LATTITUDE":41.71338000805399,"ADDRESS":"2321 E 100TH ST  ","YEAR":2006,"DOING_BUSINESS_AS_NAME":"PATRICIA A. BLACK","POP_AT_RISK":23752,"BUSINESS_TYPE":"Peddler, food (fruits and vegtables only)","LEGAL_NAME":"PATRICIA A. BLACK","LONGITUDE":-87.56724541439105},
{"STATE":"IL","ZIP":60632,"LATTITUDE":41.81091741135504,"ADDRESS":"4510 S KEATING AVE  ","YEAR":2006,"DOING_BUSINESS_AS_NAME":"ALMA ROSA MARTINEZ","POP_AT_RISK":81912,"BUSINESS_TYPE":"Peddler, food (fruits and vegtables only)","LEGAL_NAME":"ALMA ROSA MARTINEZ","LONGITUDE":-87.7421732353587},
{"STATE":"IL","ZIP":60608,"LATTITUDE":41.861665752297334,"ADDRESS":"1441 S TALMAN AVE 1ST ","YEAR":2006,"DOING_BUSINESS_AS_NAME":"ARNULFO TOVAR RUIZ","POP_AT_RISK":84204,"BUSINESS_TYPE":"Peddler, food (fruits and vegtables only)","LEGAL_NAME":"ARNULFO TOVAR RUIZ","LONGITUDE":-87.69187733198248},
{"STATE":"IL","ZIP":60647,"LATTITUDE":41.91641714935846,"ADDRESS":"1921 N CAMPBELL AVE 1ST ","YEAR":2006,"DOING_BUSINESS_AS_NAME":"BERNARDO HERNANDEZ","POP_AT_RISK":57691,"BUSINESS_TYPE":"Peddler, food (fruits and vegtables only)","LEGAL_NAME":"BERNARDO HERNANDEZ","LONGITUDE":-87.68967923839017},
{"STATE":"IL","ZIP":60607,"LATTITUDE":41.8669400636893,"ADDRESS":"1148 S ASHLAND AVE  ","YEAR":2006,"DOING_BUSINESS_AS_NAME":"CHARLES M WILLIAMS","POP_AT_RISK":87924,"BUSINESS_TYPE":"Peddler, food (fruits and vegtables only)","LEGAL_NAME":"CHARLES M WILLIAMS","LONGITUDE":-87.66653242828352},
{"STATE":"IL","ZIP":60653,"LATTITUDE":41.81095625294399,"ADDRESS":"4613 S DREXEL BLVD  3B","YEAR":2006,"DOING_BUSINESS_AS_NAME":"DEBRA ANN BLOODSON","POP_AT_RISK":76636,"BUSINESS_TYPE":"Peddler, food (fruits and vegtables only)","LEGAL_NAME":"DEBRA ANN BLOODSON","LONGITUDE":-87.60377944956872},
{"STATE":"IL","ZIP":60649,"LATTITUDE":41.75874562890573,"ADDRESS":"7505 S LUELLA AVE 1 ","YEAR":2006,"DOING_BUSINESS_AS_NAME":"GLADYS C. MARTINEZ","POP_AT_RISK":43910,"BUSINESS_TYPE":"Peddler, food (fruits and vegtables only)","LEGAL_NAME":"GLADYS C. MARTINEZ","LONGITUDE":-87.5698805913275},
{"STATE":"IL","ZIP":60653,"LATTITUDE":41.82400116460606,"ADDRESS":"3939 S LAKE PARK AVE # 802","YEAR":2006,"DOING_BUSINESS_AS_NAME":"JAMES J. JORDAN JR.","POP_AT_RISK":140000,"BUSINESS_TYPE":"Peddler, food (fruits and vegtables only)","LEGAL_NAME":"JAMES J.JORDAN JR.","LONGITUDE":-87.60312264009514},
{"STATE":"IL","ZIP":60630,"LATTITUDE":41.96572971739572,"ADDRESS":"4700 N KEWANEE AVE  ","YEAR":2006,"DOING_BUSINESS_AS_NAME":"MARIA GONZALEZ","POP_AT_RISK":40384,"BUSINESS_TYPE":"Peddler, food (fruits and vegtables only)","LEGAL_NAME":"MARIA GONZALEZ-CRUZ","LONGITUDE":-87.73288931888779},
{"STATE":"IL","ZIP":60629,"LATTITUDE":41.77845863056898,"ADDRESS":"4307 W 63RD ST  2-R","YEAR":2006,"DOING_BUSINESS_AS_NAME":"JOSE R. MORALES, SR.","POP_AT_RISK":36715,"BUSINESS_TYPE":"Peddler, food (fruits and vegtables only)","LEGAL_NAME":"JOSE R. MORALES, SR.","LONGITUDE":-87.73039007468311},
{"STATE":"IL","ZIP":60643,"LATTITUDE":41.674052619031144,"ADDRESS":"12056 S JUSTINE ST  ","YEAR":2006,"DOING_BUSINESS_AS_NAME":"ROBERT L. JOHNSON JR.","POP_AT_RISK":101440,"BUSINESS_TYPE":"Peddler, food (fruits and vegtables only)","LEGAL_NAME":"ROBERT L. JOHNSON, JR","LONGITUDE":-87.66020570250922},
{"STATE":"IL","ZIP":60660,"LATTITUDE":41.98917783385503,"ADDRESS":"5905 N GLENWOOD AVE  3","YEAR":2006,"DOING_BUSINESS_AS_NAME":"STELLA JOSEFINA RIVERO","POP_AT_RISK":504609,"BUSINESS_TYPE":"Peddler, food (fruits and vegtables only)","LEGAL_NAME":"STELLA JOSEFINA RIVERO","LONGITUDE":-87.66497213005105},
{"STATE":"IL","ZIP":60634,"LATTITUDE":41.95966347848037,"ADDRESS":"5632 W PENSACOLA AVE  ","YEAR":2006,"DOING_BUSINESS_AS_NAME":"EMPERATRIZ FRUIT","POP_AT_RISK":308994,"BUSINESS_TYPE":"Peddler, food (fruits and vegtables only)","LEGAL_NAME":"EMPERATRIZ M. MALDONADO","LONGITUDE":-87.76855204500197},
{"STATE":"IL","ZIP":60619,"LATTITUDE":41.75817649224904,"ADDRESS":"7505 S CALUMET AVE  ","YEAR":2006,"DOING_BUSINESS_AS_NAME":"ORON BENISRAEL MONTGOMERY","POP_AT_RISK":34086,"BUSINESS_TYPE":"Peddler, food (fruits and vegtables only)","LEGAL_NAME":"ORON BENISRAEL MONTGOMERY","LONGITUDE":-87.61655362985208},
}