{
{"STATE":"IL","ZIP":60609,"LATTITUDE":41.80850909523564,"ADDRESS":"1535 W 47TH ST  ","YEAR":2013,"DOING_BUSINESS_AS_NAME":"ASHLAND HOTEL","POP_AT_RISK":302360,"BUSINESS_TYPE":"Single Room Occupancy Class II","LEGAL_NAME":"CHROMCOR CORP","LONGITUDE":-87.66387725815235},
{"STATE":"IL","ZIP":60612,"LATTITUDE":41.88276730057428,"ADDRESS":"2847 W WASHINGTON BLVD  ","YEAR":2013,"DOING_BUSINESS_AS_NAME":"NEW PARIE HOTEL","POP_AT_RISK":129548,"BUSINESS_TYPE":"Single Room Occupancy Class II","LEGAL_NAME":"YJS CORPORATION","LONGITUDE":-87.69825995386356},
{"STATE":"IL","ZIP":60626,"LATTITUDE":42.02126473923971,"ADDRESS":"1600 W JONQUIL TER  1ST","YEAR":2013,"DOING_BUSINESS_AS_NAME":"JONQUIL HOTEL","POP_AT_RISK":575399,"BUSINESS_TYPE":"Single Room Occupancy Class II","LEGAL_NAME":"GOOD NEWS PARTNERS","LONGITUDE":-87.67077605650071},
{"STATE":"IL","ZIP":60613,"LATTITUDE":41.95237689006099,"ADDRESS":"3838 N BROADWAY   1","YEAR":2013,"DOING_BUSINESS_AS_NAME":"CHATEAU HOTEL","POP_AT_RISK":582544,"BUSINESS_TYPE":"Single Room Occupancy Class II","LEGAL_NAME":"ARBAS INVESTMENTS LP","LONGITUDE":-87.64978858011082},
{"STATE":"IL","ZIP":60612,"LATTITUDE":41.87726564921276,"ADDRESS":"3001 W JACKSON BLVD  ","YEAR":2013,"DOING_BUSINESS_AS_NAME":"J.R. PLAZA II, INC\/SRO","POP_AT_RISK":121196,"BUSINESS_TYPE":"Single Room Occupancy Class II","LEGAL_NAME":"J.R. PLAZA II, INC\/SRO","LONGITUDE":-87.70116563047536},
{"STATE":"IL","ZIP":60615,"LATTITUDE":41.80316235690915,"ADDRESS":"5020 S MICHIGAN AVE  ","YEAR":2013,"DOING_BUSINESS_AS_NAME":"MICHIGAN AVENUE HOTEL","POP_AT_RISK":26519,"BUSINESS_TYPE":"Single Room Occupancy Class II","LEGAL_NAME":"MICHIGAN AVENUE HOTEL LLC","LONGITUDE":-87.62282420678241},
{"STATE":"IL","ZIP":60657,"LATTITUDE":41.939894423424015,"ADDRESS":"721 W BELMONT AVE  1","YEAR":2013,"DOING_BUSINESS_AS_NAME":"ABBOTT HOTEL","POP_AT_RISK":1278990,"BUSINESS_TYPE":"Single Room Occupancy Class II","LEGAL_NAME":"ABBOTT HOTEL AN ILL LIM. PTR.","LONGITUDE":-87.64770839776645},
{"STATE":"IL","ZIP":60610,"LATTITUDE":41.91067843482093,"ADDRESS":"1552-1554 N LA SALLE ST  ","YEAR":2013,"DOING_BUSINESS_AS_NAME":"LA SALLE STREET APARTMENTS LLC","POP_AT_RISK":1168002,"BUSINESS_TYPE":"Single Room Occupancy Class II","LEGAL_NAME":"LA SALLE STREET APARTMENTS LLC","LONGITUDE":-87.63328092009478},
{"STATE":"IL","ZIP":60609,"LATTITUDE":41.8107813033463,"ADDRESS":"4559 S HALSTED ST  ","YEAR":2013,"DOING_BUSINESS_AS_NAME":"4559 HALSTED ST BUILDING COMPANY","POP_AT_RISK":20371,"BUSINESS_TYPE":"Single Room Occupancy Class II","LEGAL_NAME":"4559 HALSTEAD STREET BUILDING COMPANY, L.L.C.","LONGITUDE":-87.64544030036262},
}