{
{"STATE":"IL","ZIP":60641,"LATTITUDE":41.96075920146988,"ADDRESS":"4397 N ELSTON AVE 1ST ","YEAR":2005,"DOING_BUSINESS_AS_NAME":"4397 INC","POP_AT_RISK":783480,"BUSINESS_TYPE":"Tavern","LEGAL_NAME":"4397, INC.","LONGITUDE":-87.72923439098017},
{"STATE":"IL","ZIP":60612,"LATTITUDE":41.88120077396047,"ADDRESS":"2674 W MADISON ST 1 ","YEAR":2005,"DOING_BUSINESS_AS_NAME":"BROWN SUGAR LOUNGE","POP_AT_RISK":535296,"BUSINESS_TYPE":"Tavern","LEGAL_NAME":"LEV BROWN JR.","LONGITUDE":-87.69384383164197},
{"STATE":"IL","ZIP":60647,"LATTITUDE":41.91826595568358,"ADDRESS":"2033 N MILWAUKEE AVE 1ST ","YEAR":2005,"DOING_BUSINESS_AS_NAME":"CONGRESS PIZZA","POP_AT_RISK":57691,"BUSINESS_TYPE":"Tavern","LEGAL_NAME":"TONY LOMBARDO","LONGITUDE":-87.68952838043421},
{"STATE":"IL","ZIP":60623,"LATTITUDE":41.85196402912545,"ADDRESS":"2880 W CERMAK RD 1ST ","YEAR":2005,"DOING_BUSINESS_AS_NAME":"LAS QUINCE LETRAS","POP_AT_RISK":1291221,"BUSINESS_TYPE":"Tavern","LEGAL_NAME":"ALFONSO GARCIA","LONGITUDE":-87.69882966389457},
{"STATE":"IL","ZIP":60641,"LATTITUDE":41.946415942190185,"ADDRESS":"3600 N PULASKI RD 1ST ","YEAR":2005,"DOING_BUSINESS_AS_NAME":"BRUDDER'S","POP_AT_RISK":509427,"BUSINESS_TYPE":"Tavern","LEGAL_NAME":"GEORGE MICHAEL","LONGITUDE":-87.7275494909985},
{"STATE":"IL","ZIP":60614,"LATTITUDE":41.918279291789645,"ADDRESS":"816 W ARMITAGE AVE  ","YEAR":2005,"DOING_BUSINESS_AS_NAME":"CHARLIE TROTTERS","POP_AT_RISK":375788,"BUSINESS_TYPE":"Tavern","LEGAL_NAME":"CHT CORPORATION","LONGITUDE":-87.64919887014302},
{"STATE":"IL","ZIP":60620,"LATTITUDE":41.75025807748378,"ADDRESS":"1549 W 79TH ST 1ST ","YEAR":2005,"DOING_BUSINESS_AS_NAME":"SWEET BOB'S LOUNGE","POP_AT_RISK":290577,"BUSINESS_TYPE":"Tavern","LEGAL_NAME":"RUBY LEE ARMOND","LONGITUDE":-87.66294706205083},
{"STATE":"IL","ZIP":60641,"LATTITUDE":41.96063355649602,"ADDRESS":"5436 W MONTROSE AVE  ","YEAR":2005,"DOING_BUSINESS_AS_NAME":"ALGIER LOUNGE","POP_AT_RISK":158661,"BUSINESS_TYPE":"Tavern","LEGAL_NAME":"FLORENCE BIERNAT","LONGITUDE":-87.76381678335721},
{"STATE":"IL","ZIP":60628,"LATTITUDE":41.68906477546439,"ADDRESS":"611 E 113TH ST 1ST ","YEAR":2005,"DOING_BUSINESS_AS_NAME":"PULLMAN'S PUB","POP_AT_RISK":64370,"BUSINESS_TYPE":"Tavern","LEGAL_NAME":"E A M CORPORATION","LONGITUDE":-87.60782457821158},
{"STATE":"IL","ZIP":60651,"LATTITUDE":41.898367071372185,"ADDRESS":"939-941 N PULASKI RD  ","YEAR":2005,"DOING_BUSINESS_AS_NAME":"BROTHER'S PALACE -939","POP_AT_RISK":639171,"BUSINESS_TYPE":"Tavern","LEGAL_NAME":"R & G MILLER INC.","LONGITUDE":-87.72602784401688},
{"STATE":"IL","ZIP":60619,"LATTITUDE":41.736629966335755,"ADDRESS":"426-428 E 87TH ST 1ST ","YEAR":2005,"DOING_BUSINESS_AS_NAME":"RED PEPPERS","POP_AT_RISK":151870,"BUSINESS_TYPE":"Tavern","LEGAL_NAME":"KRISTINA PATTERSON","LONGITUDE":-87.61333322109446},
{"STATE":"IL","ZIP":60629,"LATTITUDE":41.786409576937494,"ADDRESS":"2507 W 59TH ST 1ST #","YEAR":2005,"DOING_BUSINESS_AS_NAME":"TEQUILA CLUB","POP_AT_RISK":673959,"BUSINESS_TYPE":"Tavern","LEGAL_NAME":"TEQUILA CLUB, INC.","LONGITUDE":-87.68661171772126},
{"STATE":"IL","ZIP":60601,"LATTITUDE":41.88306562263734,"ADDRESS":"111 N LAKE SHORE DR  ","YEAR":2005,"DOING_BUSINESS_AS_NAME":"COLUMBIA YACHT CLUB","POP_AT_RISK":42647,"BUSINESS_TYPE":"Tavern","LEGAL_NAME":"COLUMBIA YACHT CLUB","LONGITUDE":-87.61545613448831},
{"STATE":"IL","ZIP":60606,"LATTITUDE":41.87748907498243,"ADDRESS":"325 S FRANKLIN ST 1ST ","YEAR":2005,"DOING_BUSINESS_AS_NAME":"AROUND THE CORNER","POP_AT_RISK":118824,"BUSINESS_TYPE":"Tavern","LEGAL_NAME":"325 S. FRANKLIN, INC","LONGITUDE":-87.63504470794305},
{"STATE":"IL","ZIP":60634,"LATTITUDE":41.94510050623739,"ADDRESS":"7607 W ADDISON ST  ","YEAR":2005,"DOING_BUSINESS_AS_NAME":"BOOM TOWN SALOON","POP_AT_RISK":175602,"BUSINESS_TYPE":"Tavern","LEGAL_NAME":"BOOM TOWN SALOON INC","LONGITUDE":-87.817111685024},
{"STATE":"IL","ZIP":60619,"LATTITUDE":41.7514313030561,"ADDRESS":"914 E 79TH ST 1ST ","YEAR":2005,"DOING_BUSINESS_AS_NAME":"EAST OF THE RYAN,INC","POP_AT_RISK":41847,"BUSINESS_TYPE":"Tavern","LEGAL_NAME":"EAST OF THE RYAN INC","LONGITUDE":-87.60211212497248},
{"STATE":"IL","ZIP":60621,"LATTITUDE":41.76090583983862,"ADDRESS":"7320 S HALSTED ST 1ST ","YEAR":2005,"DOING_BUSINESS_AS_NAME":"JUST US","POP_AT_RISK":146384,"BUSINESS_TYPE":"Tavern","LEGAL_NAME":"7320 S. HALSTED CORP.","LONGITUDE":-87.64445102310148},
{"STATE":"IL","ZIP":60625,"LATTITUDE":41.97042959055041,"ADDRESS":"4857 N DAMEN AVE 1ST ","YEAR":2005,"DOING_BUSINESS_AS_NAME":"GIO'S SPORTS BAR","POP_AT_RISK":955536,"BUSINESS_TYPE":"Tavern","LEGAL_NAME":"GIO'S SPORTS BAR, INC","LONGITUDE":-87.67908665930871},
{"STATE":"IL","ZIP":60634,"LATTITUDE":41.952524733255466,"ADDRESS":"3938 N CENTRAL AVE 1 ","YEAR":2005,"DOING_BUSINESS_AS_NAME":"DON'T WORRY","POP_AT_RISK":230904,"BUSINESS_TYPE":"Tavern","LEGAL_NAME":"M.G.R. GUARDIAN, INC.","LONGITUDE":-87.7671269338514},
{"STATE":"IL","ZIP":60646,"LATTITUDE":41.99133208991871,"ADDRESS":"6051 N MILWAUKEE AVE 1ST ","YEAR":2005,"DOING_BUSINESS_AS_NAME":"THE ORIGINAL DUGAN'S","POP_AT_RISK":24342,"BUSINESS_TYPE":"Tavern","LEGAL_NAME":"MILWAUKEE BAR COMPANY","LONGITUDE":-87.78196173224659},
{"STATE":"IL","ZIP":60647,"LATTITUDE":41.920921282115486,"ADDRESS":"2210 N MILWAUKEE AVE 1ST ","YEAR":2005,"DOING_BUSINESS_AS_NAME":"EL NUEVO NARANJO LOUNGE","POP_AT_RISK":167454,"BUSINESS_TYPE":"Tavern","LEGAL_NAME":"EL NUEVO NARANJO, INC.","LONGITUDE":-87.69434880817748},
{"STATE":"IL","ZIP":60622,"LATTITUDE":41.90331075549537,"ADDRESS":"1944 W DIVISION ST  ","YEAR":2005,"DOING_BUSINESS_AS_NAME":"BAR THIRTEEN","POP_AT_RISK":358725,"BUSINESS_TYPE":"Tavern","LEGAL_NAME":"MIDDLE OF NOWHERE, INC.","LONGITUDE":-87.67665169704529},
{"STATE":"IL","ZIP":60645,"LATTITUDE":42.01217317771228,"ADDRESS":"2800 W TOUHY AVE  ","YEAR":2005,"DOING_BUSINESS_AS_NAME":"MCKELLIN'S","POP_AT_RISK":116712,"BUSINESS_TYPE":"Tavern","LEGAL_NAME":"MIKE'S DO-DROP-INN, INC.","LONGITUDE":-87.69984397826516},
{"STATE":"IL","ZIP":60619,"LATTITUDE":41.758147964159335,"ADDRESS":"7512-7514 S COTTAGE GROVE AVE  ","YEAR":2005,"DOING_BUSINESS_AS_NAME":"RANDY'S LOUNGE","POP_AT_RISK":31461,"BUSINESS_TYPE":"Tavern","LEGAL_NAME":"RANDY'S LIQUOR LOUNGE INC.","LONGITUDE":-87.60552413621737},
{"STATE":"IL","ZIP":60614,"LATTITUDE":41.92511121739166,"ADDRESS":"1365 W FULLERTON AVE 1ST ","YEAR":2005,"DOING_BUSINESS_AS_NAME":"THE ARROGANT FROG","POP_AT_RISK":484928,"BUSINESS_TYPE":"Tavern","LEGAL_NAME":"MATTICKS WINE & LIQUORS, INC.","LONGITUDE":-87.66310624971645},
{"STATE":"IL","ZIP":60609,"LATTITUDE":41.81108127726359,"ADDRESS":"4554 S MCDOWELL AVE 1ST #","YEAR":2005,"DOING_BUSINESS_AS_NAME":"BACK OF THE YARDS SALOON","POP_AT_RISK":376860,"BUSINESS_TYPE":"Tavern","LEGAL_NAME":"BACK OF THE YARDS SALOON. INC.","LONGITUDE":-87.66198609821176},
{"STATE":"IL","ZIP":60645,"LATTITUDE":42.01207994667281,"ADDRESS":"7126 N RIDGE BLVD  ","YEAR":2005,"DOING_BUSINESS_AS_NAME":"THE LAMP POST LTD","POP_AT_RISK":762190,"BUSINESS_TYPE":"Tavern","LEGAL_NAME":"7126 NORTH RIDGE BOULEVARD CORP.","LONGITUDE":-87.68315762514803},
{"STATE":"IL","ZIP":60637,"LATTITUDE":41.78017105108885,"ADDRESS":"461 E 63RD ST 1ST ","YEAR":2005,"DOING_BUSINESS_AS_NAME":"KOZY KORNER","POP_AT_RISK":488319,"BUSINESS_TYPE":"Tavern","LEGAL_NAME":"TRI-ACE LIQUOR COMPANY, INCORPORATED","LONGITUDE":-87.61326281809536},
}