{
{"STATE":"IL","ZIP":60624,"LATTITUDE":41.88758777549686,"ADDRESS":"4255 W KINZIE ST 1ST ","YEAR":2007,"DOING_BUSINESS_AS_NAME":"H T 'S DISCOUNT GLASS CO","POP_AT_RISK":770000,"BUSINESS_TYPE":"Board-Up Work","LEGAL_NAME":"HERMON TONEY JR","LONGITUDE":-87.73296174326708},
{"STATE":"IL","ZIP":60639,"LATTITUDE":41.91547075644109,"ADDRESS":"4910 W GRAND AVE  ","YEAR":2007,"DOING_BUSINESS_AS_NAME":"ERS BOARD UP INC.","POP_AT_RISK":59030,"BUSINESS_TYPE":"Board-Up Work","LEGAL_NAME":"ERS BOARD UP,INC.","LONGITUDE":-87.74961764802936},
{"STATE":"IL","ZIP":60630,"LATTITUDE":41.980733083375114,"ADDRESS":"5460 N MILWAUKEE AVE  ","YEAR":2007,"DOING_BUSINESS_AS_NAME":"ACE BOARD-UP COMPANY","POP_AT_RISK":30761,"BUSINESS_TYPE":"Board-Up Work","LEGAL_NAME":"ACE BOARD-UP COMPANY INC","LONGITUDE":-87.77253948587003},
{"STATE":"IL","ZIP":60641,"LATTITUDE":41.95343222161391,"ADDRESS":"5112 W IRVING PARK RD 1ST ","YEAR":2007,"DOING_BUSINESS_AS_NAME":"ADVANCE GLASS SERVICE INC.","POP_AT_RISK":634776,"BUSINESS_TYPE":"Board-Up Work","LEGAL_NAME":"ADVANCE GLASS SERVICE INC.","LONGITUDE":-87.7552265374798},
{"STATE":"IL","ZIP":60609,"LATTITUDE":41.82708655394266,"ADDRESS":"1048 W 37TH ST  ","YEAR":2007,"DOING_BUSINESS_AS_NAME":"NEIGHBORHOOD SERVICE CO","POP_AT_RISK":224712,"BUSINESS_TYPE":"Board-Up Work","LEGAL_NAME":"CHRISTOPHER BUTLER TOEPFER","LONGITUDE":-87.65270581956476},
{"STATE":"IL","ZIP":60639,"LATTITUDE":41.915093322076125,"ADDRESS":"4447 W CORTLAND ST 1ST ","YEAR":2007,"DOING_BUSINESS_AS_NAME":"RESTORE BOARD - UP INC.","POP_AT_RISK":421512,"BUSINESS_TYPE":"Board-Up Work","LEGAL_NAME":"RESTORE BOARD-UP CO., INC.","LONGITUDE":-87.7381484006334},
{"STATE":"IL","ZIP":60638,"LATTITUDE":41.774000947227286,"ADDRESS":"6201 W 65TH ST  ","YEAR":2007,"DOING_BUSINESS_AS_NAME":"LIGHTNING BOARDUP CORPORATION","POP_AT_RISK":113710,"BUSINESS_TYPE":"Board-Up Work","LEGAL_NAME":"LIGHTNING BOARDUP CORPORATION","LONGITUDE":-87.77635370103114},
{"STATE":"IL","ZIP":60618,"LATTITUDE":41.9376896243661,"ADDRESS":"3101 N WESTERN AVE  ","YEAR":2007,"DOING_BUSINESS_AS_NAME":"A Emergency Services and Restoration, Inc.","POP_AT_RISK":951660,"BUSINESS_TYPE":"Board-Up Work","LEGAL_NAME":"A EMERGENCY FIRE-BOARD UP, INC.","LONGITUDE":-87.68773947308173},
{"STATE":"IL","ZIP":60646,"LATTITUDE":41.985663511502565,"ADDRESS":"5738 N ELSTON AVE  ","YEAR":2007,"DOING_BUSINESS_AS_NAME":"AAA ALLIED BD - UP & GLASS","POP_AT_RISK":31977,"BUSINESS_TYPE":"Board-Up Work","LEGAL_NAME":"AAA ALLIED BOARD UP & GLASS INC.","LONGITUDE":-87.7698317730956},
}