{
{"STATE":"IL","ZIP":60647,"LATTITUDE":41.91023000926717,"ADDRESS":"2325 W NORTH AVE 1ST ","YEAR":2013,"DOING_BUSINESS_AS_NAME":"LATITUDE20 LLC","POP_AT_RISK":1687560,"BUSINESS_TYPE":"Mobile Food Dispenser","LEGAL_NAME":"LATITUDE20 LLC","LONGITUDE":-87.6858503668328},
{"STATE":"IL","ZIP":60606,"LATTITUDE":41.883812772281566,"ADDRESS":"122 N WELLS ST  ","YEAR":2013,"DOING_BUSINESS_AS_NAME":"BOMBAY WRAPS","POP_AT_RISK":200468,"BUSINESS_TYPE":"Mobile Food Dispenser","LEGAL_NAME":"Bombay Wraps Co","LONGITUDE":-87.6340219280194},
{"STATE":"IL","ZIP":60642,"LATTITUDE":41.89099763912711,"ADDRESS":"1103 W GRAND AVE  ","YEAR":2013,"DOING_BUSINESS_AS_NAME":"LITTLE SALAD SHOP","POP_AT_RISK":90260,"BUSINESS_TYPE":"Mobile Food Dispenser","LEGAL_NAME":"TLSS CHICAGO LLC","LONGITUDE":-87.6547725026918},
{"STATE":"IL","ZIP":60607,"LATTITUDE":41.86959706650426,"ADDRESS":"1030 W TAYLOR ST  ","YEAR":2013,"DOING_BUSINESS_AS_NAME":"FLIRTY CUPCAKES","POP_AT_RISK":152184,"BUSINESS_TYPE":"Mobile Food Dispenser","LEGAL_NAME":"FLIRTY CUPCAKES LLC","LONGITUDE":-87.6523490175014},
{"STATE":"IL","ZIP":60654,"LATTITUDE":41.891297376120164,"ADDRESS":"730 W GRAND AVE 1ST AND 2ND ","YEAR":2013,"DOING_BUSINESS_AS_NAME":"ORANGE","POP_AT_RISK":108098,"BUSINESS_TYPE":"Mobile Food Dispenser","LEGAL_NAME":"ORANGE ON GRAND INC.","LONGITUDE":-87.64713091483144},
{"STATE":"IL","ZIP":60608,"LATTITUDE":41.854694701707345,"ADDRESS":"2007 - 2009 S DAMEN AVE 1ST ","YEAR":2013,"DOING_BUSINESS_AS_NAME":"THE JIBARITO STOP LLC","POP_AT_RISK":124083,"BUSINESS_TYPE":"Mobile Food Dispenser","LEGAL_NAME":"THE JIBARITO STOP LLC","LONGITUDE":-87.67576513516751},
{"STATE":"IL","ZIP":60649,"LATTITUDE":41.75868882324165,"ADDRESS":"1713 E 75TH ST 1ST ","YEAR":2013,"DOING_BUSINESS_AS_NAME":"RAY'S ISLAND GRILL LLC","POP_AT_RISK":661626,"BUSINESS_TYPE":"Mobile Food Dispenser","LEGAL_NAME":"RAY'S ISLAND GRILL LLC","LONGITUDE":-87.58295045587245},
{"STATE":"IL","ZIP":60657,"LATTITUDE":41.93727241797709,"ADDRESS":"3056 N LINCOLN AVE 1 ","YEAR":2013,"DOING_BUSINESS_AS_NAME":"CHIZAKAYA","POP_AT_RISK":1521954,"BUSINESS_TYPE":"Mobile Food Dispenser","LEGAL_NAME":"HAROLD'S RESTAURANT, LLC","LONGITUDE":-87.66552486724433},
{"STATE":"IL","ZIP":60614,"LATTITUDE":41.92606441246732,"ADDRESS":"2430-2432 N LINCOLN AVE  ","YEAR":2013,"DOING_BUSINESS_AS_NAME":"THE ROOST","POP_AT_RISK":1069365,"BUSINESS_TYPE":"Mobile Food Dispenser","LEGAL_NAME":"CHICAGO LOCAL MARKETS LLC","LONGITUDE":-87.64984102257678},
{"STATE":"IL","ZIP":60501,"LATTITUDE":41.795178722452974,"ADDRESS":"5963 S ARCHER   ","YEAR":2013,"DOING_BUSINESS_AS_NAME":"SUPERHEROES ICE CREAM INC.","POP_AT_RISK":71712,"BUSINESS_TYPE":"Mobile Food Dispenser","LEGAL_NAME":"SUPERHEROES ICE CREAM INC.","LONGITUDE":-87.76513684692263},
{"STATE":"IL","ZIP":60616,"LATTITUDE":41.85757610866475,"ADDRESS":"1800 S JEFFERSON ST 1ST ","YEAR":2013,"DOING_BUSINESS_AS_NAME":"FALAFEL BROTHERS","POP_AT_RISK":169420,"BUSINESS_TYPE":"Mobile Food Dispenser","LEGAL_NAME":"THE FALAFEL BROTHERS, INC.","LONGITUDE":-87.64200897164467},
{"STATE":"IL","ZIP":60608,"LATTITUDE":41.85923166317091,"ADDRESS":"2443 W 16TH ST  ","YEAR":2013,"DOING_BUSINESS_AS_NAME":"BEYOND BORDERS FUSION FOOD, LLC","POP_AT_RISK":220548,"BUSINESS_TYPE":"Mobile Food Dispenser","LEGAL_NAME":"BEYOND BORDERS FUSION FOOD, LLC","LONGITUDE":-87.68748555402212},
}