{
{"STATE":"IL","ZIP":60616,"LATTITUDE":41.85783824203235,"ADDRESS":"1801 S INDIANA AVE  ","YEAR":2012,"DOING_BUSINESS_AS_NAME":"CAFE SOCIETY INC","POP_AT_RISK":164500,"BUSINESS_TYPE":"Retail Food Est.-Supplemental License for Dog-Friendly Areas","LEGAL_NAME":"CAFE SOCIETY INC","LONGITUDE":-87.62218405329706},
{"STATE":"IL","ZIP":60615,"LATTITUDE":41.79492106897254,"ADDRESS":"1055 E 55TH ST  ","YEAR":2012,"DOING_BUSINESS_AS_NAME":"SEVEN TEN","POP_AT_RISK":798360,"BUSINESS_TYPE":"Retail Food Est.-Supplemental License for Dog-Friendly Areas","LEGAL_NAME":"STRIKE TWO CORP.","LONGITUDE":-87.59985203106729},
{"STATE":"IL","ZIP":60601,"LATTITUDE":41.887436518969736,"ADDRESS":"45 E RIVERWALK SOUTH   ","YEAR":2012,"DOING_BUSINESS_AS_NAME":"O'BRIENS RIVERWALK CAFE","POP_AT_RISK":73360,"BUSINESS_TYPE":"Retail Food Est.-Supplemental License for Dog-Friendly Areas","LEGAL_NAME":"P. J. WELLS, INC.","LONGITUDE":-87.62634441347357},
{"STATE":"IL","ZIP":60618,"LATTITUDE":41.944311953934424,"ADDRESS":"3471 N ELSTON AVE 1ST ","YEAR":2012,"DOING_BUSINESS_AS_NAME":"CHIEF O'NEILL'S PUB & RESTAURANT","POP_AT_RISK":381101,"BUSINESS_TYPE":"Retail Food Est.-Supplemental License for Dog-Friendly Areas","LEGAL_NAME":"MCKINNEY'S PUB, LTD.","LONGITUDE":-87.7052548221551},
{"STATE":"IL","ZIP":60607,"LATTITUDE":41.88166707708318,"ADDRESS":"1326-1328 W MADISON ST 1 ","YEAR":2012,"DOING_BUSINESS_AS_NAME":"WESTEND BAR & GRILL","POP_AT_RISK":209045,"BUSINESS_TYPE":"Retail Food Est.-Supplemental License for Dog-Friendly Areas","LEGAL_NAME":"WEST LOOP TAP, L.L.C.","LONGITUDE":-87.66070751628168},
{"STATE":"IL","ZIP":60660,"LATTITUDE":41.98357123084218,"ADDRESS":"1039 W BRYN MAWR AVE  ","YEAR":2012,"DOING_BUSINESS_AS_NAME":"FRANCESCA'S BRYN MAWR","POP_AT_RISK":492275,"BUSINESS_TYPE":"Retail Food Est.-Supplemental License for Dog-Friendly Areas","LEGAL_NAME":"1039 W. BRYN MAWR INC.","LONGITUDE":-87.6567539303426},
{"STATE":"IL","ZIP":60647,"LATTITUDE":41.92648028782631,"ADDRESS":"2456 N CALIFORNIA AVE 1ST & BSMT ","YEAR":2012,"DOING_BUSINESS_AS_NAME":"LETIZIA'S FIORE","POP_AT_RISK":131728,"BUSINESS_TYPE":"Retail Food Est.-Supplemental License for Dog-Friendly Areas","LEGAL_NAME":"MAKING THE DONUTS INC.","LONGITUDE":-87.69760792778989},
{"STATE":"IL","ZIP":60622,"LATTITUDE":41.908871127140785,"ADDRESS":"1484 N MILWAUKEE AVE 1 ","YEAR":2012,"DOING_BUSINESS_AS_NAME":"NATIVE FOODS CAFE","POP_AT_RISK":1191636,"BUSINESS_TYPE":"Retail Food Est.-Supplemental License for Dog-Friendly Areas","LEGAL_NAME":"NATIVE FOODS BUCKTOWN LLC","LONGITUDE":-87.6753374248646},
{"STATE":"IL","ZIP":60625,"LATTITUDE":41.96580612741261,"ADDRESS":"4632 N ROCKWELL ST  1","YEAR":2012,"DOING_BUSINESS_AS_NAME":"ROCKWELL'S NEIGHBORHOOD GRILL","POP_AT_RISK":253104,"BUSINESS_TYPE":"Retail Food Est.-Supplemental License for Dog-Friendly Areas","LEGAL_NAME":"NEIGHBORHOOD RESTAURANTS, INC.","LONGITUDE":-87.6938674921247},
}