{
{"STATE":"IL","ZIP":60619,"LATTITUDE":41.758834131342915,"ADDRESS":"1400 E 75TH ST 1ST ","YEAR":2015,"DOING_BUSINESS_AS_NAME":"DORCHESTER ANIMAL HOSPITAL","POP_AT_RISK":35021,"BUSINESS_TYPE":"Animal Care License","LEGAL_NAME":"JAGJIT BRAR","LONGITUDE":-87.59074086260878},
{"STATE":"IL","ZIP":60609,"LATTITUDE":41.80865270371698,"ADDRESS":"1836 W 47TH ST 1ST ","YEAR":2015,"DOING_BUSINESS_AS_NAME":"PARADISE DE AVES","POP_AT_RISK":179225,"BUSINESS_TYPE":"Animal Care License","LEGAL_NAME":"JOSE M PEREZ","LONGITUDE":-87.67127397220543},
{"STATE":"IL","ZIP":60631,"LATTITUDE":42.00276925583087,"ADDRESS":"6702 N NORTHWEST HWY 1ST ","YEAR":2015,"DOING_BUSINESS_AS_NAME":"V I P ALBREED GROOMING","POP_AT_RISK":18918,"BUSINESS_TYPE":"Animal Care License","LEGAL_NAME":"CAPRICE SMITH","LONGITUDE":-87.81636646266041},
{"STATE":"IL","ZIP":60631,"LATTITUDE":42.011790966822375,"ADDRESS":"7236 W TOUHY AVE 1ST ","YEAR":2015,"DOING_BUSINESS_AS_NAME":"PAW & CLAW CAT GROOMING","POP_AT_RISK":19160,"BUSINESS_TYPE":"Animal Care License","LEGAL_NAME":"DIANA DEMPSEY","LONGITUDE":-87.8080824261318},
{"STATE":"IL","ZIP":60626,"LATTITUDE":42.005720919693786,"ADDRESS":"6812 N CLARK ST 1ST ","YEAR":2015,"DOING_BUSINESS_AS_NAME":"ROGERS PARK ANIMAL HOSPITAL","POP_AT_RISK":165364,"BUSINESS_TYPE":"Animal Care License","LEGAL_NAME":"DR. M Z USMAN","LONGITUDE":-87.67335591496197},
{"STATE":"IL","ZIP":60634,"LATTITUDE":41.945295393932916,"ADDRESS":"7340 W ADDISON ST 1ST ","YEAR":2015,"DOING_BUSINESS_AS_NAME":"THE DOG ROOM","POP_AT_RISK":367328,"BUSINESS_TYPE":"Animal Care License","LEGAL_NAME":"YURI HENNELLY","LONGITUDE":-87.81104071776409},
{"STATE":"IL","ZIP":60615,"LATTITUDE":41.79521863458298,"ADDRESS":"1340-1342 E 55TH ST 1 1","YEAR":2015,"DOING_BUSINESS_AS_NAME":"Parker's Pets","POP_AT_RISK":172844,"BUSINESS_TYPE":"Animal Care License","LEGAL_NAME":"HYDE BARK, LLC","LONGITUDE":-87.59329840236423},
{"STATE":"IL","ZIP":60611,"LATTITUDE":41.893341296312244,"ADDRESS":"401 E ONTARIO ST 1 ","YEAR":2015,"DOING_BUSINESS_AS_NAME":"STREETVILLE PET SPA & BOUTIQUE","POP_AT_RISK":115498,"BUSINESS_TYPE":"Animal Care License","LEGAL_NAME":"HYDE PARK INC.","LONGITUDE":-87.61758915120579},
{"STATE":"IL","ZIP":60638,"LATTITUDE":41.777771632322505,"ADDRESS":"5935 W 63RD ST  1","YEAR":2015,"DOING_BUSINESS_AS_NAME":"FEE FEE'S","POP_AT_RISK":56814,"BUSINESS_TYPE":"Animal Care License","LEGAL_NAME":"LAURIE BENNETT","LONGITUDE":-87.77048696136391},
{"STATE":"IL","ZIP":60641,"LATTITUDE":41.953563207721864,"ADDRESS":"4640 W IRVING PARK RD 1 ","YEAR":2015,"DOING_BUSINESS_AS_NAME":"PETSMART, Inc. #2526","POP_AT_RISK":86200,"BUSINESS_TYPE":"Animal Care License","LEGAL_NAME":"PETSMART, INC.","LONGITUDE":-87.74422946570301},
{"STATE":"IL","ZIP":60656,"LATTITUDE":41.97462951006733,"ADDRESS":"7220 W FOSTER AVE 1ST ","YEAR":2015,"DOING_BUSINESS_AS_NAME":"PET SUPPLIES PLUS","POP_AT_RISK":125060,"BUSINESS_TYPE":"Animal Care License","LEGAL_NAME":"PSP STORES LLC","LONGITUDE":-87.80798109934157},
{"STATE":"IL","ZIP":60639,"LATTITUDE":41.90975958200588,"ADDRESS":"4712 W NORTH AVE  1","YEAR":2015,"DOING_BUSINESS_AS_NAME":"SELIGMAN ANIMAL HOSPITAL","POP_AT_RISK":155184,"BUSINESS_TYPE":"Animal Care License","LEGAL_NAME":"BATHALA BHASKAR","LONGITUDE":-87.74412927450804},
{"STATE":"IL","ZIP":60629,"LATTITUDE":41.77704369077446,"ADDRESS":"6352 S PULASKI RD N\/A ","YEAR":2015,"DOING_BUSINESS_AS_NAME":"Mr.'s Doggies Pet Grooming Salon","POP_AT_RISK":494568,"BUSINESS_TYPE":"Animal Care License","LEGAL_NAME":"Hector M Valdez","LONGITUDE":-87.72286709745119},
{"STATE":"IL","ZIP":60707,"LATTITUDE":41.90909396170177,"ADDRESS":"6916 W NORTH AVE  ","YEAR":2015,"DOING_BUSINESS_AS_NAME":"LE POOCH SALON","POP_AT_RISK":48436,"BUSINESS_TYPE":"Animal Care License","LEGAL_NAME":"SANDRA S PORRATA","LONGITUDE":-87.79796341179787},
{"STATE":"IL","ZIP":60632,"LATTITUDE":41.797991869962225,"ADDRESS":"5220 S PULASKI RD 1ST C147-149","YEAR":2015,"DOING_BUSINESS_AS_NAME":"ZARATE PETS, INC.","POP_AT_RISK":325616,"BUSINESS_TYPE":"Animal Care License","LEGAL_NAME":"ZARATE PETS, INC.","LONGITUDE":-87.723443740796},
{"STATE":"IL","ZIP":60639,"LATTITUDE":41.92395990947855,"ADDRESS":"5311 W FULLERTON AVE  ","YEAR":2015,"DOING_BUSINESS_AS_NAME":"FURRY FRIENDS INC.","POP_AT_RISK":65371,"BUSINESS_TYPE":"Animal Care License","LEGAL_NAME":"FURRY FRIENDS INC.","LONGITUDE":-87.75906120549509},
{"STATE":"IL","ZIP":60655,"LATTITUDE":41.703470270354465,"ADDRESS":"10429 S KEDZIE AVE 1ST ","YEAR":2015,"DOING_BUSINESS_AS_NAME":"PARK PET SHOP INC","POP_AT_RISK":78483,"BUSINESS_TYPE":"Animal Care License","LEGAL_NAME":"PARK PET SHOP INC.","LONGITUDE":-87.70110404556713},
{"STATE":"IL","ZIP":60620,"LATTITUDE":41.72629173006071,"ADDRESS":"9210 S ASHLAND AVE 1 ","YEAR":2015,"DOING_BUSINESS_AS_NAME":"ASHLAND ANIMAL HOSPITAL","POP_AT_RISK":84501,"BUSINESS_TYPE":"Animal Care License","LEGAL_NAME":"TANYA LARESA DAVIS","LONGITUDE":-87.66294433982236},
{"STATE":"IL","ZIP":60630,"LATTITUDE":41.96820759243381,"ADDRESS":"4490 W LAWRENCE AVE 1ST ","YEAR":2015,"DOING_BUSINESS_AS_NAME":"JEFFERSON PARK ANIMAL HOSPITAL","POP_AT_RISK":91800,"BUSINESS_TYPE":"Animal Care License","LEGAL_NAME":"ROBERTO C. GERONIMO","LONGITUDE":-87.74124035698242},
{"STATE":"IL","ZIP":60640,"LATTITUDE":41.98184934637018,"ADDRESS":"5505 N CLARK ST 1ST ","YEAR":2015,"DOING_BUSINESS_AS_NAME":"BARK SIDE OF THE MOON","POP_AT_RISK":209601,"BUSINESS_TYPE":"Animal Care License","LEGAL_NAME":"JEFFREY WAYNE HALLEAD","LONGITUDE":-87.66830230114387},
{"STATE":"IL","ZIP":60639,"LATTITUDE":41.90928450070948,"ADDRESS":"6268 W NORTH AVE 1ST ","YEAR":2015,"DOING_BUSINESS_AS_NAME":"ONE LUCKY PUPPY, INC.","POP_AT_RISK":83402,"BUSINESS_TYPE":"Animal Care License","LEGAL_NAME":"ONE LUCKY PUPPY, INC.","LONGITUDE":-87.78285098565644},
{"STATE":"IL","ZIP":60646,"LATTITUDE":41.986481135652845,"ADDRESS":"5759 N NAGLE AVE  60646","YEAR":2015,"DOING_BUSINESS_AS_NAME":"RUB -A - DUB DOG, INC","POP_AT_RISK":36314,"BUSINESS_TYPE":"Animal Care License","LEGAL_NAME":"RUB - A- DUB DOG, UNC","LONGITUDE":-87.78752100299114},
{"STATE":"IL","ZIP":60617,"LATTITUDE":41.7430521776672,"ADDRESS":"8338 S STONY ISLAND AVE 1ST ","YEAR":2015,"DOING_BUSINESS_AS_NAME":"PET SALON","POP_AT_RISK":130084,"BUSINESS_TYPE":"Animal Care License","LEGAL_NAME":"CECELIA S BROADUS-JONES","LONGITUDE":-87.58593027264192},
{"STATE":"IL","ZIP":60607,"LATTITUDE":41.86541681298206,"ADDRESS":"1258 S HALSTED ST 1ST ","YEAR":2015,"DOING_BUSINESS_AS_NAME":"HOWLISTIC GROOMING","POP_AT_RISK":226520,"BUSINESS_TYPE":"Animal Care License","LEGAL_NAME":"HOWLISTIC GROOMER, INC.","LONGITUDE":-87.64701273650405},
{"STATE":"IL","ZIP":60647,"LATTITUDE":41.91760780652425,"ADDRESS":"2740 W ARMITAGE AVE 1ST ","YEAR":2015,"DOING_BUSINESS_AS_NAME":"BOULEVARD VETERINARY
{"STATE":"IL","ZIP":60620,"LATTITUDE":41.74322146923827,"ADDRESS":"8256 S ASHLAND AVE 1ST ","YEAR":2015,"DOING_BUSINESS_AS_NAME":"AUBURN ANIMAL HOSPITAL","POP_AT_RISK":113046,"BUSINESS_TYPE":"Animal Care License","LEGAL_NAME":"SHEILA M DAVIS CARPENTER","LONGITUDE":-87.66340065682246},
{"STATE":"IL","ZIP":60639,"LATTITUDE":41.92428482294284,"ADDRESS":"4303 W FULLERTON AVE 1ST ","YEAR":2015,"DOING_BUSINESS_AS_NAME":"FULLERTON ANIMAL CLINIC P.C.","POP_AT_RISK":364220,"BUSINESS_TYPE":"Animal Care License","LEGAL_NAME":"FULLERTON ANIMAL CLINIC P.C.","LONGITUDE":-87.7342554691183},
{"STATE":"IL","ZIP":60616,"LATTITUDE":41.838257021640345,"ADDRESS":"203-205 E 31ST ST 1ST ","YEAR":2015,"DOING_BUSINESS_AS_NAME":"BRONZEVILLE ANIMAL CLINIC","POP_AT_RISK":581346,"BUSINESS_TYPE":"Animal Care License","LEGAL_NAME":"SOPHIA H. GILL, D.V.M., P.C.","LONGITUDE":-87.62176873928115},
{"STATE":"IL","ZIP":60615,"LATTITUDE":41.79938949027767,"ADDRESS":"1363 E 53RD ST 1ST ","YEAR":2015,"DOING_BUSINESS_AS_NAME":"HYDE PARK ANIMAL CLINIC","POP_AT_RISK":76874,"BUSINESS_TYPE":"Animal Care License","LEGAL_NAME":"HYDE PARK ANIMAL CLINIC, P.C.","LONGITUDE":-87.59268914036797},
{"STATE":"IL","ZIP":60649,"LATTITUDE":41.76869276344308,"ADDRESS":"6937 S STONY ISLAND AVE 1 ","YEAR":2015,"DOING_BUSINESS_AS_NAME":"HYDE PARK ANIMAL CLINIC","POP_AT_RISK":111591,"BUSINESS_TYPE":"Animal Care License","LEGAL_NAME":"HYDE PARK ANIMAL CLINIC, P.C.","LONGITUDE":-87.58584581329808},
{"STATE":"IL","ZIP":60649,"LATTITUDE":41.75182172827668,"ADDRESS":"2320 E 79TH ST 1ST ","YEAR":2015,"DOING_BUSINESS_AS_NAME":"SOUTH SHORE ANIMAL CLINIC","POP_AT_RISK":240582,"BUSINESS_TYPE":"Animal Care License","LEGAL_NAME":"SOUTH SHORE ANIMAL CLINIC INC","LONGITUDE":-87.56776651199185},
{"STATE":"IL","ZIP":60609,"LATTITUDE":41.80015376711059,"ADDRESS":"5132 S WESTERN AVE 1ST ","YEAR":2015,"DOING_BUSINESS_AS_NAME":"SOUTH WESTERN ANIMAL HOSPITAL","POP_AT_RISK":302304,"BUSINESS_TYPE":"Animal Care License","LEGAL_NAME":"SOUTH WESTERN ANIMAL HOSPITAL","LONGITUDE":-87.68434530108541},
{"STATE":"IL","ZIP":60626,"LATTITUDE":42.01594338357489,"ADDRESS":"1447 W JARVIS AVE  ","YEAR":2015,"DOING_BUSINESS_AS_NAME":"ROGERS BARK PET SALON","POP_AT_RISK":62296,"BUSINESS_TYPE":"Animal Care License","LEGAL_NAME":"ROGERS BARK PET SERVICES, INC.","LONGITUDE":-87.66796786700539},
{"STATE":"IL","ZIP":60625,"LATTITUDE":41.97443643275835,"ADDRESS":"5111 N LINCOLN AVE  ","YEAR":2015,"DOING_BUSINESS_AS_NAME":"JACK AND GINGER'S DOGCARE, INC.","POP_AT_RISK":53114,"BUSINESS_TYPE":"Animal Care License","LEGAL_NAME":"JACK AND GINGER'S DOGCARE, INC.","LONGITUDE":-87.69201688773859},
{"STATE":"IL","ZIP":60646,"LATTITUDE":41.99721824029716,"ADDRESS":"5301 W DEVON AVE  ","YEAR":2015,"DOING_BUSINESS_AS_NAME":"Chicago Cat Clinic","POP_AT_RISK":35912,"BUSINESS_TYPE":"Animal Care License","LEGAL_NAME":"John D. Nordwall, Jr. DVM, P.C.","LONGITUDE":-87.76082958451794},
{"STATE":"IL","ZIP":60647,"LATTITUDE":41.92372019907236,"ADDRESS":"2344 N MILWAUKEE AVE 1ST ","YEAR":2015,"DOING_BUSINESS_AS_NAME":"Temple of the Dog & Meow Lounge","POP_AT_RISK":69815,"BUSINESS_TYPE":"Animal Care License","LEGAL_NAME":"Temple of the Dog & Meow Lounge","LONGITUDE":-87.69891657803828},
{"STATE":"IL","ZIP":60608,"LATTITUDE":41.84759721676912,"ADDRESS":"2424 S WESTERN AVE 1 ","YEAR":2015,"DOING_BUSINESS_AS_NAME":"PET PALACE GROOMING SALON, CORP.","POP_AT_RISK":258840,"BUSINESS_TYPE":"Animal Care License","LEGAL_NAME":"PET PALACE GROOMING SALON, CORP.","LONGITUDE":-87.68566254739429},
{"STATE":"IL","ZIP":60652,"LATTITUDE":41.744867655481485,"ADDRESS":"8142 S KEDZIE AVE 1 1","YEAR":2015,"DOING_BUSINESS_AS_NAME":"KENIN'S PET GROOMING SHOP","POP_AT_RISK":70275,"BUSINESS_TYPE":"Animal Care License","LEGAL_NAME":"ANTONIA GARCIA & MARIA ANTONIA JAIME","LONGITUDE":-87.70240428748576},
{"STATE":"IL","ZIP":60652,"LATTITUDE":41.74974620119093,"ADDRESS":"3784 W 79TH ST 1ST ","YEAR":2015,"DOING_BUSINESS_AS_NAME":"DOGGONE RITE","POP_AT_RISK":44348,"BUSINESS_TYPE":"Animal Care License","LEGAL_NAME":"DOGGONE RITE DOG GROOMING SALON INC.","LONGITUDE":-87.717635828303},
}