{
{"STATE":"IL","ZIP":60619,"LATTITUDE":41.74502791932279,"ADDRESS":"8225 S COTTAGE GROVE AVE 1ST ","YEAR":2005,"DOING_BUSINESS_AS_NAME":"PROFESSIONAL ELECTRONICS REPAIR","POP_AT_RISK":246015,"BUSINESS_TYPE":"Electronic Equipment Repair","LEGAL_NAME":"JOHNNY PARKER","LONGITUDE":-87.60491569596732},
{"STATE":"IL","ZIP":60613,"LATTITUDE":41.95418377373853,"ADDRESS":"1529A W IRVING PARK RD  ","YEAR":2005,"DOING_BUSINESS_AS_NAME":"TECH CENTRAL CAFE","POP_AT_RISK":2191588,"BUSINESS_TYPE":"Electronic Equipment Repair","LEGAL_NAME":"MOHAMMED A. SHARIFF","LONGITUDE":-87.66879773043033},
{"STATE":"IL","ZIP":60659,"LATTITUDE":41.98519122698636,"ADDRESS":"5704 N WESTERN AVE  ","YEAR":2005,"DOING_BUSINESS_AS_NAME":"VAN L SPEAKERWORKS","POP_AT_RISK":549219,"BUSINESS_TYPE":"Electronic Equipment Repair","LEGAL_NAME":"VAN L. SPEAKERWORKS","LONGITUDE":-87.68964592211006},
{"STATE":"IL","ZIP":60614,"LATTITUDE":41.919633169042875,"ADDRESS":"2100 N ELSTON AVE  ","YEAR":2005,"DOING_BUSINESS_AS_NAME":"BEST BUY #814","POP_AT_RISK":290650,"BUSINESS_TYPE":"Electronic Equipment Repair","LEGAL_NAME":"BEST BUY STORES, L.P.","LONGITUDE":-87.66985441884749},
{"STATE":"IL","ZIP":60622,"LATTITUDE":41.91093166110219,"ADDRESS":"1030 W NORTH AVE  ","YEAR":2005,"DOING_BUSINESS_AS_NAME":"CIRCUIT CITY","POP_AT_RISK":477576,"BUSINESS_TYPE":"Electronic Equipment Repair","LEGAL_NAME":"CIRCUIT CITY STORES, INC","LONGITUDE":-87.65423264872608},
{"STATE":"IL","ZIP":60647,"LATTITUDE":41.92693095884883,"ADDRESS":"2500 N ELSTON AVE  ","YEAR":2005,"DOING_BUSINESS_AS_NAME":"CIRCUIT CITY #3131","POP_AT_RISK":552640,"BUSINESS_TYPE":"Electronic Equipment Repair","LEGAL_NAME":"CIRCUIT CITY STORES, INC","LONGITUDE":-87.68040790407039},
{"STATE":"IL","ZIP":60606,"LATTITUDE":41.88323434776848,"ADDRESS":"101 N WACKER DR 1ST ","YEAR":2005,"DOING_BUSINESS_AS_NAME":"IKON OFFICE SOLUTIONS INC","POP_AT_RISK":451053,"BUSINESS_TYPE":"Electronic Equipment Repair","LEGAL_NAME":"IKON OFFICE SOLUTIONS INC","LONGITUDE":-87.6366490618587},
{"STATE":"IL","ZIP":60632,"LATTITUDE":41.80853353716287,"ADDRESS":"2428 W 47TH ST 1ST ","YEAR":2005,"DOING_BUSINESS_AS_NAME":"GENSTAR ELECTRONICS","POP_AT_RISK":794290,"BUSINESS_TYPE":"Electronic Equipment Repair","LEGAL_NAME":"JOSE VELAZQUEZ & MIGUEL MORENO","LONGITUDE":-87.68551845879968},
{"STATE":"IL","ZIP":60649,"LATTITUDE":41.75710477378682,"ADDRESS":"7554 S STONY ISLAND AVE  ","YEAR":2005,"DOING_BUSINESS_AS_NAME":"STAPLES THE OFFICE SUPERSTORE #1628","POP_AT_RISK":520476,"BUSINESS_TYPE":"Electronic Equipment Repair","LEGAL_NAME":"STAPLES THE OFFICE SUPERSTORE EAST , INC.","LONGITUDE":-87.5862399100739},
}