{
{"STATE":"IL","ZIP":60827,"LATTITUDE":41.64471651864612,"ADDRESS":"612 E 138TH ST  ","YEAR":2012,"DOING_BUSINESS_AS_NAME":"INNOPHOS INC.","POP_AT_RISK":13381,"BUSINESS_TYPE":"Manufacturing Establishments","LEGAL_NAME":"INNOPHOS INC.","LONGITUDE":-87.60679330792205},
{"STATE":"IL","ZIP":60634,"LATTITUDE":41.9452825522059,"ADDRESS":"7746 W ADDISON ST 1ST ","YEAR":2012,"DOING_BUSINESS_AS_NAME":"VOLTRONICS INC","POP_AT_RISK":175602,"BUSINESS_TYPE":"Manufacturing Establishments","LEGAL_NAME":"VOLTRONICS INC","LONGITUDE":-87.82148508277187},
{"STATE":"IL","ZIP":60617,"LATTITUDE":41.72956057945945,"ADDRESS":"9112 S SOUTH CHICAGO A AVE  1ST","YEAR":2012,"DOING_BUSINESS_AS_NAME":"EXCLUSIVE WROUGHT IRON","POP_AT_RISK":35404,"BUSINESS_TYPE":"Manufacturing Establishments","LEGAL_NAME":"ARTURO L VALLES","LONGITUDE":-87.55530910741057},
{"STATE":"IL","ZIP":60616,"LATTITUDE":41.831596425369504,"ADDRESS":"3440 S DEARBORN ST 2 246","YEAR":2012,"DOING_BUSINESS_AS_NAME":"CGC PRODUCTS LLC","POP_AT_RISK":131160,"BUSINESS_TYPE":"Manufacturing Establishments","LEGAL_NAME":"CGC PROUCTS, LLC","LONGITUDE":-87.62793057725152},
{"STATE":"IL","ZIP":60626,"LATTITUDE":42.02266026807753,"ADDRESS":"1832 W JUNEWAY TER  NW CO","YEAR":2012,"DOING_BUSINESS_AS_NAME":"DURO DECAL CO INC","POP_AT_RISK":144654,"BUSINESS_TYPE":"Manufacturing Establishments","LEGAL_NAME":"DURO DECAL CO INC","LONGITUDE":-87.67664723812041},
{"STATE":"IL","ZIP":60629,"LATTITUDE":41.77905562837101,"ADDRESS":"3240 W 63RD ST  ","YEAR":2012,"DOING_BUSINESS_AS_NAME":"J & J ELECTRONIC","POP_AT_RISK":62644,"BUSINESS_TYPE":"Manufacturing Establishments","LEGAL_NAME":"J & J ELECTRONICS","LONGITUDE":-87.70476487332088},
{"STATE":"IL","ZIP":60638,"LATTITUDE":41.774471369513115,"ADDRESS":"5654 W 65TH ST  ","YEAR":2012,"DOING_BUSINESS_AS_NAME":"EXCEL MACHINING INC","POP_AT_RISK":19217,"BUSINESS_TYPE":"Manufacturing Establishments","LEGAL_NAME":"EXCEL MACHINING INC","LONGITUDE":-87.76375997030551},
{"STATE":"IL","ZIP":60638,"LATTITUDE":41.7947047678449,"ADDRESS":"5432 W 54TH ST  ","YEAR":2012,"DOING_BUSINESS_AS_NAME":"STERLING SPRING LLC","POP_AT_RISK":19549,"BUSINESS_TYPE":"Manufacturing Establishments","LEGAL_NAME":"STERLING SPRING LLC","LONGITUDE":-87.75883544408453},
{"STATE":"IL","ZIP":60640,"LATTITUDE":41.98301912837452,"ADDRESS":"5540 N BROADWAY  1ST ","YEAR":2012,"DOING_BUSINESS_AS_NAME":"ZIRLIN INTERIORS INC","POP_AT_RISK":210900,"BUSINESS_TYPE":"Manufacturing Establishments","LEGAL_NAME":"ZIRLIN INTERIORS INC","LONGITUDE":-87.66019880136832},
{"STATE":"IL","ZIP":60620,"LATTITUDE":41.72642252739564,"ADDRESS":"9210-9300 S SANGAMON ST 1ST 1","YEAR":2012,"DOING_BUSINESS_AS_NAME":"CPC LABORATORIES, INC.","POP_AT_RISK":32848,"BUSINESS_TYPE":"Manufacturing Establishments","LEGAL_NAME":"CPC LABORATORIES, INC.","LONGITUDE":-87.64714416679612},
{"STATE":"IL","ZIP":60619,"LATTITUDE":41.73662782135372,"ADDRESS":"1037 E 87TH ST 1ST ","YEAR":2012,"DOING_BUSINESS_AS_NAME":"AKERS PACKAGING SERVICE","POP_AT_RISK":33070,"BUSINESS_TYPE":"Manufacturing Establishments","LEGAL_NAME":"AKERS PACKAGING SERVICE","LONGITUDE":-87.59846416343471},
{"STATE":"IL","ZIP":60652,"LATTITUDE":41.737498226797825,"ADDRESS":"8532 S PULASKI RD  ","YEAR":2012,"DOING_BUSINESS_AS_NAME":"ROLAND LAB INC","POP_AT_RISK":50466,"BUSINESS_TYPE":"Manufacturing Establishments","LEGAL_NAME":"ROLAND DENTAL LAB, INC.","LONGITUDE":-87.72167126456692},
{"STATE":"IL","ZIP":60638,"LATTITUDE":41.77750446371041,"ADDRESS":"6255 S HARLEM AVE  ","YEAR":2012,"DOING_BUSINESS_AS_NAME":"ARMBRUST PAPER TUBES INC","POP_AT_RISK":23658,"BUSINESS_TYPE":"Manufacturing Establishments","LEGAL_NAME":"ARMBRUST PAPER TUBES INC","LONGITUDE":-87.80076866830747},
{"STATE":"IL","ZIP":60609,"LATTITUDE":41.82088004242324,"ADDRESS":"328 W 40TH PL  ","YEAR":2012,"DOING_BUSINESS_AS_NAME":"JERNBERG INDUSTRIES, INC.","POP_AT_RISK":28832,"BUSINESS_TYPE":"Manufacturing Establishments","LEGAL_NAME":"JERNBERG INDUSTRIES INC.","LONGITUDE":-87.63424403899519},
{"STATE":"IL","ZIP":60619,"LATTITUDE":41.73259590815749,"ADDRESS":"31 E 89TH ST  ","YEAR":2012,"DOING_BUSINESS_AS_NAME":"MASTERPIECE PRODUCTS INC","POP_AT_RISK":57964,"BUSINESS_TYPE":"Manufacturing Establishments","LEGAL_NAME":"MASTERPIECE PRODUCTS INC","LONGITUDE":-87.62286873161595},
{"STATE":"IL","ZIP":60626,"LATTITUDE":41.998705414717755,"ADDRESS":"6423 N RAVENSWOOD AVE 1ST ","YEAR":2012,"DOING_BUSINESS_AS_NAME":"CHICAGO EUROPEAN IRON CO.","POP_AT_RISK":602168,"BUSINESS_TYPE":"Manufacturing Establishments","LEGAL_NAME":"CHICAGO EUROPEAN IRON CO.","LONGITUDE":-87.67489125512769},
{"STATE":"IL","ZIP":60621,"LATTITUDE":41.78180885062557,"ADDRESS":"140 W 62ND ST 1ST ","YEAR":2012,"DOING_BUSINESS_AS_NAME":"CLINTEX LABORATORIES, INC","POP_AT_RISK":31180,"BUSINESS_TYPE":"Manufacturing Establishments","LEGAL_NAME":"CLINTEX LABORATORIES, INC.","LONGITUDE":-87.62925671331608},
{"STATE":"IL","ZIP":60617,"LATTITUDE":41.71812799992384,"ADDRESS":"9746 S AVENUE N   ","YEAR":2012,"DOING_BUSINESS_AS_NAME":"SO CHICAGO & IN HARBOR RWY","POP_AT_RISK":13632,"BUSINESS_TYPE":"Manufacturing Establishments","LEGAL_NAME":"ISG SO CHICAGO & IN HBR RY","LONGITUDE":-87.53905015329579},
{"STATE":"IL","ZIP":60640,"LATTITUDE":41.97512066660159,"ADDRESS":"1111 W WINONA ST  1","YEAR":2012,"DOING_BUSINESS_AS_NAME":"GRAN ADELL MANUFACTURING CO","POP_AT_RISK":140098,"BUSINESS_TYPE":"Manufacturing Establishments","LEGAL_NAME":"GRAN ADELL MANUFACTURING CO","LONGITUDE":-87.65828803155793},
{"STATE":"IL","ZIP":60620,"LATTITUDE":41.72920193703528,"ADDRESS":"9050 S GREEN ST  ","YEAR":2012,"DOING_BUSINESS_AS_NAME":"PRAIRIE MATERIAL","POP_AT_RISK":32327,"BUSINESS_TYPE":"Manufacturing Establishments","LEGAL_NAME":"VCNA PRAIRIE ILLINOIS, INC.","LONGITUDE":-87.64481372911507},
{"STATE":"IL","ZIP":60637,"LATTITUDE":41.76837202098898,"ADDRESS":"755-765 E 69TH PL  ","YEAR":2012,"DOING_BUSINESS_AS_NAME":"BILL'S SHADE & BLIND SERVICE","POP_AT_RISK":35253,"BUSINESS_TYPE":"Manufacturing Establishments","LEGAL_NAME":"BILL'S SHADE & BLIND SERVICE","LONGITUDE":-87.60684191296633},
{"STATE":"IL","ZIP":60634,"LATTITUDE":41.93825635558769,"ADDRESS":"6237 W BELMONT AVE 1 1","YEAR":2012,"DOING_BUSINESS_AS_NAME":"CHICAGO DENTAL LABORATORY INC","POP_AT_RISK":53347,"BUSINESS_TYPE":"Manufacturing Establishments","LEGAL_NAME":"CHICAGO DENTAL LABORATORY INC","LONGITUDE":-87.78255104026032},
{"STATE":"IL","ZIP":60619,"LATTITUDE":41.75832067891438,"ADDRESS":"431 E 75TH ST  ","YEAR":2012,"DOING_BUSINESS_AS_NAME":"GREATER CHICAGO DENTAL LAB","POP_AT_RISK":38146,"BUSINESS_TYPE":"Manufacturing Establishments","LEGAL_NAME":"GREATER CHICAGO DENTAL LAB INC.","LONGITUDE":-87.6139407392573},
{"STATE":"IL","ZIP":60655,"LATTITUDE":41.69172972597,"ADDRESS":"3004 W 111TH ST 1ST ","YEAR":2012,"DOING_BUSINESS_AS_NAME":"BEVERLY SHEAR MFG CORP","POP_AT_RISK":21393,"BUSINESS_TYPE":"Manufacturing Establishments","LEGAL_NAME":"BEVERLY SHEAR MANUFACTURING CORP","LONGITUDE":-87.6963775207205},
{"STATE":"IL","ZIP":60657,"LATTITUDE":41.939094818078736,"ADDRESS":"860 W FLETCHER ST  ","YEAR":2012,"DOING_BUSINESS_AS_NAME":"ERIE BRUSH & MANUFACTURING CORP.","POP_AT_RISK":454555,"BUSINESS_TYPE":"Manufacturing Establishments","LEGAL_NAME":"ERIE BRUSH & MANUFACTURING CORP.","LONGITUDE":-87.65155455766002},
{"STATE":"IL","ZIP":60613,"LATTITUDE":41.948077626553534,"ADDRESS":"3625 N HALSTED ST  ","YEAR":2012,"DOING_BUSINESS_AS_NAME":"PHOENIX ELECTRIC MFG CO","POP_AT_RISK":256293,"BUSINESS_TYPE":"Manufacturing Establishments","LEGAL_NAME":"PHOENIX ELECTRIC MANUFACTURING CO","LONGITUDE":-87.64936304335718},
}