{
{"STATE":"IL","ZIP":60619,"LATTITUDE":41.7259581808161,"ADDRESS":"1200 E 93RD ST 1ST ","YEAR":2012,"DOING_BUSINESS_AS_NAME":"WOODLAWN GARDENS","POP_AT_RISK":32542,"BUSINESS_TYPE":"Consumption on Premises - Incidental Activity","LEGAL_NAME":"HARRIET WATT","LONGITUDE":-87.59481759727105},
{"STATE":"IL","ZIP":60633,"LATTITUDE":41.64818877792674,"ADDRESS":"13601 S CALHOUN AVE 1 ","YEAR":2012,"DOING_BUSINESS_AS_NAME":"PAPICHULO","POP_AT_RISK":2798,"BUSINESS_TYPE":"Consumption on Premises - Incidental Activity","LEGAL_NAME":"PAPICHULO, LLC","LONGITUDE":-87.56157337119949},
{"STATE":"IL","ZIP":60651,"LATTITUDE":41.904309420890215,"ADDRESS":"1255 N PULASKI RD  ","YEAR":2012,"DOING_BUSINESS_AS_NAME":"EL SITIO","POP_AT_RISK":121844,"BUSINESS_TYPE":"Consumption on Premises - Incidental Activity","LEGAL_NAME":"SONRISAS, INC.","LONGITUDE":-87.72619548575881},
{"STATE":"IL","ZIP":60619,"LATTITUDE":41.74404480254745,"ADDRESS":"712 E 83RD ST 1 ","YEAR":2012,"DOING_BUSINESS_AS_NAME":"CITY-LIFE, LTD.","POP_AT_RISK":37593,"BUSINESS_TYPE":"Consumption on Premises - Incidental Activity","LEGAL_NAME":"CITY-LIFE, LTD.","LONGITUDE":-87.60688998764581},
{"STATE":"IL","ZIP":60655,"LATTITUDE":41.691399886046646,"ADDRESS":"3333 W 111TH ST 1ST ","YEAR":2012,"DOING_BUSINESS_AS_NAME":"LA FIESTA RESTAURANT","POP_AT_RISK":21003,"BUSINESS_TYPE":"Consumption on Premises - Incidental Activity","LEGAL_NAME":"LA FIESTA, INC.","LONGITUDE":-87.70464634367544},
{"STATE":"IL","ZIP":60652,"LATTITUDE":41.7495573130227,"ADDRESS":"3359 W 79TH ST 1ST ","YEAR":2012,"DOING_BUSINESS_AS_NAME":"NINA'S RESTAURANT","POP_AT_RISK":100620,"BUSINESS_TYPE":"Consumption on Premises - Incidental Activity","LEGAL_NAME":"M. T. GLASS, CO.","LONGITUDE":-87.70721111204942},
{"STATE":"IL","ZIP":60615,"LATTITUDE":41.802424928057164,"ADDRESS":"5048-5050 S PRAIRIE AVE 1-2 ","YEAR":2012,"DOING_BUSINESS_AS_NAME":"SWAGGER BAR  & GRILL","POP_AT_RISK":29821,"BUSINESS_TYPE":"Consumption on Premises - Incidental Activity","LEGAL_NAME":"SOS SWAGGER LTD.,","LONGITUDE":-87.61956496592906},
{"STATE":"IL","ZIP":60637,"LATTITUDE":41.77891251190159,"ADDRESS":"6351-6359 S COTTAGE GROVE AVE  ","YEAR":2012,"DOING_BUSINESS_AS_NAME":"THE BALLROOM","POP_AT_RISK":180515,"BUSINESS_TYPE":"Consumption on Premises - Incidental Activity","LEGAL_NAME":"THE BALLROOM, LLC","LONGITUDE":-87.60575071895529},
{"STATE":"IL","ZIP":60617,"LATTITUDE":41.71488533977168,"ADDRESS":"9915-9939 S TORRENCE AVE 1ST ","YEAR":2012,"DOING_BUSINESS_AS_NAME":"SKYWAY BOWL","POP_AT_RISK":15082,"BUSINESS_TYPE":"Consumption on Premises - Incidental Activity","LEGAL_NAME":"THE SIX GRANDS, CO.","LONGITUDE":-87.55962172308115},
{"STATE":"IL","ZIP":60628,"LATTITUDE":41.66920524810207,"ADDRESS":"12345 S HALSTED ST  ","YEAR":2012,"DOING_BUSINESS_AS_NAME":"HALSTED BOWL","POP_AT_RISK":61974,"BUSINESS_TYPE":"Consumption on Premises - Incidental Activity","LEGAL_NAME":"THE SIX GRANDS, CO.","LONGITUDE":-87.6414739367472},
{"STATE":"IL","ZIP":60633,"LATTITUDE":41.64995899068516,"ADDRESS":"13501-13503 S AVENUE N   ","YEAR":2012,"DOING_BUSINESS_AS_NAME":"THE GREEN OLIVE","POP_AT_RISK":10834,"BUSINESS_TYPE":"Consumption on Premises - Incidental Activity","LEGAL_NAME":"THE GREEN OLIVE, LLC","LONGITUDE":-87.53851419968274},
{"STATE":"IL","ZIP":60652,"LATTITUDE":41.75595600567047,"ADDRESS":"7519 S CICERO AVE  ","YEAR":2012,"DOING_BUSINESS_AS_NAME":"APPLEBEE'S NEIGHBORHOOD GRILL & BAR","POP_AT_RISK":51644,"BUSINESS_TYPE":"Consumption on Premises - Incidental Activity","LEGAL_NAME":"APPLEILLINOIS, L.L.C.","LONGITUDE":-87.74143262060872},
{"STATE":"IL","ZIP":60644,"LATTITUDE":41.880249874388234,"ADDRESS":"5225 W MADISON ST 1 ","YEAR":2012,"DOING_BUSINESS_AS_NAME":"MADISON BANQUETS INC.","POP_AT_RISK":144087,"BUSINESS_TYPE":"Consumption on Premises - Incidental Activity","LEGAL_NAME":"MADISON BANQUETS INC.","LONGITUDE":-87.75606386578109},
{"STATE":"IL","ZIP":60617,"LATTITUDE":41.72795237840198,"ADDRESS":"9156 S STONY ISLAND AVE  ","YEAR":2012,"DOING_BUSINESS_AS_NAME":"LEONAS","POP_AT_RISK":15322,"BUSINESS_TYPE":"Consumption on Premises - Incidental Activity","LEGAL_NAME":"LEONA'S PIZZERIA, INC.","LONGITUDE":-87.58558036137349},
{"STATE":"IL","ZIP":60620,"LATTITUDE":41.735691078577986,"ADDRESS":"1543 W 87TH ST  ","YEAR":2012,"DOING_BUSINESS_AS_NAME":"MR G SUPPER CLUB","POP_AT_RISK":271607,"BUSINESS_TYPE":"Consumption on Premises - Incidental Activity","LEGAL_NAME":"M. V. ONE INCORPORATED","LONGITUDE":-87.66232767688463},
{"STATE":"IL","ZIP":60655,"LATTITUDE":41.70582355306317,"ADDRESS":"3901 W 103RD ST  ","YEAR":2012,"DOING_BUSINESS_AS_NAME":"GILHOOLEY'S GRANDE SALOON","POP_AT_RISK":91208,"BUSINESS_TYPE":"Consumption on Premises - Incidental Activity","LEGAL_NAME":"COMPASS GROUP USA, INC.","LONGITUDE":-87.71853994620498},
{"STATE":"IL","ZIP":60612,"LATTITUDE":41.88123342371891,"ADDRESS":"2550 W MADISON ST 1ST - 3RD ","YEAR":2012,"DOING_BUSINESS_AS_NAME":"JOHNNY'S ICE HOUSE","POP_AT_RISK":62648,"BUSINESS_TYPE":"Consumption on Premises - Incidental Activity","LEGAL_NAME":"JOHNNY'S ICE HOUSE, INC.","LONGITUDE":-87.69038958620825},
{"STATE":"IL","ZIP":60707,"LATTITUDE":41.90912363458747,"ADDRESS":"6822 W NORTH AVE  ","YEAR":2012,"DOING_BUSINESS_AS_NAME":"AMARIND'S RESTAURANT","POP_AT_RISK":57556,"BUSINESS_TYPE":"Consumption on Premises - Incidental Activity","LEGAL_NAME":"AMARIND'S RESTAURANT, INC.","LONGITUDE":-87.79574987181736},
{"STATE":"IL","ZIP":60629,"LATTITUDE":41.779321681933894,"ADDRESS":"2516-2518 W 63RD ST  ","YEAR":2012,"DOING_BUSINESS_AS_NAME":"GARIFUNA FLAVA CARIBBEAN RESTAURANT","POP_AT_RISK":95722,"BUSINESS_TYPE":"Consumption on Premises - Incidental Activity","LEGAL_NAME":"GARIFUNA ENTERPRISES, INC.","LONGITUDE":-87.68688341529598},
{"STATE":"IL","ZIP":60631,"LATTITUDE":41.99898437284463,"ADDRESS":"6474 N MILWAUKEE AVE  ","YEAR":2012,"DOING_BUSINESS_AS_NAME":"CZERWONE JABLUSZKO RESTAURANT","POP_AT_RISK":20191,"BUSINESS_TYPE":"Consumption on Premises - Incidental Activity","LEGAL_NAME":"CZERWONE JABLUSZKO REST INC","LONGITUDE":-87.7895419514987},
{"STATE":"IL","ZIP":60656,"LATTITUDE":41.973400958457454,"ADDRESS":"9440 W FOSTER AVE  ","YEAR":2012,"DOING_BUSINESS_AS_NAME":"MARIA'S MEXICAN RESTURANT","POP_AT_RISK":28998,"BUSINESS_TYPE":"Consumption on Premises - Incidental Activity","LEGAL_NAME":"LUNA RESTAURANT CORPORATION","LONGITUDE":-87.86302998092812},
{"STATE":"IL","ZIP":60623,"LATTITUDE":41.85164601340353,"ADDRESS":"3219 W CERMAK RD 1ST ","YEAR":2012,"DOING_BUSINESS_AS_NAME":"EL BURRITO FELIZ RESTAURANT","POP_AT_RISK":62497,"BUSINESS_TYPE":"Consumption on Premises - Incidental Activity","LEGAL_NAME":"EL BURRITO FELIZ CORPORATION","LONGITUDE":-87.70613515053118},
{"STATE":"IL","ZIP":60628,"LATTITUDE":41.707469998187015,"ADDRESS":"512 E 103RD ST  ","YEAR":2012,"DOING_BUSINESS_AS_NAME":"JUDI'S SPORTS BAR & GRILL","POP_AT_RISK":95880,"BUSINESS_TYPE":"Consumption on Premises - Incidental Activity","LEGAL_NAME":"JUDI SPORTS BAR & GRILL, INC","LONGITUDE":-87.610766504817},
{"STATE":"IL","ZIP":60617,"LATTITUDE":41.71210884682817,"ADDRESS":"10063 S EWING AVE 1ST ","YEAR":2012,"DOING_BUSINESS_AS_NAME":"PUCCI'S RESTAURANT & PIZZERIA","POP_AT_RISK":19727,"BUSINESS_TYPE":"Consumption on Premises - Incidental Activity","LEGAL_NAME":"PUCCI'S RESTAURANT & PIZZERIA","LONGITUDE":-87.53513165923621},
{"STATE":"IL","ZIP":60624,"LATTITUDE":41.880709192327906,"ADDRESS":"4422 W MADISON ST 1 ","YEAR":2012,"DOING_BUSINESS_AS_NAME":"BRICKS SPORTS BAR & GRILL","POP_AT_RISK":128680,"BUSINESS_TYPE":"Consumption on Premises - Incidental Activity","LEGAL_NAME":"B & B MADISON ENTERTAIMENT CORP.","LONGITUDE":-87.73643717633821},
{"STATE":"IL","ZIP":60624,"LATTITUDE":41.866071937099434,"ADDRESS":"4556 W ROOSEVELT RD 1 1","YEAR":2012,"DOING_BUSINESS_AS_NAME":"PORKY'S RESTAURANT & GRILL","POP_AT_RISK":217580,"BUSINESS_TYPE":"Consumption on Premises - Incidental Activity","LEGAL_NAME":"PORKY'S SPORTS BAR & GRILL, INC.","LONGITUDE":-87.73976972613504},
{"STATE":"IL","ZIP":60628,"LATTITUDE":41.67803592622016,"ADDRESS":"344 W 119TH ST  ","YEAR":2012,"DOING_BUSINESS_AS_NAME":"GREENVILLE MISSISSIPPI CLUB, INC.","POP_AT_RISK":46258,"BUSINESS_TYPE":"Consumption on Premises - Incidental Activity","LEGAL_NAME":"GREENVILLE MISSISSIPPI CLUB, INC.","LONGITUDE":-87.63163137047623},
{"STATE":"IL","ZIP":60649,"LATTITUDE":41.77866211331481,"ADDRESS":"6401 S RICHARDS DR 1ST ","YEAR":2012,"DOING_BUSINESS_AS_NAME":"JACKSON PARK GOLF COURSE","POP_AT_RISK":30219,"BUSINESS_TYPE":"Consumption on Premises - Incidental Activity","LEGAL_NAME":"JACKSON PARK GOLF MANAGEMENT, LLC","LONGITUDE":-87.57939999096837},
{"STATE":"IL","ZIP":60620,"LATTITUDE":41.75026214098108,"ADDRESS":"1525 W 79TH ST  ","YEAR":2012,"DOING_BUSINESS_AS_NAME":"LAGNIAPPE-A CREOLE CAJUN JOYNT","POP_AT_RISK":290577,"BUSINESS_TYPE":"Consumption on Premises - Incidental Activity","LEGAL_NAME":"LAGNIAPPE-A CREOLE CAJUN JOYNT, LLC","LONGITUDE":-87.6622057890388},
{"STATE":"IL","ZIP":60651,"LATTITUDE":41.895044142418,"ADDRESS":"5200 W CHICAGO AVE  ","YEAR":2012,"DOING_BUSINESS_AS_NAME":"LANDMARK DELI & RESTAURANT \/ CHEZ ROUE","POP_AT_RISK":239700,"BUSINESS_TYPE":"Consumption on Premises - Incidental Activity","LEGAL_NAME":"POTPOURRI FURNITURE LIQUIDATORS, INC.","LONGITUDE":-87.75566532904773},
{"STATE":"IL","ZIP":60617,"LATTITUDE":41.744626103697605,"ADDRESS":"2544 E 83RD ST 1 ","YEAR":2012,"DOING_BUSINESS_AS_NAME":"THE NEW LOOK","POP_AT_RISK":80040,"BUSINESS_TYPE":"Consumption on Premises - Incidental Activity","LEGAL_NAME":"THE NEW LOOK SALON AND RESTAURANT, INC.","LONGITUDE":-87.56191378396936},
}