{
{"STATE":"IL","ZIP":60623,"LATTITUDE":41.84404389566319,"ADDRESS":"4257 W 26TH ST 1ST ","YEAR":2006,"DOING_BUSINESS_AS_NAME":"MINUTE MAN CONVENIENCE CENTER","POP_AT_RISK":45902,"BUSINESS_TYPE":"Filling Station","LEGAL_NAME":"A & J GAS INC","LONGITUDE":-87.73172655198466},
{"STATE":"IL","ZIP":60827,"LATTITUDE":41.651314225360295,"ADDRESS":"13421 S VERNON AVE  UNDER","YEAR":2006,"DOING_BUSINESS_AS_NAME":"SKIPPERS MARINA","POP_AT_RISK":3373,"BUSINESS_TYPE":"Filling Station","LEGAL_NAME":"EARL STROMBECK","LONGITUDE":-87.6104534770766},
{"STATE":"IL","ZIP":60653,"LATTITUDE":41.8097503335653,"ADDRESS":"1158 E 47TH ST 1ST ","YEAR":2006,"DOING_BUSINESS_AS_NAME":"WOOD LAWN AMOCO","POP_AT_RISK":45423,"BUSINESS_TYPE":"Filling Station","LEGAL_NAME":"MOHAMMAD ZAHIR","LONGITUDE":-87.59695555343261},
{"STATE":"IL","ZIP":60652,"LATTITUDE":41.74423097335717,"ADDRESS":"8200 S KEDZIE AVE  ","YEAR":2006,"DOING_BUSINESS_AS_NAME":"KEDZIE CITGO","POP_AT_RISK":27818,"BUSINESS_TYPE":"Filling Station","LEGAL_NAME":"GEO & JAY, INC.","LONGITUDE":-87.70238568511645},
{"STATE":"IL","ZIP":60646,"LATTITUDE":41.99024418564742,"ADDRESS":"4000 W PETERSON AVE  ","YEAR":2006,"DOING_BUSINESS_AS_NAME":"P & P AMOCO INC","POP_AT_RISK":17974,"BUSINESS_TYPE":"Filling Station","LEGAL_NAME":"P & P AMOCO INC","LONGITUDE":-87.7287143910091},
{"STATE":"IL","ZIP":60616,"LATTITUDE":41.8382513911452,"ADDRESS":"3101 S MICHIGAN AVE 1ST ","YEAR":2006,"DOING_BUSINESS_AS_NAME":"BP AMOCO","POP_AT_RISK":30854,"BUSINESS_TYPE":"Filling Station","LEGAL_NAME":"FIFY CORPORATION","LONGITUDE":-87.62329481051012},
{"STATE":"IL","ZIP":60634,"LATTITUDE":41.93810001477787,"ADDRESS":"7320 W BELMONT AVE 1ST ","YEAR":2006,"DOING_BUSINESS_AS_NAME":"G & G SERVICE 76","POP_AT_RISK":119655,"BUSINESS_TYPE":"Filling Station","LEGAL_NAME":"G & G SERVICE INC","LONGITUDE":-87.81007959498109},
{"STATE":"IL","ZIP":60638,"LATTITUDE":41.792890808898086,"ADDRESS":"5448 W 55TH ST  ","YEAR":2006,"DOING_BUSINESS_AS_NAME":"KEAN BROS INC","POP_AT_RISK":39098,"BUSINESS_TYPE":"Filling Station","LEGAL_NAME":"KEAN BROTHERS INC","LONGITUDE":-87.75938370068222},
{"STATE":"IL","ZIP":60655,"LATTITUDE":41.69183628557645,"ADDRESS":"2632 W 111TH ST  ","YEAR":2006,"DOING_BUSINESS_AS_NAME":"KEAN BROS INC","POP_AT_RISK":21672,"BUSINESS_TYPE":"Filling Station","LEGAL_NAME":"KEAN BROTHERS INC","LONGITUDE":-87.68736448197355},
{"STATE":"IL","ZIP":60653,"LATTITUDE":41.82374783303715,"ADDRESS":"437 E PERSHING RD  ","YEAR":2006,"DOING_BUSINESS_AS_NAME":"PERSHING GAS CITGO","POP_AT_RISK":32372,"BUSINESS_TYPE":"Filling Station","LEGAL_NAME":"PERSHING GAS INC.","LONGITUDE":-87.61529192049633},
{"STATE":"IL","ZIP":60655,"LATTITUDE":41.6914834134577,"ADDRESS":"3700 W 111TH ST  ","YEAR":2006,"DOING_BUSINESS_AS_NAME":"GREEN PANTRY","POP_AT_RISK":85908,"BUSINESS_TYPE":"Filling Station","LEGAL_NAME":"AMINA TRADING, INC.","LONGITUDE":-87.71321050333633},
{"STATE":"IL","ZIP":60655,"LATTITUDE":41.706091126209756,"ADDRESS":"10301 S KEDZIE AVE  ","YEAR":2006,"DOING_BUSINESS_AS_NAME":"MARATHON","POP_AT_RISK":28968,"BUSINESS_TYPE":"Filling Station","LEGAL_NAME":"CHICAGO GREEN, INC.","LONGITUDE":-87.70117395522207},
{"STATE":"IL","ZIP":60617,"LATTITUDE":41.722619985023755,"ADDRESS":"2863 E 95TH ST  ","YEAR":2006,"DOING_BUSINESS_AS_NAME":"ESCABANA CITGO INC.","POP_AT_RISK":66738,"BUSINESS_TYPE":"Filling Station","LEGAL_NAME":"ESCABANA CITGO INC.","LONGITUDE":-87.55407800189569},
{"STATE":"IL","ZIP":60628,"LATTITUDE":41.66350259001352,"ADDRESS":"150 W 127TH ST  ","YEAR":2006,"DOING_BUSINESS_AS_NAME":"COMMUNITY GAS AND BP","POP_AT_RISK":15621,"BUSINESS_TYPE":"Filling Station","LEGAL_NAME":"M & R SAHLOUL, INC.","LONGITUDE":-87.62650611188982},
{"STATE":"IL","ZIP":60629,"LATTITUDE":41.77856324355609,"ADDRESS":"4710 W 63RD ST  ","YEAR":2006,"DOING_BUSINESS_AS_NAME":"MIDWAY GASMART \/ BP TOGO","POP_AT_RISK":25513,"BUSINESS_TYPE":"Filling Station","LEGAL_NAME":"MAL-NAJ CORPORATION","LONGITUDE":-87.74027721366735},
{"STATE":"IL","ZIP":60652,"LATTITUDE":41.74228582966385,"ADDRESS":"8256 S PULASKI RD  ","YEAR":2006,"DOING_BUSINESS_AS_NAME":"CITGO FUEL & MINI-MART","POP_AT_RISK":31842,"BUSINESS_TYPE":"Filling Station","LEGAL_NAME":"HALEEM BROTHERS, INC","LONGITUDE":-87.72182952334869},
{"STATE":"IL","ZIP":60631,"LATTITUDE":41.99718204105818,"ADDRESS":"6405 N NORTHWEST HWY  1SR","YEAR":2006,"DOING_BUSINESS_AS_NAME":"HOWARD'S SERVICE INC","POP_AT_RISK":47856,"BUSINESS_TYPE":"Filling Station","LEGAL_NAME":"HOWARD'S SERVICE INC","LONGITUDE":-87.8069080343869},
{"STATE":"IL","ZIP":60617,"LATTITUDE":41.74453593701442,"ADDRESS":"2941 E 83RD ST TH ","YEAR":2006,"DOING_BUSINESS_AS_NAME":"CITGO","POP_AT_RISK":67752,"BUSINESS_TYPE":"Filling Station","LEGAL_NAME":"TUMARA FOOD MART INC.","LONGITUDE":-87.55235844692069},
{"STATE":"IL","ZIP":60638,"LATTITUDE":41.79205441797499,"ADDRESS":"6751 W ARCHER AVE  ","YEAR":2006,"DOING_BUSINESS_AS_NAME":"ARCHER AMOCO","POP_AT_RISK":75188,"BUSINESS_TYPE":"Filling Station","LEGAL_NAME":"J CHANDY\/M PUTHUSSEQIL","LONGITUDE":-87.79117217776604},
{"STATE":"IL","ZIP":60601,"LATTITUDE":41.88615077117576,"ADDRESS":"214 N CLARK ST  ","YEAR":2006,"DOING_BUSINESS_AS_NAME":"AVIS RENT A CAR SYSTEMS INC","POP_AT_RISK":153478,"BUSINESS_TYPE":"Filling Station","LEGAL_NAME":"AVIS RENT A CAR SYSTEM, LLC","LONGITUDE":-87.6311338716166},
{"STATE":"IL","ZIP":60646,"LATTITUDE":41.99637159702214,"ADDRESS":"6308 N CENTRAL AVE  ","YEAR":2006,"DOING_BUSINESS_AS_NAME":"2001 GAS CENTRAL","POP_AT_RISK":35912,"BUSINESS_TYPE":"Filling Station","LEGAL_NAME":"THOMAS'S MINIMART & GAS INC.","LONGITUDE":-87.76427703822098},
{"STATE":"IL","ZIP":60651,"LATTITUDE":41.9021910503325,"ADDRESS":"1201 N CENTRAL AVE  ","YEAR":2006,"DOING_BUSINESS_AS_NAME":"ATS CENTRAL CITGO CORPORATION","POP_AT_RISK":50366,"BUSINESS_TYPE":"Filling Station","LEGAL_NAME":"ATS CENTRAL CITGO CORPORATION","LONGITUDE":-87.76550765713982},
{"STATE":"IL","ZIP":60605,"LATTITUDE":41.86683145443883,"ADDRESS":"1221-1223 S WABASH AVE  ","YEAR":2006,"DOING_BUSINESS_AS_NAME":"AM\/PM","POP_AT_RISK":39491,"BUSINESS_TYPE":"Filling Station","LEGAL_NAME":"BP PRODUCTS NORTH AMERICA INC.","LONGITUDE":-87.62566960895664},
}