{
{"STATE":"IL","ZIP":60647,"LATTITUDE":41.924748067949416,"ADDRESS":"2559 W FULLERTON AVE 1ST ","YEAR":2012,"DOING_BUSINESS_AS_NAME":"AOL MASSAGE","POP_AT_RISK":61906,"BUSINESS_TYPE":"Massage Establishment","LEGAL_NAME":"ANAI LOERA","LONGITUDE":-87.69213784943267},
{"STATE":"IL","ZIP":60632,"LATTITUDE":41.82318948604133,"ADDRESS":"3872 S ARCHER AVE 1ST ","YEAR":2012,"DOING_BUSINESS_AS_NAME":"BODY HEALTH CENTER","POP_AT_RISK":363944,"BUSINESS_TYPE":"Massage Establishment","LEGAL_NAME":"MICHELLE YU","LONGITUDE":-87.6896467958713},
{"STATE":"IL","ZIP":60630,"LATTITUDE":41.9685316281803,"ADDRESS":"6338 W GUNNISON ST 1 ","YEAR":2012,"DOING_BUSINESS_AS_NAME":"GUNNISON SPA","POP_AT_RISK":76572,"BUSINESS_TYPE":"Massage Establishment","LEGAL_NAME":"SUE S. SHIN","LONGITUDE":-87.78709609897045},
{"STATE":"IL","ZIP":60643,"LATTITUDE":41.721126408196376,"ADDRESS":"2150 W 95TH ST  1","YEAR":2012,"DOING_BUSINESS_AS_NAME":"VEOLA'S BOUTIQUE & DAY SPA","POP_AT_RISK":31510,"BUSINESS_TYPE":"Massage Establishment","LEGAL_NAME":"VEOLA JAMES","LONGITUDE":-87.67685067307792},
{"STATE":"IL","ZIP":60638,"LATTITUDE":41.796810444304754,"ADDRESS":"5742 S ARCHER AVE 2ND ","YEAR":2012,"DOING_BUSINESS_AS_NAME":"MICKIE'S HAIR & NAIL TECH","POP_AT_RISK":126390,"BUSINESS_TYPE":"Massage Establishment","LEGAL_NAME":"DANUTA CISON","LONGITUDE":-87.75602137474215},
{"STATE":"IL","ZIP":60641,"LATTITUDE":41.93608209790628,"ADDRESS":"3022 N PULASKI RD  ","YEAR":2012,"DOING_BUSINESS_AS_NAME":"ARIES MASSAGE","POP_AT_RISK":136460,"BUSINESS_TYPE":"Massage Establishment","LEGAL_NAME":"CARMEN Y WONG","LONGITUDE":-87.72724452413887},
{"STATE":"IL","ZIP":60618,"LATTITUDE":41.93637933112725,"ADDRESS":"3020 N KIMBALL AVE  ","YEAR":2012,"DOING_BUSINESS_AS_NAME":"GARRETT HYPNOSIS AND WELLNESS","POP_AT_RISK":63858,"BUSINESS_TYPE":"Massage Establishment","LEGAL_NAME":"LARRY GARRETT","LONGITUDE":-87.71254866327882},
{"STATE":"IL","ZIP":60646,"LATTITUDE":41.99834871292628,"ADDRESS":"6434 N CENTRAL AVE  ","YEAR":2012,"DOING_BUSINESS_AS_NAME":"THE FRENCH MANICURE","POP_AT_RISK":17956,"BUSINESS_TYPE":"Massage Establishment","LEGAL_NAME":"MARIA MATERNA","LONGITUDE":-87.76357981364337},
{"STATE":"IL","ZIP":60632,"LATTITUDE":41.79850767912813,"ADDRESS":"5215 S KEDZIE AVE 1ST ","YEAR":2012,"DOING_BUSINESS_AS_NAME":"ALOE PLUS CORP","POP_AT_RISK":415752,"BUSINESS_TYPE":"Massage Establishment","LEGAL_NAME":"ALOE PLUS CORP","LONGITUDE":-87.70355219322796},
{"STATE":"IL","ZIP":60608,"LATTITUDE":41.83618205368048,"ADDRESS":"3181 S ARCHER AVE 1 1","YEAR":2012,"DOING_BUSINESS_AS_NAME":"ARCHER SPA","POP_AT_RISK":34491,"BUSINESS_TYPE":"Massage Establishment","LEGAL_NAME":"ARCHER SPA INC.","LONGITUDE":-87.66795272252845},
{"STATE":"IL","ZIP":60612,"LATTITUDE":41.87075810919069,"ADDRESS":"819 S WESTERN AVE 1ST ","YEAR":2012,"DOING_BUSINESS_AS_NAME":"YUAN YUAN SPA","POP_AT_RISK":311292,"BUSINESS_TYPE":"Massage Establishment","LEGAL_NAME":"LIEH YUEN HWANG","LONGITUDE":-87.68600614866033},
{"STATE":"IL","ZIP":60617,"LATTITUDE":41.72803591373235,"ADDRESS":"9204 S COMMERCIAL AVE  306","YEAR":2012,"DOING_BUSINESS_AS_NAME":"CREATIONS TOUCH","POP_AT_RISK":123914,"BUSINESS_TYPE":"Massage Establishment","LEGAL_NAME":"BARBARA A GODINA","LONGITUDE":-87.55135785246874},
{"STATE":"IL","ZIP":60615,"LATTITUDE":41.807254392728545,"ADDRESS":"4800 S CHICAGO BEACH DR LOBBY 1000","YEAR":2012,"DOING_BUSINESS_AS_NAME":"WALTONS URBAN RETREAT","POP_AT_RISK":106002,"BUSINESS_TYPE":"Massage Establishment","LEGAL_NAME":"PATRICIA A WALTON","LONGITUDE":-87.5866743553796},
{"STATE":"IL","ZIP":60652,"LATTITUDE":41.75466012439374,"ADDRESS":"7601 S CICERO AVE  5581","YEAR":2012,"DOING_BUSINESS_AS_NAME":"RELAX CENTER","POP_AT_RISK":129110,"BUSINESS_TYPE":"Massage Establishment","LEGAL_NAME":"RELAX CENTER, INC.","LONGITUDE":-87.74138475860521},
{"STATE":"IL","ZIP":60616,"LATTITUDE":41.845601286354665,"ADDRESS":"262 W 26TH ST  ","YEAR":2012,"DOING_BUSINESS_AS_NAME":"WINNIE PEK HA CHAN","POP_AT_RISK":62784,"BUSINESS_TYPE":"Massage Establishment","LEGAL_NAME":"WINNIE PEK HA CHAN","LONGITUDE":-87.6342287947557},
{"STATE":"IL","ZIP":60651,"LATTITUDE":41.89492662954099,"ADDRESS":"5700 W CHICAGO AVE 2 ","YEAR":2012,"DOING_BUSINESS_AS_NAME":"ONLY BY FAITH","POP_AT_RISK":772798,"BUSINESS_TYPE":"Massage Establishment","LEGAL_NAME":"ONLY BY FAITH, INC.","LONGITUDE":-87.76800833135303},
{"STATE":"IL","ZIP":60656,"LATTITUDE":41.97705855196119,"ADDRESS":"5251 N HARLEM AVE 1 B","YEAR":2012,"DOING_BUSINESS_AS_NAME":"REACH FOR HEALTH","POP_AT_RISK":79644,"BUSINESS_TYPE":"Massage Establishment","LEGAL_NAME":"REACH FOR HEALTH CO.","LONGITUDE":-87.80686267804015},
{"STATE":"IL","ZIP":60629,"LATTITUDE":41.77861837124476,"ADDRESS":"3809 W 63RD ST  ","YEAR":2012,"DOING_BUSINESS_AS_NAME":"RENOVACIONES VALLEJO","POP_AT_RISK":459104,"BUSINESS_TYPE":"Massage Establishment","LEGAL_NAME":"RENOVACIONES VALLEJO","LONGITUDE":-87.71827863897089},
{"STATE":"IL","ZIP":60626,"LATTITUDE":42.007782579829936,"ADDRESS":"6934 N GLENWOOD AVE 2 F","YEAR":2012,"DOING_BUSINESS_AS_NAME":"ROGERS PARK CENTER FOR MASSAGE THERAPY","POP_AT_RISK":134726,"BUSINESS_TYPE":"Massage Establishment","LEGAL_NAME":"KAREN MARGARET WERNER","LONGITUDE":-87.66632158333684},
{"STATE":"IL","ZIP":60646,"LATTITUDE":41.98881553278768,"ADDRESS":"5901 N CICERO AVE  G-11","YEAR":2012,"DOING_BUSINESS_AS_NAME":"MASSAGE MIRACLE","POP_AT_RISK":47166,"BUSINESS_TYPE":"Massage Establishment","LEGAL_NAME":"MARYNA MITSKO-SCHLITZ","LONGITUDE":-87.74817539211976},
{"STATE":"IL","ZIP":60649,"LATTITUDE":41.76489356013883,"ADDRESS":"7144 S EXCHANGE AVE  ","YEAR":2012,"DOING_BUSINESS_AS_NAME":"EARTH ANGELS SPA","POP_AT_RISK":364947,"BUSINESS_TYPE":"Massage Establishment","LEGAL_NAME":"SHIRELLE MARIE CROSBY","LONGITUDE":-87.56571806921879},
{"STATE":"IL","ZIP":60656,"LATTITUDE":41.978307146086195,"ADDRESS":"5441 N EAST RIVER RD  ","YEAR":2012,"DOING_BUSINESS_AS_NAME":"PAVILION SALON & SPA","POP_AT_RISK":31638,"BUSINESS_TYPE":"Massage Establishment","LEGAL_NAME":"ESCAPE TO BEAUTY, INC.","LONGITUDE":-87.84631557802447},
{"STATE":"IL","ZIP":60631,"LATTITUDE":42.017286150770815,"ADDRESS":"7504 N HARLEM AVE  ","YEAR":2012,"DOING_BUSINESS_AS_NAME":"NEW LOOK THERAPY, INC","POP_AT_RISK":56158,"BUSINESS_TYPE":"Massage Establishment","LEGAL_NAME":"NEW LOOK THERAPY, INC.","LONGITUDE":-87.80671760193259},
{"STATE":"IL","ZIP":60643,"LATTITUDE":41.69937269957871,"ADDRESS":"10655 S HALE AVE  1","YEAR":2012,"DOING_BUSINESS_AS_NAME":"RELAXATION STATION","POP_AT_RISK":37650,"BUSINESS_TYPE":"Massage Establishment","LEGAL_NAME":"MICHELLE MANNING PAPPAS","LONGITUDE":-87.66933262982369},
{"STATE":"IL","ZIP":60608,"LATTITUDE":41.832018341517575,"ADDRESS":"3408 S ASHLAND AVE 1 ","YEAR":2012,"DOING_BUSINESS_AS_NAME":"A & B BEAUTY SALON, INC.","POP_AT_RISK":33000,"BUSINESS_TYPE":"Massage Establishment","LEGAL_NAME":"A & B BEAUTY SALON, INC.","LONGITUDE":-87.66574299555005},
{"STATE":"IL","ZIP":60655,"LATTITUDE":41.6915538005651,"ADDRESS":"3502 W 111TH ST  ","YEAR":2012,"DOING_BUSINESS_AS_NAME":"FACE TO FACE","POP_AT_RISK":25020,"BUSINESS_TYPE":"Massage Establishment","LEGAL_NAME":"ANTONELLA FRANGELLA-QUINN","LONGITUDE":-87.70829980245604},
{"STATE":"IL","ZIP":60641,"LATTITUDE":41.94431699793207,"ADDRESS":"3500-3504 N CICERO AVE  ","YEAR":2012,"DOING_BUSINESS_AS_NAME":"REHYDRATE WATER BAR & CAFE","POP_AT_RISK":269555,"BUSINESS_TYPE":"Massage Establishment","LEGAL_NAME":"CHICAGO SWEATLODGE L.L.C.","LONGITUDE":-87.74716146412266},
{"STATE":"IL","ZIP":60638,"LATTITUDE":41.79223321698213,"ADDRESS":"6842 W ARCHER AVE  ","YEAR":2012,"DOING_BUSINESS_AS_NAME":"THE BLOOMING LOTUS, CORP","POP_AT_RISK":75188,"BUSINESS_TYPE":"Massage Establishment","LEGAL_NAME":"THE BLOOMING LOTUS, CORP.","LONGITUDE":-87.7932838035596},
{"STATE":"IL","ZIP":60659,"LATTITUDE":41.997531904503475,"ADDRESS":"3110-3112 W DEVON AVE 1 ","YEAR":2012,"DOING_BUSINESS_AS_NAME":"DEVON SPA","POP_AT_RISK":112958,"BUSINESS_TYPE":"Massage Establishment","LEGAL_NAME":"DEVON SPA BODY THERAPY, INC","LONGITUDE":-87.70742852530599},
{"STATE":"IL","ZIP":60631,"LATTITUDE":42.01152752717812,"ADDRESS":"7646 W TOUHY AVE 1 ","YEAR":2012,"DOING_BUSINESS_AS_NAME":"BALANCE MASSAGE THERAPY INC.","POP_AT_RISK":19740,"BUSINESS_TYPE":"Massage Establishment","LEGAL_NAME":"BALANCE MASSAGE THERAPY INC.","LONGITUDE":-87.81818593992705},
{"STATE":"IL","ZIP":60626,"LATTITUDE":42.01860686413697,"ADDRESS":"7524 N PAULINA ST 1ST 17","YEAR":2012,"DOING_BUSINESS_AS_NAME":"WATERFALLS HAVEN RETREAT","POP_AT_RISK":125148,"BUSINESS_TYPE":"Massage Establishment","LEGAL_NAME":"WATERFALLS HAVEN RETREAT, INC.","LONGITUDE":-87.67318962015649},
{"STATE":"IL","ZIP":60620,"LATTITUDE":41.72814388801822,"ADDRESS":"9101 S WESTERN AVE  1 & 2","YEAR":2012,"DOING_BUSINESS_AS_NAME":"Serenity Spa and Wellness, Inc.","POP_AT_RISK":27042,"BUSINESS_TYPE":"Massage Establishment","LEGAL_NAME":"SERENITY SPA AND WELLNESS, INC.","LONGITUDE":-87.6821399005298},
{"STATE":"IL","ZIP":60608,"LATTITUDE":41.85340779273068,"ADDRESS":"2122 S ASHLAND AVE 1ST ","YEAR":2012,"DOING_BUSINESS_AS_NAME":"VERDE WELLNESS AND MASSAGE","POP_AT_RISK":82564,"BUSINESS_TYPE":"Massage Establishment","LEGAL_NAME":"VERDE WELLNESS AND MASSAGE, INC.","LONGITUDE":-87.66618173767567},
{"STATE":"IL","ZIP":60656,"LATTITUDE":41.966140043471476,"ADDRESS":"4738 N CUMBERLAND AVE 1ST ","YEAR":2012,"DOING_BUSINESS_AS_NAME":"SPLENDOR HAIR SALON & DAY SPA","POP_AT_RISK":34164,"BUSINESS_TYPE":"Massage Establishment","LEGAL_NAME":"SPLENDOR HAIR SALON & DAY SPA, P.C.","LONGITUDE":-87.8368307262053},
{"STATE":"IL","ZIP":60619,"LATTITUDE":41.73894775730201,"ADDRESS":"8545 S COTTAGE GROVE AVE  ","YEAR":2012,"DOING_BUSINESS_AS_NAME":"SOUTH CENTRAL COMMUNITY SERVICES","POP_AT_RISK":461268,"BUSINESS_TYPE":"Massage Establishment","LEGAL_NAME":"SOUTH CENTRAL COMMUNITY SERVICES, INC.","LONGITUDE":-87.60474054067679},
}