{
{"STATE":"IL","ZIP":60619,"LATTITUDE":41.744048665452944,"ADDRESS":"716 - 724 E 83RD ST 1 ","YEAR":2013,"DOING_BUSINESS_AS_NAME":"CHATHAM COIN LAUNDRY","POP_AT_RISK":300744,"BUSINESS_TYPE":"Laundry, Late Hour","LEGAL_NAME":"J J 43, INC.","LONGITUDE":-87.60672382628643},
{"STATE":"IL","ZIP":60636,"LATTITUDE":41.76432516557912,"ADDRESS":"7110-7114 S WESTERN AVE 1 ","YEAR":2013,"DOING_BUSINESS_AS_NAME":"71ST BEST COIN LAUNDRY","POP_AT_RISK":77926,"BUSINESS_TYPE":"Laundry, Late Hour","LEGAL_NAME":"J J 43, INC.","LONGITUDE":-87.68338003409055},
{"STATE":"IL","ZIP":60623,"LATTITUDE":41.839059711918594,"ADDRESS":"2858 S HOMAN AVE  ","YEAR":2013,"DOING_BUSINESS_AS_NAME":"RIO BRAVO LAUNDROMAT","POP_AT_RISK":257952,"BUSINESS_TYPE":"Laundry, Late Hour","LEGAL_NAME":"EVENCIO RAMIREZ","LONGITUDE":-87.70990866883383},
{"STATE":"IL","ZIP":60621,"LATTITUDE":41.783558051651426,"ADDRESS":"6049 S HALSTED ST  ","YEAR":2013,"DOING_BUSINESS_AS_NAME":"FLETCHER LAUNDRYWORLD I","POP_AT_RISK":183897,"BUSINESS_TYPE":"Laundry, Late Hour","LEGAL_NAME":"ALEXANDER FLETCHER","LONGITUDE":-87.64473538608424},
{"STATE":"IL","ZIP":60619,"LATTITUDE":41.75882789443388,"ADDRESS":"1346 E 75TH ST  ","YEAR":2013,"DOING_BUSINESS_AS_NAME":"FLETCHER LAUNDRYWORLD II","POP_AT_RISK":140084,"BUSINESS_TYPE":"Laundry, Late Hour","LEGAL_NAME":"ALEXANDER FLETCHER","LONGITUDE":-87.59136612676487},
{"STATE":"IL","ZIP":60623,"LATTITUDE":41.85152144233116,"ADDRESS":"2200 S PULASKI RD 1ST ","YEAR":2013,"DOING_BUSINESS_AS_NAME":"THE WASH TUB I","POP_AT_RISK":629325,"BUSINESS_TYPE":"Laundry, Late Hour","LEGAL_NAME":"THE WASH TUB I INC","LONGITUDE":-87.7249047867499},
{"STATE":"IL","ZIP":60624,"LATTITUDE":41.88075011866137,"ADDRESS":"4258 W MADISON ST  ","YEAR":2013,"DOING_BUSINESS_AS_NAME":"SPIN CYCLE","POP_AT_RISK":369237,"BUSINESS_TYPE":"Laundry, Late Hour","LEGAL_NAME":"ALL IN MADISON INC.","LONGITUDE":-87.73290463298663},
{"STATE":"IL","ZIP":60622,"LATTITUDE":41.90458941380305,"ADDRESS":"1246-1248 N ASHLAND AVE 1ST ","YEAR":2013,"DOING_BUSINESS_AS_NAME":"SUDS LAUNDROMAT","POP_AT_RISK":588350,"BUSINESS_TYPE":"Laundry, Late Hour","LEGAL_NAME":"SUDZ LAUNDROMAT INC","LONGITUDE":-87.66767596550207},
{"STATE":"IL","ZIP":60609,"LATTITUDE":41.813966327139475,"ADDRESS":"4400-4406 S ASHLAND AVE 1ST ","YEAR":2013,"DOING_BUSINESS_AS_NAME":"EL RIO GRANDE","POP_AT_RISK":71284,"BUSINESS_TYPE":"Laundry, Late Hour","LEGAL_NAME":"OSA ENTERPRISE, INC.","LONGITUDE":-87.66525392868716},
{"STATE":"IL","ZIP":60609,"LATTITUDE":41.801085567475226,"ADDRESS":"5101 S WESTERN BLVD 1ST ","YEAR":2013,"DOING_BUSINESS_AS_NAME":"Bubbleland","POP_AT_RISK":151152,"BUSINESS_TYPE":"Laundry, Late Hour","LEGAL_NAME":"Illinois Laundry, LLC","LONGITUDE":-87.68352489873828},
{"STATE":"IL","ZIP":60622,"LATTITUDE":41.90103185035965,"ADDRESS":"1055 N WESTERN AVE 1ST ","YEAR":2013,"DOING_BUSINESS_AS_NAME":"VILLAGE LAUNDRY","POP_AT_RISK":622413,"BUSINESS_TYPE":"Laundry, Late Hour","LEGAL_NAME":"LEE & K LAUNDRY, INC.","LONGITUDE":-87.68682796098895},
{"STATE":"IL","ZIP":60636,"LATTITUDE":41.78362221191219,"ADDRESS":"6036 S WESTERN AVE 1ST ","YEAR":2013,"DOING_BUSINESS_AS_NAME":"QUICK WASH","POP_AT_RISK":354498,"BUSINESS_TYPE":"Laundry, Late Hour","LEGAL_NAME":"SUDZ ENTERPRISE, INC.","LONGITUDE":-87.68390894838001},
{"STATE":"IL","ZIP":60612,"LATTITUDE":41.882832314409654,"ADDRESS":"100 N KEDZIE AVE  ","YEAR":2013,"DOING_BUSINESS_AS_NAME":"SOAP OPERA","POP_AT_RISK":436085,"BUSINESS_TYPE":"Laundry, Late Hour","LEGAL_NAME":"O & B ENTERPRISE, INC.","LONGITUDE":-87.70631821355352},
{"STATE":"IL","ZIP":60620,"LATTITUDE":41.75054541889094,"ADDRESS":"1364 W 79TH ST  ","YEAR":2013,"DOING_BUSINESS_AS_NAME":"WASH & RELAX","POP_AT_RISK":411957,"BUSINESS_TYPE":"Laundry, Late Hour","LEGAL_NAME":"J & L DEVELOPERS L.L.C.","LONGITUDE":-87.65790718447312},
{"STATE":"IL","ZIP":60621,"LATTITUDE":41.76858970527297,"ADDRESS":"1153-55 W 69TH ST 1ST ","YEAR":2013,"DOING_BUSINESS_AS_NAME":"WASH & RELAX LAUNDRY & DELI","POP_AT_RISK":122907,"BUSINESS_TYPE":"Laundry, Late Hour","LEGAL_NAME":"J & L DEVELOPERS L.L.C.","LONGITUDE":-87.65389620673434},
{"STATE":"IL","ZIP":60649,"LATTITUDE":41.75193793360491,"ADDRESS":"2660 E 79TH ST  ","YEAR":2013,"DOING_BUSINESS_AS_NAME":"SUDZ COIN LAUNDRY, INC.","POP_AT_RISK":241596,"BUSINESS_TYPE":"Laundry, Late Hour","LEGAL_NAME":"SUDZ COIN LAUNDRY, INC.","LONGITUDE":-87.55908694571022},
{"STATE":"IL","ZIP":60649,"LATTITUDE":41.76550926574415,"ADDRESS":"7120-7128 S YATES BLVD  ","YEAR":2013,"DOING_BUSINESS_AS_NAME":"Aqua Wash Laundry","POP_AT_RISK":99531,"BUSINESS_TYPE":"Laundry, Late Hour","LEGAL_NAME":"Y & K LAUNDRY & CLEANERS, INC.","LONGITUDE":-87.56665105757953},
}