{
{"STATE":"IL","ZIP":60619,"LATTITUDE":41.743553030346824,"ADDRESS":"11 E 83RD ST 1 ","YEAR":2012,"DOING_BUSINESS_AS_NAME":"Unlimited Talk","POP_AT_RISK":54476,"BUSINESS_TYPE":"Electronic Equipment Repair","LEGAL_NAME":"Rikaz Corp","LONGITUDE":-87.62384702951746},
{"STATE":"IL","ZIP":60707,"LATTITUDE":41.93024613037063,"ADDRESS":"2741 N HARLEM AVE 1 ","YEAR":2012,"DOING_BUSINESS_AS_NAME":"OnCallERS","POP_AT_RISK":50813,"BUSINESS_TYPE":"Electronic Equipment Repair","LEGAL_NAME":"Andis Combi","LONGITUDE":-87.80632536971258},
{"STATE":"IL","ZIP":60656,"LATTITUDE":41.980823630554646,"ADDRESS":"7110 W HIGGINS AVE 1ST ","YEAR":2012,"DOING_BUSINESS_AS_NAME":"Demolab Inc","POP_AT_RISK":29614,"BUSINESS_TYPE":"Electronic Equipment Repair","LEGAL_NAME":"Demolab Inc","LONGITUDE":-87.80510987964077},
{"STATE":"IL","ZIP":60647,"LATTITUDE":41.9174889160471,"ADDRESS":"3242 W ARMITAGE AVE 1 ","YEAR":2012,"DOING_BUSINESS_AS_NAME":"BE MOBILE INC","POP_AT_RISK":70355,"BUSINESS_TYPE":"Electronic Equipment Repair","LEGAL_NAME":"BE MOBILE INC","LONGITUDE":-87.7087605697541},
{"STATE":"IL","ZIP":60609,"LATTITUDE":41.81944142629576,"ADDRESS":"4100 S ASHLAND AVE  ","YEAR":2012,"DOING_BUSINESS_AS_NAME":"JUAN G. ALATRIZ","POP_AT_RISK":20340,"BUSINESS_TYPE":"Electronic Equipment Repair","LEGAL_NAME":"JUAN G ALATRIZ","LONGITUDE":-87.6653755449091},
{"STATE":"IL","ZIP":60628,"LATTITUDE":41.66248588927619,"ADDRESS":"12723 S HALSTED ST 1ST ","YEAR":2012,"DOING_BUSINESS_AS_NAME":"R & R COMPUTER SERVICES","POP_AT_RISK":119515,"BUSINESS_TYPE":"Electronic Equipment Repair","LEGAL_NAME":"ROCHELLE SMITH","LONGITUDE":-87.64124911070888},
{"STATE":"IL","ZIP":60617,"LATTITUDE":41.722580334393854,"ADDRESS":"2002 E 95TH ST 1ST ","YEAR":2012,"DOING_BUSINESS_AS_NAME":"SPRINT","POP_AT_RISK":104645,"BUSINESS_TYPE":"Electronic Equipment Repair","LEGAL_NAME":"SPIRIT PCS LLC","LONGITUDE":-87.57520901101073},
{"STATE":"IL","ZIP":60620,"LATTITUDE":41.74947552001605,"ADDRESS":"7920 S WESTERN AVE 1 ","YEAR":2012,"DOING_BUSINESS_AS_NAME":"SPRINT","POP_AT_RISK":34213,"BUSINESS_TYPE":"Electronic Equipment Repair","LEGAL_NAME":"SPIRIT PCS LLC","LONGITUDE":-87.68297883687882},
{"STATE":"IL","ZIP":60652,"LATTITUDE":41.73862454427184,"ADDRESS":"8457 S PULASKI RD  ","YEAR":2012,"DOING_BUSINESS_AS_NAME":"HIGH POWER INC.","POP_AT_RISK":25233,"BUSINESS_TYPE":"Electronic Equipment Repair","LEGAL_NAME":"HIGH POWER INC.","LONGITUDE":-87.72141660738357},
{"STATE":"IL","ZIP":60651,"LATTITUDE":41.89548373128249,"ADDRESS":"3942 W CHICAGO AVE 1ST ","YEAR":2012,"DOING_BUSINESS_AS_NAME":"CAGO WIRELESS","POP_AT_RISK":397827,"BUSINESS_TYPE":"Electronic Equipment Repair","LEGAL_NAME":"LUGANO ONE INC.","LONGITUDE":-87.72529073995163},
{"STATE":"IL","ZIP":60646,"LATTITUDE":41.997220105975195,"ADDRESS":"5355 W DEVON AVE 1 ","YEAR":2012,"DOING_BUSINESS_AS_NAME":"thetechedge","POP_AT_RISK":17956,"BUSINESS_TYPE":"Electronic Equipment Repair","LEGAL_NAME":"thetechedge llc","LONGITUDE":-87.76298292038099},
{"STATE":"IL","ZIP":60643,"LATTITUDE":41.69166723128615,"ADDRESS":"2355 W 111TH ST 1 1","YEAR":2012,"DOING_BUSINESS_AS_NAME":"E-Z COMPUTER INC.","POP_AT_RISK":86688,"BUSINESS_TYPE":"Electronic Equipment Repair","LEGAL_NAME":"E-Z COMPUTER INC.","LONGITUDE":-87.68090408274874},
{"STATE":"IL","ZIP":60707,"LATTITUDE":41.92355775559155,"ADDRESS":"6431 W FULLERTON AVE # 1","YEAR":2012,"DOING_BUSINESS_AS_NAME":"OFFICE DEPOT #503","POP_AT_RISK":55679,"BUSINESS_TYPE":"Electronic Equipment Repair","LEGAL_NAME":"OFFICE DEPOT, INC.","LONGITUDE":-87.78659186377055},
{"STATE":"IL","ZIP":60629,"LATTITUDE":41.778566567291335,"ADDRESS":"4702 W 63RD ST 1ST ","YEAR":2012,"DOING_BUSINESS_AS_NAME":"XTREME MOBILE INC.","POP_AT_RISK":25513,"BUSINESS_TYPE":"Electronic Equipment Repair","LEGAL_NAME":"XTREME MOBILE INC.","LONGITUDE":-87.73998283949524},
{"STATE":"IL","ZIP":60636,"LATTITUDE":41.779806951166954,"ADDRESS":"6244 S DAMEN AVE 1ST ","YEAR":2012,"DOING_BUSINESS_AS_NAME":"REAL DEAL ELECTRONICS","POP_AT_RISK":154780,"BUSINESS_TYPE":"Electronic Equipment Repair","LEGAL_NAME":"BRANDEE A MCMASTERS","LONGITUDE":-87.67405919625807},
{"STATE":"IL","ZIP":60609,"LATTITUDE":41.80844174338191,"ADDRESS":"1813 W 47TH ST 1ST ","YEAR":2012,"DOING_BUSINESS_AS_NAME":"ENVIOS LATINOS CORP","POP_AT_RISK":215070,"BUSINESS_TYPE":"Electronic Equipment Repair","LEGAL_NAME":"ENVIOS LATINOS CORP","LONGITUDE":-87.67043392379307},
{"STATE":"IL","ZIP":60646,"LATTITUDE":42.01189420932856,"ADDRESS":"6141 W TOUHY AVE 1ST A","YEAR":2012,"DOING_BUSINESS_AS_NAME":"ASAYA SOLUTIONS, INC.","POP_AT_RISK":21506,"BUSINESS_TYPE":"Electronic Equipment Repair","LEGAL_NAME":"ASAYA SOLUTIONS INC.","LONGITUDE":-87.78085546874075},
{"STATE":"IL","ZIP":60646,"LATTITUDE":41.98558988459477,"ADDRESS":"5732 N MILWAUKEE AVE 1 1","YEAR":2012,"DOING_BUSINESS_AS_NAME":"COMSETS SYSTEMS","POP_AT_RISK":27547,"BUSINESS_TYPE":"Electronic Equipment Repair","LEGAL_NAME":"COMSETS SYSTEMS INC.","LONGITUDE":-87.7769724251324},
{"STATE":"IL","ZIP":60632,"LATTITUDE":41.82134431810515,"ADDRESS":"3982 S ARCHER AVE 1 ","YEAR":2012,"DOING_BUSINESS_AS_NAME":"CYBERK COMPUTEK INC.","POP_AT_RISK":56648,"BUSINESS_TYPE":"Electronic Equipment Repair","LEGAL_NAME":"CYBERK COMPUTEK INC.","LONGITUDE":-87.69264968521705},
{"STATE":"IL","ZIP":60607,"LATTITUDE":41.887832951483276,"ADDRESS":"345 N LOOMIS ST  ","YEAR":2012,"DOING_BUSINESS_AS_NAME":"VIC'S DRUM SHOP, LLC","POP_AT_RISK":76214,"BUSINESS_TYPE":"Electronic Equipment Repair","LEGAL_NAME":"VIC'S DRUM SHOP, LLC","LONGITUDE":-87.66237096468782},
{"STATE":"IL","ZIP":60645,"LATTITUDE":42.016053205008,"ADDRESS":"7409 N WESTERN AVE  ","YEAR":2012,"DOING_BUSINESS_AS_NAME":"COMPUTECH SERVICES INC","POP_AT_RISK":45582,"BUSINESS_TYPE":"Electronic Equipment Repair","LEGAL_NAME":"COMPUTECH SERVICES INC","LONGITUDE":-87.69006386649397},
{"STATE":"IL","ZIP":60624,"LATTITUDE":41.86629404009699,"ADDRESS":"3938 W ROOSEVELT RD 1ST ","YEAR":2012,"DOING_BUSINESS_AS_NAME":"HOTLINE","POP_AT_RISK":607012,"BUSINESS_TYPE":"Electronic Equipment Repair","LEGAL_NAME":"JOUDEH WIRELESS, INC.,","LONGITUDE":-87.72432589687341},
{"STATE":"IL","ZIP":60636,"LATTITUDE":41.7676107590257,"ADDRESS":"6930 S ASHLAND AVE 1ST A","YEAR":2012,"DOING_BUSINESS_AS_NAME":"RADIO SHACK #","POP_AT_RISK":250852,"BUSINESS_TYPE":"Electronic Equipment Repair","LEGAL_NAME":"RADIOSHACK CORPORATION","LONGITUDE":-87.66401069778658},
{"STATE":"IL","ZIP":60638,"LATTITUDE":41.79554052343161,"ADDRESS":"5897 S ARCHER AVE  ","YEAR":2012,"DOING_BUSINESS_AS_NAME":"RADIO SHACK #6582","POP_AT_RISK":139050,"BUSINESS_TYPE":"Electronic Equipment Repair","LEGAL_NAME":"RADIOSHACK CORPORATION","LONGITUDE":-87.76276028417233},
{"STATE":"IL","ZIP":60628,"LATTITUDE":41.68354217732462,"ADDRESS":"11613 S HALSTED ST  ","YEAR":2012,"DOING_BUSINESS_AS_NAME":"RADIO SHACK #6585","POP_AT_RISK":120832,"BUSINESS_TYPE":"Electronic Equipment Repair","LEGAL_NAME":"RADIOSHACK CORPORATION","LONGITUDE":-87.6419554902047},
{"STATE":"IL","ZIP":60649,"LATTITUDE":41.765189524327816,"ADDRESS":"7131 S JEFFERY BLVD 1ST #","YEAR":2012,"DOING_BUSINESS_AS_NAME":"RADIO SHACK #6597","POP_AT_RISK":130011,"BUSINESS_TYPE":"Electronic Equipment Repair","LEGAL_NAME":"RADIOSHACK CORPORATION","LONGITUDE":-87.57613310396634},
{"STATE":"IL","ZIP":60616,"LATTITUDE":41.83359457609747,"ADDRESS":"3347 S DR MARTIN LUTHER KING JR DR 4TH #","YEAR":2012,"DOING_BUSINESS_AS_NAME":"RADIO SHACK# 6227","POP_AT_RISK":401791,"BUSINESS_TYPE":"Electronic Equipment Repair","LEGAL_NAME":"RADIOSHACK CORPORATION","LONGITUDE":-87.61687085623677},
{"STATE":"IL","ZIP":60619,"LATTITUDE":41.7387135956648,"ADDRESS":"8554 S COTTAGE GROVE AVE  ","YEAR":2012,"DOING_BUSINESS_AS_NAME":"Radio Shack #6515","POP_AT_RISK":192195,"BUSINESS_TYPE":"Electronic Equipment Repair","LEGAL_NAME":"RADIOSHACK CORPORATION","LONGITUDE":-87.60502774566517},
{"STATE":"IL","ZIP":60617,"LATTITUDE":41.72817280299201,"ADDRESS":"9200 S COMMERCIAL AVE  ","YEAR":2012,"DOING_BUSINESS_AS_NAME":"Radio Shack #01-6489","POP_AT_RISK":88510,"BUSINESS_TYPE":"Electronic Equipment Repair","LEGAL_NAME":"RADIOSHACK CORPORATION","LONGITUDE":-87.55135936787175},
{"STATE":"IL","ZIP":60608,"LATTITUDE":41.853857226621656,"ADDRESS":"2100 S PEORIA ST  ","YEAR":2012,"DOING_BUSINESS_AS_NAME":"CHICAGO COMMUNICATION LLC","POP_AT_RISK":41035,"BUSINESS_TYPE":"Electronic Equipment Repair","LEGAL_NAME":"CHICAGO COMMUNICATION LLC","LONGITUDE":-87.64831214729323},
{"STATE":"IL","ZIP":60634,"LATTITUDE":41.95270759569199,"ADDRESS":"6615 W IRVING PARK RD 201 #","YEAR":2012,"DOING_BUSINESS_AS_NAME":"PROCOM ENTERPRISES LTD","POP_AT_RISK":34740,"BUSINESS_TYPE":"Electronic Equipment Repair","LEGAL_NAME":"PROCOM ENTERPRISE LIMITED","LONGITUDE":-87.79210947400955},
{"STATE":"IL","ZIP":60637,"LATTITUDE":41.776870543389926,"ADDRESS":"6459 S COTTAGE GROVE AVE 1ST ","YEAR":2012,"DOING_BUSINESS_AS_NAME":"TECHMARK MULTI-SERVICES, INC.","POP_AT_RISK":538146,"BUSINESS_TYPE":"Electronic Equipment Repair","LEGAL_NAME":"TECHMARK MULTI-SERVICES, INC.","LONGITUDE":-87.60570501770475},
{"STATE":"IL","ZIP":60643,"LATTITUDE":41.72124063361716,"ADDRESS":"1824 W 95TH ST  ","YEAR":2012,"DOING_BUSINESS_AS_NAME":"C F A O TECHNICAL SERVICES, INC.","POP_AT_RISK":23286,"BUSINESS_TYPE":"Electronic Equipment Repair","LEGAL_NAME":"C F A O TECHNICAL SERVICES, INC.","LONGITUDE":-87.66847425891076},
{"STATE":"IL","ZIP":60639,"LATTITUDE":41.909219664802585,"ADDRESS":"5725 W NORTH AVE 1ST ","YEAR":2012,"DOING_BUSINESS_AS_NAME":"NU LUUK COMPUTER SERVICES","POP_AT_RISK":54250,"BUSINESS_TYPE":"Electronic Equipment Repair","LEGAL_NAME":"NU LUUK COMPUTERS SERVICES, INC.","LONGITUDE":-87.7694214347033},
{"STATE":"IL","ZIP":60652,"LATTITUDE":41.742816827820924,"ADDRESS":"8251 S KEDZIE AVE 1ST ","YEAR":2012,"DOING_BUSINESS_AS_NAME":"CHICAGO COMMUNITY COMPUTER SERVICE, INC.","POP_AT_RISK":27818,"BUSINESS_TYPE":"Electronic Equipment Repair","LEGAL_NAME":"CHICAGO COMMUNITY COMPUTER SERVICE, INC.","LONGITUDE":-87.70205961436888},
{"STATE":"IL","ZIP":60620,"LATTITUDE":41.735895838585414,"ADDRESS":"957 W 87TH ST 1ST ","YEAR":2012,"DOING_BUSINESS_AS_NAME":"A-Z COMPUTER SOLUTIONS AND OFFICE, INC.","POP_AT_RISK":214368,"BUSINESS_TYPE":"Electronic Equipment Repair","LEGAL_NAME":"A - Z COMPUTER SOLUTIONS AND OFFICE, INC.","LONGITUDE":-87.64834506401242},
{"STATE":"IL","ZIP":60649,"LATTITUDE":41.75710477378682,"ADDRESS":"7554 S STONY ISLAND AVE  ","YEAR":2012,"DOING_BUSINESS_AS_NAME":"STAPLES THE OFFICE SUPERSTORE #1628","POP_AT_RISK":47316,"BUSINESS_TYPE":"Electronic Equipment Repair","LEGAL_NAME":"STAPLES THE OFFICE SUPERSTORE EAST , INC.","LONGITUDE":-87.5862399100739},
{"STATE":"IL","ZIP":60649,"LATTITUDE":41.75190281687788,"ADDRESS":"2556 E 79TH ST 1ST ","YEAR":2012,"DOING_BUSINESS_AS_NAME":"FRENCHIE' S UNIQUE COMPUTERS AND LEARNING CENTER","POP_AT_RISK":94389,"BUSINESS_TYPE":"Electronic Equipment Repair","LEGAL_NAME":"FRENCHIE' S UNIQUE COMPUTERS AND LEARNING CENTER, INC.","LONGITUDE":-87.56153319870063},
{"STATE":"IL","ZIP":60626,"LATTITUDE":42.01928855008811,"ADDRESS":"1763 W HOWARD ST  ","YEAR":2012,"DOING_BUSINESS_AS_NAME":"U S CELLULAR","POP_AT_RISK":62574,"BUSINESS_TYPE":"Electronic Equipment Repair","LEGAL_NAME":"UNITED STATES CELLULAR OPERATING COMPANY OF CHICAGO, LLC","LONGITUDE":-87.67505850938775},
{"STATE":"IL","ZIP":60643,"LATTITUDE":41.713013336357946,"ADDRESS":"9920 S WESTERN AVE  ","YEAR":2012,"DOING_BUSINESS_AS_NAME":"U S CELLULAR","POP_AT_RISK":18818,"BUSINESS_TYPE":"Electronic Equipment Repair","LEGAL_NAME":"UNITED STATES CELLULAR OPERATING COMPANY OF CHICAGO, LLC","LONGITUDE":-87.68196971044577},
}