{
{"STATE":"IL","ZIP":60659,"LATTITUDE":41.99713137588713,"ADDRESS":"3949 W DEVON AVE 1ST ","YEAR":2009,"DOING_BUSINESS_AS_NAME":"EDENS # 2 INC","POP_AT_RISK":20014,"BUSINESS_TYPE":"Tobacco Retail Over Counter","LEGAL_NAME":"EDENS #2, INC.","LONGITUDE":-87.72831703541054},
{"STATE":"IL","ZIP":60638,"LATTITUDE":41.77415695093783,"ADDRESS":"6316-6318 W 65TH ST 1ST ","YEAR":2009,"DOING_BUSINESS_AS_NAME":"LAST CALL LOUNGE","POP_AT_RISK":22742,"BUSINESS_TYPE":"Tobacco Retail Over Counter","LEGAL_NAME":"LAST CALL LOUNGE INC","LONGITUDE":-87.77940788571328},
{"STATE":"IL","ZIP":60644,"LATTITUDE":41.86556949703857,"ADDRESS":"5960 W ROOSEVELT RD 1ST ","YEAR":2009,"DOING_BUSINESS_AS_NAME":"RAFEE FOOD MART, INC.","POP_AT_RISK":169912,"BUSINESS_TYPE":"Tobacco Retail Over Counter","LEGAL_NAME":"RAFEE FOOD MART, INC.","LONGITUDE":-87.7740785743664},
{"STATE":"IL","ZIP":60645,"LATTITUDE":42.01197715588615,"ADDRESS":"3150 W TOUHY AVE  ","YEAR":2009,"DOING_BUSINESS_AS_NAME":"NEW YORK PANTRY","POP_AT_RISK":37841,"BUSINESS_TYPE":"Tobacco Retail Over Counter","LEGAL_NAME":"RADHESHYAM FOODS, INC.","LONGITUDE":-87.70867163416553},
{"STATE":"IL","ZIP":60652,"LATTITUDE":41.73524227693795,"ADDRESS":"8639 S CICERO AVE  ","YEAR":2009,"DOING_BUSINESS_AS_NAME":"CVS\/PHARMACY #2846","POP_AT_RISK":23923,"BUSINESS_TYPE":"Tobacco Retail Over Counter","LEGAL_NAME":"HIGHLAND PARK CVS, L.L.C.","LONGITUDE":-87.74084401681829},
{"STATE":"IL","ZIP":60652,"LATTITUDE":41.75466012439374,"ADDRESS":"7601 S CICERO AVE 1 ","YEAR":2009,"DOING_BUSINESS_AS_NAME":"GATEWAY NEWSTANDS","POP_AT_RISK":25822,"BUSINESS_TYPE":"Tobacco Retail Over Counter","LEGAL_NAME":"KYUNG AND YOUNG CO., INC.","LONGITUDE":-87.74138475860521},
{"STATE":"IL","ZIP":60827,"LATTITUDE":41.6486883798811,"ADDRESS":"13547 S INDIANA AVE  ","YEAR":2009,"DOING_BUSINESS_AS_NAME":"GAS SHOP AND MINI MART","POP_AT_RISK":11254,"BUSINESS_TYPE":"Tobacco Retail Over Counter","LEGAL_NAME":"GAS SHOP AND MINI MART, INC.","LONGITUDE":-87.61707897789567},
{"STATE":"IL","ZIP":60646,"LATTITUDE":41.99637159702214,"ADDRESS":"6308 N CENTRAL AVE  ","YEAR":2009,"DOING_BUSINESS_AS_NAME":"2001 GAS CENTRAL","POP_AT_RISK":17956,"BUSINESS_TYPE":"Tobacco Retail Over Counter","LEGAL_NAME":"THOMAS'S MINIMART & GAS INC.","LONGITUDE":-87.76427703822098},
{"STATE":"IL","ZIP":60644,"LATTITUDE":41.88023523529787,"ADDRESS":"5912  - 5914 W MADISON ST  1","YEAR":2009,"DOING_BUSINESS_AS_NAME":"WINNERS SPORT BAR & GRILL INC","POP_AT_RISK":46733,"BUSINESS_TYPE":"Tobacco Retail Over Counter","LEGAL_NAME":"WINNERS SPORTS BAR & GRILL, INC.","LONGITUDE":-87.77232918177985},
}