{
{"STATE":"IL","ZIP":60621,"LATTITUDE":41.77240524117657,"ADDRESS":"6701 S EMERALD AVE  ","YEAR":2008,"DOING_BUSINESS_AS_NAME":"LITTLE ANGELS FAMILY DAYCARE","POP_AT_RISK":30275,"BUSINESS_TYPE":"Day Care Center Under 2 Years","LEGAL_NAME":"EUNICE GREER","LONGITUDE":-87.64310796196668},
{"STATE":"IL","ZIP":60657,"LATTITUDE":41.93997636526853,"ADDRESS":"1110 W BELMONT AVE  1ST F","YEAR":2008,"DOING_BUSINESS_AS_NAME":"THRESHOLDS  MOTHERS  PROJECT","POP_AT_RISK":648280,"BUSINESS_TYPE":"Day Care Center Under 2 Years","LEGAL_NAME":"THE THRESHOLDS","LONGITUDE":-87.65702097547309},
{"STATE":"IL","ZIP":60649,"LATTITUDE":41.760094191655675,"ADDRESS":"2706-08 E 75TH ST  ","YEAR":2008,"DOING_BUSINESS_AS_NAME":"KIDS COUNT TOO BABYLAND","POP_AT_RISK":29611,"BUSINESS_TYPE":"Day Care Center Under 2 Years","LEGAL_NAME":"VERONICA CLARK","LONGITUDE":-87.55842186343085},
{"STATE":"IL","ZIP":60618,"LATTITUDE":41.941140616614504,"ADDRESS":"3300 N WHIPPLE ST  ","YEAR":2008,"DOING_BUSINESS_AS_NAME":"CONCORDIA PLACE","POP_AT_RISK":180240,"BUSINESS_TYPE":"Day Care Center Under 2 Years","LEGAL_NAME":"CONCORDIA PLACE","LONGITUDE":-87.70414879153417},
{"STATE":"IL","ZIP":60629,"LATTITUDE":41.77896431868574,"ADDRESS":"2909 W 63RD ST  ","YEAR":2008,"DOING_BUSINESS_AS_NAME":"ALMA'S CHILD DAY CARE CENTER","POP_AT_RISK":122438,"BUSINESS_TYPE":"Day Care Center Under 2 Years","LEGAL_NAME":"ALMA JEAN WALTON","LONGITUDE":-87.69625250805036},
{"STATE":"IL","ZIP":60619,"LATTITUDE":41.73826152379797,"ADDRESS":"8605-8607 S COTTAGE GROVE AVE 1ST ","YEAR":2008,"DOING_BUSINESS_AS_NAME":"THE BABY ACADEMY","POP_AT_RISK":38439,"BUSINESS_TYPE":"Day Care Center Under 2 Years","LEGAL_NAME":"THE BABY ACADEMY","LONGITUDE":-87.60472307634768},
{"STATE":"IL","ZIP":60640,"LATTITUDE":41.967343744093576,"ADDRESS":"4701 N WINTHROP AVE  1","YEAR":2008,"DOING_BUSINESS_AS_NAME":"CHRISTOPHER HOUSE-UPTOWN","POP_AT_RISK":75818,"BUSINESS_TYPE":"Day Care Center Under 2 Years","LEGAL_NAME":"CHRISTOPHER HOUSE","LONGITUDE":-87.65743012342456},
{"STATE":"IL","ZIP":60608,"LATTITUDE":41.85842074393547,"ADDRESS":"1710-1718 S LOOMIS ST  ","YEAR":2008,"DOING_BUSINESS_AS_NAME":"EL HOGAR DEL NINO","POP_AT_RISK":77436,"BUSINESS_TYPE":"Day Care Center Under 2 Years","LEGAL_NAME":"EL HOGAR DEL NINO","LONGITUDE":-87.66147971491169},
{"STATE":"IL","ZIP":60618,"LATTITUDE":41.95201166669297,"ADDRESS":"3901 N RIDGEWAY AVE  ","YEAR":2008,"DOING_BUSINESS_AS_NAME":"KIDWATCH PLUS INC","POP_AT_RISK":438816,"BUSINESS_TYPE":"Day Care Center Under 2 Years","LEGAL_NAME":"KIDWATCH PLUS INC","LONGITUDE":-87.72128864540792},
{"STATE":"IL","ZIP":60660,"LATTITUDE":41.998006917823254,"ADDRESS":"1447 W DEVON AVE  ","YEAR":2008,"DOING_BUSINESS_AS_NAME":"LITTLE KIDDIES INC","POP_AT_RISK":817160,"BUSINESS_TYPE":"Day Care Center Under 2 Years","LEGAL_NAME":"LITTLE KIDDIES INC.","LONGITUDE":-87.66728832698396},
{"STATE":"IL","ZIP":60609,"LATTITUDE":41.80162620836676,"ADDRESS":"1000 W 51ST ST  ","YEAR":2008,"DOING_BUSINESS_AS_NAME":"NEW CITY DAYCARE INC.","POP_AT_RISK":28756,"BUSINESS_TYPE":"Day Care Center Under 2 Years","LEGAL_NAME":"NEW CITY DAYCARE INC.","LONGITUDE":-87.65026589146807},
{"STATE":"IL","ZIP":60640,"LATTITUDE":41.96333910684637,"ADDRESS":"4500 N WINCHESTER AVE  ","YEAR":2008,"DOING_BUSINESS_AS_NAME":"SUNNYSIDE CENTER","POP_AT_RISK":394842,"BUSINESS_TYPE":"Day Care Center Under 2 Years","LEGAL_NAME":"SUNNYSIDE CENTER, INC.","LONGITUDE":-87.67768910841522},
{"STATE":"IL","ZIP":60643,"LATTITUDE":41.72100921563706,"ADDRESS":"1855 W 95TH ST  1","YEAR":2008,"DOING_BUSINESS_AS_NAME":"NICO'S PLAYHOUSE","POP_AT_RISK":23286,"BUSINESS_TYPE":"Day Care Center Under 2 Years","LEGAL_NAME":"BLACK PEARL CORPORATION","LONGITUDE":-87.66955850271017},
{"STATE":"IL","ZIP":60629,"LATTITUDE":41.779107743559166,"ADDRESS":"2509-2513 W 63RD ST  ","YEAR":2008,"DOING_BUSINESS_AS_NAME":"CARE BEAR ACADEMY","POP_AT_RISK":95722,"BUSINESS_TYPE":"Day Care Center Under 2 Years","LEGAL_NAME":"CARE BEAR ACADEMY, INC.","LONGITUDE":-87.6865139390495},
{"STATE":"IL","ZIP":60619,"LATTITUDE":41.7272314584746,"ADDRESS":"9208 S COTTAGE GROVE AVE  ","YEAR":2008,"DOING_BUSINESS_AS_NAME":"CHESTERFIELD TOM THUMB DCC-KDG","POP_AT_RISK":25108,"BUSINESS_TYPE":"Day Care Center Under 2 Years","LEGAL_NAME":"FREDDIE & YVONNE SAVAGE","LONGITUDE":-87.60474351637166},
{"STATE":"IL","ZIP":60624,"LATTITUDE":41.89444827833687,"ADDRESS":"730 N PULASKI RD  ","YEAR":2008,"DOING_BUSINESS_AS_NAME":"ORR INFANT & FAMILY DEVELOPMENT","POP_AT_RISK":93938,"BUSINESS_TYPE":"Day Care Center Under 2 Years","LEGAL_NAME":"HULL HOUSE  ASSOCIATION","LONGITUDE":-87.72620304790371},
{"STATE":"IL","ZIP":60615,"LATTITUDE":41.79975227992617,"ADDRESS":"5242 S HYDE PARK BLVD  1","YEAR":2008,"DOING_BUSINESS_AS_NAME":"COMPUTER PRE-SCHOOL ACADEMY","POP_AT_RISK":61302,"BUSINESS_TYPE":"Day Care Center Under 2 Years","LEGAL_NAME":"ROSLYN FRANCINE PHILLIPS","LONGITUDE":-87.58422514448023},
{"STATE":"IL","ZIP":60632,"LATTITUDE":41.79875025743268,"ADDRESS":"5160 S PULASKI RD  1","YEAR":2008,"DOING_BUSINESS_AS_NAME":"TEDDY BEAR SERVICES CORP","POP_AT_RISK":162808,"BUSINESS_TYPE":"Day Care Center Under 2 Years","LEGAL_NAME":"TEDDY BEAR SERVICES CORP","LONGITUDE":-87.72346641018879},
{"STATE":"IL","ZIP":60616,"LATTITUDE":41.848761809669455,"ADDRESS":"2416 S MICHIGAN AVE  ","YEAR":2008,"DOING_BUSINESS_AS_NAME":"KIDS CORNER ACADEMY, INC.","POP_AT_RISK":163772,"BUSINESS_TYPE":"Day Care Center Under 2 Years","LEGAL_NAME":"KIDS CORNER ACADEMY, INC.","LONGITUDE":-87.62384798976935},
{"STATE":"IL","ZIP":60614,"LATTITUDE":41.92133238926864,"ADDRESS":"2145 N HALSTED ST 1ST ","YEAR":2008,"DOING_BUSINESS_AS_NAME":"ST VINCENT DE PAUL CENTER","POP_AT_RISK":317466,"BUSINESS_TYPE":"Day Care Center Under 2 Years","LEGAL_NAME":"ST VINCENT DE PAUL CENTER","LONGITUDE":-87.64847173462576},
{"STATE":"IL","ZIP":60625,"LATTITUDE":41.97486650465706,"ADDRESS":"2824 W WINONA ST  1ST F","YEAR":2008,"DOING_BUSINESS_AS_NAME":"SWEDISH COVENANT HOSPITAL CCC","POP_AT_RISK":178905,"BUSINESS_TYPE":"Day Care Center Under 2 Years","LEGAL_NAME":"SWEDISH COVENANT HOSPITAL","LONGITUDE":-87.69987787644459},
{"STATE":"IL","ZIP":60638,"LATTITUDE":41.7932347787373,"ADDRESS":"6287 S ARCHER AVE  1ST F","YEAR":2008,"DOING_BUSINESS_AS_NAME":"KID'Z COLONY DAYCARE, INC.","POP_AT_RISK":186966,"BUSINESS_TYPE":"Day Care Center Under 2 Years","LEGAL_NAME":"KID'Z COLONY DAYCARE. INC.","LONGITUDE":-87.77777643611029},
{"STATE":"IL","ZIP":60609,"LATTITUDE":41.81574158020701,"ADDRESS":"1653 W 43RD ST  ","YEAR":2008,"DOING_BUSINESS_AS_NAME":"PAULO FREIRE CENTER","POP_AT_RISK":186570,"BUSINESS_TYPE":"Day Care Center Under 2 Years","LEGAL_NAME":"CHICAGO COMMONS ASSOCIATION","LONGITUDE":-87.66734779620032},
{"STATE":"IL","ZIP":60649,"LATTITUDE":41.76683033051137,"ADDRESS":"7037 S STONY ISLAND AVE  ","YEAR":2008,"DOING_BUSINESS_AS_NAME":"DEVELOPMENTAL INSTITUTE INC","POP_AT_RISK":37197,"BUSINESS_TYPE":"Day Care Center Under 2 Years","LEGAL_NAME":"DEVELOPMENTAL INSTITUTE INC","LONGITUDE":-87.58579397948077},
{"STATE":"IL","ZIP":60634,"LATTITUDE":41.945064857019986,"ADDRESS":"7559 W ADDISON ST 1ST ","YEAR":2008,"DOING_BUSINESS_AS_NAME":"JOLLY FUN HOUSE PLAYSCHOOLS","POP_AT_RISK":175602,"BUSINESS_TYPE":"Day Care Center Under 2 Years","LEGAL_NAME":"JFH EDUCATIONAL ACADEMY INC","LONGITUDE":-87.81673402827133},
{"STATE":"IL","ZIP":60636,"LATTITUDE":41.76877482214449,"ADDRESS":"1248 W 69TH ST  ","YEAR":2008,"DOING_BUSINESS_AS_NAME":"CHICAGO URBAN DAY SCHOOL INC","POP_AT_RISK":42036,"BUSINESS_TYPE":"Day Care Center Under 2 Years","LEGAL_NAME":"CHICAGO URBAN DAY SCHOOL INC","LONGITUDE":-87.65616134708598},
{"STATE":"IL","ZIP":60651,"LATTITUDE":41.90197979753018,"ADDRESS":"5733-5743 W DIVISION ST  ","YEAR":2008,"DOING_BUSINESS_AS_NAME":"MC KINNEY'S EARLY LEARNING ACADEMY","POP_AT_RISK":161223,"BUSINESS_TYPE":"Day Care Center Under 2 Years","LEGAL_NAME":"MCKINNEY'S HOME DAYCARE INC.","LONGITUDE":-87.76935328212376},
{"STATE":"IL","ZIP":60607,"LATTITUDE":41.88451419700416,"ADDRESS":"140 N ASHLAND AVE  1","YEAR":2008,"DOING_BUSINESS_AS_NAME":"THE WOMEN'S TREATMENT CNTR-DAY","POP_AT_RISK":105753,"BUSINESS_TYPE":"Day Care Center Under 2 Years","LEGAL_NAME":"THE WOMEN'S TREATMENT CENTER","LONGITUDE":-87.66704209415728},
{"STATE":"IL","ZIP":60631,"LATTITUDE":41.99697539188323,"ADDRESS":"7750 W DEVON AVE  1","YEAR":2008,"DOING_BUSINESS_AS_NAME":"HAPPY CHILD DAY CARE CTN, INC","POP_AT_RISK":41726,"BUSINESS_TYPE":"Day Care Center Under 2 Years","LEGAL_NAME":"HAPPY CHILD DAY CARE CTN, INC","LONGITUDE":-87.82099583645142},
{"STATE":"IL","ZIP":60634,"LATTITUDE":41.93165821480086,"ADDRESS":"2820 N NARRAGANSETT AVE 1 ","YEAR":2008,"DOING_BUSINESS_AS_NAME":"Little Green Oak","POP_AT_RISK":378525,"BUSINESS_TYPE":"Day Care Center Under 2 Years","LEGAL_NAME":"LITTLE GREEN OAK INCORPORATED","LONGITUDE":-87.78585878124555},
{"STATE":"IL","ZIP":60651,"LATTITUDE":41.908288020613874,"ADDRESS":"1505 N PULASKI RD 1 ","YEAR":2008,"DOING_BUSINESS_AS_NAME":"A MOTHER'S TOUCH DAYCARE","POP_AT_RISK":65618,"BUSINESS_TYPE":"Day Care Center Under 2 Years","LEGAL_NAME":"A MOTHER'S TOUCH DAYCARE, INC.","LONGITUDE":-87.72632247341286},
{"STATE":"IL","ZIP":60653,"LATTITUDE":41.81672394640202,"ADDRESS":"4301 S COTTAGE GROVE AVE  ","YEAR":2008,"DOING_BUSINESS_AS_NAME":"CENTERS FOR NEW HORIZONS","POP_AT_RISK":294476,"BUSINESS_TYPE":"Day Care Center Under 2 Years","LEGAL_NAME":"CENTERS FOR NEW HORIZONS, INC.","LONGITUDE":-87.60656011499496},
{"STATE":"IL","ZIP":60645,"LATTITUDE":41.99793024612749,"ADDRESS":"6407 N MAPLEWOOD AVE 1ST ","YEAR":2008,"DOING_BUSINESS_AS_NAME":"LITTLE ANGELS DAY CARE CENTER","POP_AT_RISK":490408,"BUSINESS_TYPE":"Day Care Center Under 2 Years","LEGAL_NAME":"LITTLE ANGELS DAY CARE CEN INC","LONGITUDE":-87.69340444679487},
{"STATE":"IL","ZIP":60628,"LATTITUDE":41.70774046981763,"ADDRESS":"10232-10234 S HALSTED ST  ","YEAR":2008,"DOING_BUSINESS_AS_NAME":"MONTESSORI ACDY. INFT\/TOD. CNT","POP_AT_RISK":30840,"BUSINESS_TYPE":"Day Care Center Under 2 Years","LEGAL_NAME":"MONTESSORI ACDY. INFT\/TODD CNT","LONGITUDE":-87.64300283870763},
{"STATE":"IL","ZIP":60612,"LATTITUDE":41.88008154649476,"ADDRESS":"2102 W MONROE ST  ","YEAR":2008,"DOING_BUSINESS_AS_NAME":"JAMES JORDAN CHILD CARE","POP_AT_RISK":28528,"BUSINESS_TYPE":"Day Care Center Under 2 Years","LEGAL_NAME":"BOYS AND GIRLS CLUBS OF CHICAGO","LONGITUDE":-87.67925524976629},
{"STATE":"IL","ZIP":60639,"LATTITUDE":41.90959070094518,"ADDRESS":"5242 W NORTH AVE  ","YEAR":2008,"DOING_BUSINESS_AS_NAME":"RACHEL'S LEARNING CENTER, LTD.","POP_AT_RISK":112216,"BUSINESS_TYPE":"Day Care Center Under 2 Years","LEGAL_NAME":"RACHEL'S LEARNING CENTERS, LTD.","LONGITUDE":-87.75740429414539},
{"STATE":"IL","ZIP":60617,"LATTITUDE":41.718354119253824,"ADDRESS":"9725 S COMMERCIAL AVE 1ST FLOOR ","YEAR":2008,"DOING_BUSINESS_AS_NAME":"MARI'S BUMBLE BEE DAY CARE CORP.","POP_AT_RISK":53247,"BUSINESS_TYPE":"Day Care Center Under 2 Years","LEGAL_NAME":"MARI'S BUMBLE BEE DAY CARE CORP.","LONGITUDE":-87.55087407318614},
{"STATE":"IL","ZIP":60660,"LATTITUDE":41.98386367207857,"ADDRESS":"5611 N CLARK ST  ","YEAR":2008,"DOING_BUSINESS_AS_NAME":"LAKE SHORE SCHOOL","POP_AT_RISK":309428,"BUSINESS_TYPE":"Day Care Center Under 2 Years","LEGAL_NAME":"HOBBY HORSE NURSERY SCHOOLS, LTD.","LONGITUDE":-87.66868894217718},
{"STATE":"IL","ZIP":60637,"LATTITUDE":41.78392951432473,"ADDRESS":"228 E 61ST ST  ","YEAR":2008,"DOING_BUSINESS_AS_NAME":"THE LOVE LEARNING CENTER DAYCARE","POP_AT_RISK":55662,"BUSINESS_TYPE":"Day Care Center Under 2 Years","LEGAL_NAME":"THE LOVE LEARNING CENTER\/ DAYCARE","LONGITUDE":-87.61941252113115},
{"STATE":"IL","ZIP":60620,"LATTITUDE":41.72933663322672,"ADDRESS":"9040 S VINCENNES AVE 1ST ","YEAR":2008,"DOING_BUSINESS_AS_NAME":"KIDS R FIRST LEARNING CENTER","POP_AT_RISK":66986,"BUSINESS_TYPE":"Day Care Center Under 2 Years","LEGAL_NAME":"KIDS R FIRST LEARNING CENTER, INC.","LONGITUDE":-87.64786961995537},
{"STATE":"IL","ZIP":60638,"LATTITUDE":41.80325513926886,"ADDRESS":"4922 S CICERO AVE 1 ","YEAR":2008,"DOING_BUSINESS_AS_NAME":"SANCTUARY CHILDCARE DEVELOPMENT CENTER","POP_AT_RISK":121210,"BUSINESS_TYPE":"Day Care Center Under 2 Years","LEGAL_NAME":"SANCTUARY OF THE LIVING GOD CHURCH","LONGITUDE":-87.74318434425263},
{"STATE":"IL","ZIP":60623,"LATTITUDE":41.855378986280684,"ADDRESS":"2929 W 19TH ST  ","YEAR":2008,"DOING_BUSINESS_AS_NAME":"Carole Robertson Center for Learning","POP_AT_RISK":392776,"BUSINESS_TYPE":"Day Care Center Under 2 Years","LEGAL_NAME":"CAROLE ROBERTSON CENTER FOR LEARNING","LONGITUDE":-87.70040521997677},
{"STATE":"IL","ZIP":60647,"LATTITUDE":41.9103196662774,"ADDRESS":"2818-20 W NORTH AVE  ","YEAR":2008,"DOING_BUSINESS_AS_NAME":"COZY CORNER CHILDCARE","POP_AT_RISK":1212117,"BUSINESS_TYPE":"Day Care Center Under 2 Years","LEGAL_NAME":"COZY CORNER CHILDCARE FACILITY, INC.","LONGITUDE":-87.69787842774888},
{"STATE":"IL","ZIP":60641,"LATTITUDE":41.946064744956374,"ADDRESS":"5332 - 5334 W ADDISON ST  ","YEAR":2008,"DOING_BUSINESS_AS_NAME":"PORTAGE PARK DAY NURSERY","POP_AT_RISK":161535,"BUSINESS_TYPE":"Day Care Center Under 2 Years","LEGAL_NAME":"MOSAIC EARLY CHILDHOOD ACADEMY, INC.","LONGITUDE":-87.76072227616888},
{"STATE":"IL","ZIP":60620,"LATTITUDE":41.74591661747167,"ADDRESS":"8130 S RACINE AVE 1 ","YEAR":2008,"DOING_BUSINESS_AS_NAME":"NEW PISGAH DAY CARE","POP_AT_RISK":38927,"BUSINESS_TYPE":"Day Care Center Under 2 Years","LEGAL_NAME":"NEW PISGAH MISSIONARY BAPTIST CHURCH","LONGITUDE":-87.65376178752422},
{"STATE":"IL","ZIP":60631,"LATTITUDE":41.98857518279947,"ADDRESS":"7435 W TALCOTT AVE 1ST ","YEAR":2008,"DOING_BUSINESS_AS_NAME":"PRESENCE RESURRECTION MEDICAL CENTER","POP_AT_RISK":43488,"BUSINESS_TYPE":"Day Care Center Under 2 Years","LEGAL_NAME":"PRESENCE RESURRECTION MEDICAL CENTER","LONGITUDE":-87.81297791219501},
{"STATE":"IL","ZIP":60611,"LATTITUDE":41.89848890902573,"ADDRESS":"126 E CHESTNUT ST  1ST F","YEAR":2008,"DOING_BUSINESS_AS_NAME":"FOURTH CHURCH DAY SCHOOL","POP_AT_RISK":422060,"BUSINESS_TYPE":"Day Care Center Under 2 Years","LEGAL_NAME":"FOURTH PRESBYTERIAN CHURCH OF CHICAGO","LONGITUDE":-87.62455288409814},
{"STATE":"IL","ZIP":60639,"LATTITUDE":41.909320378060386,"ADDRESS":"6134-38 W NORTH AVE 1ST ","YEAR":2008,"DOING_BUSINESS_AS_NAME":"TOUCH BY AN ANGEL","POP_AT_RISK":52524,"BUSINESS_TYPE":"Day Care Center Under 2 Years","LEGAL_NAME":"TOUCH BY AN ANGEL DAYCARE CORPORATION","LONGITUDE":-87.77906953501478},
{"STATE":"IL","ZIP":60651,"LATTITUDE":41.89540586598236,"ADDRESS":"3337-3341 W CHICAGO AVE  ","YEAR":2008,"DOING_BUSINESS_AS_NAME":"RAM LITTLE LAMBS LEARNING CENTER INC","POP_AT_RISK":46805,"BUSINESS_TYPE":"Day Care Center Under 2 Years","LEGAL_NAME":"RAM LITTLE LAMBS LEARNING CENTER, INC.","LONGITUDE":-87.71043217599598},
{"STATE":"IL","ZIP":60617,"LATTITUDE":41.681053268167084,"ADDRESS":"3552 E 118TH ST  ","YEAR":2008,"DOING_BUSINESS_AS_NAME":"BRENDA'S KIDS CLUB DAYCARE CENTER","POP_AT_RISK":13690,"BUSINESS_TYPE":"Day Care Center Under 2 Years","LEGAL_NAME":"BRENDA'S KIDS CLUB DAY CARE CENTER INC.","LONGITUDE":-87.53683432709336},
{"STATE":"IL","ZIP":60646,"LATTITUDE":41.99858912294531,"ADDRESS":"6441 N CENTRAL AVE  ","YEAR":2008,"DOING_BUSINESS_AS_NAME":"CARE-A-LOT INC","POP_AT_RISK":53868,"BUSINESS_TYPE":"Day Care Center Under 2 Years","LEGAL_NAME":"CARE-A -LOT EARLY LEARNING CENTER, INC.","LONGITUDE":-87.76319349986964},
{"STATE":"IL","ZIP":60630,"LATTITUDE":41.98212217185218,"ADDRESS":"5522 N MILWAUKEE AVE 1ST ","YEAR":2008,"DOING_BUSINESS_AS_NAME":"CARE-A-LOT E.L.C. II","POP_AT_RISK":137735,"BUSINESS_TYPE":"Day Care Center Under 2 Years","LEGAL_NAME":"CARE-A -LOT EARLY LEARNING CENTER, INC.","LONGITUDE":-87.77380816122093},
{"STATE":"IL","ZIP":60618,"LATTITUDE":41.96110410411044,"ADDRESS":"3021 -3023 W MONTROSE AVE 1ST ","YEAR":2008,"DOING_BUSINESS_AS_NAME":"IRVING PARK EARLY LEARNING CNT","POP_AT_RISK":149764,"BUSINESS_TYPE":"Day Care Center Under 2 Years","LEGAL_NAME":"IRVING PARK EARLY LEARNING CENTER, INC.","LONGITUDE":-87.70433833416415},
{"STATE":"IL","ZIP":60628,"LATTITUDE":41.69262847127151,"ADDRESS":"401 E 111TH ST 1ST ","YEAR":2008,"DOING_BUSINESS_AS_NAME":"HAPPY HOLIDAY NURSERY & KINDERGARTEN","POP_AT_RISK":52186,"BUSINESS_TYPE":"Day Care Center Under 2 Years","LEGAL_NAME":"HAPPY HOLIDAY NURSERY & KINDERGARTEN, INC.","LONGITUDE":-87.6133140522167},
{"STATE":"IL","ZIP":60647,"LATTITUDE":41.9244267757605,"ADDRESS":"3811 W FULLERTON AVE 1 ","YEAR":2008,"DOING_BUSINESS_AS_NAME":"PEACHTREE NURSERY AND LEARNING CENTER, INC.","POP_AT_RISK":476526,"BUSINESS_TYPE":"Day Care Center Under 2 Years","LEGAL_NAME":"PEACHTREE NURSERY AND LEARNING CENTER, INC.","LONGITUDE":-87.72233368097886},
{"STATE":"IL","ZIP":60624,"LATTITUDE":41.86986984755615,"ADDRESS":"3449 W ARTHINGTON ST  ","YEAR":2008,"DOING_BUSINESS_AS_NAME":"NORTH LAWNDALE YMCA","POP_AT_RISK":38374,"BUSINESS_TYPE":"Day Care Center Under 2 Years","LEGAL_NAME":"YOUNG MEN'S CHRISTIAN ASSOCIATION OF CHICAGO","LONGITUDE":-87.71259473893781},
{"STATE":"IL","ZIP":60617,"LATTITUDE":41.73713247245401,"ADDRESS":"1900 E 87TH ST  ","YEAR":2008,"DOING_BUSINESS_AS_NAME":"HEAD OF THE CLASS DAYCARE AND LEARNING CENTER","POP_AT_RISK":31468,"BUSINESS_TYPE":"Day Care Center Under 2 Years","LEGAL_NAME":"HEAD OF THE CLASS DAYCARE AND LEARNING CENTER","LONGITUDE":-87.57809061210452},
{"STATE":"IL","ZIP":60609,"LATTITUDE":41.80094515911694,"ADDRESS":"5114 S ELIZABETH ST  ","YEAR":2008,"DOING_BUSINESS_AS_NAME":"ST. JOHN OF GOD","POP_AT_RISK":71766,"BUSINESS_TYPE":"Day Care Center Under 2 Years","LEGAL_NAME":"THE CATHOLIC CHARITIES OF THE ARCHDIOCESE OF CHICAGO","LONGITUDE":-87.65640915468086},
{"STATE":"IL","ZIP":60623,"LATTITUDE":41.861003270876026,"ADDRESS":"1449 S KEELER AVE  ","YEAR":2008,"DOING_BUSINESS_AS_NAME":"OUR LADY OF LOURDES","POP_AT_RISK":228042,"BUSINESS_TYPE":"Day Care Center Under 2 Years","LEGAL_NAME":"THE CATHOLIC CHARITIES OF THE ARCHDIOCESE OF CHICAGO","LONGITUDE":-87.72976247742804},
}