{
{"STATE":"IL","ZIP":60655,"LATTITUDE":41.691454329559924,"ADDRESS":"3207 W 111TH ST 1ST ","YEAR":2005,"DOING_BUSINESS_AS_NAME":"GEO FRAME PRODUCTS CO","POP_AT_RISK":24012,"BUSINESS_TYPE":"Limited Business License","LEGAL_NAME":"CURT TAYLOR","LONGITUDE":-87.70116671333317},
{"STATE":"IL","ZIP":60623,"LATTITUDE":41.851984360096004,"ADDRESS":"2140 S KILBOURN AVE 1 ","YEAR":2005,"DOING_BUSINESS_AS_NAME":"RUBY ENGRAVING","POP_AT_RISK":48526,"BUSINESS_TYPE":"Limited Business License","LEGAL_NAME":"ANTONIO VEGA","LONGITUDE":-87.73711445332178},
{"STATE":"IL","ZIP":60666,"LATTITUDE":42.008536400868735,"ADDRESS":"11601 W TOUHY AVE  ","YEAR":2005,"DOING_BUSINESS_AS_NAME":"BAX GLOBAL INC","POP_AT_RISK":4956,"BUSINESS_TYPE":"Limited Business License","LEGAL_NAME":"BAX GLOBAL, INC.","LONGITUDE":-87.91442843927047},
{"STATE":"IL","ZIP":60638,"LATTITUDE":41.7938863373783,"ADDRESS":"6179 S ARCHER AVE  ","YEAR":2005,"DOING_BUSINESS_AS_NAME":"RAWA 2 VIDEO CO.","POP_AT_RISK":34645,"BUSINESS_TYPE":"Limited Business License","LEGAL_NAME":"RAWA 2 VIDEO CO.","LONGITUDE":-87.77354239133278},
{"STATE":"IL","ZIP":60617,"LATTITUDE":41.70262075649605,"ADDRESS":"3649 E 106TH ST  ","YEAR":2005,"DOING_BUSINESS_AS_NAME":"JOHN'S SHOWBIZ VIDEO","POP_AT_RISK":20967,"BUSINESS_TYPE":"Limited Business License","LEGAL_NAME":"RUBEN JOHN MORENO","LONGITUDE":-87.53455855561775},
{"STATE":"IL","ZIP":60643,"LATTITUDE":41.67811652340228,"ADDRESS":"11828 S WESTERN AVE  ","YEAR":2005,"DOING_BUSINESS_AS_NAME":"LMC MORTGAGE CORPORATION","POP_AT_RISK":19493,"BUSINESS_TYPE":"Limited Business License","LEGAL_NAME":"LMC MORTGAGE CORP.","LONGITUDE":-87.68087710799875},
{"STATE":"IL","ZIP":60633,"LATTITUDE":41.651701289708825,"ADDRESS":"4000 E 134TH ST 1ST 1ST","YEAR":2005,"DOING_BUSINESS_AS_NAME":"HARBOUR POINT ESTATES","POP_AT_RISK":6628,"BUSINESS_TYPE":"Limited Business License","LEGAL_NAME":"HARBOR 4000 EAST, LLC","LONGITUDE":-87.52749194531424},
{"STATE":"IL","ZIP":60707,"LATTITUDE":41.90893638688864,"ADDRESS":"1601 N HARLEM AVE  1","YEAR":2005,"DOING_BUSINESS_AS_NAME":"COLE VISION #1090","POP_AT_RISK":92283,"BUSINESS_TYPE":"Limited Business License","LEGAL_NAME":"COLE VISION CORPORATION","LONGITUDE":-87.8056027454349},
{"STATE":"IL","ZIP":60655,"LATTITUDE":41.69793767496546,"ADDRESS":"10727 S PULASKI RD 1ST ","YEAR":2005,"DOING_BUSINESS_AS_NAME":"D.F.CURLEY SONS INC","POP_AT_RISK":53502,"BUSINESS_TYPE":"Limited Business License","LEGAL_NAME":"D. F. CURLEY SONS, INC.","LONGITUDE":-87.7204632123981},
{"STATE":"IL","ZIP":60638,"LATTITUDE":41.79233949843357,"ADDRESS":"6620 W ARCHER AVE 1ST ","YEAR":2005,"DOING_BUSINESS_AS_NAME":"RIDGE FUNERAL HOME # 4190","POP_AT_RISK":59230,"BUSINESS_TYPE":"Limited Business License","LEGAL_NAME":"SCI ILLINOIS SERVICES, INC.","LONGITUDE":-87.78767222340922},
{"STATE":"IL","ZIP":60638,"LATTITUDE":41.77806135119655,"ADDRESS":"5800 W 63RD ST 1ST ","YEAR":2005,"DOING_BUSINESS_AS_NAME":"BLAKE LAMB FUNERAL HOME #2569","POP_AT_RISK":18938,"BUSINESS_TYPE":"Limited Business License","LEGAL_NAME":"SCI ILLINOIS SERVICES, INC.","LONGITUDE":-87.76666580758966},
{"STATE":"IL","ZIP":60634,"LATTITUDE":41.952530291787475,"ADDRESS":"7413 W IRVING PARK RD  ","YEAR":2005,"DOING_BUSINESS_AS_NAME":"IRVING PARK HAND CARWASH, INC.","POP_AT_RISK":32645,"BUSINESS_TYPE":"Limited Business License","LEGAL_NAME":"IRVING PARK HAND CARWASH, INC.","LONGITUDE":-87.81278285007528},
{"STATE":"IL","ZIP":60633,"LATTITUDE":41.64479806975451,"ADDRESS":"13707 S JEFFERY AVE  ","YEAR":2005,"DOING_BUSINESS_AS_NAME":"CID RECYCLING AND DISPOSAL FACILITY","POP_AT_RISK":6348,"BUSINESS_TYPE":"Limited Business License","LEGAL_NAME":"WASTE MANAGEMENT OF ILLINOIS INC.","LONGITUDE":-87.57463364482439},
{"STATE":"IL","ZIP":60633,"LATTITUDE":41.67326684598578,"ADDRESS":"12200 S STONY ISLAND AVE  ","YEAR":2005,"DOING_BUSINESS_AS_NAME":"KINDER MORGAN LIQUIDS TERMINALS, LLC","POP_AT_RISK":3233,"BUSINESS_TYPE":"Limited Business License","LEGAL_NAME":"KINDER MORGAN LIQUIDS TERMINALS, LLC","LONGITUDE":-87.57549200322636},
{"STATE":"IL","ZIP":60617,"LATTITUDE":41.72235158877673,"ADDRESS":"1947 E 95TH ST  ","YEAR":2005,"DOING_BUSINESS_AS_NAME":"NEW 95TH & JEFFREY CURRENCY EXCHANGE","POP_AT_RISK":20929,"BUSINESS_TYPE":"Limited Business License","LEGAL_NAME":"NEW 95TH & JEFFREY CURRENCY EXCHANGE","LONGITUDE":-87.57596047583816},
{"STATE":"IL","ZIP":60644,"LATTITUDE":41.865584968616716,"ADDRESS":"5936 W ROOSEVELT RD  ","YEAR":2005,"DOING_BUSINESS_AS_NAME":"MY LITTLE STORE","POP_AT_RISK":137940,"BUSINESS_TYPE":"Limited Business License","LEGAL_NAME":"MY LITTLE STORE GENERAL MERCHANDISE, INC.","LONGITUDE":-87.77313363926955},
}