{
{"STATE":"IL","ZIP":60655,"LATTITUDE":41.69151197333339,"ADDRESS":"3001 W 111TH ST 1 1","YEAR":2012,"DOING_BUSINESS_AS_NAME":"MYATT INC.","POP_AT_RISK":128358,"BUSINESS_TYPE":"Automatic Amusement Device Operator","LEGAL_NAME":"MYATT INC.","LONGITUDE":-87.69620755883692},
{"STATE":"IL","ZIP":60630,"LATTITUDE":41.971416396429284,"ADDRESS":"4939 N MASON AVE  1ST","YEAR":2012,"DOING_BUSINESS_AS_NAME":"FRANK SCHMIDT","POP_AT_RISK":200445,"BUSINESS_TYPE":"Automatic Amusement Device Operator","LEGAL_NAME":"FRANK SCHMIDT","LONGITUDE":-87.77690509797485},
{"STATE":"IL","ZIP":60637,"LATTITUDE":41.772310687917496,"ADDRESS":"1547 E 67TH PL  ","YEAR":2012,"DOING_BUSINESS_AS_NAME":"SOUTHWAY MUSIC CO","POP_AT_RISK":498615,"BUSINESS_TYPE":"Automatic Amusement Device Operator","LEGAL_NAME":"JAMES FLEMING","LONGITUDE":-87.58687277808008},
{"STATE":"IL","ZIP":60625,"LATTITUDE":41.97413796982923,"ADDRESS":"5100 N WESTERN AVE 1ST ","YEAR":2012,"DOING_BUSINESS_AS_NAME":"CHICAGO NO RA BANG","POP_AT_RISK":248756,"BUSINESS_TYPE":"Automatic Amusement Device Operator","LEGAL_NAME":"KEUM SOON KIM","LONGITUDE":-87.68923601790834},
{"STATE":"IL","ZIP":60653,"LATTITUDE":41.82371315852375,"ADDRESS":"337 1\/2 E PERSHING RD 2 ","YEAR":2012,"DOING_BUSINESS_AS_NAME":"SNIPE & SONS","POP_AT_RISK":508968,"BUSINESS_TYPE":"Automatic Amusement Device Operator","LEGAL_NAME":"ROBERTA SNIPE","LONGITUDE":-87.61773403140582},
{"STATE":"IL","ZIP":60618,"LATTITUDE":41.93739494901925,"ADDRESS":"3057 N ROCKWELL ST 1 ","YEAR":2012,"DOING_BUSINESS_AS_NAME":"DENNIS GEORGES","POP_AT_RISK":589328,"BUSINESS_TYPE":"Automatic Amusement Device Operator","LEGAL_NAME":"DENNIS GEORGES","LONGITUDE":-87.69273768966114},
{"STATE":"IL","ZIP":60660,"LATTITUDE":41.99790427712424,"ADDRESS":"1751 W DEVON AVE 1 1","YEAR":2012,"DOING_BUSINESS_AS_NAME":"MAS SERVICES","POP_AT_RISK":76844,"BUSINESS_TYPE":"Automatic Amusement Device Operator","LEGAL_NAME":"MARTIN SALAMEA","LONGITUDE":-87.67395648797813},
{"STATE":"IL","ZIP":60608,"LATTITUDE":41.85402687423292,"ADDRESS":"916 W 21ST ST 1ST ","YEAR":2012,"DOING_BUSINESS_AS_NAME":"BINGO TIMES","POP_AT_RISK":392490,"BUSINESS_TYPE":"Automatic Amusement Device Operator","LEGAL_NAME":"BINGO TIMES INC.","LONGITUDE":-87.64890786515535},
{"STATE":"IL","ZIP":60651,"LATTITUDE":41.905842919754804,"ADDRESS":"1404 N MASON AVE  ","YEAR":2012,"DOING_BUSINESS_AS_NAME":"EARNEST THOMPSON","POP_AT_RISK":174045,"BUSINESS_TYPE":"Automatic Amusement Device Operator","LEGAL_NAME":"EARNEST THOMPSON","LONGITUDE":-87.77442138793354},
{"STATE":"IL","ZIP":60657,"LATTITUDE":41.94574570576034,"ADDRESS":"3470 N LAKE SHORE DR  ","YEAR":2012,"DOING_BUSINESS_AS_NAME":"INTER CITY AMUSEMENT","POP_AT_RISK":1089920,"BUSINESS_TYPE":"Automatic Amusement Device Operator","LEGAL_NAME":"EDWARD CZYZOWICZ","LONGITUDE":-87.64195455215297},
{"STATE":"IL","ZIP":60191,"LATTITUDE":41.962586980460735,"ADDRESS":"393 E MONTROSE DR HOUSE ","YEAR":2012,"DOING_BUSINESS_AS_NAME":"FRONTERA AMUSEMENT","POP_AT_RISK":128148,"BUSINESS_TYPE":"Automatic Amusement Device Operator","LEGAL_NAME":"MIKE A. FRONTIER","LONGITUDE":-87.64056884251521},
{"STATE":"IL","ZIP":60626,"LATTITUDE":41.998144211866624,"ADDRESS":"6402 N CLARK ST 1ST ","YEAR":2012,"DOING_BUSINESS_AS_NAME":"DINOS GAMES","POP_AT_RISK":80830,"BUSINESS_TYPE":"Automatic Amusement Device Operator","LEGAL_NAME":"DSG AMUSEMENT, LTD.","LONGITUDE":-87.67076765338122},
{"STATE":"IL","ZIP":60651,"LATTITUDE":41.90115137738562,"ADDRESS":"1120 N CICERO AVE  1ST","YEAR":2012,"DOING_BUSINESS_AS_NAME":"DEARBORN MUSIC","POP_AT_RISK":444770,"BUSINESS_TYPE":"Automatic Amusement Device Operator","LEGAL_NAME":"LEGACY AMUSEMENT CO","LONGITUDE":-87.7460885362502},
{"STATE":"IL","ZIP":60609,"LATTITUDE":41.811016654761566,"ADDRESS":"4541 S ASHLAND AVE  ","YEAR":2012,"DOING_BUSINESS_AS_NAME":"VELASQUEZ AUTOMATIC","POP_AT_RISK":435000,"BUSINESS_TYPE":"Automatic Amusement Device Operator","LEGAL_NAME":"VELASQUEZ AUTOMATIC","LONGITUDE":-87.66488779685228},
{"STATE":"IL","ZIP":60617,"LATTITUDE":41.74641081851707,"ADDRESS":"8159 S SOUTH CHICAGO AVE 1 ","YEAR":2012,"DOING_BUSINESS_AS_NAME":"KING AMUSEMENTS, INC","POP_AT_RISK":262216,"BUSINESS_TYPE":"Automatic Amusement Device Operator","LEGAL_NAME":"KING AMUSEMENTS, INC","LONGITUDE":-87.57829415717804},
{"STATE":"IL","ZIP":60707,"LATTITUDE":41.92346911894463,"ADDRESS":"6869 W GRAND AVE  ","YEAR":2012,"DOING_BUSINESS_AS_NAME":"WM J HONQUEST & CO INC","POP_AT_RISK":452232,"BUSINESS_TYPE":"Automatic Amusement Device Operator","LEGAL_NAME":"WM. J. HONQUEST & CO.","LONGITUDE":-87.797818415272},
{"STATE":"IL","ZIP":60632,"LATTITUDE":41.801670034831716,"ADDRESS":"5030 S KEDZIE AVE  ","YEAR":2012,"DOING_BUSINESS_AS_NAME":"CHUCK 'E' CHEESE'S","POP_AT_RISK":512235,"BUSINESS_TYPE":"Automatic Amusement Device Operator","LEGAL_NAME":"CEC ENTERTAINMENT, INC.","LONGITUDE":-87.70393836191948},
{"STATE":"IL","ZIP":60634,"LATTITUDE":41.94501011178035,"ADDRESS":"7545 W ADDISON ST 1ST ","YEAR":2012,"DOING_BUSINESS_AS_NAME":"G & A AMUSEMENT LTD","POP_AT_RISK":175602,"BUSINESS_TYPE":"Automatic Amusement Device Operator","LEGAL_NAME":"G & A AMUSEMENT LIMITED","LONGITUDE":-87.81613951887287},
{"STATE":"IL","ZIP":60639,"LATTITUDE":41.927941876789994,"ADDRESS":"4201 W WRIGHTWOOD AVE  100","YEAR":2012,"DOING_BUSINESS_AS_NAME":"MARATHAN AMUSEMENT","POP_AT_RISK":1126314,"BUSINESS_TYPE":"Automatic Amusement Device Operator","LEGAL_NAME":"Marathon Amusement Inc.","LONGITUDE":-87.73183685132257},
{"STATE":"IL","ZIP":60612,"LATTITUDE":41.89379308914981,"ADDRESS":"700 N SACRAMENTO BLVD  ","YEAR":2012,"DOING_BUSINESS_AS_NAME":"DIAL AMUSEMENT COMPANY","POP_AT_RISK":423400,"BUSINESS_TYPE":"Automatic Amusement Device Operator","LEGAL_NAME":"DIAL AMUSEMENT CO., INC.","LONGITUDE":-87.70229798303369},
{"STATE":"IL","ZIP":60607,"LATTITUDE":41.86921677973378,"ADDRESS":"1421 W TAYLOR ST  ","YEAR":2012,"DOING_BUSINESS_AS_NAME":"ILLINOIS OPERATOR","POP_AT_RISK":334332,"BUSINESS_TYPE":"Automatic Amusement Device Operator","LEGAL_NAME":"ILLINOIS BAR & GRILL INC","LONGITUDE":-87.66249389074504},
{"STATE":"IL","ZIP":60016,"LATTITUDE":41.92162970911281,"ADDRESS":"997  WEBSTER LN  ","YEAR":2012,"DOING_BUSINESS_AS_NAME":"STAR MUSIC CHICAGO, INC.","POP_AT_RISK":968310,"BUSINESS_TYPE":"Automatic Amusement Device Operator","LEGAL_NAME":"STAR MUSIC CHICAGO, INC.","LONGITUDE":-87.65342397353342},
{"STATE":"IL","ZIP":60618,"LATTITUDE":41.95369115107353,"ADDRESS":"3535 W IRVING PARK RD  ","YEAR":2012,"DOING_BUSINESS_AS_NAME":"C CAPPS JUKE BOX SERVICE","POP_AT_RISK":696069,"BUSINESS_TYPE":"Automatic Amusement Device Operator","LEGAL_NAME":"C CAPPS JUKEBOX SERV, INC","LONGITUDE":-87.71680418417465},
{"STATE":"IL","ZIP":60646,"LATTITUDE":41.98863254695654,"ADDRESS":"5906 N KNOX AVE  ","YEAR":2012,"DOING_BUSINESS_AS_NAME":"J NOMDEN & SONS CORP","POP_AT_RISK":62888,"BUSINESS_TYPE":"Automatic Amusement Device Operator","LEGAL_NAME":"J NOMDEN & SONS CORPORATION","LONGITUDE":-87.74550717849543},
{"STATE":"IL","ZIP":60628,"LATTITUDE":41.68529437668452,"ADDRESS":"313 E 115TH ST 1ST ","YEAR":2012,"DOING_BUSINESS_AS_NAME":"VALCO VENDING,INC","POP_AT_RISK":113382,"BUSINESS_TYPE":"Automatic Amusement Device Operator","LEGAL_NAME":"ANGELO VALENTE VALCO VEND CO","LONGITUDE":-87.61509232324005},
{"STATE":"IL","ZIP":60632,"LATTITUDE":41.800034054151446,"ADDRESS":"5210 S ARCHER AVE  ","YEAR":2012,"DOING_BUSINESS_AS_NAME":"SIDNEY VANCHIERS & JOS RIGGIO","POP_AT_RISK":209069,"BUSINESS_TYPE":"Automatic Amusement Device Operator","LEGAL_NAME":"SIDNEY VANCHIERS & JOS RIGGIO","LONGITUDE":-87.7349688737846},
{"STATE":"IL","ZIP":60660,"LATTITUDE":41.98374554788806,"ADDRESS":"1130 W BRYN MAWR AVE 1ST ","YEAR":2012,"DOING_BUSINESS_AS_NAME":"CHICAGO AMUSEMENT, INCORPORATED","POP_AT_RISK":739810,"BUSINESS_TYPE":"Automatic Amusement Device Operator","LEGAL_NAME":"CHICAGO AMUSEMENT, INCORPORATED","LONGITUDE":-87.65932157772598},
{"STATE":"IL","ZIP":60606,"LATTITUDE":41.87856015362371,"ADDRESS":"233 S WACKER DR 84TH 8400","YEAR":2012,"DOING_BUSINESS_AS_NAME":"BABBA BOSTON & TOMMY PIZZA PUFF AMUSEMENTS INC.","POP_AT_RISK":281344,"BUSINESS_TYPE":"Automatic Amusement Device Operator","LEGAL_NAME":"BABBA BOSTON & TOMMY PIZZA PUFF AMUSEMENTS INC.","LONGITUDE":-87.63652387205532},
}