{
{"STATE":"IL","ZIP":60645,"LATTITUDE":42.01936982608453,"ADDRESS":"2125 W HOWARD ST 1 ","YEAR":2005,"DOING_BUSINESS_AS_NAME":"THE CORNER FOOD STORE","POP_AT_RISK":212892,"BUSINESS_TYPE":"Tobacco Retail Over Counter","LEGAL_NAME":"DIAW SOW","LONGITUDE":-87.684127238054},
{"STATE":"IL","ZIP":60620,"LATTITUDE":41.73604613500343,"ADDRESS":"1158 W 87TH ST  ","YEAR":2005,"DOING_BUSINESS_AS_NAME":"TIFFANY'S FAMILY STORE","POP_AT_RISK":414530,"BUSINESS_TYPE":"Tobacco Retail Over Counter","LEGAL_NAME":"JAKE TATE","LONGITUDE":-87.65328285521976},
{"STATE":"IL","ZIP":60629,"LATTITUDE":41.78657793776631,"ADDRESS":"2624 W 59TH ST  ","YEAR":2005,"DOING_BUSINESS_AS_NAME":"123 WIRLESS","POP_AT_RISK":212949,"BUSINESS_TYPE":"Tobacco Retail Over Counter","LEGAL_NAME":"MOW, INC.","LONGITUDE":-87.68987967619805},
{"STATE":"IL","ZIP":60621,"LATTITUDE":41.77885417721719,"ADDRESS":"6331 S LOWE AVE  ","YEAR":2005,"DOING_BUSINESS_AS_NAME":"TASTE DISCO & STEAK HOUSE","POP_AT_RISK":65460,"BUSINESS_TYPE":"Tobacco Retail Over Counter","LEGAL_NAME":"TASTE INC","LONGITUDE":-87.64069495645147},
{"STATE":"IL","ZIP":60641,"LATTITUDE":41.938492588159946,"ADDRESS":"5507 W BELMONT AVE  ","YEAR":2005,"DOING_BUSINESS_AS_NAME":"HEY DOLLAR PLUS","POP_AT_RISK":1143345,"BUSINESS_TYPE":"Tobacco Retail Over Counter","LEGAL_NAME":"MAHA HAMAD","LONGITUDE":-87.76434212525776},
{"STATE":"IL","ZIP":60642,"LATTITUDE":41.890928110339836,"ADDRESS":"464 N HALSTED ST 1ST ","YEAR":2005,"DOING_BUSINESS_AS_NAME":"THYME","POP_AT_RISK":46503,"BUSINESS_TYPE":"Tobacco Retail Over Counter","LEGAL_NAME":"DANILO'S INC","LONGITUDE":-87.64777421087267},
{"STATE":"IL","ZIP":60626,"LATTITUDE":42.0079505841723,"ADDRESS":"1550 W MORSE AVE  ","YEAR":2005,"DOING_BUSINESS_AS_NAME":"ONE DOLLAR DEALS","POP_AT_RISK":148128,"BUSINESS_TYPE":"Tobacco Retail Over Counter","LEGAL_NAME":"LINDA BABAIAN","LONGITUDE":-87.6699292717351},
{"STATE":"IL","ZIP":60628,"LATTITUDE":41.69241416461191,"ADDRESS":"203 W 111TH ST 1 ","YEAR":2005,"DOING_BUSINESS_AS_NAME":"WHEAT'S CANDY STORE","POP_AT_RISK":34522,"BUSINESS_TYPE":"Tobacco Retail Over Counter","LEGAL_NAME":"LOYD WHEAT JR","LONGITUDE":-87.62809940108693},
{"STATE":"IL","ZIP":60617,"LATTITUDE":41.7430796625925,"ADDRESS":"8357 S BUFFALO AVE 1ST ","YEAR":2005,"DOING_BUSINESS_AS_NAME":"83RD STREET GROCERY","POP_AT_RISK":53252,"BUSINESS_TYPE":"Tobacco Retail Over Counter","LEGAL_NAME":"RAMON MIRANDA","LONGITUDE":-87.54408605663065},
{"STATE":"IL","ZIP":60640,"LATTITUDE":41.966977568301786,"ADDRESS":"4650 N SHERIDAN RD  ","YEAR":2005,"DOING_BUSINESS_AS_NAME":"MY RANCH","POP_AT_RISK":140574,"BUSINESS_TYPE":"Tobacco Retail Over Counter","LEGAL_NAME":"MY RANCH, INC.","LONGITUDE":-87.65494464168275},
{"STATE":"IL","ZIP":60608,"LATTITUDE":41.857856567514325,"ADDRESS":"1714 W 18TH ST  ","YEAR":2005,"DOING_BUSINESS_AS_NAME":"LUCIANO'S GROCERY-18TH ST","POP_AT_RISK":402470,"BUSINESS_TYPE":"Tobacco Retail Over Counter","LEGAL_NAME":"SABINO'S, INC.","LONGITUDE":-87.66941959556328},
{"STATE":"IL","ZIP":60625,"LATTITUDE":41.97581882891424,"ADDRESS":"2259 W FOSTER AVE  ","YEAR":2005,"DOING_BUSINESS_AS_NAME":"EL MILAGRO GROCERY","POP_AT_RISK":619620,"BUSINESS_TYPE":"Tobacco Retail Over Counter","LEGAL_NAME":"ALFREDO MATHEWS","LONGITUDE":-87.68660703485133},
{"STATE":"IL","ZIP":60646,"LATTITUDE":41.98614682246569,"ADDRESS":"5760 N MILWAUKEE AVE  ","YEAR":2005,"DOING_BUSINESS_AS_NAME":"MOM'S OLD RECIPE","POP_AT_RISK":91632,"BUSINESS_TYPE":"Tobacco Retail Over Counter","LEGAL_NAME":"CAFE STOA, INC.","LONGITUDE":-87.77748161332332},
{"STATE":"IL","ZIP":60645,"LATTITUDE":42.008757673671845,"ADDRESS":"7008 N CALIFORNIA AVE  ","YEAR":2005,"DOING_BUSINESS_AS_NAME":"CALIFORNIA FOODS","POP_AT_RISK":193240,"BUSINESS_TYPE":"Tobacco Retail Over Counter","LEGAL_NAME":"SANAM VAKHARIYA","LONGITUDE":-87.69991481119341},
{"STATE":"IL","ZIP":60643,"LATTITUDE":41.69212183457491,"ADDRESS":"1215 W 111TH ST  ","YEAR":2005,"DOING_BUSINESS_AS_NAME":"THEO'S  VARIETY","POP_AT_RISK":166596,"BUSINESS_TYPE":"Tobacco Retail Over Counter","LEGAL_NAME":"THEODORE TRAVIS","LONGITUDE":-87.65275593853829},
{"STATE":"IL","ZIP":60649,"LATTITUDE":41.75165523778611,"ADDRESS":"1800 E 79TH ST  ","YEAR":2005,"DOING_BUSINESS_AS_NAME":"79TH CITGO INC.","POP_AT_RISK":238483,"BUSINESS_TYPE":"Tobacco Retail Over Counter","LEGAL_NAME":"79TH CITGO, INC.","LONGITUDE":-87.58082842408824},
{"STATE":"IL","ZIP":60657,"LATTITUDE":41.9352934991878,"ADDRESS":"2930 N SHERIDAN RD  ","YEAR":2005,"DOING_BUSINESS_AS_NAME":"OAK DALE FOOD MART","POP_AT_RISK":191589,"BUSINESS_TYPE":"Tobacco Retail Over Counter","LEGAL_NAME":"NEW BERACHAH INC","LONGITUDE":-87.63953546157597},
{"STATE":"IL","ZIP":60628,"LATTITUDE":41.707231832960964,"ADDRESS":"445 E 103RD ST  ","YEAR":2005,"DOING_BUSINESS_AS_NAME":"HI-LOW SUPERMARKET","POP_AT_RISK":25573,"BUSINESS_TYPE":"Tobacco Retail Over Counter","LEGAL_NAME":"PRIME FOOD'S CO.","LONGITUDE":-87.61197908014778},
{"STATE":"IL","ZIP":60629,"LATTITUDE":41.7608061174595,"ADDRESS":"7301 S KEDZIE AVE  ","YEAR":2005,"DOING_BUSINESS_AS_NAME":"GEORGE'S CARRYOUTS","POP_AT_RISK":26650,"BUSINESS_TYPE":"Tobacco Retail Over Counter","LEGAL_NAME":"GEORGE ZOYGANELES","LONGITUDE":-87.70251735250555},
{"STATE":"IL","ZIP":60622,"LATTITUDE":41.91378440726453,"ADDRESS":"1354 W WABANSIA AVE 1ST ","YEAR":2005,"DOING_BUSINESS_AS_NAME":"HIDEOUT","POP_AT_RISK":45498,"BUSINESS_TYPE":"Tobacco Retail Over Counter","LEGAL_NAME":"HIDEOUT INN, INC.","LONGITUDE":-87.66244709996673},
{"STATE":"IL","ZIP":60634,"LATTITUDE":41.94509198978119,"ADDRESS":"7725 W ADDISON ST  ","YEAR":2005,"DOING_BUSINESS_AS_NAME":"ARMAN DOLLAR DISCOUNT MART","POP_AT_RISK":175602,"BUSINESS_TYPE":"Tobacco Retail Over Counter","LEGAL_NAME":"DENISE A. SIDDIQUI","LONGITUDE":-87.82033987386005},
{"STATE":"IL","ZIP":60624,"LATTITUDE":41.87301726926058,"ADDRESS":"616 S PULASKI RD 1ST #","YEAR":2005,"DOING_BUSINESS_AS_NAME":"BIB ENTERPRISES INC","POP_AT_RISK":618896,"BUSINESS_TYPE":"Tobacco Retail Over Counter","LEGAL_NAME":"BIB ENTERPRISES INC","LONGITUDE":-87.72555236706093},
{"STATE":"IL","ZIP":60617,"LATTITUDE":41.722619985023755,"ADDRESS":"2863 E 95TH ST  ","YEAR":2005,"DOING_BUSINESS_AS_NAME":"ESCABANA CITGO INC.","POP_AT_RISK":22246,"BUSINESS_TYPE":"Tobacco Retail Over Counter","LEGAL_NAME":"ESCABANA CITGO INC.","LONGITUDE":-87.55407800189569},
{"STATE":"IL","ZIP":60617,"LATTITUDE":41.70465581724394,"ADDRESS":"10459 S EWING AVE  FIRST","YEAR":2005,"DOING_BUSINESS_AS_NAME":"EWING LIQUORS","POP_AT_RISK":65859,"BUSINESS_TYPE":"Tobacco Retail Over Counter","LEGAL_NAME":"EWING LIQUORS, INC.","LONGITUDE":-87.5351381725916},
{"STATE":"IL","ZIP":60619,"LATTITUDE":41.72208716744946,"ADDRESS":"1153 E 95TH ST  ","YEAR":2005,"DOING_BUSINESS_AS_NAME":"SUNNY'S FOODS","POP_AT_RISK":16968,"BUSINESS_TYPE":"Tobacco Retail Over Counter","LEGAL_NAME":"SUNNY'S FOODS, INC.","LONGITUDE":-87.59510270832115},
{"STATE":"IL","ZIP":60620,"LATTITUDE":41.75033454922462,"ADDRESS":"2014 W 79TH ST  ","YEAR":2005,"DOING_BUSINESS_AS_NAME":"MY BEAUTY SUPPLY","POP_AT_RISK":119094,"BUSINESS_TYPE":"Tobacco Retail Over Counter","LEGAL_NAME":"MY MISS BEAUTY, INC.","LONGITUDE":-87.67374645954958},
{"STATE":"IL","ZIP":60625,"LATTITUDE":41.9682385196297,"ADDRESS":"4756 N BERNARD ST  ","YEAR":2005,"DOING_BUSINESS_AS_NAME":"M. J MART","POP_AT_RISK":1051860,"BUSINESS_TYPE":"Tobacco Retail Over Counter","LEGAL_NAME":"THE MIRZA GROUP,INC.","LONGITUDE":-87.71472985151554},
{"STATE":"IL","ZIP":60632,"LATTITUDE":41.801139341974086,"ADDRESS":"2700 W 51ST ST  ","YEAR":2005,"DOING_BUSINESS_AS_NAME":"FORTY-SEVENTH STREET CITGO","POP_AT_RISK":295596,"BUSINESS_TYPE":"Tobacco Retail Over Counter","LEGAL_NAME":"TUXEDO JUNCTION INC.","LONGITUDE":-87.6916240486938},
{"STATE":"IL","ZIP":60651,"LATTITUDE":41.90625163052779,"ADDRESS":"1400 N KILDARE AVE  ","YEAR":2005,"DOING_BUSINESS_AS_NAME":"DANIA FOOD MART INC.","POP_AT_RISK":276915,"BUSINESS_TYPE":"Tobacco Retail Over Counter","LEGAL_NAME":"DANIA FOOD MART, INC.","LONGITUDE":-87.7339241602187},
{"STATE":"IL","ZIP":60610,"LATTITUDE":41.890935446552625,"ADDRESS":"56 W ILLINOIS ST  ","YEAR":2005,"DOING_BUSINESS_AS_NAME":"UNDERGROUND CHICAGO","POP_AT_RISK":76521,"BUSINESS_TYPE":"Tobacco Retail Over Counter","LEGAL_NAME":"NICK & HOWARD, L.L.C.","LONGITUDE":-87.63014310123303},
{"STATE":"IL","ZIP":60629,"LATTITUDE":41.78589389563516,"ADDRESS":"5901 S PULASKI RD  ","YEAR":2005,"DOING_BUSINESS_AS_NAME":"BP GAS","POP_AT_RISK":105668,"BUSINESS_TYPE":"Tobacco Retail Over Counter","LEGAL_NAME":"R & S MINI MART, INC.","LONGITUDE":-87.72281335054123},
{"STATE":"IL","ZIP":60628,"LATTITUDE":41.685503298571874,"ADDRESS":"11461 S FRONT AVE  ","YEAR":2005,"DOING_BUSINESS_AS_NAME":"KENSINGTON KORNERS CONVENIENT MART","POP_AT_RISK":13745,"BUSINESS_TYPE":"Tobacco Retail Over Counter","LEGAL_NAME":"URBAN REALITIES, INC.","LONGITUDE":-87.61234604720471},
{"STATE":"IL","ZIP":60623,"LATTITUDE":41.846552499027005,"ADDRESS":"2814 W 25TH ST  ","YEAR":2005,"DOING_BUSINESS_AS_NAME":"FRUTERIA SAUCEDO INC","POP_AT_RISK":303455,"BUSINESS_TYPE":"Tobacco Retail Over Counter","LEGAL_NAME":"FRUTERIA SAUCEDO, INC.","LONGITUDE":-87.69593562962687},
{"STATE":"IL","ZIP":60629,"LATTITUDE":41.7787266404954,"ADDRESS":"4120 W 63RD ST 1ST ","YEAR":2005,"DOING_BUSINESS_AS_NAME":"SUPERMERCADO LA PALMA INC","POP_AT_RISK":48209,"BUSINESS_TYPE":"Tobacco Retail Over Counter","LEGAL_NAME":"M VALENCIA & H HERRERA","LONGITUDE":-87.72618188418672},
{"STATE":"IL","ZIP":60613,"LATTITUDE":41.952613727227,"ADDRESS":"841-843 W SHERIDAN RD  ","YEAR":2005,"DOING_BUSINESS_AS_NAME":"RICKY'S FOOD MART","POP_AT_RISK":464835,"BUSINESS_TYPE":"Tobacco Retail Over Counter","LEGAL_NAME":"RICKY'S FOOD MART INC.","LONGITUDE":-87.65127020123612},
{"STATE":"IL","ZIP":60634,"LATTITUDE":41.96024250396864,"ADDRESS":"5959 W MONTROSE AVE GROUND ","YEAR":2005,"DOING_BUSINESS_AS_NAME":"AUSTIN & MONTROSE CITGO","POP_AT_RISK":265223,"BUSINESS_TYPE":"Tobacco Retail Over Counter","LEGAL_NAME":"AUSTIN & MONTROSE, INC.","LONGITUDE":-87.77695589620686},
{"STATE":"IL","ZIP":60626,"LATTITUDE":42.00901804337622,"ADDRESS":"1401 W LUNT AVE  1","YEAR":2005,"DOING_BUSINESS_AS_NAME":"LUNT EL FOODS","POP_AT_RISK":58672,"BUSINESS_TYPE":"Tobacco Retail Over Counter","LEGAL_NAME":"IMPEX ENTERPRISES, INC.","LONGITUDE":-87.66579903805098},
{"STATE":"IL","ZIP":60622,"LATTITUDE":41.897724380626805,"ADDRESS":"906 N CALIFORNIA AVE  ","YEAR":2005,"DOING_BUSINESS_AS_NAME":"JERRY'S FOOD MART","POP_AT_RISK":45067,"BUSINESS_TYPE":"Tobacco Retail Over Counter","LEGAL_NAME":"JERRY'S FOOD MART, INC.","LONGITUDE":-87.69690243085857},
{"STATE":"IL","ZIP":60636,"LATTITUDE":41.76841468957598,"ADDRESS":"1659 W 69TH ST  ","YEAR":2005,"DOING_BUSINESS_AS_NAME":"A.N.B. FOOD MARKET INC.","POP_AT_RISK":27677,"BUSINESS_TYPE":"Tobacco Retail Over Counter","LEGAL_NAME":"A.N.B. FOOD MARKET, INC.","LONGITUDE":-87.6662829346828},
{"STATE":"IL","ZIP":60657,"LATTITUDE":41.93475136249262,"ADDRESS":"2909-2911 N SHEFFIELD AVE  ","YEAR":2005,"DOING_BUSINESS_AS_NAME":"MAD RIVER BAR & GRILLE","POP_AT_RISK":462174,"BUSINESS_TYPE":"Tobacco Retail Over Counter","LEGAL_NAME":"BLUE IGUANA-CHICAGO, INC.","LONGITUDE":-87.6537837264664},
{"STATE":"IL","ZIP":60617,"LATTITUDE":41.737188248710034,"ADDRESS":"8701 S SAGINAW AVE  CORNE","YEAR":2005,"DOING_BUSINESS_AS_NAME":"UNCLE RAY'S FOOD MART INC","POP_AT_RISK":66064,"BUSINESS_TYPE":"Tobacco Retail Over Counter","LEGAL_NAME":"UNCLE RAY'S FOOD MART INC","LONGITUDE":-87.55958742770636},
{"STATE":"IL","ZIP":60622,"LATTITUDE":41.91027220233754,"ADDRESS":"1560 N HALSTED ST 1ST ","YEAR":2005,"DOING_BUSINESS_AS_NAME":"NORTH-LASALLE SERVICE, INC","POP_AT_RISK":100076,"BUSINESS_TYPE":"Tobacco Retail Over Counter","LEGAL_NAME":"NORTH-LASALLE SERVICE, INC","LONGITUDE":-87.64840367588707},
{"STATE":"IL","ZIP":60619,"LATTITUDE":41.723860289309755,"ADDRESS":"9361 S COTTAGE GROVE AVE 1ST ","YEAR":2005,"DOING_BUSINESS_AS_NAME":"W K R B FOOD & LIQUOR","POP_AT_RISK":64191,"BUSINESS_TYPE":"Tobacco Retail Over Counter","LEGAL_NAME":"W K R B FOOD & LIQUOR INC.","LONGITUDE":-87.60436472084245},
{"STATE":"IL","ZIP":60619,"LATTITUDE":41.75125884439508,"ADDRESS":"444 E 79TH ST  ","YEAR":2005,"DOING_BUSINESS_AS_NAME":"D J FOODS & LIQUORS","POP_AT_RISK":75074,"BUSINESS_TYPE":"Tobacco Retail Over Counter","LEGAL_NAME":"D & J FOODS & LIQUORS, INC.","LONGITUDE":-87.61315243647212},
{"STATE":"IL","ZIP":60623,"LATTITUDE":41.851294737339686,"ADDRESS":"4351 W CERMAK RD  ","YEAR":2005,"DOING_BUSINESS_AS_NAME":"CITGO","POP_AT_RISK":94418,"BUSINESS_TYPE":"Tobacco Retail Over Counter","LEGAL_NAME":"SAMUEL ENTERPRISES INCORPORATED","LONGITUDE":-87.73415259628885},
{"STATE":"IL","ZIP":60647,"LATTITUDE":41.92161436223205,"ADDRESS":"2246 N MILWAUKEE AVE GROUND ","YEAR":2005,"DOING_BUSINESS_AS_NAME":"CAFETERIA MARIANAO","POP_AT_RISK":238840,"BUSINESS_TYPE":"Tobacco Retail Over Counter","LEGAL_NAME":"MARIANAO FOOD MART AND CAFETERIA, INC.","LONGITUDE":-87.6954814291355},
{"STATE":"IL","ZIP":60605,"LATTITUDE":41.86529750369302,"ADDRESS":"1315 S WABASH AVE 1 ","YEAR":2005,"DOING_BUSINESS_AS_NAME":"OLE HARDWOOD","POP_AT_RISK":197455,"BUSINESS_TYPE":"Tobacco Retail Over Counter","LEGAL_NAME":"THE LOFT RESTAURANT AND LOUNGE OF CHICAGO, LLC","LONGITUDE":-87.62563701447746},
}