{
{"STATE":"IL","ZIP":60639,"LATTITUDE":41.90929276909935,"ADDRESS":"6224 W NORTH AVE 1ST ","YEAR":2005,"DOING_BUSINESS_AS_NAME":"ALPHABET ACADEMY","POP_AT_RISK":208505,"BUSINESS_TYPE":"Day Care Center 2 - 6 Years","LEGAL_NAME":"DELORES POAGS","LONGITUDE":-87.78123289518109},
{"STATE":"IL","ZIP":60634,"LATTITUDE":41.953112724409,"ADDRESS":"6116 W IRVING PARK RD  1ST","YEAR":2005,"DOING_BUSINESS_AS_NAME":"ACADEMY OF EARLY LEARNING","POP_AT_RISK":132210,"BUSINESS_TYPE":"Day Care Center 2 - 6 Years","LEGAL_NAME":"SUZANNE GOFRON","LONGITUDE":-87.78001857406198},
{"STATE":"IL","ZIP":60621,"LATTITUDE":41.77974953639613,"ADDRESS":"1106-1108 W 63RD ST  ","YEAR":2005,"DOING_BUSINESS_AS_NAME":"KIDS COUNT TOO DAYCARE","POP_AT_RISK":293652,"BUSINESS_TYPE":"Day Care Center 2 - 6 Years","LEGAL_NAME":"VERONICA CLARK","LONGITUDE":-87.6523874455561},
{"STATE":"IL","ZIP":60649,"LATTITUDE":41.760094191655675,"ADDRESS":"2706-08 E 75TH ST  ","YEAR":2005,"DOING_BUSINESS_AS_NAME":"KIDS COUNT TOO BABYLAND","POP_AT_RISK":266499,"BUSINESS_TYPE":"Day Care Center 2 - 6 Years","LEGAL_NAME":"VERONICA CLARK","LONGITUDE":-87.55842186343085},
{"STATE":"IL","ZIP":60628,"LATTITUDE":41.721541404289574,"ADDRESS":"215 W 95TH ST  ","YEAR":2005,"DOING_BUSINESS_AS_NAME":"KIDS COUNT TOO DAYCARE , PRESCHOOL & KINDERGARDEN","POP_AT_RISK":25044,"BUSINESS_TYPE":"Day Care Center 2 - 6 Years","LEGAL_NAME":"VERONICA CLARK","LONGITUDE":-87.62931695217375},
{"STATE":"IL","ZIP":60617,"LATTITUDE":41.7349443653804,"ADDRESS":"8802 S STONY ISLAND AVE  ","YEAR":2005,"DOING_BUSINESS_AS_NAME":"PILL HILL DEVELOPMENT CENTER","POP_AT_RISK":57268,"BUSINESS_TYPE":"Day Care Center 2 - 6 Years","LEGAL_NAME":"TAMERA THOMPSON","LONGITUDE":-87.58574726905485},
{"STATE":"IL","ZIP":60620,"LATTITUDE":41.73596188169255,"ADDRESS":"1414 W 87TH ST  1","YEAR":2005,"DOING_BUSINESS_AS_NAME":"TAYLOR DAY SCHOOL","POP_AT_RISK":200080,"BUSINESS_TYPE":"Day Care Center 2 - 6 Years","LEGAL_NAME":"TAYLOR DAY SCHOOL","LONGITUDE":-87.6589049465472},
{"STATE":"IL","ZIP":60639,"LATTITUDE":41.92450052917981,"ADDRESS":"4310 W FULLERTON AVE 1ST ","YEAR":2005,"DOING_BUSINESS_AS_NAME":"A CARING WORLD INC","POP_AT_RISK":509908,"BUSINESS_TYPE":"Day Care Center 2 - 6 Years","LEGAL_NAME":"A CARING WORLD INC","LONGITUDE":-87.73457439543674},
{"STATE":"IL","ZIP":60623,"LATTITUDE":41.8586785895444,"ADDRESS":"4217 W 16TH ST 1ST ","YEAR":2005,"DOING_BUSINESS_AS_NAME":"LES FINCH'S LEARNING TREE","POP_AT_RISK":715125,"BUSINESS_TYPE":"Day Care Center 2 - 6 Years","LEGAL_NAME":"BEN & WILLIE FINCH","LONGITUDE":-87.73063264494722},
{"STATE":"IL","ZIP":60644,"LATTITUDE":41.873773251493034,"ADDRESS":"500 S CENTRAL AVE 1ST ","YEAR":2005,"DOING_BUSINESS_AS_NAME":"COLUMBUS PARK HEAD START","POP_AT_RISK":401751,"BUSINESS_TYPE":"Day Care Center 2 - 6 Years","LEGAL_NAME":"THE SALVATION ARMY","LONGITUDE":-87.76476970436084},
{"STATE":"IL","ZIP":60647,"LATTITUDE":41.93194542913708,"ADDRESS":"3007 W DIVERSEY AVE  1ST","YEAR":2005,"DOING_BUSINESS_AS_NAME":"DIVERSEY DAYCARE CEN\/KINDERGAR","POP_AT_RISK":61528,"BUSINESS_TYPE":"Day Care Center 2 - 6 Years","LEGAL_NAME":"TIGLOTH INCORPORATED","LONGITUDE":-87.70283862114482},
{"STATE":"IL","ZIP":60651,"LATTITUDE":41.901086765978654,"ADDRESS":"1120 N LAMON AVE  ","YEAR":2005,"DOING_BUSINESS_AS_NAME":"MOLADE' CHILD DEVELOPMENT CENTER","POP_AT_RISK":45691,"BUSINESS_TYPE":"Day Care Center 2 - 6 Years","LEGAL_NAME":"BETHEL NEW LIFE, INC.","LONGITUDE":-87.74854019856667},
{"STATE":"IL","ZIP":60619,"LATTITUDE":41.75153367800338,"ADDRESS":"1324 E 79TH ST 1ST ","YEAR":2005,"DOING_BUSINESS_AS_NAME":"EDU-CARE DAY CARE CENTER","POP_AT_RISK":37309,"BUSINESS_TYPE":"Day Care Center 2 - 6 Years","LEGAL_NAME":"EDU-CARE DAYCARE, INC.","LONGITUDE":-87.59198365437818},
{"STATE":"IL","ZIP":60632,"LATTITUDE":41.79904124083891,"ADDRESS":"5334 S ARCHER AVE  ","YEAR":2005,"DOING_BUSINESS_AS_NAME":"KIDS IMAGINATIONS, INC.","POP_AT_RISK":58336,"BUSINESS_TYPE":"Day Care Center 2 - 6 Years","LEGAL_NAME":"KIDS IMAGINATION, INC.","LONGITUDE":-87.74123048612732},
{"STATE":"IL","ZIP":60629,"LATTITUDE":41.77910505347681,"ADDRESS":"2513 W 63RD ST  1","YEAR":2005,"DOING_BUSINESS_AS_NAME":"CARE BEAR ACADEMY","POP_AT_RISK":143583,"BUSINESS_TYPE":"Day Care Center 2 - 6 Years","LEGAL_NAME":"CARE BEAR ACADEMY, INC.","LONGITUDE":-87.68669588297425},
{"STATE":"IL","ZIP":60631,"LATTITUDE":41.996976358444,"ADDRESS":"7024 W IMLAY ST  ","YEAR":2005,"DOING_BUSINESS_AS_NAME":"DONNA BOZEK DAY CARE","POP_AT_RISK":119640,"BUSINESS_TYPE":"Day Care Center 2 - 6 Years","LEGAL_NAME":"DANUTA MALGORZATA BOZEK","LONGITUDE":-87.80383701091625},
{"STATE":"IL","ZIP":60637,"LATTITUDE":41.773123195333895,"ADDRESS":"500 E 67TH ST  ","YEAR":2005,"DOING_BUSINESS_AS_NAME":"PARKWAY COMMUNITY HOUSE","POP_AT_RISK":75998,"BUSINESS_TYPE":"Day Care Center 2 - 6 Years","LEGAL_NAME":"HULL HOUSE  ASSOCIATION","LONGITUDE":-87.61298770791186},
{"STATE":"IL","ZIP":60638,"LATTITUDE":41.812595077201664,"ADDRESS":"4410 S LAPORTE AVE  ","YEAR":2005,"DOING_BUSINESS_AS_NAME":"LE CLAIRE HEADSTART CENTER","POP_AT_RISK":19680,"BUSINESS_TYPE":"Day Care Center 2 - 6 Years","LEGAL_NAME":"HULL HOUSE  ASSOCIATION","LONGITUDE":-87.74721117371338},
{"STATE":"IL","ZIP":60624,"LATTITUDE":41.89444827833687,"ADDRESS":"730 N PULASKI RD  ","YEAR":2005,"DOING_BUSINESS_AS_NAME":"ORR INFANT & FAMILY DEVELOPMENT","POP_AT_RISK":93938,"BUSINESS_TYPE":"Day Care Center 2 - 6 Years","LEGAL_NAME":"HULL HOUSE  ASSOCIATION","LONGITUDE":-87.72620304790371},
{"STATE":"IL","ZIP":60659,"LATTITUDE":41.98312481006675,"ADDRESS":"3342 W BRYN MAWR AVE # 1","YEAR":2005,"DOING_BUSINESS_AS_NAME":"CHILDREN'S PLAYHOUSE INC","POP_AT_RISK":165696,"BUSINESS_TYPE":"Day Care Center 2 - 6 Years","LEGAL_NAME":"CHILDREN'S PLAYHOUSE INC","LONGITUDE":-87.7130553568147},
{"STATE":"IL","ZIP":60632,"LATTITUDE":41.79875025743268,"ADDRESS":"5160 S PULASKI RD  1","YEAR":2005,"DOING_BUSINESS_AS_NAME":"TEDDY BEAR SERVICES CORP","POP_AT_RISK":40702,"BUSINESS_TYPE":"Day Care Center 2 - 6 Years","LEGAL_NAME":"TEDDY BEAR SERVICES CORP","LONGITUDE":-87.72346641018879},
{"STATE":"IL","ZIP":60639,"LATTITUDE":41.92411853337897,"ADDRESS":"5504 W FULLERTON AVE 1ST ","YEAR":2005,"DOING_BUSINESS_AS_NAME":"AKARRASEL CHILD CARE CENTERS","POP_AT_RISK":665388,"BUSINESS_TYPE":"Day Care Center 2 - 6 Years","LEGAL_NAME":"GALEWOOD ENTERPRISES, LTD","LONGITUDE":-87.76375122297641},
{"STATE":"IL","ZIP":60628,"LATTITUDE":41.71235734507338,"ADDRESS":"708 E 100TH PL 1ST ","YEAR":2005,"DOING_BUSINESS_AS_NAME":"LONDON BRIDGES PRE-SCHOOL","POP_AT_RISK":18053,"BUSINESS_TYPE":"Day Care Center 2 - 6 Years","LEGAL_NAME":"LONDON BRIDGES PRE-SCHOOL","LONGITUDE":-87.60476353346552},
{"STATE":"IL","ZIP":60616,"LATTITUDE":41.8554319990211,"ADDRESS":"2001 S MICHIGAN AVE  1ST","YEAR":2005,"DOING_BUSINESS_AS_NAME":"LOOP LEARNING CENTER, INC","POP_AT_RISK":31578,"BUSINESS_TYPE":"Day Care Center 2 - 6 Years","LEGAL_NAME":"LOOP LEARNING CENTER, INC","LONGITUDE":-87.62372821557055},
{"STATE":"IL","ZIP":60612,"LATTITUDE":41.880653180814576,"ADDRESS":"10 S KEDZIE AVE  1ST F","YEAR":2005,"DOING_BUSINESS_AS_NAME":"NATIONAL-LOUIS UNIVERSITY","POP_AT_RISK":456859,"BUSINESS_TYPE":"Day Care Center 2 - 6 Years","LEGAL_NAME":"NATIONAL-LOUIS UNIVERSITY","LONGITUDE":-87.7062600612435},
{"STATE":"IL","ZIP":60613,"LATTITUDE":41.95412783872086,"ADDRESS":"1733 W IRVING PARK RD 1ST ","YEAR":2005,"DOING_BUSINESS_AS_NAME":"APPLE TREE LEARNING CENTER","POP_AT_RISK":524616,"BUSINESS_TYPE":"Day Care Center 2 - 6 Years","LEGAL_NAME":"APPLE TREE LEARNING CENTER","LONGITUDE":-87.67277541396327},
{"STATE":"IL","ZIP":60632,"LATTITUDE":41.81228309980601,"ADDRESS":"4444-46 S KEDZIE AVE 1ST ","YEAR":2005,"DOING_BUSINESS_AS_NAME":"KIDDIE KARE PRE SCHOOL","POP_AT_RISK":491880,"BUSINESS_TYPE":"Day Care Center 2 - 6 Years","LEGAL_NAME":"KIDDY KARE PRE SCHOOL INC.","LONGITUDE":-87.70428564664036},
{"STATE":"IL","ZIP":60646,"LATTITUDE":41.99007385222976,"ADDRESS":"4600 W PETERSON AVE  1","YEAR":2005,"DOING_BUSINESS_AS_NAME":"SCHOOL FOR THE YOUNG YEARS","POP_AT_RISK":24414,"BUSINESS_TYPE":"Day Care Center 2 - 6 Years","LEGAL_NAME":"SAUGANASH COMMUNITY CHURCH","LONGITUDE":-87.74264395739979},
{"STATE":"IL","ZIP":60646,"LATTITUDE":41.995446645749816,"ADDRESS":"4008 W ROSEMONT AVE  1ST F","YEAR":2005,"DOING_BUSINESS_AS_NAME":"ALL ABOARD LEARNING EXPRESS","POP_AT_RISK":20014,"BUSINESS_TYPE":"Day Care Center 2 - 6 Years","LEGAL_NAME":"ALL ABOARD LEARNING EXPRESS","LONGITUDE":-87.72932153283107},
{"STATE":"IL","ZIP":60659,"LATTITUDE":41.99056361928264,"ADDRESS":"2708 W PETERSON AVE 1ST ","YEAR":2005,"DOING_BUSINESS_AS_NAME":"LITTLE HARVARD ACADEMY","POP_AT_RISK":121772,"BUSINESS_TYPE":"Day Care Center 2 - 6 Years","LEGAL_NAME":"LITTLE HARVARD ACADEMY, INC.","LONGITUDE":-87.69736479750581},
{"STATE":"IL","ZIP":60628,"LATTITUDE":41.66222521234003,"ADDRESS":"12730 S HALSTED ST  ","YEAR":2005,"DOING_BUSINESS_AS_NAME":"CAROUSE PRESCHOOL DEVELOPMENT","POP_AT_RISK":23903,"BUSINESS_TYPE":"Day Care Center 2 - 6 Years","LEGAL_NAME":"CAROUSE PRESCHOOL DEVELOPMENT","LONGITUDE":-87.64153324667768},
{"STATE":"IL","ZIP":60619,"LATTITUDE":41.751082656634544,"ADDRESS":"26 E 79TH ST  ","YEAR":2005,"DOING_BUSINESS_AS_NAME":"CHATHAM AVALON NURSERY SCHOOL","POP_AT_RISK":32059,"BUSINESS_TYPE":"Day Care Center 2 - 6 Years","LEGAL_NAME":"CHATHAM AVALON NURSERY SCHOOL","LONGITUDE":-87.62348268495377},
{"STATE":"IL","ZIP":60653,"LATTITUDE":41.816690866847,"ADDRESS":"226 E 43RD ST  ","YEAR":2005,"DOING_BUSINESS_AS_NAME":"CENTERS FOR NEW HORIZONS,INC","POP_AT_RISK":178480,"BUSINESS_TYPE":"Day Care Center 2 - 6 Years","LEGAL_NAME":"CENTERS FOR NEW HORIZONS, INC.","LONGITUDE":-87.62014770086735},
{"STATE":"IL","ZIP":60609,"LATTITUDE":41.800710487993996,"ADDRESS":"5140 S FEDERAL ST 1ST ","YEAR":2005,"DOING_BUSINESS_AS_NAME":"ROBERT TAYLOR SOUTH DAY CARE","POP_AT_RISK":47544,"BUSINESS_TYPE":"Day Care Center 2 - 6 Years","LEGAL_NAME":"CENTERS FOR NEW HORIZONS, INC.","LONGITUDE":-87.62809625772044},
{"STATE":"IL","ZIP":60615,"LATTITUDE":41.80825846420949,"ADDRESS":"4745 S ELLIS AVE  ","YEAR":2005,"DOING_BUSINESS_AS_NAME":"CREATIVE MANSION CHLDRN'S ACDY","POP_AT_RISK":118815,"BUSINESS_TYPE":"Day Care Center 2 - 6 Years","LEGAL_NAME":"CREATIVE MANSION CHILDRN'S ACD","LONGITUDE":-87.60152630672184},
{"STATE":"IL","ZIP":60645,"LATTITUDE":42.00706557171796,"ADDRESS":"6921 N RIDGE BLVD  ","YEAR":2005,"DOING_BUSINESS_AS_NAME":"PANDA MONTESSORI ACADEMY","POP_AT_RISK":236913,"BUSINESS_TYPE":"Day Care Center 2 - 6 Years","LEGAL_NAME":"PANDA MONTESSORI ACADEMY, INC.","LONGITUDE":-87.68087359576798},
{"STATE":"IL","ZIP":60607,"LATTITUDE":41.873209637371914,"ADDRESS":"630 S ASHLAND AVE  ","YEAR":2005,"DOING_BUSINESS_AS_NAME":"LAURENCE ARMOUR DAY SCHOOL","POP_AT_RISK":66916,"BUSINESS_TYPE":"Day Care Center 2 - 6 Years","LEGAL_NAME":"RUSH UNIVERSITY MEDICAL CENTER","LONGITUDE":-87.66672317705279},
{"STATE":"IL","ZIP":60612,"LATTITUDE":41.88008154649476,"ADDRESS":"2102 W MONROE ST  ","YEAR":2005,"DOING_BUSINESS_AS_NAME":"JAMES JORDAN CHILD CARE","POP_AT_RISK":114112,"BUSINESS_TYPE":"Day Care Center 2 - 6 Years","LEGAL_NAME":"BOYS AND GIRLS CLUBS OF CHICAGO","LONGITUDE":-87.67925524976629},
{"STATE":"IL","ZIP":60623,"LATTITUDE":41.84650815083897,"ADDRESS":"2950 W 25TH ST  1","YEAR":2005,"DOING_BUSINESS_AS_NAME":"GENERAL R. E. WOOD HEADSTART","POP_AT_RISK":903000,"BUSINESS_TYPE":"Day Care Center 2 - 6 Years","LEGAL_NAME":"BOYS AND GIRLS CLUBS OF CHICAGO","LONGITUDE":-87.69975077060523},
{"STATE":"IL","ZIP":60618,"LATTITUDE":41.95145042641913,"ADDRESS":"3855 N ELSTON AVE  1","YEAR":2005,"DOING_BUSINESS_AS_NAME":"KINDER CARE LEARNING CENTERS","POP_AT_RISK":756899,"BUSINESS_TYPE":"Day Care Center 2 - 6 Years","LEGAL_NAME":"KNOWLEDGE UNIVERSE EDUCATION LLC","LONGITUDE":-87.71566191935356},
{"STATE":"IL","ZIP":60605,"LATTITUDE":41.86500783111907,"ADDRESS":"1325 S STATE ST  ","YEAR":2005,"DOING_BUSINESS_AS_NAME":"RAINFOREST LEARNING CENTER, INC.","POP_AT_RISK":157964,"BUSINESS_TYPE":"Day Care Center 2 - 6 Years","LEGAL_NAME":"RAINFOREST LEARNING CENTER, INC.","LONGITUDE":-87.62722405946376},
{"STATE":"IL","ZIP":60629,"LATTITUDE":41.776783362511694,"ADDRESS":"6401 S PULASKI RD  1","YEAR":2005,"DOING_BUSINESS_AS_NAME":"TEDDY BEAR NURSERY SCHOOL INC","POP_AT_RISK":384664,"BUSINESS_TYPE":"Day Care Center 2 - 6 Years","LEGAL_NAME":"TEDDY BEAR NURSERY SCHOOLS, INC.","LONGITUDE":-87.72256551203533},
{"STATE":"IL","ZIP":60613,"LATTITUDE":41.95101694822956,"ADDRESS":"957 W GRACE ST 1ST ","YEAR":2005,"DOING_BUSINESS_AS_NAME":"JCYS LAKEVIEW FAMILY CENTER","POP_AT_RISK":151110,"BUSINESS_TYPE":"Day Care Center 2 - 6 Years","LEGAL_NAME":"JEWISH COUNCIL FOR YOUTH SERVICES","LONGITUDE":-87.65429719011378},
{"STATE":"IL","ZIP":60616,"LATTITUDE":41.838401488293364,"ADDRESS":"3053 S NORMAL AVE  1","YEAR":2005,"DOING_BUSINESS_AS_NAME":"BRIDGEPORT CHILD DEVELOPMENT CENTER","POP_AT_RISK":390048,"BUSINESS_TYPE":"Day Care Center 2 - 6 Years","LEGAL_NAME":"ONE HOPE UNITED - NORTHERN REGION","LONGITUDE":-87.63883490990565},
{"STATE":"IL","ZIP":60647,"LATTITUDE":41.9103196662774,"ADDRESS":"2818-20 W NORTH AVE  ","YEAR":2005,"DOING_BUSINESS_AS_NAME":"COZY CORNER CHILDCARE","POP_AT_RISK":71301,"BUSINESS_TYPE":"Day Care Center 2 - 6 Years","LEGAL_NAME":"COZY CORNER CHILDCARE FACILITY, INC.","LONGITUDE":-87.69787842774888},
{"STATE":"IL","ZIP":60641,"LATTITUDE":41.956907489806824,"ADDRESS":"4159 N LARAMIE AVE 1ST ","YEAR":2005,"DOING_BUSINESS_AS_NAME":"LIVING WITNESS LEARNING DAY CARE","POP_AT_RISK":292110,"BUSINESS_TYPE":"Day Care Center 2 - 6 Years","LEGAL_NAME":"LIVING WITNESS LEARNING DAYCARE INC.","LONGITUDE":-87.75711973280119},
{"STATE":"IL","ZIP":60616,"LATTITUDE":41.85445549916194,"ADDRESS":"2141 S TAN CT  ","YEAR":2005,"DOING_BUSINESS_AS_NAME":"LEAGUE CHILD DEVELOPMENT CENTER","POP_AT_RISK":60728,"BUSINESS_TYPE":"Day Care Center 2 - 6 Years","LEGAL_NAME":"CHINESE AMERICAN SERVICE LEAGUE, INC.","LONGITUDE":-87.63561121740251},
{"STATE":"IL","ZIP":60652,"LATTITUDE":41.74355478944242,"ADDRESS":"8225-8229 S KEDZIE AVE  ","YEAR":2005,"DOING_BUSINESS_AS_NAME":"CHIPPER PRE-SCHOOL\/KINDGTEN","POP_AT_RISK":27818,"BUSINESS_TYPE":"Day Care Center 2 - 6 Years","LEGAL_NAME":"CHIPPER PRESCHOOL AND KINDERGARTEN INC. II","LONGITUDE":-87.70207306657721},
{"STATE":"IL","ZIP":60620,"LATTITUDE":41.74845026012511,"ADDRESS":"7954-7958 S WESTERN AVE  ","YEAR":2005,"DOING_BUSINESS_AS_NAME":"THE CHILDREN'S CENTER","POP_AT_RISK":68426,"BUSINESS_TYPE":"Day Care Center 2 - 6 Years","LEGAL_NAME":"CHILDREN'S CENTER FOR CREATIVE LEARNING INC","LONGITUDE":-87.68295412470142},
{"STATE":"IL","ZIP":60615,"LATTITUDE":41.79956925486811,"ADDRESS":"5300 S SHORE DR  1 FLR","YEAR":2005,"DOING_BUSINESS_AS_NAME":"PARENT COOPERATIVE FOR EARLY LEARNING, INC.","POP_AT_RISK":88089,"BUSINESS_TYPE":"Day Care Center 2 - 6 Years","LEGAL_NAME":"PARENT COOPERATIVE FOR EARLY LEARNING, INC.","LONGITUDE":-87.58246503715458},
{"STATE":"IL","ZIP":60622,"LATTITUDE":41.909074985731706,"ADDRESS":"1515 N HALSTED ST  PRE-S","YEAR":2005,"DOING_BUSINESS_AS_NAME":"NEW CITY YMCA PRE-SCHOOL","POP_AT_RISK":200152,"BUSINESS_TYPE":"Day Care Center 2 - 6 Years","LEGAL_NAME":"YOUNG MEN'S CHRISTIAN ASSOCIATION OF CHICAGO","LONGITUDE":-87.64807869617972},
{"STATE":"IL","ZIP":60657,"LATTITUDE":41.933388339085965,"ADDRESS":"2816 N PINE GROVE AVE 1ST ","YEAR":2005,"DOING_BUSINESS_AS_NAME":"WEE CARE DAYCARE PRESCHOOL","POP_AT_RISK":142754,"BUSINESS_TYPE":"Day Care Center 2 - 6 Years","LEGAL_NAME":"CHICAGO'S PRESCHOOL ACADEMY OF LEARNING, INC.","LONGITUDE":-87.6415090848372},
{"STATE":"IL","ZIP":60640,"LATTITUDE":41.97547539863465,"ADDRESS":"5129 N BROADWAY   ","YEAR":2005,"DOING_BUSINESS_AS_NAME":"SUSIE'S BRIGHTER FUTURE PREP. INC.","POP_AT_RISK":144706,"BUSINESS_TYPE":"Day Care Center 2 - 6 Years","LEGAL_NAME":"SUSIE'S BRIGHTER FUTURE PREPARATORY CENTER, INC.","LONGITUDE":-87.65969701169435},
{"STATE":"IL","ZIP":60643,"LATTITUDE":41.70670933007148,"ADDRESS":"10244 S LONGWOOD DR 1ST ","YEAR":2005,"DOING_BUSINESS_AS_NAME":"THE BEVERLY CASTLE ACADEMY OF","POP_AT_RISK":39922,"BUSINESS_TYPE":"Day Care Center 2 - 6 Years","LEGAL_NAME":"THE BEVERLY CASTLE ACADEMY OF EARLY EDUCATION, LLC","LONGITUDE":-87.67081386117727},
{"STATE":"IL","ZIP":60617,"LATTITUDE":41.72836670381486,"ADDRESS":"3010-3016 E 92ND ST  ","YEAR":2005,"DOING_BUSINESS_AS_NAME":"SHINING STAR CHILD DEVELOPMENT INSTITUTE OF THE ARTS INC.","POP_AT_RISK":123914,"BUSINESS_TYPE":"Day Care Center 2 - 6 Years","LEGAL_NAME":"SHINING STAR CHILD DEVELOPMENT INSTITUTE OF THE ARTS INC.","LONGITUDE":-87.55072921513458},
}