{
{"STATE":"IL","ZIP":60639,"LATTITUDE":41.91723965730742,"ADDRESS":"4108 W ARMITAGE AVE 1ST ","YEAR":2004,"DOING_BUSINESS_AS_NAME":"IMPALA AUTO PARTS AND REPAIR","POP_AT_RISK":261768,"BUSINESS_TYPE":"Motor Vehicle Repair : Engine Only (Class II)","LEGAL_NAME":"JORGE COLON","LONGITUDE":-87.72940218594754},
{"STATE":"IL","ZIP":60647,"LATTITUDE":41.91173214758883,"ADDRESS":"1654 N KEDZIE AVE 1ST ","YEAR":2004,"DOING_BUSINESS_AS_NAME":"OLVIN SERVICE STATION","POP_AT_RISK":1279308,"BUSINESS_TYPE":"Motor Vehicle Repair : Engine Only (Class II)","LEGAL_NAME":"OLVIN PAGAN","LONGITUDE":-87.70694163160172},
{"STATE":"IL","ZIP":60644,"LATTITUDE":41.87395651070216,"ADDRESS":"4807 W CONGRESS PKWY 1ST ","YEAR":2004,"DOING_BUSINESS_AS_NAME":"B & J MOTOR VEHICLE REPAIR","POP_AT_RISK":205550,"BUSINESS_TYPE":"Motor Vehicle Repair : Engine Only (Class II)","LEGAL_NAME":"BELTON PAYTON","LONGITUDE":-87.74535947133792},
{"STATE":"IL","ZIP":60612,"LATTITUDE":41.87340324174217,"ADDRESS":"610 S CALIFORNIA AVE 1ST ","YEAR":2004,"DOING_BUSINESS_AS_NAME":"CALIFORNIA AUTO REPAIR","POP_AT_RISK":526194,"BUSINESS_TYPE":"Motor Vehicle Repair : Engine Only (Class II)","LEGAL_NAME":"ELSTON WINSTON","LONGITUDE":-87.69623579970396},
{"STATE":"IL","ZIP":60608,"LATTITUDE":41.84981073686267,"ADDRESS":"2340 S BLUE ISLAND AVE  1","YEAR":2004,"DOING_BUSINESS_AS_NAME":"MECHANIC & GNRL PILSEN AUT REP","POP_AT_RISK":443322,"BUSINESS_TYPE":"Motor Vehicle Repair : Engine Only (Class II)","LEGAL_NAME":"JOSE C CALDERON","LONGITUDE":-87.67275962131141},
{"STATE":"IL","ZIP":60649,"LATTITUDE":41.7595107619304,"ADDRESS":"7437 S STONY ISLAND AVE 1ST ","YEAR":2004,"DOING_BUSINESS_AS_NAME":"MICHAEL'S MUFFLER & BRAKE","POP_AT_RISK":539110,"BUSINESS_TYPE":"Motor Vehicle Repair : Engine Only (Class II)","LEGAL_NAME":"MICHAEL SHORTER","LONGITUDE":-87.58560746093987},
{"STATE":"IL","ZIP":60620,"LATTITUDE":41.73597057241865,"ADDRESS":"1400 W 87TH ST  ","YEAR":2004,"DOING_BUSINESS_AS_NAME":"MICHAEL'S MUFFLER & BRAKE SHOP","POP_AT_RISK":403876,"BUSINESS_TYPE":"Motor Vehicle Repair : Engine Only (Class II)","LEGAL_NAME":"MICHAEL SHORTER","LONGITUDE":-87.65826818410024},
{"STATE":"IL","ZIP":60644,"LATTITUDE":41.8870361616709,"ADDRESS":"5835 W CORCORAN PL  1","YEAR":2004,"DOING_BUSINESS_AS_NAME":"ABLE AUTO SERVICES","POP_AT_RISK":461808,"BUSINESS_TYPE":"Motor Vehicle Repair : Engine Only (Class II)","LEGAL_NAME":"GEORGE DIMITROPOULOS","LONGITUDE":-87.77144373090574},
{"STATE":"IL","ZIP":60644,"LATTITUDE":41.88537852219392,"ADDRESS":"301 N CICERO AVE  1","YEAR":2004,"DOING_BUSINESS_AS_NAME":"THORTON AUTO REPAIR INC","POP_AT_RISK":332208,"BUSINESS_TYPE":"Motor Vehicle Repair : Engine Only (Class II)","LEGAL_NAME":"THORNTON AUTO REPAIR, INC.","LONGITUDE":-87.74530832271283},
}