{
{"STATE":"IL","ZIP":60640,"LATTITUDE":41.9759351662295,"ADDRESS":"5153 N ASHLAND AVE  ","YEAR":2011,"DOING_BUSINESS_AS_NAME":"The Neo-Futurists","POP_AT_RISK":68906,"BUSINESS_TYPE":"Performing Arts Venue","LEGAL_NAME":"THE NEO-FUTURISTS","LONGITUDE":-87.66946268671114},
{"STATE":"IL","ZIP":60647,"LATTITUDE":41.92454422776579,"ADDRESS":"3421 W FULLERTON AVE 1ST ","YEAR":2011,"DOING_BUSINESS_AS_NAME":"THE CHARNEL HOUSE","POP_AT_RISK":568540,"BUSINESS_TYPE":"Performing Arts Venue","LEGAL_NAME":"WILLIAM BERMINGHAM","LONGITUDE":-87.71294962947451},
{"STATE":"IL","ZIP":60610,"LATTITUDE":41.91008024220972,"ADDRESS":"1531 N WELLS ST  ","YEAR":2011,"DOING_BUSINESS_AS_NAME":"A RED ORCHID THEATER","POP_AT_RISK":129778,"BUSINESS_TYPE":"Performing Arts Venue","LEGAL_NAME":"A RED ORCHID THEATER","LONGITUDE":-87.63452976939911},
{"STATE":"IL","ZIP":60651,"LATTITUDE":41.90136216797627,"ADDRESS":"1130-1140 N LAMON AVE  ","YEAR":2011,"DOING_BUSINESS_AS_NAME":"BETH ANNE LIFE CENTER","POP_AT_RISK":548292,"BUSINESS_TYPE":"Performing Arts Venue","LEGAL_NAME":"BETH-ANNE FOUNDATION","LONGITUDE":-87.74854583761227},
{"STATE":"IL","ZIP":60660,"LATTITUDE":41.99433043833787,"ADDRESS":"6157 N CLARK ST  ","YEAR":2011,"DOING_BUSINESS_AS_NAME":"RAVEN THEATRE COMPANY","POP_AT_RISK":291128,"BUSINESS_TYPE":"Performing Arts Venue","LEGAL_NAME":"RAVEN THEATRE COMPANY","LONGITUDE":-87.67000007450335},
{"STATE":"IL","ZIP":60618,"LATTITUDE":41.937980454137076,"ADDRESS":"3111 N WESTERN AVE # 1ST","YEAR":2011,"DOING_BUSINESS_AS_NAME":"VIADUCT THEATRE","POP_AT_RISK":142749,"BUSINESS_TYPE":"Performing Arts Venue","LEGAL_NAME":"VIADUCT ARTS COALITION","LONGITUDE":-87.68774498018773},
{"STATE":"IL","ZIP":60626,"LATTITUDE":42.008813688990735,"ADDRESS":"6970-6972 N GLENWOOD AVE 1 ","YEAR":2011,"DOING_BUSINESS_AS_NAME":"NO EXIT CAFE","POP_AT_RISK":512328,"BUSINESS_TYPE":"Performing Arts Venue","LEGAL_NAME":"NEW HEARTLAND CAFE, INC.","LONGITUDE":-87.66635391877986},
{"STATE":"IL","ZIP":60630,"LATTITUDE":41.96789000575237,"ADDRESS":"4802 N MILWAUKEE AVE  ","YEAR":2011,"DOING_BUSINESS_AS_NAME":"THE GIFT THEATRE COMPANY","POP_AT_RISK":374598,"BUSINESS_TYPE":"Performing Arts Venue","LEGAL_NAME":"THE GIFT THEATRE COMPANY","LONGITUDE":-87.76093810809842},
{"STATE":"IL","ZIP":60608,"LATTITUDE":41.86697696574831,"ADDRESS":"1001 W ROOSEVELT RD 1ST REAR","YEAR":2011,"DOING_BUSINESS_AS_NAME":"PROVISION THEATER COMPANY","POP_AT_RISK":410820,"BUSINESS_TYPE":"Performing Arts Venue","LEGAL_NAME":"PROVISION THEATER COMPANY","LONGITUDE":-87.65108183642205},
{"STATE":"IL","ZIP":60647,"LATTITUDE":41.91640803246923,"ADDRESS":"1919 N MILWAUKEE AVE  1","YEAR":2011,"DOING_BUSINESS_AS_NAME":"GORILLA TANGO THEATRE","POP_AT_RISK":577035,"BUSINESS_TYPE":"Performing Arts Venue","LEGAL_NAME":"GORILLA TANGO INCORPORATED","LONGITUDE":-87.6865471493126},
{"STATE":"IL","ZIP":60642,"LATTITUDE":41.90616286567333,"ADDRESS":"1333 N MILWAUKEE AVE 2 2","YEAR":2011,"DOING_BUSINESS_AS_NAME":"THE DEN THEATRE","POP_AT_RISK":56968,"BUSINESS_TYPE":"Performing Arts Venue","LEGAL_NAME":"THE DEN THEATRE CHICAGO, LLC","LONGITUDE":-87.67064602390985},
{"STATE":"IL","ZIP":60639,"LATTITUDE":41.92984029473928,"ADDRESS":"2707 N LARAMIE AVE  ","YEAR":2011,"DOING_BUSINESS_AS_NAME":"AGUIJON THEATER COMPANY","POP_AT_RISK":1172944,"BUSINESS_TYPE":"Performing Arts Venue","LEGAL_NAME":"AGUIJON THEATER COMPANY OF CHICAGO","LONGITUDE":-87.75621406151068},
}