{
{"STATE":"IL","ZIP":60607,"LATTITUDE":41.880356911877605,"ADDRESS":"1400 W MONROE ST 1ST ","YEAR":2010,"DOING_BUSINESS_AS_NAME":"MONROE PAVILION HEALTH & TREATMENT CENTER","POP_AT_RISK":507248,"BUSINESS_TYPE":"Long-Term Care Facility","LEGAL_NAME":"MONROE CORP.","LONGITUDE":-87.662082414818},
{"STATE":"IL","ZIP":60637,"LATTITUDE":41.79379656505063,"ADDRESS":"5550 S SHORE DR  1","YEAR":2010,"DOING_BUSINESS_AS_NAME":"MONTGOMERY PLACE","POP_AT_RISK":174378,"BUSINESS_TYPE":"Long-Term Care Facility","LEGAL_NAME":"MONTGOMERY PLACE","LONGITUDE":-87.58056290147832},
{"STATE":"IL","ZIP":60623,"LATTITUDE":41.84915619738583,"ADDRESS":"2320 S LAWNDALE AVE  1ST","YEAR":2010,"DOING_BUSINESS_AS_NAME":"PARK HOUSE NURSING AND REHABILITATION CENTER LLC","POP_AT_RISK":645003,"BUSINESS_TYPE":"Long-Term Care Facility","LEGAL_NAME":"PARK HOUSE, LTD.","LONGITUDE":-87.71751181796799},
{"STATE":"IL","ZIP":60616,"LATTITUDE":41.857976714264225,"ADDRESS":"60 E 18TH ST  ","YEAR":2010,"DOING_BUSINESS_AS_NAME":"ST AGNES MANOR","POP_AT_RISK":196810,"BUSINESS_TYPE":"Long-Term Care Facility","LEGAL_NAME":"ST AGNES MANOR INC","LONGITUDE":-87.62481392642061},
{"STATE":"IL","ZIP":60644,"LATTITUDE":41.87034652436215,"ADDRESS":"901 S AUSTIN BLVD  ","YEAR":2010,"DOING_BUSINESS_AS_NAME":"COLUMBUS PARK, INC.","POP_AT_RISK":195504,"BUSINESS_TYPE":"Long-Term Care Facility","LEGAL_NAME":"COLUMBUS PARK, INC.","LONGITUDE":-87.774128780491},
{"STATE":"IL","ZIP":60647,"LATTITUDE":41.92879375909132,"ADDRESS":"2601 N CALIFORNIA AVE  ","YEAR":2010,"DOING_BUSINESS_AS_NAME":"SQUIRE'S SHELTERED CARE HOME","POP_AT_RISK":65358,"BUSINESS_TYPE":"Long-Term Care Facility","LEGAL_NAME":"FELLOWSHIP HOUSE INC","LONGITUDE":-87.69737828315505},
{"STATE":"IL","ZIP":60649,"LATTITUDE":41.762168766250305,"ADDRESS":"7325 S EXCHANGE AVE  ","YEAR":2010,"DOING_BUSINESS_AS_NAME":"RAINBOW BEACH CARE CENTER","POP_AT_RISK":170982,"BUSINESS_TYPE":"Long-Term Care Facility","LEGAL_NAME":"RAINBOW BEACH QOC, LLC","LONGITUDE":-87.56264124442326},
{"STATE":"IL","ZIP":60634,"LATTITUDE":41.95679065134189,"ADDRESS":"4200 N AUSTIN AVE  1","YEAR":2010,"DOING_BUSINESS_AS_NAME":"ROSE-ANGELA HALL","POP_AT_RISK":343305,"BUSINESS_TYPE":"Long-Term Care Facility","LEGAL_NAME":"ST. MARY OF PROVIDENCE","LONGITUDE":-87.77705031717367},
{"STATE":"IL","ZIP":60632,"LATTITUDE":41.811989599987115,"ADDRESS":"4437 S CICERO AVE  1","YEAR":2010,"DOING_BUSINESS_AS_NAME":"THE RENAISSANCE AT MIDWAY","POP_AT_RISK":95736,"BUSINESS_TYPE":"Long-Term Care Facility","LEGAL_NAME":"THE CLARIDGE AT CICERO","LONGITUDE":-87.74312824835363},
{"STATE":"IL","ZIP":60644,"LATTITUDE":41.886384278720506,"ADDRESS":"321 N CENTRAL AVE  ","YEAR":2010,"DOING_BUSINESS_AS_NAME":"CENTRAL PLAZA RESIDENTIAL HOME","POP_AT_RISK":167811,"BUSINESS_TYPE":"Long-Term Care Facility","LEGAL_NAME":"B & D HOTEL CORPORATION","LONGITUDE":-87.76493413331998},
{"STATE":"IL","ZIP":60653,"LATTITUDE":41.813004951226674,"ADDRESS":"4505 S DREXEL BLVD  ","YEAR":2010,"DOING_BUSINESS_AS_NAME":"AVENUE CARE CENTER INC","POP_AT_RISK":279440,"BUSINESS_TYPE":"Long-Term Care Facility","LEGAL_NAME":"AVENUE CARE CENTER, INC.","LONGITUDE":-87.60382289926487},
{"STATE":"IL","ZIP":60645,"LATTITUDE":42.01204322780128,"ADDRESS":"2625 W TOUHY AVE 1ST ","YEAR":2010,"DOING_BUSINESS_AS_NAME":"BUCKINGHAM PAVILLION INC","POP_AT_RISK":61171,"BUSINESS_TYPE":"Long-Term Care Facility","LEGAL_NAME":"BUCKINGHAM PAVILLION INC","LONGITUDE":-87.69601187012722},
{"STATE":"IL","ZIP":60608,"LATTITUDE":41.84031429224435,"ADDRESS":"2829 S CALIFORNIA AVE 1ST ","YEAR":2010,"DOING_BUSINESS_AS_NAME":"CALIFORNIA  GARDENS NURSING & REHABILITATION CENTER","POP_AT_RISK":275670,"BUSINESS_TYPE":"Long-Term Care Facility","LEGAL_NAME":"CALIFORNIA GARDENS CORP.","LONGITUDE":-87.694965406658},
{"STATE":"IL","ZIP":60644,"LATTITUDE":41.88203515947526,"ADDRESS":"5905 W WASHINGTON BLVD  ","YEAR":2010,"DOING_BUSINESS_AS_NAME":"MAYFIELD CARE CENTER INC","POP_AT_RISK":42195,"BUSINESS_TYPE":"Long-Term Care Facility","LEGAL_NAME":"MAYFIELD CARE CENTER INC","LONGITUDE":-87.77209686710721},
{"STATE":"IL","ZIP":60631,"LATTITUDE":41.98857518279947,"ADDRESS":"7435 W TALCOTT AVE 1ST ","YEAR":2010,"DOING_BUSINESS_AS_NAME":"RESURRECTION LIFE CENTER","POP_AT_RISK":86976,"BUSINESS_TYPE":"Long-Term Care Facility","LEGAL_NAME":"RESURRECTION HEALTH CARE","LONGITUDE":-87.81297791219501},
{"STATE":"IL","ZIP":60611,"LATTITUDE":41.8974381950521,"ADDRESS":"55 E PEARSON ST 1-54 ","YEAR":2010,"DOING_BUSINESS_AS_NAME":"THE CLARE AT WATER TOWER","POP_AT_RISK":253236,"BUSINESS_TYPE":"Long-Term Care Facility","LEGAL_NAME":"THE CLARE AT WATER TOWER","LONGITUDE":-87.62602037433696},
{"STATE":"IL","ZIP":60649,"LATTITUDE":41.75584937590127,"ADDRESS":"7750 S SOUTH SHORE DR  ","YEAR":2010,"DOING_BUSINESS_AS_NAME":"WATERFRONT TERRACE INC","POP_AT_RISK":121320,"BUSINESS_TYPE":"Long-Term Care Facility","LEGAL_NAME":"WATERFRONT TERRACE, INC.","LONGITUDE":-87.55238473905501},
{"STATE":"IL","ZIP":60639,"LATTITUDE":41.92548418867775,"ADDRESS":"2450 N CENTRAL AVE  ","YEAR":2010,"DOING_BUSINESS_AS_NAME":"CENTRAL NURSING HOME, INC","POP_AT_RISK":1012704,"BUSINESS_TYPE":"Long-Term Care Facility","LEGAL_NAME":"CENTRAL NURSING HOME, INC","LONGITUDE":-87.76619103558969},
{"STATE":"IL","ZIP":60657,"LATTITUDE":41.939692176939324,"ADDRESS":"1936 W BELMONT AVE  1","YEAR":2010,"DOING_BUSINESS_AS_NAME":"BELMONT NURSING HOME INC","POP_AT_RISK":524718,"BUSINESS_TYPE":"Long-Term Care Facility","LEGAL_NAME":"BELMONT NURSING HOME, INC.","LONGITUDE":-87.67740922922334},
{"STATE":"IL","ZIP":60620,"LATTITUDE":41.748245609196715,"ADDRESS":"8001 S WESTERN AVE  ","YEAR":2010,"DOING_BUSINESS_AS_NAME":"Presidential Pavilion, LLC","POP_AT_RISK":171065,"BUSINESS_TYPE":"Long-Term Care Facility","LEGAL_NAME":"Presidential Pavilion, LLC","LONGITUDE":-87.68265725032997},
{"STATE":"IL","ZIP":60634,"LATTITUDE":41.931809323392756,"ADDRESS":"2833 N NORDICA AVE 1ST ","YEAR":2010,"DOING_BUSINESS_AS_NAME":"BETHESDA HOME\/RETIRENMENT CENT","POP_AT_RISK":399456,"BUSINESS_TYPE":"Long-Term Care Facility","LEGAL_NAME":"NORWEGIAN LUTHERAN BETHESDA","LONGITUDE":-87.80272184656248},
{"STATE":"IL","ZIP":60631,"LATTITUDE":41.98746908144806,"ADDRESS":"5831 N NORTHWEST HWY  ","YEAR":2010,"DOING_BUSINESS_AS_NAME":"ALDEN NORTHMOOR REHAB & HLTH","POP_AT_RISK":31060,"BUSINESS_TYPE":"Long-Term Care Facility","LEGAL_NAME":"ALDEN-NORTHMOOR REHAB & HLTH","LONGITUDE":-87.79016081906789},
{"STATE":"IL","ZIP":60640,"LATTITUDE":41.964647958044594,"ADDRESS":"4538 N BEACON ST  ","YEAR":2010,"DOING_BUSINESS_AS_NAME":"BRIGHTVIEW CARE CENTER, INC.","POP_AT_RISK":65941,"BUSINESS_TYPE":"Long-Term Care Facility","LEGAL_NAME":"BRIGHTVIEW CARE CENTER, INC.","LONGITUDE":-87.6639265665307},
{"STATE":"IL","ZIP":60641,"LATTITUDE":41.9389735115093,"ADDRESS":"4021 W BELMONT AVE  ","YEAR":2010,"DOING_BUSINESS_AS_NAME":"ST JOSEPH VILLAGE OF CHICAGO","POP_AT_RISK":535023,"BUSINESS_TYPE":"Long-Term Care Facility","LEGAL_NAME":"FRANCISCAN COMMUNITIES, INC.","LONGITUDE":-87.72806827756924},
{"STATE":"IL","ZIP":60640,"LATTITUDE":41.97247776820093,"ADDRESS":"4950 N ASHLAND AVE  1","YEAR":2010,"DOING_BUSINESS_AS_NAME":"BETHANY RETIREMENT COMMUNITY","POP_AT_RISK":56181,"BUSINESS_TYPE":"Long-Term Care Facility","LEGAL_NAME":"METHODIST HOSPITAL OF CHICAGO","LONGITUDE":-87.66968611689114},
{"STATE":"IL","ZIP":60613,"LATTITUDE":41.96028808720104,"ADDRESS":"940 W CULLOM AVE 1ST ","YEAR":2010,"DOING_BUSINESS_AS_NAME":"MARGARET MANOR HOME NORTH","POP_AT_RISK":76703,"BUSINESS_TYPE":"Long-Term Care Facility","LEGAL_NAME":"NINE FORTY CULLOM CORPORATION","LONGITUDE":-87.65384157533609},
{"STATE":"IL","ZIP":60616,"LATTITUDE":41.834330015257066,"ADDRESS":"3311 S MICHIGAN AVE  ","YEAR":2010,"DOING_BUSINESS_AS_NAME":"SOUTHVIEW MANOR OPERATOR","POP_AT_RISK":34719,"BUSINESS_TYPE":"Long-Term Care Facility","LEGAL_NAME":"SOUTHVIEW MANOR OPERATOR, LLC","LONGITUDE":-87.62317380513748},
{"STATE":"IL","ZIP":60652,"LATTITUDE":41.73540340021031,"ADDRESS":"2940 W 87TH ST  ","YEAR":2010,"DOING_BUSINESS_AS_NAME":"THE RENAISSANCE AT 87TH STREET, INC.","POP_AT_RISK":36936,"BUSINESS_TYPE":"Long-Term Care Facility","LEGAL_NAME":"THE RENAISSANCE AT BEVERLY LP","LONGITUDE":-87.69625291435973},
{"STATE":"IL","ZIP":60621,"LATTITUDE":41.76897101801667,"ADDRESS":"201 W 69TH ST  ","YEAR":2010,"DOING_BUSINESS_AS_NAME":"ALDEN NURSING CENTER WENTWORTH","POP_AT_RISK":24412,"BUSINESS_TYPE":"Long-Term Care Facility","LEGAL_NAME":"ALDEN NURSING CENTER WENTWORTH","LONGITUDE":-87.62991776825787},
{"STATE":"IL","ZIP":60623,"LATTITUDE":41.859870459888555,"ADDRESS":"1550 S ALBANY AVE  ","YEAR":2010,"DOING_BUSINESS_AS_NAME":"SACRED HEART HOME INCORPORATED","POP_AT_RISK":372183,"BUSINESS_TYPE":"Long-Term Care Facility","LEGAL_NAME":"SACRED HEART HOME INCORPORATED","LONGITUDE":-87.70311588900518},
{"STATE":"IL","ZIP":60647,"LATTITUDE":41.9224189712364,"ADDRESS":"2242 N KEDZIE BLVD  ","YEAR":2010,"DOING_BUSINESS_AS_NAME":"WOODBRIDGE NURSING PAVILION LT","POP_AT_RISK":378935,"BUSINESS_TYPE":"Long-Term Care Facility","LEGAL_NAME":"WOODBRIDGE NURSING PAVILION LT","LONGITUDE":-87.70729240611188},
{"STATE":"IL","ZIP":60637,"LATTITUDE":41.78343243860632,"ADDRESS":"6125 S KENWOOD AVE  ","YEAR":2010,"DOING_BUSINESS_AS_NAME":"KENWOOD HEALTHCARE CENTER","POP_AT_RISK":240552,"BUSINESS_TYPE":"Long-Term Care Facility","LEGAL_NAME":"KENWOOD HEALTHCARE CENTER, INC.","LONGITUDE":-87.59297734263023},
{"STATE":"IL","ZIP":60646,"LATTITUDE":41.993108285440336,"ADDRESS":"6141 N PULASKI RD  ","YEAR":2010,"DOING_BUSINESS_AS_NAME":"PETERSON PK HEALTH CARE CENTER","POP_AT_RISK":68532,"BUSINESS_TYPE":"Long-Term Care Facility","LEGAL_NAME":"PETERSON PARK HEALTH CARE CENTER","LONGITUDE":-87.72873363689172},
{"STATE":"IL","ZIP":60641,"LATTITUDE":41.96027148023277,"ADDRESS":"4340 N KEYSTONE AVE  ","YEAR":2010,"DOING_BUSINESS_AS_NAME":"GLEN ELSTON NURSNG & REHAB CTR","POP_AT_RISK":195870,"BUSINESS_TYPE":"Long-Term Care Facility","LEGAL_NAME":"GLEN ELSTON NURSNG & REHAB CENTER","LONGITUDE":-87.72955212209168},
{"STATE":"IL","ZIP":60618,"LATTITUDE":41.9504149964053,"ADDRESS":"3800 N CALIFORNIA AVE  ","YEAR":2010,"DOING_BUSINESS_AS_NAME":"ST. PAUL'S HOUSE AND HEALTHCARE CENTER","POP_AT_RISK":282405,"BUSINESS_TYPE":"Long-Term Care Facility","LEGAL_NAME":"ST. PAULS HOUSE & HEALTH CARE CENTER","LONGITUDE":-87.69828662086253},
{"STATE":"IL","ZIP":60617,"LATTITUDE":41.729071788192,"ADDRESS":"9135 S BRANDON AVE  ","YEAR":2010,"DOING_BUSINESS_AS_NAME":"MOORE HOUSE","POP_AT_RISK":123914,"BUSINESS_TYPE":"Long-Term Care Facility","LEGAL_NAME":"ADA S MCKINLEY COMMUNITY SERVICES INC","LONGITUDE":-87.54675627458882},
{"STATE":"IL","ZIP":60621,"LATTITUDE":41.77437121270553,"ADDRESS":"6600 S STEWART AVE  1","YEAR":2010,"DOING_BUSINESS_AS_NAME":"KNIGHT HOUSE","POP_AT_RISK":113895,"BUSINESS_TYPE":"Long-Term Care Facility","LEGAL_NAME":"ADA S MCKINLEY COMMUNITY SERVICES INC","LONGITUDE":-87.63504839099973},
{"STATE":"IL","ZIP":60621,"LATTITUDE":41.77231554593892,"ADDRESS":"6701 S MORGAN ST  1","YEAR":2010,"DOING_BUSINESS_AS_NAME":"HAMMOND HOUSE","POP_AT_RISK":363810,"BUSINESS_TYPE":"Long-Term Care Facility","LEGAL_NAME":"ADA S MCKINLEY COMMUNITY SERVICES INC","LONGITUDE":-87.64930606703135},
{"STATE":"IL","ZIP":60653,"LATTITUDE":41.81187599519652,"ADDRESS":"4540 S MICHIGAN AVE  1","YEAR":2010,"DOING_BUSINESS_AS_NAME":"DANFORTH HOUSE","POP_AT_RISK":61404,"BUSINESS_TYPE":"Long-Term Care Facility","LEGAL_NAME":"ADA S MCKINLEY COMMUNITY SERVICES INC","LONGITUDE":-87.62305283605447},
{"STATE":"IL","ZIP":60622,"LATTITUDE":41.90667132947482,"ADDRESS":"1401 N CALIFORNIA AVE 1 ","YEAR":2010,"DOING_BUSINESS_AS_NAME":"Center Home for Hispanic Elderly","POP_AT_RISK":236840,"BUSINESS_TYPE":"Long-Term Care Facility","LEGAL_NAME":"Center Home for Hispanic Elderly, LLC","LONGITUDE":-87.69682455824628},
{"STATE":"IL","ZIP":60659,"LATTITUDE":41.995855875363404,"ADDRESS":"6300 N CALIFORNIA AVE  ","YEAR":2010,"DOING_BUSINESS_AS_NAME":"WEST RIDGE REHABILITATION CENTER","POP_AT_RISK":57911,"BUSINESS_TYPE":"Long-Term Care Facility","LEGAL_NAME":"WEST RIDGE REHABILITATION CENTER, LLC.","LONGITUDE":-87.69972746242313},
{"STATE":"IL","ZIP":60644,"LATTITUDE":41.87656421743353,"ADDRESS":"5107 W JACKSON BLVD  ","YEAR":2010,"DOING_BUSINESS_AS_NAME":"COLUMBUS MANOR RES CARE HOME","POP_AT_RISK":83206,"BUSINESS_TYPE":"Long-Term Care Facility","LEGAL_NAME":"COLUMBUS MANOR RESIDENTIAL CARE HOME, INC.","LONGITUDE":-87.75374480570642},
{"STATE":"IL","ZIP":60643,"LATTITUDE":41.68853379776741,"ADDRESS":"2315 W 112TH PL  ","YEAR":2010,"DOING_BUSINESS_AS_NAME":"WASHINGTON AND JANE SMITH HOME (SMITH VILLAGE)","POP_AT_RISK":16458,"BUSINESS_TYPE":"Long-Term Care Facility","LEGAL_NAME":"WASHINGTON & JANE SMITH COMMUNITY - BEVERLY","LONGITUDE":-87.67956772158061},
{"STATE":"IL","ZIP":60631,"LATTITUDE":41.984530848808255,"ADDRESS":"5656 N NEWCASTLE AVE  ","YEAR":2010,"DOING_BUSINESS_AS_NAME":"THE SOCIETY FOR THE DANISH OLD PEOPLE'S HOME","POP_AT_RISK":33058,"BUSINESS_TYPE":"Long-Term Care Facility","LEGAL_NAME":"THE SOCIETY FOR THE DANISH OLD PEOPLE'S HOME","LONGITUDE":-87.79773005249488},
{"STATE":"IL","ZIP":60643,"LATTITUDE":41.721504890723246,"ADDRESS":"1010 W 95TH ST 1-3 ","YEAR":2010,"DOING_BUSINESS_AS_NAME":"SOUTHPOINT NURSING & REHABILITATION CENTER, LLC","POP_AT_RISK":264195,"BUSINESS_TYPE":"Long-Term Care Facility","LEGAL_NAME":"SOUTHPOINT NURSING & REHABILITATION CENTER, LLC","LONGITUDE":-87.64859453180811},
}