{
{"STATE":"IL","ZIP":60640,"LATTITUDE":41.96255272990615,"ADDRESS":"4430 N CLARK ST 1ST ","YEAR":2008,"DOING_BUSINESS_AS_NAME":"CHERE WALSH","POP_AT_RISK":819610,"BUSINESS_TYPE":"Auctioneer","LEGAL_NAME":"CHERE WALSH","LONGITUDE":-87.66630219391642},
{"STATE":"IL","ZIP":60607,"LATTITUDE":41.87048742255171,"ADDRESS":"900 S CLINTON ST  ","YEAR":2008,"DOING_BUSINESS_AS_NAME":"SUSANIN'S","POP_AT_RISK":170710,"BUSINESS_TYPE":"Auctioneer","LEGAL_NAME":"SEAN SUSANIN","LONGITUDE":-87.64097412463234},
{"STATE":"IL","ZIP":60623,"LATTITUDE":41.8522065721236,"ADDRESS":"2135 S KILBOURN AVE 1ST ","YEAR":2008,"DOING_BUSINESS_AS_NAME":"KARIM MOTLAGH","POP_AT_RISK":630838,"BUSINESS_TYPE":"Auctioneer","LEGAL_NAME":"KARIM MOTLAGH","LONGITUDE":-87.73682847567896},
{"STATE":"IL","ZIP":60637,"LATTITUDE":41.77990422394121,"ADDRESS":"35-75 E 63RD ST 1ST ","YEAR":2008,"DOING_BUSINESS_AS_NAME":"1ST FEDERAL AUTO AUCTION, INC","POP_AT_RISK":441519,"BUSINESS_TYPE":"Auctioneer","LEGAL_NAME":"TEIMOUR FAILY","LONGITUDE":-87.62401487462529},
{"STATE":"IL","ZIP":60640,"LATTITUDE":41.98172336588329,"ADDRESS":"5501 N CLARK ST  LOWER","YEAR":2008,"DOING_BUSINESS_AS_NAME":"JEFFREY BENDIX","POP_AT_RISK":1048005,"BUSINESS_TYPE":"Auctioneer","LEGAL_NAME":"JEFFREY BENDIX","LONGITUDE":-87.66828765522929},
{"STATE":"IL","ZIP":60645,"LATTITUDE":42.0131930410088,"ADDRESS":"7232 N WESTERN AVE  ","YEAR":2008,"DOING_BUSINESS_AS_NAME":"JOHN R. MODICA","POP_AT_RISK":705324,"BUSINESS_TYPE":"Auctioneer","LEGAL_NAME":"JOHN R. MODICA","LONGITUDE":-87.69038958652709},
{"STATE":"IL","ZIP":60617,"LATTITUDE":41.73261524185334,"ADDRESS":"8936 S COMMERCIAL AVE 1 ","YEAR":2008,"DOING_BUSINESS_AS_NAME":"LANDMARK LIQUIDATION","POP_AT_RISK":123914,"BUSINESS_TYPE":"Auctioneer","LEGAL_NAME":"CHARLES MC GARY","LONGITUDE":-87.55146243246787},
{"STATE":"IL","ZIP":60604,"LATTITUDE":41.877146786216336,"ADDRESS":"343 S DEARBORN ST # 101","YEAR":2008,"DOING_BUSINESS_AS_NAME":"NATIONAL AUCTIONEERS, INC.","POP_AT_RISK":43864,"BUSINESS_TYPE":"Auctioneer","LEGAL_NAME":"RICHARD M STONE","LONGITUDE":-87.62912123316899},
{"STATE":"IL","ZIP":60630,"LATTITUDE":41.96197811574563,"ADDRESS":"4451 N MILWAUKEE AVE  ","YEAR":2008,"DOING_BUSINESS_AS_NAME":"RPN SALES, INC.","POP_AT_RISK":311654,"BUSINESS_TYPE":"Auctioneer","LEGAL_NAME":"RPN SALES, INC.","LONGITUDE":-87.75546999252441},
{"STATE":"IL","ZIP":60641,"LATTITUDE":41.95068670964944,"ADDRESS":"3825 N LOWELL AVE  ","YEAR":2008,"DOING_BUSINESS_AS_NAME":"ACE AUCTIONEERS INC","POP_AT_RISK":295504,"BUSINESS_TYPE":"Auctioneer","LEGAL_NAME":"JEFFREY P. BROWN","LONGITUDE":-87.73656877393208},
{"STATE":"IL","ZIP":60642,"LATTITUDE":41.890046320303476,"ADDRESS":"1440-1444 W HUBBARD ST  ","YEAR":2008,"DOING_BUSINESS_AS_NAME":"RICHARD B. WRIGHT","POP_AT_RISK":157940,"BUSINESS_TYPE":"Auctioneer","LEGAL_NAME":"RICHARD B. WRIGHT","LONGITUDE":-87.66392643896644},
{"STATE":"AZ","ZIP":85019,"LATTITUDE":41.95608883779823,"ADDRESS":"4111 W CLARENDON AVE  ","YEAR":2008,"DOING_BUSINESS_AS_NAME":"SURPLUS ASSET MANAGEMENT AUCTIONS","POP_AT_RISK":799425,"BUSINESS_TYPE":"Auctioneer","LEGAL_NAME":"SURPLUSASSET MANAGEMENT, INC.","LONGITUDE":-87.64959878355185},
{"STATE":"IL","ZIP":60607,"LATTITUDE":41.88556013585026,"ADDRESS":"1338 W LAKE ST 1 & 2 ","YEAR":2008,"DOING_BUSINESS_AS_NAME":"LESLIE HINDMAN AUCTIONEERS, INC.","POP_AT_RISK":32562,"BUSINESS_TYPE":"Auctioneer","LEGAL_NAME":"LESLIE HINDMAN AUCTIONEERS, INC.","LONGITUDE":-87.66044080032434},
{"STATE":"IL","ZIP":60611,"LATTITUDE":41.89096572790968,"ADDRESS":"435 E ILLINOIS ST 1 160","YEAR":2008,"DOING_BUSINESS_AS_NAME":"KENSINGTONS WINE AUCTIONEERS & BROKERS, INC.","POP_AT_RISK":94416,"BUSINESS_TYPE":"Auctioneer","LEGAL_NAME":"KENSINGTONS WINE AUCTIONEERS & BROKERS, INC.","LONGITUDE":-87.61634772811743},
}