{
{"STATE":"IL","ZIP":60617,"LATTITUDE":41.70630204741836,"ADDRESS":"10400 S AVENUE L   ","YEAR":2011,"DOING_BUSINESS_AS_NAME":"ISAI F. PAGAZA","POP_AT_RISK":21953,"BUSINESS_TYPE":"Mobile Frozen Desserts Dispenser - Non-Motorized","LEGAL_NAME":"ISAI F. PAGAZA","LONGITUDE":-87.5366401357901},
{"STATE":"IL","ZIP":60601,"LATTITUDE":41.885862105115756,"ADDRESS":"30 E LAKE ST BSMT ","YEAR":2011,"DOING_BUSINESS_AS_NAME":"M.H.R.,L.L.C.","POP_AT_RISK":918554,"BUSINESS_TYPE":"Mobile Frozen Desserts Dispenser - Non-Motorized","LEGAL_NAME":"M.H.R., L.L.C.","LONGITUDE":-87.62685864521356},
{"STATE":"IL","ZIP":60637,"LATTITUDE":41.77951299434515,"ADDRESS":"6324 S EBERHART AVE 1 ","YEAR":2011,"DOING_BUSINESS_AS_NAME":"BEE'S ICE CREAM","POP_AT_RISK":638571,"BUSINESS_TYPE":"Mobile Frozen Desserts Dispenser - Non-Motorized","LEGAL_NAME":"ALBERTA GOODSON","LONGITUDE":-87.613336813933},
{"STATE":"IL","ZIP":60622,"LATTITUDE":41.9032749816711,"ADDRESS":"2034 W DIVISION ST  ","YEAR":2011,"DOING_BUSINESS_AS_NAME":"CAFFE GELATO","POP_AT_RISK":270204,"BUSINESS_TYPE":"Mobile Frozen Desserts Dispenser - Non-Motorized","LEGAL_NAME":"JOHN A CASTELLI","LONGITUDE":-87.67867197653136},
{"STATE":"IL","ZIP":60607,"LATTITUDE":41.8833893755981,"ADDRESS":"111 N CARPENTER ST 1ST ","YEAR":2011,"DOING_BUSINESS_AS_NAME":"LA SARDINE, INC.","POP_AT_RISK":167795,"BUSINESS_TYPE":"Mobile Frozen Desserts Dispenser - Non-Motorized","LEGAL_NAME":"LA SARDINE, INC.","LONGITUDE":-87.65309789811378},
{"STATE":"IL","ZIP":60620,"LATTITUDE":41.74784955544534,"ADDRESS":"8026 S RACINE AVE  ","YEAR":2011,"DOING_BUSINESS_AS_NAME":"DUJUAN A MORGAN, SR.","POP_AT_RISK":738705,"BUSINESS_TYPE":"Mobile Frozen Desserts Dispenser - Non-Motorized","LEGAL_NAME":"DUJUAN A MORGAN, SR.","LONGITUDE":-87.65381275340782},
{"STATE":"IL","ZIP":60622,"LATTITUDE":41.89768855433332,"ADDRESS":"859 N DAMEN AVE 1 1","YEAR":2011,"DOING_BUSINESS_AS_NAME":"BLACK DOG GELATO","POP_AT_RISK":64526,"BUSINESS_TYPE":"Mobile Frozen Desserts Dispenser - Non-Motorized","LEGAL_NAME":"BLACK DOG GELATO, LLC","LONGITUDE":-87.67695627466466},
{"STATE":"IL","ZIP":60644,"LATTITUDE":41.86923620697448,"ADDRESS":"4825 W ARTHINGTON ST 1 ","YEAR":2011,"DOING_BUSINESS_AS_NAME":"Catered Goods","POP_AT_RISK":439164,"BUSINESS_TYPE":"Mobile Frozen Desserts Dispenser - Non-Motorized","LEGAL_NAME":"LaTondria K Glasper-Pickett","LONGITUDE":-87.74589271238392},
}