{
{"STATE":"IL","ZIP":60629,"LATTITUDE":41.78997318461856,"ADDRESS":"5646 S KARLOV AVE  ","YEAR":2014,"DOING_BUSINESS_AS_NAME":"ST TURIIBIUS","POP_AT_RISK":39281,"BUSINESS_TYPE":"Raffles","LEGAL_NAME":"ST TURIBIUS","LONGITUDE":-87.72567036677381},
{"STATE":"IL","ZIP":60655,"LATTITUDE":41.68968408623634,"ADDRESS":"2445 W 112TH ST  ","YEAR":2014,"DOING_BUSINESS_AS_NAME":"St. Cajetan Church","POP_AT_RISK":21672,"BUSINESS_TYPE":"Raffles","LEGAL_NAME":"ST CAJETAN SCHOOL","LONGITUDE":-87.68297685867329},
{"STATE":"IL","ZIP":60631,"LATTITUDE":41.995875469571075,"ADDRESS":"6323 N NEWCASTLE AVE  ","YEAR":2014,"DOING_BUSINESS_AS_NAME":"ST THECLA SCHOOL","POP_AT_RISK":18239,"BUSINESS_TYPE":"Raffles","LEGAL_NAME":"ST. THECLA SCHOOL","LONGITUDE":-87.79675620156237},
{"STATE":"IL","ZIP":60624,"LATTITUDE":41.88155532905958,"ADDRESS":"25 N KARLOV AVE  ","YEAR":2014,"DOING_BUSINESS_AS_NAME":"OFF THE STREET CLUB","POP_AT_RISK":87270,"BUSINESS_TYPE":"Raffles","LEGAL_NAME":"OFF THE STREET CLUB","LONGITUDE":-87.72799763622172},
{"STATE":"IL","ZIP":60621,"LATTITUDE":41.79380108969137,"ADDRESS":"843 W GARFIELD BLVD  ","YEAR":2014,"DOING_BUSINESS_AS_NAME":"ST BASIL VISITATION","POP_AT_RISK":355641,"BUSINESS_TYPE":"Raffles","LEGAL_NAME":"ST BASIL VISITATION","LONGITUDE":-87.64688314723936},
{"STATE":"IL","ZIP":60634,"LATTITUDE":41.94528537982695,"ADDRESS":"6949 W ADDISON ST  ","YEAR":2014,"DOING_BUSINESS_AS_NAME":"ST. PRISCILLA PARISH","POP_AT_RISK":148140,"BUSINESS_TYPE":"Raffles","LEGAL_NAME":"ST PRISCILLA PARISH","LONGITUDE":-87.80026504673488},
{"STATE":"IL","ZIP":60645,"LATTITUDE":42.012645483031356,"ADDRESS":"7200 N ROGERS AVE 1 ","YEAR":2014,"DOING_BUSINESS_AS_NAME":"Fifth House Ensemble","POP_AT_RISK":80310,"BUSINESS_TYPE":"Raffles","LEGAL_NAME":"Fifth House Ensemble","LONGITUDE":-87.68265297879493},
{"STATE":"IL","ZIP":60655,"LATTITUDE":41.69311327967713,"ADDRESS":"11005 S HOMAN AVE  ","YEAR":2014,"DOING_BUSINESS_AS_NAME":"ST. CHRISTINA PARISH","POP_AT_RISK":50040,"BUSINESS_TYPE":"Raffles","LEGAL_NAME":"ST CHRISTINA  PARISH","LONGITUDE":-87.70568309627774},
{"STATE":"IL","ZIP":60655,"LATTITUDE":41.707095139256595,"ADDRESS":"10234 S WASHTENAW AVE 1 1","YEAR":2014,"DOING_BUSINESS_AS_NAME":"ST. JOHN FISHER PARISH","POP_AT_RISK":40760,"BUSINESS_TYPE":"Raffles","LEGAL_NAME":"ARCHBISHOP OF CHICAGO","LONGITUDE":-87.68919165273631},
{"STATE":"IL","ZIP":60638,"LATTITUDE":41.80530932943512,"ADDRESS":"4810 S LEAMINGTON AVE  ","YEAR":2014,"DOING_BUSINESS_AS_NAME":"OUR LADY OF THE SNOWS","POP_AT_RISK":13441,"BUSINESS_TYPE":"Raffles","LEGAL_NAME":"OUR LADY OF THE SNOWS","LONGITUDE":-87.75180113361945},
{"STATE":"IL","ZIP":60643,"LATTITUDE":41.67970968590551,"ADDRESS":"11741 S WESTERN AVE  ","YEAR":2014,"DOING_BUSINESS_AS_NAME":"ST WALTER PARISH \/ SCHOOL","POP_AT_RISK":38986,"BUSINESS_TYPE":"Raffles","LEGAL_NAME":"ARCHDIOCESE OF CHICAGO","LONGITUDE":-87.68062959916783},
{"STATE":"IL","ZIP":60624,"LATTITUDE":41.86988498075887,"ADDRESS":"3415 W ARTHINGTON ST 1 1","YEAR":2014,"DOING_BUSINESS_AS_NAME":"HOLY FAMILY MINISTRIES","POP_AT_RISK":162612,"BUSINESS_TYPE":"Raffles","LEGAL_NAME":"HOLY FAMILY MINISTRIES","LONGITUDE":-87.7113088987269},
{"STATE":"IL","ZIP":60632,"LATTITUDE":41.79428213245287,"ADDRESS":"5443 S WASHTENAW AVE  ","YEAR":2014,"DOING_BUSINESS_AS_NAME":"ST. CLARE OF MONTEFALCO","POP_AT_RISK":123254,"BUSINESS_TYPE":"Raffles","LEGAL_NAME":"ST CLARE OF MONTEFALCO","LONGITUDE":-87.6912291373003},
{"STATE":"IL","ZIP":60634,"LATTITUDE":41.93858857157271,"ADDRESS":"5900 W BELMONT AVE  ","YEAR":2014,"DOING_BUSINESS_AS_NAME":"ST. PATRICK HIGH SCHOOL","POP_AT_RISK":163920,"BUSINESS_TYPE":"Raffles","LEGAL_NAME":"ST PATRICK HIGH SCHOOL","LONGITUDE":-87.77384909269432},
{"STATE":"IL","ZIP":60638,"LATTITUDE":41.7804764713413,"ADDRESS":"6135 S AUSTIN AVE  ","YEAR":2014,"DOING_BUSINESS_AS_NAME":"ST. SYMPHOROSA SCHOOL","POP_AT_RISK":31564,"BUSINESS_TYPE":"Raffles","LEGAL_NAME":"SAINT SYMPHOROSA SCHOOL","LONGITUDE":-87.77144779252228},
{"STATE":"IL","ZIP":60655,"LATTITUDE":41.70612377529006,"ADDRESS":"3700 W 103RD ST  ","YEAR":2014,"DOING_BUSINESS_AS_NAME":"SAINT XAVIER UNIVERSITY","POP_AT_RISK":31083,"BUSINESS_TYPE":"Raffles","LEGAL_NAME":"SAINT XAVIER UNIVERSITY","LONGITUDE":-87.71369359633356},
{"STATE":"IL","ZIP":60643,"LATTITUDE":41.714885180929684,"ADDRESS":"9833 S THROOP ST FIRST ","YEAR":2014,"DOING_BUSINESS_AS_NAME":"St. Margaret of Scotland","POP_AT_RISK":281106,"BUSINESS_TYPE":"Raffles","LEGAL_NAME":"ST MARGARET OF SCOTLAND","LONGITUDE":-87.65505957489803},
{"STATE":"IL","ZIP":60608,"LATTITUDE":41.84722223077455,"ADDRESS":"2434 S CALIFORNIA AVE  ","YEAR":2014,"DOING_BUSINESS_AS_NAME":"ASSUMPTION BVM CHURCH","POP_AT_RISK":606910,"BUSINESS_TYPE":"Raffles","LEGAL_NAME":"ASSUMPTION B.V.M. CHURCH","LONGITUDE":-87.69545910627433},
{"STATE":"IL","ZIP":60616,"LATTITUDE":41.835282155235944,"ADDRESS":"3241 S MICHIGAN AVE  1ST","YEAR":2014,"DOING_BUSINESS_AS_NAME":"ILL COLLEGE OF OPTOMETRY","POP_AT_RISK":31448,"BUSINESS_TYPE":"Raffles","LEGAL_NAME":"ILL COLLEGE OF OPTOMETRY","LONGITUDE":-87.62320119675837},
{"STATE":"IL","ZIP":60609,"LATTITUDE":41.82702833680521,"ADDRESS":"653 W 37TH ST  ","YEAR":2014,"DOING_BUSINESS_AS_NAME":"NATIVITY OF OUR LORD CHU","POP_AT_RISK":28235,"BUSINESS_TYPE":"Raffles","LEGAL_NAME":"NATIVITY OF OUR LORD CHU","LONGITUDE":-87.64325887171155},
{"STATE":"IL","ZIP":60629,"LATTITUDE":41.780471717777914,"ADDRESS":"3721 W 62ND ST  ","YEAR":2014,"DOING_BUSINESS_AS_NAME":"ST NICHOLAS OF TOLENTINE","POP_AT_RISK":289785,"BUSINESS_TYPE":"Raffles","LEGAL_NAME":"ST NICHOLAS OF TOLENTINE","LONGITUDE":-87.71633291158312},
{"STATE":"IL","ZIP":60608,"LATTITUDE":41.84220833897254,"ADDRESS":"2859 S THROOP ST  ","YEAR":2014,"DOING_BUSINESS_AS_NAME":"SAINT BARBARA PARISH","POP_AT_RISK":75646,"BUSINESS_TYPE":"Raffles","LEGAL_NAME":"SAINT BARBARA PARISH BINGO","LONGITUDE":-87.65285080095492},
{"STATE":"IL","ZIP":60615,"LATTITUDE":41.8062437143429,"ADDRESS":"4851 S DREXEL BLVD  ","YEAR":2014,"DOING_BUSINESS_AS_NAME":"CROATIAN SCHOOL OF AMERICA","POP_AT_RISK":380178,"BUSINESS_TYPE":"Raffles","LEGAL_NAME":"CROATIAN SCHOOLS OF AMERICA","LONGITUDE":-87.60367979631124},
{"STATE":"IL","ZIP":60646,"LATTITUDE":41.99946016477578,"ADDRESS":"6525 N HIAWATHA AVE 1 ","YEAR":2014,"DOING_BUSINESS_AS_NAME":"EDGEBROOK SCHOOL FOUNDATION","POP_AT_RISK":35912,"BUSINESS_TYPE":"Raffles","LEGAL_NAME":"EDGEBROOK SCHOOL FOUNDATION","LONGITUDE":-87.7618211032257},
{"STATE":"IL","ZIP":60653,"LATTITUDE":41.82779592823685,"ADDRESS":"3663 S WABASH AVE 3 ","YEAR":2014,"DOING_BUSINESS_AS_NAME":"PERSPECTIVES CHARTER SCHOOL","POP_AT_RISK":29963,"BUSINESS_TYPE":"Raffles","LEGAL_NAME":"PERSPECTIVES CHARTER SCHOOL","LONGITUDE":-87.62475128513913},
{"STATE":"IL","ZIP":60641,"LATTITUDE":41.950828263646116,"ADDRESS":"3834 N CICERO AVE 1ST ","YEAR":2014,"DOING_BUSINESS_AS_NAME":"POLISH AMERICAN ASSOCIATION","POP_AT_RISK":48558,"BUSINESS_TYPE":"Raffles","LEGAL_NAME":"POLISH AMERICAN ASSOCIATION","LONGITUDE":-87.74738955902447},
{"STATE":"IL","ZIP":60615,"LATTITUDE":41.79689922743375,"ADDRESS":"5350 S PRAIRIE AVE  ","YEAR":2014,"DOING_BUSINESS_AS_NAME":"CHICAGO YOUTH PROGRAMS, INC","POP_AT_RISK":26067,"BUSINESS_TYPE":"Raffles","LEGAL_NAME":"CHICAGO YOUTH PROGRAMS, INC.","LONGITUDE":-87.61942662495818},
{"STATE":"IL","ZIP":60609,"LATTITUDE":41.8256899992983,"ADDRESS":"3737 S PAULINA ST 1ST ","YEAR":2014,"DOING_BUSINESS_AS_NAME":"NAMASTE CHARTER SCHOOL, INC.","POP_AT_RISK":148380,"BUSINESS_TYPE":"Raffles","LEGAL_NAME":"NAMASTE CHARTER SCHOOL, INC.","LONGITUDE":-87.6676870023875},
{"STATE":"IL","ZIP":60630,"LATTITUDE":41.96917723324579,"ADDRESS":"4855 N ELSTON AVE 1ST ","YEAR":2014,"DOING_BUSINESS_AS_NAME":"SLOVAK AMER. SOKOL LODGE 306","POP_AT_RISK":45900,"BUSINESS_TYPE":"Raffles","LEGAL_NAME":"SLOVAK AMERICAN SOKOL KRIVAN","LONGITUDE":-87.74166451054992},
{"STATE":"IL","ZIP":60632,"LATTITUDE":41.799313736534394,"ADDRESS":"5157 S CALIFORNIA AVE  ","YEAR":2014,"DOING_BUSINESS_AS_NAME":"ST. SIMON THE APOSTLE CHURCH","POP_AT_RISK":54629,"BUSINESS_TYPE":"Raffles","LEGAL_NAME":"ST. SIMON THE APOSTLE CHRUCH","LONGITUDE":-87.6938087219452},
{"STATE":"IL","ZIP":60659,"LATTITUDE":41.99777504688853,"ADDRESS":"2534 W DEVON AVE 2 ","YEAR":2014,"DOING_BUSINESS_AS_NAME":"MIDWEST ASIAN AMERICAN CENTER","POP_AT_RISK":122602,"BUSINESS_TYPE":"Raffles","LEGAL_NAME":"MIDWEST ASIAN AMERICAN CENTER","LONGITUDE":-87.69369214246649},
{"STATE":"IL","ZIP":60638,"LATTITUDE":41.79586265022726,"ADDRESS":"5300 S NATOMA AVE 1ST ","YEAR":2014,"DOING_BUSINESS_AS_NAME":"ST. DANIEL THE PROPHET CHURCH","POP_AT_RISK":52850,"BUSINESS_TYPE":"Raffles","LEGAL_NAME":"ST. DANIEL THE PROPHET CHURCH","LONGITUDE":-87.78816407940643},
{"STATE":"IL","ZIP":60639,"LATTITUDE":41.91595538076389,"ADDRESS":"1921 N KEDVALE AVE  ","YEAR":2014,"DOING_BUSINESS_AS_NAME":"ST PHILOMENA CHURCH","POP_AT_RISK":386922,"BUSINESS_TYPE":"Raffles","LEGAL_NAME":"ST. PHILOMENA CATHOLIC CHURCH","LONGITUDE":-87.73003588302274},
{"STATE":"IL","ZIP":60655,"LATTITUDE":41.71125823220511,"ADDRESS":"10001 S PULASKI RD  ","YEAR":2014,"DOING_BUSINESS_AS_NAME":"BROTHER RICE HIGH SCHOOL","POP_AT_RISK":47552,"BUSINESS_TYPE":"Raffles","LEGAL_NAME":"BROTHER RICE HIGH SCHOOL, INC.","LONGITUDE":-87.72093947340284},
{"STATE":"IL","ZIP":60620,"LATTITUDE":41.7417050755653,"ADDRESS":"41 W 84TH ST 1ST ","YEAR":2014,"DOING_BUSINESS_AS_NAME":"CHICAGO FOOTBALL CLASSIC","POP_AT_RISK":367499,"BUSINESS_TYPE":"Raffles","LEGAL_NAME":"CHICAGO FOOTBALL CLASSIC, INC.","LONGITUDE":-87.62597631099247},
{"STATE":"IL","ZIP":60637,"LATTITUDE":41.79253620872735,"ADDRESS":"1701 E 57TH DR  ","YEAR":2014,"DOING_BUSINESS_AS_NAME":"MUSEUM OF SCIENCE AND INDUSTRY","POP_AT_RISK":170625,"BUSINESS_TYPE":"Raffles","LEGAL_NAME":"MUSEUM OF SCIENCE AND INDUSTRY","LONGITUDE":-87.58379120622547},
{"STATE":"IL","ZIP":60639,"LATTITUDE":41.92233137131519,"ADDRESS":"5352 W BELDEN AVE  ","YEAR":2014,"DOING_BUSINESS_AS_NAME":"ST. STANISLAUS BISHOP & MARTYR","POP_AT_RISK":592200,"BUSINESS_TYPE":"Raffles","LEGAL_NAME":"ST. STANISLAUS BISHOP & MARTYR","LONGITUDE":-87.76071250983351},
{"STATE":"IL","ZIP":60617,"LATTITUDE":41.73693992180307,"ADDRESS":"8708 S COLFAX AVE  ","YEAR":2014,"DOING_BUSINESS_AS_NAME":"ST. BRONISLAVA","POP_AT_RISK":164108,"BUSINESS_TYPE":"Raffles","LEGAL_NAME":"THE CATHOLIC BISHOP OF CHICAGO","LONGITUDE":-87.56129735249945},
{"STATE":"IL","ZIP":60652,"LATTITUDE":41.74337687361192,"ADDRESS":"8200 S KOSTNER AVE  ","YEAR":2014,"DOING_BUSINESS_AS_NAME":"ST. BEDE THE VENERABLE CHURCH","POP_AT_RISK":130260,"BUSINESS_TYPE":"Raffles","LEGAL_NAME":"THE CATHOLIC BISHOP OF CHICAGO","LONGITUDE":-87.73157248582065},
{"STATE":"IL","ZIP":60638,"LATTITUDE":41.796497571691084,"ADDRESS":"5252 S AUSTIN AVE  ","YEAR":2014,"DOING_BUSINESS_AS_NAME":"ST JANE DE CHANTAL","POP_AT_RISK":23021,"BUSINESS_TYPE":"Raffles","LEGAL_NAME":"CATHOLIC ARCHDIOCESE OF CHICAGO","LONGITUDE":-87.77232894377225},
{"STATE":"IL","ZIP":60632,"LATTITUDE":41.816437469635666,"ADDRESS":"4100 W ANN LURIE PL  ","YEAR":2014,"DOING_BUSINESS_AS_NAME":"GREATER CHICAGO FOOD DEPOSITORY","POP_AT_RISK":21859,"BUSINESS_TYPE":"Raffles","LEGAL_NAME":"GREATER CHICAGO FOOD DEPOSITORY","LONGITUDE":-87.72631747788576},
{"STATE":"IL","ZIP":60622,"LATTITUDE":41.89911060064597,"ADDRESS":"3059 W AUGUSTA BLVD  ","YEAR":2014,"DOING_BUSINESS_AS_NAME":"The Children's Place Association","POP_AT_RISK":52288,"BUSINESS_TYPE":"Raffles","LEGAL_NAME":"THE CHILDREN'S PLACE ASSOCIATION","LONGITUDE":-87.70400352669111},
{"STATE":"IL","ZIP":60647,"LATTITUDE":41.92471241419424,"ADDRESS":"3600 W FULLERTON AVE  ","YEAR":2014,"DOING_BUSINESS_AS_NAME":"INFANT WELFARE SOCIETY OF CHICAGO","POP_AT_RISK":401460,"BUSINESS_TYPE":"Raffles","LEGAL_NAME":"INFANT WELFARE SOCIETY OF CHICAGO","LONGITUDE":-87.71705735148927},
{"STATE":"IL","ZIP":60647,"LATTITUDE":41.91037915128514,"ADDRESS":"2550 W NORTH AVE 2ND ","YEAR":2014,"DOING_BUSINESS_AS_NAME":"BICKERDIKE REDEVELOPMENT","POP_AT_RISK":155500,"BUSINESS_TYPE":"Raffles","LEGAL_NAME":"BICKERDIKE REDEVELOPMENT CORPORATION","LONGITUDE":-87.69174152562137},
{"STATE":"IL","ZIP":60617,"LATTITUDE":41.68367367692472,"ADDRESS":"11630 S AVENUE G   ","YEAR":2014,"DOING_BUSINESS_AS_NAME":"HEGEWISCH GIRLS SOFTBALL LEAGUE","POP_AT_RISK":13690,"BUSINESS_TYPE":"Raffles","LEGAL_NAME":"HEGEWISCH GIRLS SOFTBALL LEAGUE, INC.","LONGITUDE":-87.53178192953347},
{"STATE":"IL","ZIP":60625,"LATTITUDE":41.96219065391025,"ADDRESS":"4432 N TROY ST  ","YEAR":2014,"DOING_BUSINESS_AS_NAME":"OUR LADY OF MERCY","POP_AT_RISK":241677,"BUSINESS_TYPE":"Raffles","LEGAL_NAME":"CATHOLIC CHURCH ARCHDIOCESE OF CHICAGO","LONGITUDE":-87.7072035366742},
{"STATE":"IL","ZIP":60628,"LATTITUDE":41.7089353145827,"ADDRESS":"10205 S DR MARTIN LUTHER KING JR DR  ","YEAR":2014,"DOING_BUSINESS_AS_NAME":"ST JOHN DE LA SALLE CATHOLIC CHURCH","POP_AT_RISK":217080,"BUSINESS_TYPE":"Raffles","LEGAL_NAME":"CATHOLIC CHURCH ARCHDIOCESE OF CHICAGO","LONGITUDE":-87.61366191266802},
{"STATE":"IL","ZIP":60637,"LATTITUDE":41.78535881138583,"ADDRESS":"6020 S UNIVERSITY AVE  ","YEAR":2014,"DOING_BUSINESS_AS_NAME":"THE YOUNG CENTER FOR IMMIGRANT CHILDREN'S RIGHTS","POP_AT_RISK":37638,"BUSINESS_TYPE":"Raffles","LEGAL_NAME":"THE YOUNG CENTER FOR IMMIGRANT CHILDREN'S RIGHTS","LONGITUDE":-87.59807988064944},
{"STATE":"IL","ZIP":60646,"LATTITUDE":42.00834548005445,"ADDRESS":"7033 N MOSELLE AVE FIRST ","YEAR":2014,"DOING_BUSINESS_AS_NAME":"ST MARY OF THE WOODS","POP_AT_RISK":21506,"BUSINESS_TYPE":"Raffles","LEGAL_NAME":"CATHOLIC BISHOP OF CHICAGO dba ST MARY OF THE WOODS PARISH","LONGITUDE":-87.77703900020178},
{"STATE":"IL","ZIP":60631,"LATTITUDE":42.001722228116996,"ADDRESS":"6643 N NORTHWEST HWY 2ND ","YEAR":2014,"DOING_BUSINESS_AS_NAME":"Polish Women's Alliance of America Charitable & Educational Foundation","POP_AT_RISK":56754,"BUSINESS_TYPE":"Raffles","LEGAL_NAME":"Polish Women's Alliance Charitable & Educational Foundation","LONGITUDE":-87.81425769376716},
{"STATE":"IL","ZIP":60632,"LATTITUDE":41.81472363423928,"ADDRESS":"4325 S RICHMOND ST 1ST ","YEAR":2014,"DOING_BUSINESS_AS_NAME":"CATHOLIC BISHOP OF CHICAGO\/POPE JOHN PAUL II CATHOLIC SCHOOL","POP_AT_RISK":331093,"BUSINESS_TYPE":"Raffles","LEGAL_NAME":"Catholic Bishop of Chicago\/Pope John Paul II Catholic School","LONGITUDE":-87.69794253337163},
{"STATE":"IL","ZIP":60633,"LATTITUDE":41.652953675006444,"ADDRESS":"13323 S GREEN BAY AVE  ","YEAR":2014,"DOING_BUSINESS_AS_NAME":"ST COLUMBA PARISH COUNCIL RAFFLE","POP_AT_RISK":21668,"BUSINESS_TYPE":"Raffles","LEGAL_NAME":"ST COLUMBA PARISH SCHOOL BOARDARCHDIOCESE OF CHICAGO-ST COLUMBA","LONGITUDE":-87.54095862410118},
{"STATE":"IL","ZIP":60631,"LATTITUDE":41.98121020982407,"ADDRESS":"8430 W BRYN MAWR AVE 8 800","YEAR":2014,"DOING_BUSINESS_AS_NAME":"ALZHEIMER'S DISEASE AND RELATED DISORDERS ASSOCIATION, GREATER ILLINOIS CHAPTER","POP_AT_RISK":26948,"BUSINESS_TYPE":"Raffles","LEGAL_NAME":"ALZHEIMER'S DISEASE AND RELATED DISORDERS ASSOCIATION, GREATER ILLINOIS CHAPTER","LONGITUDE":-87.83801331542305},
}