{
{"STATE":"IL","ZIP":60655,"LATTITUDE":41.68968408623634,"ADDRESS":"2445 W 112TH ST  ","YEAR":2015,"DOING_BUSINESS_AS_NAME":"St. Cajetan Church","POP_AT_RISK":130032,"BUSINESS_TYPE":"Raffles","LEGAL_NAME":"ST CAJETAN SCHOOL","LONGITUDE":-87.68297685867329},
{"STATE":"IL","ZIP":60657,"LATTITUDE":41.935375129206825,"ADDRESS":"2936 N SOUTHPORT AVE 2 ","YEAR":2015,"DOING_BUSINESS_AS_NAME":"CHICAGO A CAPPELLA","POP_AT_RISK":368360,"BUSINESS_TYPE":"Raffles","LEGAL_NAME":"CHICAGO A CAPPELLA","LONGITUDE":-87.6638086663031},
{"STATE":"IL","ZIP":60657,"LATTITUDE":41.939713343725145,"ADDRESS":"1225 W BELMONT AVE 1 ","YEAR":2015,"DOING_BUSINESS_AS_NAME":"STAGE 773","POP_AT_RISK":320316,"BUSINESS_TYPE":"Raffles","LEGAL_NAME":"LUKABA PRODUCTIONS","LONGITUDE":-87.65998560081745},
{"STATE":"IL","ZIP":60642,"LATTITUDE":41.89712040445089,"ADDRESS":"825 N CARPENTER ST  ","YEAR":2015,"DOING_BUSINESS_AS_NAME":"THE AMDG FOUNDATION","POP_AT_RISK":396304,"BUSINESS_TYPE":"Raffles","LEGAL_NAME":"THE AMDG FOUNDATION","LONGITUDE":-87.6534858888027},
{"STATE":"IL","ZIP":60655,"LATTITUDE":41.69311327967713,"ADDRESS":"11005 S HOMAN AVE  ","YEAR":2015,"DOING_BUSINESS_AS_NAME":"ST. CHRISTINA PARISH","POP_AT_RISK":50040,"BUSINESS_TYPE":"Raffles","LEGAL_NAME":"ST CHRISTINA  PARISH","LONGITUDE":-87.70568309627774},
{"STATE":"IL","ZIP":60655,"LATTITUDE":41.70612377529006,"ADDRESS":"3700 W 103RD ST  ","YEAR":2015,"DOING_BUSINESS_AS_NAME":"SAINT XAVIER UNIVERSITY","POP_AT_RISK":62166,"BUSINESS_TYPE":"Raffles","LEGAL_NAME":"SAINT XAVIER UNIVERSITY","LONGITUDE":-87.71369359633356},
{"STATE":"IL","ZIP":60638,"LATTITUDE":41.79383273292883,"ADDRESS":"5426 S LOCKWOOD AVE  ","YEAR":2015,"DOING_BUSINESS_AS_NAME":"ST.CAMILLUS PARICH","POP_AT_RISK":97745,"BUSINESS_TYPE":"Raffles","LEGAL_NAME":"CATHOLIC BISHOPS OF CHICAGO","LONGITUDE":-87.75514988901513},
{"STATE":"IL","ZIP":60613,"LATTITUDE":41.958596113079565,"ADDRESS":"800 W BUENA AVE 1 ","YEAR":2015,"DOING_BUSINESS_AS_NAME":"SMART LOVE PARENTING CENTER","POP_AT_RISK":523440,"BUSINESS_TYPE":"Raffles","LEGAL_NAME":"SMART LOVE PARENTING CENTER","LONGITUDE":-87.64989539011405},
{"STATE":"IL","ZIP":60659,"LATTITUDE":41.99777504688853,"ADDRESS":"2534 W DEVON AVE 2 ","YEAR":2015,"DOING_BUSINESS_AS_NAME":"MIDWEST ASIAN AMERICAN CENTER","POP_AT_RISK":735612,"BUSINESS_TYPE":"Raffles","LEGAL_NAME":"MIDWEST ASIAN AMERICAN CENTER","LONGITUDE":-87.69369214246649},
{"STATE":"IL","ZIP":60655,"LATTITUDE":41.71125823220511,"ADDRESS":"10001 S PULASKI RD  ","YEAR":2015,"DOING_BUSINESS_AS_NAME":"BROTHER RICE HIGH SCHOOL","POP_AT_RISK":47552,"BUSINESS_TYPE":"Raffles","LEGAL_NAME":"BROTHER RICE HIGH SCHOOL, INC.","LONGITUDE":-87.72093947340284},
{"STATE":"IL","ZIP":60610,"LATTITUDE":41.907191683607635,"ADDRESS":"1360 N SEDGWICK ST 1 ","YEAR":2015,"DOING_BUSINESS_AS_NAME":"JESSE WHITE TUMBLING TEAM","POP_AT_RISK":336995,"BUSINESS_TYPE":"Raffles","LEGAL_NAME":"JESSE WHITE TUMBLING TEAM, INC.","LONGITUDE":-87.63861826257909},
{"STATE":"IL","ZIP":60604,"LATTITUDE":41.878045653481664,"ADDRESS":"65 W JACKSON BLVD 4TH ","YEAR":2015,"DOING_BUSINESS_AS_NAME":"Chicago Engineers Foundation","POP_AT_RISK":202044,"BUSINESS_TYPE":"Raffles","LEGAL_NAME":"Chicago Engineers Foundation of the Union League Club ","LONGITUDE":-87.6301367989615},
{"STATE":"IL","ZIP":60608,"LATTITUDE":41.86690583756181,"ADDRESS":"1850 W ROOSEVELT RD  ","YEAR":2015,"DOING_BUSINESS_AS_NAME":"Chicago Lighthouse","POP_AT_RISK":460265,"BUSINESS_TYPE":"Raffles","LEGAL_NAME":"THE CHICAGO LIGHTHOUSE FOR PEOPLE WHO ARE BLIND OR VISUALLY IMPAIRED","LONGITUDE":-87.6733159162735},
}