{
{"STATE":"IL","ZIP":60622,"LATTITUDE":41.898344485483754,"ADDRESS":"918 N DAMEN AVE  ","YEAR":2010,"DOING_BUSINESS_AS_NAME":"UKRAINIAN VILLAGE CHILDREN'S CENTER","POP_AT_RISK":130596,"BUSINESS_TYPE":"Children's Activities Facilities","LEGAL_NAME":"SARAH HART BOONE","LONGITUDE":-87.67726912832244},
{"STATE":"IL","ZIP":60642,"LATTITUDE":41.906128794397794,"ADDRESS":"1331 N MILWAUKEE AVE 1ST ","YEAR":2010,"DOING_BUSINESS_AS_NAME":"826CHI","POP_AT_RISK":56968,"BUSINESS_TYPE":"Children's Activities Facilities","LEGAL_NAME":"826CHI, INC., NFP","LONGITUDE":-87.67059338812328},
{"STATE":"IL","ZIP":60618,"LATTITUDE":41.961345165422856,"ADDRESS":"2005 W MONTROSE AVE 1ST ","YEAR":2010,"DOING_BUSINESS_AS_NAME":"INSIDE OUT ART STUDIO","POP_AT_RISK":259100,"BUSINESS_TYPE":"Children's Activities Facilities","LEGAL_NAME":"JEFF M. SEMMERLING","LONGITUDE":-87.67920248761159},
{"STATE":"IL","ZIP":60622,"LATTITUDE":41.890770132136616,"ADDRESS":"1837 W GRAND AVE 1 ","YEAR":2010,"DOING_BUSINESS_AS_NAME":"KID CITY","POP_AT_RISK":176480,"BUSINESS_TYPE":"Children's Activities Facilities","LEGAL_NAME":"KID CITY CHICAGO LLC","LONGITUDE":-87.67350592654243},
{"STATE":"IL","ZIP":60625,"LATTITUDE":41.96677326971058,"ADDRESS":"2314 W LELAND AVE 1 1","YEAR":2010,"DOING_BUSINESS_AS_NAME":"ART IN THE SQUARE","POP_AT_RISK":492891,"BUSINESS_TYPE":"Children's Activities Facilities","LEGAL_NAME":"ART IN THE SQUARE, LLC","LONGITUDE":-87.68804606501851},
{"STATE":"IL","ZIP":60647,"LATTITUDE":41.9162662175807,"ADDRESS":"1911 N MILWAUKEE AVE 1ST ","YEAR":2010,"DOING_BUSINESS_AS_NAME":"EASEL ART STUDIO","POP_AT_RISK":1089955,"BUSINESS_TYPE":"Children's Activities Facilities","LEGAL_NAME":"EASEL ART STUDIO, INC.","LONGITUDE":-87.68633014921797},
{"STATE":"IL","ZIP":60657,"LATTITUDE":41.93388147268545,"ADDRESS":"2864 N LINCOLN AVE  ","YEAR":2010,"DOING_BUSINESS_AS_NAME":"PIED PIPER PARTIES & PLAYSCHOOL","POP_AT_RISK":237516,"BUSINESS_TYPE":"Children's Activities Facilities","LEGAL_NAME":"PIED PIPER PARTIES LLC","LONGITUDE":-87.66077309643254},
{"STATE":"IL","ZIP":60634,"LATTITUDE":41.95687428646395,"ADDRESS":"4200 N CENTRAL AVE 1ST ","YEAR":2010,"DOING_BUSINESS_AS_NAME":"ABC DANCE ACADEMY","POP_AT_RISK":295278,"BUSINESS_TYPE":"Children's Activities Facilities","LEGAL_NAME":"ABC DANCE ACADEMY, INC.","LONGITUDE":-87.76727186013788},
{"STATE":"IL","ZIP":60614,"LATTITUDE":41.923531877887704,"ADDRESS":"2260-62 N CLARK ST 1ST ","YEAR":2010,"DOING_BUSINESS_AS_NAME":"JUMP AHEAD ACADEMY, LLC","POP_AT_RISK":733656,"BUSINESS_TYPE":"Children's Activities Facilities","LEGAL_NAME":"JUMP AHEAD ACADEMY, LLC","LONGITUDE":-87.63938406779623},
{"STATE":"IL","ZIP":60615,"LATTITUDE":41.795355327310034,"ADDRESS":"1742 E 55TH ST 1ST ","YEAR":2010,"DOING_BUSINESS_AS_NAME":"FITZGERALDS MARTIAL ARTS","POP_AT_RISK":350472,"BUSINESS_TYPE":"Children's Activities Facilities","LEGAL_NAME":"FITZGERALDS MARTIAL ARTS LLC","LONGITUDE":-87.58229940901545},
{"STATE":"IL","ZIP":60618,"LATTITUDE":41.94323077336013,"ADDRESS":"2312 W ROSCOE ST 1ST & 2ND ","YEAR":2010,"DOING_BUSINESS_AS_NAME":"WISHCRAFT","POP_AT_RISK":275034,"BUSINESS_TYPE":"Children's Activities Facilities","LEGAL_NAME":"CANDICE ANNE BLANSETT-CUMMINS","LONGITUDE":-87.68629515259911},
{"STATE":"IL","ZIP":60657,"LATTITUDE":41.93897673019821,"ADDRESS":"3152 N LINCOLN AVE 1ST ","YEAR":2010,"DOING_BUSINESS_AS_NAME":"GYMBOREE PLAY & MUSIC OF CHICAGO","POP_AT_RISK":136656,"BUSINESS_TYPE":"Children's Activities Facilities","LEGAL_NAME":"RAMBLING ROSE ENTERPRISES, INC.","LONGITUDE":-87.66790823115878},
{"STATE":"IL","ZIP":60634,"LATTITUDE":41.93807646873361,"ADDRESS":"7466 W BELMONT AVE 1 ","YEAR":2010,"DOING_BUSINESS_AS_NAME":"FOREVERMORE DANCE & THEATRE ARTS INC.","POP_AT_RISK":423830,"BUSINESS_TYPE":"Children's Activities Facilities","LEGAL_NAME":"FOREVERMORE DANCE & THEATRE ARTS INC.","LONGITUDE":-87.8140155062977},
{"STATE":"IL","ZIP":60643,"LATTITUDE":41.72122649049574,"ADDRESS":"1854-1856 W 95TH ST 1 ","YEAR":2010,"DOING_BUSINESS_AS_NAME":"BEVERLY PAGODA MARTIAL ARTS ACADEMY, INC.","POP_AT_RISK":163002,"BUSINESS_TYPE":"Children's Activities Facilities","LEGAL_NAME":"BEVERLY PAGODA MARTIAL ARTS  ACADEMY, INC.","LONGITUDE":-87.66973103623518},
}