{
{"STATE":"IL","ZIP":60618,"LATTITUDE":41.95847659070517,"ADDRESS":"4237 N HAMLIN AVE  ","YEAR":2009,"DOING_BUSINESS_AS_NAME":"LINDA ALANIS","POP_AT_RISK":130076,"BUSINESS_TYPE":"Residential Real Estate Developer","LEGAL_NAME":"LINDA ALANIS","LONGITUDE":-87.7227064612506},
{"STATE":"IL","ZIP":60655,"LATTITUDE":41.691726074994705,"ADDRESS":"3012 W 111TH ST 1ST FLOOR 1","YEAR":2009,"DOING_BUSINESS_AS_NAME":"MADAVA, INC.","POP_AT_RISK":42786,"BUSINESS_TYPE":"Residential Real Estate Developer","LEGAL_NAME":"MADAVA, INC.","LONGITUDE":-87.69670919858626},
{"STATE":"IL","ZIP":60655,"LATTITUDE":41.71071943804928,"ADDRESS":"10024 S CENTRAL PARK AVE 1ST ","YEAR":2009,"DOING_BUSINESS_AS_NAME":"MERCY CIRCLE","POP_AT_RISK":130935,"BUSINESS_TYPE":"Residential Real Estate Developer","LEGAL_NAME":"MERCY CIRCLE","LONGITUDE":-87.71141795121552},
{"STATE":"IL","ZIP":60523,"LATTITUDE":41.85185570728325,"ADDRESS":"2603 W 22ND ST  22","YEAR":2009,"DOING_BUSINESS_AS_NAME":"1401 STATE LLC","POP_AT_RISK":481302,"BUSINESS_TYPE":"Residential Real Estate Developer","LEGAL_NAME":"1401 STATE LLC","LONGITUDE":-87.69073728136568},
{"STATE":"IL","ZIP":60617,"LATTITUDE":41.727388208446705,"ADDRESS":"9219 S MERRILL AVE 1ST ","YEAR":2009,"DOING_BUSINESS_AS_NAME":"IMRI REALTY","POP_AT_RISK":19126,"BUSINESS_TYPE":"Residential Real Estate Developer","LEGAL_NAME":"BETTY J. BROWN","LONGITUDE":-87.57168640971774},
{"STATE":"IL","ZIP":60644,"LATTITUDE":41.86966815609325,"ADDRESS":"920 S MASON AVE 1 ","YEAR":2009,"DOING_BUSINESS_AS_NAME":"MANGUS DOMUS, LLC","POP_AT_RISK":90340,"BUSINESS_TYPE":"Residential Real Estate Developer","LEGAL_NAME":"MANGUS DOMUS, LLC","LONGITUDE":-87.77320096385512},
{"STATE":"IL","ZIP":60639,"LATTITUDE":41.91314852599623,"ADDRESS":"1753 N TRIPP AVE 1ST ","YEAR":2009,"DOING_BUSINESS_AS_NAME":"RPM VENTURE, INC.","POP_AT_RISK":153927,"BUSINESS_TYPE":"Residential Real Estate Developer","LEGAL_NAME":"RPM VENTURE, INC.","LONGITUDE":-87.73239283318017},
{"STATE":"IL","ZIP":60148,"LATTITUDE":41.85161230694275,"ADDRESS":"865 E 22ND   422","YEAR":2009,"DOING_BUSINESS_AS_NAME":"CITRUS CHICAGO LLC","POP_AT_RISK":43580,"BUSINESS_TYPE":"Residential Real Estate Developer","LEGAL_NAME":"CITRUS CHICAGO LLC","LONGITUDE":-87.6482065861969},
{"STATE":"IL","ZIP":60643,"LATTITUDE":41.69408668145939,"ADDRESS":"2350 W 110TH ST  ","YEAR":2009,"DOING_BUSINESS_AS_NAME":"JACK E CHANINSON REAL ESTATE","POP_AT_RISK":43344,"BUSINESS_TYPE":"Residential Real Estate Developer","LEGAL_NAME":"JACLYN A. THORNTON","LONGITUDE":-87.68063902575948},
{"STATE":"IL","ZIP":60643,"LATTITUDE":41.67759605873797,"ADDRESS":"1700 W 119TH ST 1ST ","YEAR":2009,"DOING_BUSINESS_AS_NAME":"PRIMESTOR 119, LLC","POP_AT_RISK":101816,"BUSINESS_TYPE":"Residential Real Estate Developer","LEGAL_NAME":"PRIMESTOR 119, LLC","LONGITUDE":-87.66419631320602},
{"STATE":"IL","ZIP":60639,"LATTITUDE":41.919082031620384,"ADDRESS":"2141 N MOODY AVE 1 ","YEAR":2009,"DOING_BUSINESS_AS_NAME":"SABIR INVESTORS LP","POP_AT_RISK":41849,"BUSINESS_TYPE":"Residential Real Estate Developer","LEGAL_NAME":"SABIR INVESTORS LP","LONGITUDE":-87.7790619762948},
{"STATE":"IL","ZIP":60631,"LATTITUDE":41.98703322680841,"ADDRESS":"5801 N NORTHWEST HWY  ","YEAR":2009,"DOING_BUSINESS_AS_NAME":"AABY BUILDERS, INC.","POP_AT_RISK":31060,"BUSINESS_TYPE":"Residential Real Estate Developer","LEGAL_NAME":"AABY BUILDERS, INC.","LONGITUDE":-87.78938143174634},
{"STATE":"IL","ZIP":60651,"LATTITUDE":41.90058121225709,"ADDRESS":"4950 W THOMAS ST 1ST ","YEAR":2009,"DOING_BUSINESS_AS_NAME":"BETHEL NEW LIFE INC","POP_AT_RISK":137073,"BUSINESS_TYPE":"Residential Real Estate Developer","LEGAL_NAME":"BETHEL NEW LIFE INC","LONGITUDE":-87.75040561250974},
{"STATE":"IL","ZIP":60634,"LATTITUDE":41.96050154743046,"ADDRESS":"5848 W MONTROSE AVE  ","YEAR":2009,"DOING_BUSINESS_AS_NAME":"5907 W MONTROSE, LLC","POP_AT_RISK":175836,"BUSINESS_TYPE":"Residential Real Estate Developer","LEGAL_NAME":"5907 W MONTROSE, LLC","LONGITUDE":-87.77412366777395},
{"STATE":"IL","ZIP":60712,"LATTITUDE":41.99735554353585,"ADDRESS":"3924 W DEVON   ","YEAR":2009,"DOING_BUSINESS_AS_NAME":"JJJ PROPERTIES","POP_AT_RISK":20014,"BUSINESS_TYPE":"Residential Real Estate Developer","LEGAL_NAME":"JJJ PROPERTIES, INC.","LONGITUDE":-87.727198459791},
{"STATE":"IL","ZIP":60633,"LATTITUDE":41.651701289708825,"ADDRESS":"4000 E 134TH ST 1ST 1ST","YEAR":2009,"DOING_BUSINESS_AS_NAME":"HARBOUR POINT ESTATES","POP_AT_RISK":6628,"BUSINESS_TYPE":"Residential Real Estate Developer","LEGAL_NAME":"HARBOR 4000 EAST, LLC","LONGITUDE":-87.52749194531424},
{"STATE":"IL","ZIP":60609,"LATTITUDE":41.8192314147149,"ADDRESS":"2321 W 41ST ST  ","YEAR":2009,"DOING_BUSINESS_AS_NAME":"PROGRESS CONSTRUCTION","POP_AT_RISK":98120,"BUSINESS_TYPE":"Residential Real Estate Developer","LEGAL_NAME":"PROGRESS CONSTRUCTION","LONGITUDE":-87.68323279806654},
{"STATE":"IL","ZIP":60644,"LATTITUDE":41.892306402598024,"ADDRESS":"640 N PARKSIDE AVE  ","YEAR":2009,"DOING_BUSINESS_AS_NAME":"R. W. INVESTORS, INC.","POP_AT_RISK":118892,"BUSINESS_TYPE":"Residential Real Estate Developer","LEGAL_NAME":"R. W. INVESTORS, INC.","LONGITUDE":-87.76672385994254},
{"STATE":"IL","ZIP":60644,"LATTITUDE":41.86593374037215,"ADDRESS":"5000 W ROOSEVELT RD  101","YEAR":2009,"DOING_BUSINESS_AS_NAME":"BARRON DEVELOPMENT LLC","POP_AT_RISK":146331,"BUSINESS_TYPE":"Residential Real Estate Developer","LEGAL_NAME":"BARRON DEVELOPMENT LLC","LONGITUDE":-87.74970392608358},
{"STATE":"IL","ZIP":60615,"LATTITUDE":41.80747454542918,"ADDRESS":"427 E 48TH ST 2ND 2","YEAR":2009,"DOING_BUSINESS_AS_NAME":"CLICK DEVELOPMENT, LLC","POP_AT_RISK":37097,"BUSINESS_TYPE":"Residential Real Estate Developer","LEGAL_NAME":"CLICK DEVELOPMENT, LLC","LONGITUDE":-87.61517690630338},
{"STATE":"IL","ZIP":60624,"LATTITUDE":41.87908916693586,"ADDRESS":"120 S HAMLIN BLVD 1 ","YEAR":2009,"DOING_BUSINESS_AS_NAME":"L&R DEVELOPERS","POP_AT_RISK":39832,"BUSINESS_TYPE":"Residential Real Estate Developer","LEGAL_NAME":"L&R DEVELOPERS, L.L.C.","LONGITUDE":-87.72083275936721},
{"STATE":"IL","ZIP":60619,"LATTITUDE":41.743962583526184,"ADDRESS":"1133 E 83RD ST 1ST 186","YEAR":2009,"DOING_BUSINESS_AS_NAME":"STINNETTE & BROWN","POP_AT_RISK":126484,"BUSINESS_TYPE":"Residential Real Estate Developer","LEGAL_NAME":"STINNETTE & BROWN, LLC","LONGITUDE":-87.59639855452794},
{"STATE":"IL","ZIP":60707,"LATTITUDE":41.936128212804626,"ADDRESS":"3059 N OSCEOLA AVE  ","YEAR":2009,"DOING_BUSINESS_AS_NAME":"THE NUNEZ COMPANY, LLC","POP_AT_RISK":339064,"BUSINESS_TYPE":"Residential Real Estate Developer","LEGAL_NAME":"THE NUNEZ COMPANY, LLC","LONGITUDE":-87.81264208590348},
{"STATE":"IL","ZIP":60649,"LATTITUDE":41.76965778189602,"ADDRESS":"6901 S STONY ISLAND AVE  ","YEAR":2009,"DOING_BUSINESS_AS_NAME":"PARAMOUNT GROUP, L.L.C","POP_AT_RISK":154552,"BUSINESS_TYPE":"Residential Real Estate Developer","LEGAL_NAME":"PARAMOUNT GROUP, L.L.C.","LONGITUDE":-87.58579721559974},
{"STATE":"IL","ZIP":60628,"LATTITUDE":41.70537709380467,"ADDRESS":"10400 S CALUMET AVE  HSE","YEAR":2009,"DOING_BUSINESS_AS_NAME":"GALVIN B & B CORPORATION","POP_AT_RISK":76719,"BUSINESS_TYPE":"Residential Real Estate Developer","LEGAL_NAME":"GALVIN B & B CORPORATION","LONGITUDE":-87.6150824057197},
{"STATE":"IL","ZIP":60638,"LATTITUDE":41.790057644931764,"ADDRESS":"5611 S NASHVILLE AVE  ","YEAR":2009,"DOING_BUSINESS_AS_NAME":"A & SL CONSTRUCTION, INC.","POP_AT_RISK":184350,"BUSINESS_TYPE":"Residential Real Estate Developer","LEGAL_NAME":"A & SL CONSTRUCTION, INC.","LONGITUDE":-87.78646323276955},
{"STATE":"IL","ZIP":60656,"LATTITUDE":41.971837617732454,"ADDRESS":"4970 N HARLEM   ","YEAR":2009,"DOING_BUSINESS_AS_NAME":"ZITELLA DEVELOPMENT CORP","POP_AT_RISK":60504,"BUSINESS_TYPE":"Residential Real Estate Developer","LEGAL_NAME":"ZITELLA DEVELOPMENT CORP.","LONGITUDE":-87.80723586686818},
{"STATE":"IL","ZIP":60643,"LATTITUDE":41.71476556246011,"ADDRESS":"9840 S PROSPECT AVE 1ST ","YEAR":2009,"DOING_BUSINESS_AS_NAME":"ADVANCE AREA SERVICE CORP.","POP_AT_RISK":175861,"BUSINESS_TYPE":"Residential Real Estate Developer","LEGAL_NAME":"ADVANCE AREA SERVICE CORP.","LONGITUDE":-87.66372626314511},
{"STATE":"IL","ZIP":60617,"LATTITUDE":41.729803341911,"ADDRESS":"9108 S BRANDON AVE 1 ","YEAR":2009,"DOING_BUSINESS_AS_NAME":"CLARETIAN ASSOCIATES","POP_AT_RISK":88510,"BUSINESS_TYPE":"Residential Real Estate Developer","LEGAL_NAME":"CLARETIAN ASSOCIATES, INC.","LONGITUDE":-87.547069977307},
{"STATE":"IL","ZIP":60637,"LATTITUDE":41.774457036325195,"ADDRESS":"6617 S INGLESIDE AVE 1ST ","YEAR":2009,"DOING_BUSINESS_AS_NAME":"GREENLINE DEVELOPMENT, INC.","POP_AT_RISK":31247,"BUSINESS_TYPE":"Residential Real Estate Developer","LEGAL_NAME":"GREENLINE DEVELOPMENT, INC.","LONGITUDE":-87.60200065436449},
{"STATE":"IL","ZIP":60628,"LATTITUDE":41.69456227545271,"ADDRESS":"10948 S EMERALD AVE  ","YEAR":2009,"DOING_BUSINESS_AS_NAME":"B. L. BLOCK CONSTRUCTION AND DEVELOPMENT CORP.","POP_AT_RISK":50500,"BUSINESS_TYPE":"Residential Real Estate Developer","LEGAL_NAME":"LUSTER AND BERNICE LOCKHART","LONGITUDE":-87.6413827701892},
{"STATE":"IL","ZIP":60707,"LATTITUDE":41.93105474729783,"ADDRESS":"6560 W DIVERSEY AVE 3RD 302D","YEAR":2009,"DOING_BUSINESS_AS_NAME":"CHICAGO URBAN INVESTORS, LLC","POP_AT_RISK":129303,"BUSINESS_TYPE":"Residential Real Estate Developer","LEGAL_NAME":"CHICAGO URBAN INVESTORS, LLC","LONGITUDE":-87.7904389703128},
{"STATE":"IL","ZIP":60632,"LATTITUDE":41.82041986211976,"ADDRESS":"4016 S CALIFORNIA AVE 1ST ","YEAR":2009,"DOING_BUSINESS_AS_NAME":"Sustainable Realty Group LLC","POP_AT_RISK":141120,"BUSINESS_TYPE":"Residential Real Estate Developer","LEGAL_NAME":"Sustainable Realty Group LLC","LONGITUDE":-87.69472664048283},
{"STATE":"IL","ZIP":60637,"LATTITUDE":41.76785685952764,"ADDRESS":"7000 S SOUTH CHICAGO AVE  ","YEAR":2009,"DOING_BUSINESS_AS_NAME":"THE TEEJ GROUP, INCORPORATED","POP_AT_RISK":34812,"BUSINESS_TYPE":"Residential Real Estate Developer","LEGAL_NAME":"THE TEEJ GROUP, INCORPORATED","LONGITUDE":-87.60857315537989},
{"STATE":"IL","ZIP":60628,"LATTITUDE":41.694397881479794,"ADDRESS":"11001 S MICHIGAN AVE  ","YEAR":2009,"DOING_BUSINESS_AS_NAME":"NHS NEIGHBORHOOD HOUSING SERVICE ROSELAND","POP_AT_RISK":31036,"BUSINESS_TYPE":"Residential Real Estate Developer","LEGAL_NAME":"NHS REDEVELOPMENT CORPORATION","LONGITUDE":-87.62064536425257},
{"STATE":"IL","ZIP":60652,"LATTITUDE":41.7414182887951,"ADDRESS":"3325 W 83RD PL 1ST ","YEAR":2009,"DOING_BUSINESS_AS_NAME":"TAYLOR MADE CONSTRUCTION","POP_AT_RISK":166908,"BUSINESS_TYPE":"Residential Real Estate Developer","LEGAL_NAME":"TAYLOR MADE CONSTRUCTION, LLC","LONGITUDE":-87.70563173897821},
{"STATE":"IL","ZIP":60609,"LATTITUDE":41.8066939242314,"ADDRESS":"4801 S ASHLAND AVE  ","YEAR":2009,"DOING_BUSINESS_AS_NAME":"3FJ CONSTRUCTION COMPANY, INC.","POP_AT_RISK":433444,"BUSINESS_TYPE":"Residential Real Estate Developer","LEGAL_NAME":"3FJ CONSTRUCTION COMPANY, INC.","LONGITUDE":-87.66477165261817},
{"STATE":"IL","ZIP":60659,"LATTITUDE":41.984761496195354,"ADDRESS":"5683 N LINCOLN AVE  ","YEAR":2009,"DOING_BUSINESS_AS_NAME":"REGENT PARK CITY HOMES II, LLC","POP_AT_RISK":52125,"BUSINESS_TYPE":"Residential Real Estate Developer","LEGAL_NAME":"REGENT PARK CITY HOMES II, LLC","LONGITUDE":-87.69766403787162},
{"STATE":"IL","ZIP":60645,"LATTITUDE":42.01235843901739,"ADDRESS":"2224 W TOUHY AVE  1W","YEAR":2009,"DOING_BUSINESS_AS_NAME":"SMB DEVELOPMENT","POP_AT_RISK":58777,"BUSINESS_TYPE":"Residential Real Estate Developer","LEGAL_NAME":"SPROUL MITCHELL BUILDERS, INC.","LONGITUDE":-87.68718562395223},
{"STATE":"IL","ZIP":60629,"LATTITUDE":41.779215216684705,"ADDRESS":"2816 W 63RD ST  ","YEAR":2009,"DOING_BUSINESS_AS_NAME":"E SOLIS GENERAL CONTRACTORS, INC.","POP_AT_RISK":695136,"BUSINESS_TYPE":"Residential Real Estate Developer","LEGAL_NAME":"E SOLIS GENERAL CONTRACTORS, INC.","LONGITUDE":-87.69413048509061},
{"STATE":"IL","ZIP":60617,"LATTITUDE":41.73902718547367,"ADDRESS":"8550 S STONY ISLAND AVE  ","YEAR":2009,"DOING_BUSINESS_AS_NAME":"WADE ENTERPRISE & ASSOCS INC","POP_AT_RISK":32623,"BUSINESS_TYPE":"Residential Real Estate Developer","LEGAL_NAME":"WADE ENTERPRISE & ASSOCIATES INC.","LONGITUDE":-87.58584065967271},
{"STATE":"IL","ZIP":60644,"LATTITUDE":41.87999358602674,"ADDRESS":"5945 W MADISON ST 1ST ","YEAR":2009,"DOING_BUSINESS_AS_NAME":"COMMUNITY MALE EMPOWERMENT PROJECT","POP_AT_RISK":41949,"BUSINESS_TYPE":"Residential Real Estate Developer","LEGAL_NAME":"COMMUNITY MALE EMPOWERMENT PROJECT","LONGITUDE":-87.77361566957164},
{"STATE":"IL","ZIP":60609,"LATTITUDE":41.826438710960694,"ADDRESS":"3723 S LOWE AVE 1 B","YEAR":2009,"DOING_BUSINESS_AS_NAME":"3517 SOUTH HALSTED PROPERTIES, INC.","POP_AT_RISK":29628,"BUSINESS_TYPE":"Residential Real Estate Developer","LEGAL_NAME":"3517 SOUTH HALSTED PROPERTIES, INC.","LONGITUDE":-87.64219692331633},
{"STATE":"IL","ZIP":60641,"LATTITUDE":41.946365620861705,"ADDRESS":"3608 N MILWAUKEE AVE  ","YEAR":2009,"DOING_BUSINESS_AS_NAME":"LORSCH CONSTRUCTION & DEVELOPMENT INC","POP_AT_RISK":168657,"BUSINESS_TYPE":"Residential Real Estate Developer","LEGAL_NAME":"LORSCH CONSTRUCTION & DEVELOPMENT INC","LONGITUDE":-87.73602235085482},
{"STATE":"IL","ZIP":60637,"LATTITUDE":41.78359458734807,"ADDRESS":"6105 S MICHIGAN AVE LOWER LEVEL ","YEAR":2009,"DOING_BUSINESS_AS_NAME":"ST EDMUND'S REDEVELOPMENT CORPORATION","POP_AT_RISK":198606,"BUSINESS_TYPE":"Residential Real Estate Developer","LEGAL_NAME":"ST. EDMUND'S REDEVELOPMENT CORPORATION","LONGITUDE":-87.62203123512465},
{"STATE":"IL","ZIP":60623,"LATTITUDE":41.861749715905525,"ADDRESS":"1414 S HAMLIN AVE 2 ","YEAR":2009,"DOING_BUSINESS_AS_NAME":"DEVELOPMENT FOR IMPROVEMENT OF LAWNDALE","POP_AT_RISK":80706,"BUSINESS_TYPE":"Residential Real Estate Developer","LEGAL_NAME":"DEVELOPMENT FOR IMPROVEMENT OF LAWNDALE","LONGITUDE":-87.72030970489719},
{"STATE":"IL","ZIP":60616,"LATTITUDE":41.84202905467341,"ADDRESS":"2850 S MICHIGAN AVE  ","YEAR":2009,"DOING_BUSINESS_AS_NAME":"EASTLAKE MANAGEMENT","POP_AT_RISK":28902,"BUSINESS_TYPE":"Residential Real Estate Developer","LEGAL_NAME":"EAST LAKE MANAGEMENT & DEVELOPMENT CORP.","LONGITUDE":-87.62369326720368},
{"STATE":"IL","ZIP":60609,"LATTITUDE":41.828765727811415,"ADDRESS":"832 W 36TH ST 1ST ","YEAR":2009,"DOING_BUSINESS_AS_NAME":"THE ALEKSANDAR DEVELOPMENT, INCORPORATED","POP_AT_RISK":34040,"BUSINESS_TYPE":"Residential Real Estate Developer","LEGAL_NAME":"THE ALEKSANDAR DEVELOPMENT, INCORPORATED","LONGITUDE":-87.64744017193473},
{"STATE":"IL","ZIP":60620,"LATTITUDE":41.75038804576943,"ADDRESS":"1159 W 79TH ST 1 ","YEAR":2009,"DOING_BUSINESS_AS_NAME":"GREATER AUBURN-GRESHAM DEVELOPMENT CORPORATION","POP_AT_RISK":128478,"BUSINESS_TYPE":"Residential Real Estate Developer","LEGAL_NAME":"GREATER AUBURN-GRESHAM DEVELOPMENT CORPORATION","LONGITUDE":-87.65367505738665},
{"STATE":"IL","ZIP":60621,"LATTITUDE":41.7706327089233,"ADDRESS":"6800 S LOWE AVE 1ST ","YEAR":2009,"DOING_BUSINESS_AS_NAME":"WDM WRIGHTS REALESTATE DEVELOPMENT & MANAGEMENT CORPORATION","POP_AT_RISK":256528,"BUSINESS_TYPE":"Residential Real Estate Developer","LEGAL_NAME":"WDM WRIGHTS REALESTATE DEVELOPMENT & MANAGEMENT CORPORATION","LONGITUDE":-87.6403965020245},
}