{
{"STATE":"IL","ZIP":60618,"LATTITUDE":41.95847659070517,"ADDRESS":"4237 N HAMLIN AVE  ","YEAR":2008,"DOING_BUSINESS_AS_NAME":"LINDA ALANIS","POP_AT_RISK":130076,"BUSINESS_TYPE":"Residential Real Estate Developer","LEGAL_NAME":"LINDA ALANIS","LONGITUDE":-87.7227064612506},
{"STATE":"IL","ZIP":60655,"LATTITUDE":41.71071943804928,"ADDRESS":"10024 S CENTRAL PARK AVE 1ST ","YEAR":2008,"DOING_BUSINESS_AS_NAME":"MERCY CIRCLE","POP_AT_RISK":104748,"BUSINESS_TYPE":"Residential Real Estate Developer","LEGAL_NAME":"MERCY CIRCLE","LONGITUDE":-87.71141795121552},
{"STATE":"IL","ZIP":60644,"LATTITUDE":41.89015275806939,"ADDRESS":"5904 W RACE AVE  ","YEAR":2008,"DOING_BUSINESS_AS_NAME":"GENONE  GROUP","POP_AT_RISK":44191,"BUSINESS_TYPE":"Residential Real Estate Developer","LEGAL_NAME":"GENONE  GROUP","LONGITUDE":-87.77242022560696},
{"STATE":"IL","ZIP":60523,"LATTITUDE":41.85185570728325,"ADDRESS":"2603 W 22ND ST  22","YEAR":2008,"DOING_BUSINESS_AS_NAME":"1401 STATE LLC","POP_AT_RISK":320868,"BUSINESS_TYPE":"Residential Real Estate Developer","LEGAL_NAME":"1401 STATE LLC","LONGITUDE":-87.69073728136568},
{"STATE":"IL","ZIP":60617,"LATTITUDE":41.727388208446705,"ADDRESS":"9219 S MERRILL AVE 1ST ","YEAR":2008,"DOING_BUSINESS_AS_NAME":"IMRI REALTY","POP_AT_RISK":19126,"BUSINESS_TYPE":"Residential Real Estate Developer","LEGAL_NAME":"BETTY J. BROWN","LONGITUDE":-87.57168640971774},
{"STATE":"IL","ZIP":60643,"LATTITUDE":41.71696111062408,"ADDRESS":"9721 S PEORIA ST 1ST ","YEAR":2008,"DOING_BUSINESS_AS_NAME":"RVG & ASSOCAITES","POP_AT_RISK":119896,"BUSINESS_TYPE":"Residential Real Estate Developer","LEGAL_NAME":"REGINALD GIBSON","LONGITUDE":-87.64537708761452},
{"STATE":"IL","ZIP":60645,"LATTITUDE":42.01480762102871,"ADDRESS":"7324 N WESTERN AVE 1 ","YEAR":2008,"DOING_BUSINESS_AS_NAME":"HOMES 4 YOU INC","POP_AT_RISK":62779,"BUSINESS_TYPE":"Residential Real Estate Developer","LEGAL_NAME":"HOMES 4 YOU, INC","LONGITUDE":-87.69036924056003},
{"STATE":"IL","ZIP":60636,"LATTITUDE":41.783095865999314,"ADDRESS":"1305 W 61ST ST  ","YEAR":2008,"DOING_BUSINESS_AS_NAME":"FRANKLIN WILLIAMS ENTERPRISES","POP_AT_RISK":32797,"BUSINESS_TYPE":"Residential Real Estate Developer","LEGAL_NAME":"FRANKLIN WILLIAMS","LONGITUDE":-87.65736430081736},
{"STATE":"IL","ZIP":60643,"LATTITUDE":41.69408668145939,"ADDRESS":"2350 W 110TH ST  ","YEAR":2008,"DOING_BUSINESS_AS_NAME":"JACK E CHANINSON REAL ESTATE","POP_AT_RISK":43344,"BUSINESS_TYPE":"Residential Real Estate Developer","LEGAL_NAME":"JACLYN A. THORNTON","LONGITUDE":-87.68063902575948},
{"STATE":"IL","ZIP":60643,"LATTITUDE":41.67759605873797,"ADDRESS":"1700 W 119TH ST 1ST ","YEAR":2008,"DOING_BUSINESS_AS_NAME":"PRIMESTOR 119, LLC","POP_AT_RISK":101816,"BUSINESS_TYPE":"Residential Real Estate Developer","LEGAL_NAME":"PRIMESTOR 119, LLC","LONGITUDE":-87.66419631320602},
{"STATE":"IL","ZIP":60645,"LATTITUDE":42.01724339615682,"ADDRESS":"7446 N HOYNE AVE 1ST ","YEAR":2008,"DOING_BUSINESS_AS_NAME":"7446 N. HOYNE, INC.","POP_AT_RISK":63712,"BUSINESS_TYPE":"Residential Real Estate Developer","LEGAL_NAME":"7446 N. HOYNE, INC.","LONGITUDE":-87.68314357088286},
{"STATE":"IL","ZIP":60631,"LATTITUDE":41.98703322680841,"ADDRESS":"5801 N NORTHWEST HWY  ","YEAR":2008,"DOING_BUSINESS_AS_NAME":"AABY BUILDERS, INC.","POP_AT_RISK":31060,"BUSINESS_TYPE":"Residential Real Estate Developer","LEGAL_NAME":"AABY BUILDERS, INC.","LONGITUDE":-87.78938143174634},
{"STATE":"IL","ZIP":60639,"LATTITUDE":41.91861881356577,"ADDRESS":"2110 N MULLIGAN AVE 1ST ","YEAR":2008,"DOING_BUSINESS_AS_NAME":"RAVEN COURTYARD, LLC","POP_AT_RISK":45266,"BUSINESS_TYPE":"Residential Real Estate Developer","LEGAL_NAME":"RAVEN COURTYARD, LLC","LONGITUDE":-87.78421918698884},
{"STATE":"IL","ZIP":60633,"LATTITUDE":41.651701289708825,"ADDRESS":"4000 E 134TH ST 1ST 1ST","YEAR":2008,"DOING_BUSINESS_AS_NAME":"HARBOUR POINT ESTATES","POP_AT_RISK":6628,"BUSINESS_TYPE":"Residential Real Estate Developer","LEGAL_NAME":"HARBOR 4000 EAST, LLC","LONGITUDE":-87.52749194531424},
{"STATE":"IL","ZIP":60639,"LATTITUDE":41.92614395473216,"ADDRESS":"4954 W ALTGELD ST  ","YEAR":2008,"DOING_BUSINESS_AS_NAME":"ONSITE BUILDERS,INC","POP_AT_RISK":62719,"BUSINESS_TYPE":"Residential Real Estate Developer","LEGAL_NAME":"ONSITE BUILDERS, INC.","LONGITUDE":-87.75102098797171},
{"STATE":"IL","ZIP":60609,"LATTITUDE":41.8192314147149,"ADDRESS":"2321 W 41ST ST  ","YEAR":2008,"DOING_BUSINESS_AS_NAME":"PROGRESS CONSTRUCTION","POP_AT_RISK":490600,"BUSINESS_TYPE":"Residential Real Estate Developer","LEGAL_NAME":"PROGRESS CONSTRUCTION","LONGITUDE":-87.68323279806654},
{"STATE":"IL","ZIP":60643,"LATTITUDE":41.71476556246011,"ADDRESS":"9840 S PROSPECT AVE  ","YEAR":2008,"DOING_BUSINESS_AS_NAME":"ALL AREA SERVICE CORP.","POP_AT_RISK":100492,"BUSINESS_TYPE":"Residential Real Estate Developer","LEGAL_NAME":"ALL AREA SERVICE CORP.","LONGITUDE":-87.66372626314511},
{"STATE":"IL","ZIP":60644,"LATTITUDE":41.86593374037215,"ADDRESS":"5000 W ROOSEVELT RD  101","YEAR":2008,"DOING_BUSINESS_AS_NAME":"BARRON DEVELOPMENT LLC","POP_AT_RISK":292662,"BUSINESS_TYPE":"Residential Real Estate Developer","LEGAL_NAME":"BARRON DEVELOPMENT LLC","LONGITUDE":-87.74970392608358},
{"STATE":"IL","ZIP":60615,"LATTITUDE":41.80747454542918,"ADDRESS":"427 E 48TH ST  2","YEAR":2008,"DOING_BUSINESS_AS_NAME":"CLICK DEVELOPMENT, LLC","POP_AT_RISK":37097,"BUSINESS_TYPE":"Residential Real Estate Developer","LEGAL_NAME":"CLICK DEVELOPMENT, LLC","LONGITUDE":-87.61517690630338},
{"STATE":"IL","ZIP":60624,"LATTITUDE":41.87908916693586,"ADDRESS":"120 S HAMLIN BLVD 1 ","YEAR":2008,"DOING_BUSINESS_AS_NAME":"L&R DEVELOPERS","POP_AT_RISK":39832,"BUSINESS_TYPE":"Residential Real Estate Developer","LEGAL_NAME":"L&R DEVELOPERS, L.L.C.","LONGITUDE":-87.72083275936721},
{"STATE":"IL","ZIP":60619,"LATTITUDE":41.743962583526184,"ADDRESS":"1133 E 83RD ST 1ST 186","YEAR":2008,"DOING_BUSINESS_AS_NAME":"STINNETTE & BROWN","POP_AT_RISK":126484,"BUSINESS_TYPE":"Residential Real Estate Developer","LEGAL_NAME":"STINNETTE & BROWN, LLC","LONGITUDE":-87.59639855452794},
{"STATE":"IL","ZIP":60707,"LATTITUDE":41.936128212804626,"ADDRESS":"3059 N OSCEOLA AVE  ","YEAR":2008,"DOING_BUSINESS_AS_NAME":"THE NUNEZ COMPANY, LLC","POP_AT_RISK":211915,"BUSINESS_TYPE":"Residential Real Estate Developer","LEGAL_NAME":"THE NUNEZ COMPANY, LLC","LONGITUDE":-87.81264208590348},
{"STATE":"IL","ZIP":60649,"LATTITUDE":41.76965778189602,"ADDRESS":"6901 S STONY ISLAND AVE  ","YEAR":2008,"DOING_BUSINESS_AS_NAME":"PARAMOUNT GROUP, L.L.C","POP_AT_RISK":154552,"BUSINESS_TYPE":"Residential Real Estate Developer","LEGAL_NAME":"PARAMOUNT GROUP, L.L.C.","LONGITUDE":-87.58579721559974},
{"STATE":"IL","ZIP":60628,"LATTITUDE":41.70537709380467,"ADDRESS":"10400 S CALUMET AVE  HSE","YEAR":2008,"DOING_BUSINESS_AS_NAME":"GALVIN B & B CORPORATION","POP_AT_RISK":51146,"BUSINESS_TYPE":"Residential Real Estate Developer","LEGAL_NAME":"GALVIN B & B CORPORATION","LONGITUDE":-87.6150824057197},
{"STATE":"IL","ZIP":60638,"LATTITUDE":41.790057644931764,"ADDRESS":"5611 S NASHVILLE AVE  ","YEAR":2008,"DOING_BUSINESS_AS_NAME":"A & SL CONSTRUCTION, INC.","POP_AT_RISK":184350,"BUSINESS_TYPE":"Residential Real Estate Developer","LEGAL_NAME":"A & SL CONSTRUCTION, INC.","LONGITUDE":-87.78646323276955},
{"STATE":"IL","ZIP":60629,"LATTITUDE":41.76428824183689,"ADDRESS":"3145 W 71ST ST 1 ","YEAR":2008,"DOING_BUSINESS_AS_NAME":"S BUILDING SERVICES","POP_AT_RISK":152196,"BUSINESS_TYPE":"Residential Real Estate Developer","LEGAL_NAME":"S BUILDING SERVICES, INC.","LONGITUDE":-87.7021579443415},
{"STATE":"IL","ZIP":60634,"LATTITUDE":41.94202137373365,"ADDRESS":"6548 W ROSCOE ST  ","YEAR":2008,"DOING_BUSINESS_AS_NAME":"SATURN CONSTRUCTION, INC.","POP_AT_RISK":72934,"BUSINESS_TYPE":"Residential Real Estate Developer","LEGAL_NAME":"SATURN CONSTRUCTION, INC.","LONGITUDE":-87.79043507520073},
{"STATE":"IL","ZIP":60656,"LATTITUDE":41.971837617732454,"ADDRESS":"4970 N HARLEM   ","YEAR":2008,"DOING_BUSINESS_AS_NAME":"ZITELLA DEVELOPMENT CORP","POP_AT_RISK":60504,"BUSINESS_TYPE":"Residential Real Estate Developer","LEGAL_NAME":"ZITELLA DEVELOPMENT CORP.","LONGITUDE":-87.80723586686818},
{"STATE":"IL","ZIP":60617,"LATTITUDE":41.729803341911,"ADDRESS":"9108 S BRANDON AVE 1 ","YEAR":2008,"DOING_BUSINESS_AS_NAME":"CLARETIAN ASSOCIATES","POP_AT_RISK":88510,"BUSINESS_TYPE":"Residential Real Estate Developer","LEGAL_NAME":"CLARETIAN ASSOCIATES, INC.","LONGITUDE":-87.547069977307},
{"STATE":"IL","ZIP":60628,"LATTITUDE":41.69456227545271,"ADDRESS":"10948 S EMERALD AVE  ","YEAR":2008,"DOING_BUSINESS_AS_NAME":"B. L. BLOCK CONSTRUCTION AND DEVELOPMENT CORP.","POP_AT_RISK":25250,"BUSINESS_TYPE":"Residential Real Estate Developer","LEGAL_NAME":"LUSTER AND BERNICE LOCKHART","LONGITUDE":-87.6413827701892},
{"STATE":"IL","ZIP":60637,"LATTITUDE":41.76785685952764,"ADDRESS":"7000 S SOUTH CHICAGO AVE  ","YEAR":2008,"DOING_BUSINESS_AS_NAME":"THE TEEJ GROUP, INCORPORATED","POP_AT_RISK":69624,"BUSINESS_TYPE":"Residential Real Estate Developer","LEGAL_NAME":"THE TEEJ GROUP, INCORPORATED","LONGITUDE":-87.60857315537989},
{"STATE":"IL","ZIP":60628,"LATTITUDE":41.694397881479794,"ADDRESS":"11001 S MICHIGAN AVE  ","YEAR":2008,"DOING_BUSINESS_AS_NAME":"NHS NEIGHBORHOOD HOUSING SERVICE ROSELAND","POP_AT_RISK":31036,"BUSINESS_TYPE":"Residential Real Estate Developer","LEGAL_NAME":"NHS REDEVELOPMENT CORPORATION","LONGITUDE":-87.62064536425257},
{"STATE":"IL","ZIP":60609,"LATTITUDE":41.8066939242314,"ADDRESS":"4801 S ASHLAND AVE  ","YEAR":2008,"DOING_BUSINESS_AS_NAME":"3FJ CONSTRUCTION COMPANY, INC.","POP_AT_RISK":433444,"BUSINESS_TYPE":"Residential Real Estate Developer","LEGAL_NAME":"3FJ CONSTRUCTION COMPANY, INC.","LONGITUDE":-87.66477165261817},
{"STATE":"IL","ZIP":60608,"LATTITUDE":41.84182531684375,"ADDRESS":"2893 S ARCHER AVE  ","YEAR":2008,"DOING_BUSINESS_AS_NAME":"MADINA DEVELOPMENT GROUP, INC.","POP_AT_RISK":33008,"BUSINESS_TYPE":"Residential Real Estate Developer","LEGAL_NAME":"MADINA DEVELOPMENT GROUP, INC.","LONGITUDE":-87.65731683467405},
{"STATE":"IL","ZIP":60629,"LATTITUDE":41.779215216684705,"ADDRESS":"2816 W 63RD ST  ","YEAR":2008,"DOING_BUSINESS_AS_NAME":"E SOLIS GENERAL CONTRACTORS, INC.","POP_AT_RISK":521352,"BUSINESS_TYPE":"Residential Real Estate Developer","LEGAL_NAME":"E SOLIS GENERAL CONTRACTORS, INC.","LONGITUDE":-87.69413048509061},
{"STATE":"IL","ZIP":60617,"LATTITUDE":41.73902718547367,"ADDRESS":"8550 S STONY ISLAND AVE  ","YEAR":2008,"DOING_BUSINESS_AS_NAME":"WADE ENTERPRISE & ASSOCS INC","POP_AT_RISK":65246,"BUSINESS_TYPE":"Residential Real Estate Developer","LEGAL_NAME":"WADE ENTERPRISE & ASSOCIATES INC.","LONGITUDE":-87.58584065967271},
{"STATE":"IL","ZIP":60637,"LATTITUDE":41.781478113132266,"ADDRESS":"6223 S LANGLEY AVE 1 ","YEAR":2008,"DOING_BUSINESS_AS_NAME":"HAYES REAL ESTATE PROPERTIES, INC.","POP_AT_RISK":140816,"BUSINESS_TYPE":"Residential Real Estate Developer","LEGAL_NAME":"HAYES REAL ESTATE PROPERTIES, INC.","LONGITUDE":-87.60826139703336},
{"STATE":"IL","ZIP":60655,"LATTITUDE":41.691601539364996,"ADDRESS":"3400 W 111TH ST  ","YEAR":2008,"DOING_BUSINESS_AS_NAME":"WINDY CITY DEVELOPERS INCORPORATED","POP_AT_RISK":25020,"BUSINESS_TYPE":"Residential Real Estate Developer","LEGAL_NAME":"WINDY CITY DEVELOPERS INCORPORATED","LONGITUDE":-87.70580201252551},
{"STATE":"IL","ZIP":60609,"LATTITUDE":41.826438710960694,"ADDRESS":"3723 S LOWE AVE 1 B","YEAR":2008,"DOING_BUSINESS_AS_NAME":"3517 SOUTH HALSTED PROPERTIES, INC.","POP_AT_RISK":29628,"BUSINESS_TYPE":"Residential Real Estate Developer","LEGAL_NAME":"3517 SOUTH HALSTED PROPERTIES, INC.","LONGITUDE":-87.64219692331633},
{"STATE":"IL","ZIP":60616,"LATTITUDE":41.84202905467341,"ADDRESS":"2850 S MICHIGAN AVE  ","YEAR":2008,"DOING_BUSINESS_AS_NAME":"EASTLAKE MANAGEMENT","POP_AT_RISK":28902,"BUSINESS_TYPE":"Residential Real Estate Developer","LEGAL_NAME":"EAST LAKE MANAGEMENT & DEVELOPMENT CORP.","LONGITUDE":-87.62369326720368},
{"STATE":"IL","ZIP":60609,"LATTITUDE":41.828765727811415,"ADDRESS":"832 W 36TH ST 1ST ","YEAR":2008,"DOING_BUSINESS_AS_NAME":"THE ALEKSANDAR DEVELOPMENT, INCORPORATED","POP_AT_RISK":34040,"BUSINESS_TYPE":"Residential Real Estate Developer","LEGAL_NAME":"THE ALEKSANDAR DEVELOPMENT, INCORPORATED","LONGITUDE":-87.64744017193473},
{"STATE":"IL","ZIP":60620,"LATTITUDE":41.75038804576943,"ADDRESS":"1159 W 79TH ST 1 ","YEAR":2008,"DOING_BUSINESS_AS_NAME":"GREATER AUBURN-GRESHAM DEVELOPMENT CORPORATION","POP_AT_RISK":128478,"BUSINESS_TYPE":"Residential Real Estate Developer","LEGAL_NAME":"GREATER AUBURN-GRESHAM DEVELOPMENT CORPORATION","LONGITUDE":-87.65367505738665},
{"STATE":"IL","ZIP":60621,"LATTITUDE":41.7706327089233,"ADDRESS":"6800 S LOWE AVE 1ST ","YEAR":2008,"DOING_BUSINESS_AS_NAME":"WDM WRIGHTS REALESTATE DEVELOPMENT & MANAGEMENT CORPORATION","POP_AT_RISK":128264,"BUSINESS_TYPE":"Residential Real Estate Developer","LEGAL_NAME":"WDM WRIGHTS REALESTATE DEVELOPMENT & MANAGEMENT CORPORATION","LONGITUDE":-87.6403965020245},
{"STATE":"IL","ZIP":60624,"LATTITUDE":41.86728931604929,"ADDRESS":"3642 W GRENSHAW ST  ","YEAR":2008,"DOING_BUSINESS_AS_NAME":"JOHNSON DEVELOPMENT","POP_AT_RISK":45719,"BUSINESS_TYPE":"Residential Real Estate Developer","LEGAL_NAME":"MICHELLE D. JOHNSON, WALLACE E. JOHNSON, SR.  AND WALLACE E. JOHNSON, JR.","LONGITUDE":-87.71711638426036},
}