{
{"STATE":"IL","ZIP":60646,"LATTITUDE":42.00539796395242,"ADDRESS":"6832 N SAUGANASH AVE  ","YEAR":2013,"DOING_BUSINESS_AS_NAME":"J & G CONSTRUCTION","POP_AT_RISK":15326,"BUSINESS_TYPE":"Home Repair","LEGAL_NAME":"IOAN GRANER","LONGITUDE":-87.76575520849008},
{"STATE":"IL","ZIP":60633,"LATTITUDE":41.64968175814829,"ADDRESS":"13511 S BRANDON AVE 1ST ","YEAR":2013,"DOING_BUSINESS_AS_NAME":"RIGHT WAY SEWER","POP_AT_RISK":4206,"BUSINESS_TYPE":"Home Repair","LEGAL_NAME":"ERIC M LIVAK","LONGITUDE":-87.54578298947494},
{"STATE":"IL","ZIP":60643,"LATTITUDE":41.68477907305013,"ADDRESS":"1355 W 115TH ST 1ST ","YEAR":2013,"DOING_BUSINESS_AS_NAME":"A.L.T. CONSTRUCTION","POP_AT_RISK":20260,"BUSINESS_TYPE":"Home Repair","LEGAL_NAME":"ALONZO THOMAS","LONGITUDE":-87.65650903433271},
{"STATE":"IL","ZIP":60633,"LATTITUDE":41.66168081717884,"ADDRESS":"12838 S MARQUETTE AVE 1ST ","YEAR":2013,"DOING_BUSINESS_AS_NAME":"SHIELD HVAC","POP_AT_RISK":2798,"BUSINESS_TYPE":"Home Repair","LEGAL_NAME":"PEDRO FULGENCIO","LONGITUDE":-87.55699083443336},
{"STATE":"IL","ZIP":60637,"LATTITUDE":41.783941468323704,"ADDRESS":"1550 E 61ST ST 1ST 1N","YEAR":2013,"DOING_BUSINESS_AS_NAME":"SIMPLY COMFORT HEATING, COOLING AND APPLIANCE","POP_AT_RISK":30107,"BUSINESS_TYPE":"Home Repair","LEGAL_NAME":"BRIAN J. SANDERS","LONGITUDE":-87.58733354344798},
{"STATE":"IL","ZIP":60644,"LATTITUDE":41.87310230935088,"ADDRESS":"4649-4651 W HARRISON ST 1ST & 2ND ","YEAR":2013,"DOING_BUSINESS_AS_NAME":"CARA GRANITE CO.","POP_AT_RISK":45640,"BUSINESS_TYPE":"Home Repair","LEGAL_NAME":"CARA GRANITE CO.","LONGITUDE":-87.74205767044893},
{"STATE":"IL","ZIP":60634,"LATTITUDE":41.93881536037816,"ADDRESS":"3238 N PACIFIC AVE 2ND ","YEAR":2013,"DOING_BUSINESS_AS_NAME":"BATH EXPRESS","POP_AT_RISK":36522,"BUSINESS_TYPE":"Home Repair","LEGAL_NAME":"CUSTOM WORKS, INC.","LONGITUDE":-87.82651449897514},
{"STATE":"IL","ZIP":60643,"LATTITUDE":41.661546932468255,"ADDRESS":"858 W VERMONT ST  ","YEAR":2013,"DOING_BUSINESS_AS_NAME":"KENTECH HEATING AND COOLING","POP_AT_RISK":50502,"BUSINESS_TYPE":"Home Repair","LEGAL_NAME":"KENNETH EARL JONES","LONGITUDE":-87.64371119366193},
{"STATE":"IL","ZIP":60655,"LATTITUDE":41.70706440629061,"ADDRESS":"2901 W 102ND PL 1ST FLOOR ","YEAR":2013,"DOING_BUSINESS_AS_NAME":"American Doors, Inc.","POP_AT_RISK":64528,"BUSINESS_TYPE":"Home Repair","LEGAL_NAME":"American Doors, Inc.","LONGITUDE":-87.69409515195343},
{"STATE":"IL","ZIP":60616,"LATTITUDE":41.8335723271212,"ADDRESS":"533 E 33RD PL 1 103","YEAR":2013,"DOING_BUSINESS_AS_NAME":"DDF HEATING AND COOLING","POP_AT_RISK":50482,"BUSINESS_TYPE":"Home Repair","LEGAL_NAME":"DARRELL DUANE FARRIS","LONGITUDE":-87.61243054750695},
{"STATE":"IL","ZIP":60626,"LATTITUDE":42.02131764702107,"ADDRESS":"7714 N EASTLAKE TER  3SOUT","YEAR":2013,"DOING_BUSINESS_AS_NAME":"CREATIVE EXTERIORS INC","POP_AT_RISK":40227,"BUSINESS_TYPE":"Home Repair","LEGAL_NAME":"Creative Exteriors Inc","LONGITUDE":-87.66539112359472},
{"STATE":"IL","ZIP":60628,"LATTITUDE":41.676756906538365,"ADDRESS":"11939 S STEWART AVE 1 ","YEAR":2013,"DOING_BUSINESS_AS_NAME":"4sure","POP_AT_RISK":170844,"BUSINESS_TYPE":"Home Repair","LEGAL_NAME":"Derrick E Hicks Senior","LONGITUDE":-87.63209163761799},
{"STATE":"IL","ZIP":60619,"LATTITUDE":41.7220839023562,"ADDRESS":"1205 E 95TH ST 1ST ","YEAR":2013,"DOING_BUSINESS_AS_NAME":"THE DOOR STORE","POP_AT_RISK":14726,"BUSINESS_TYPE":"Home Repair","LEGAL_NAME":"DOOR & WINDOW OUTLET INC","LONGITUDE":-87.59457733102577},
{"STATE":"IL","ZIP":60628,"LATTITUDE":41.69679928357971,"ADDRESS":"10842 S MICHIGAN AVE 1ST ","YEAR":2013,"DOING_BUSINESS_AS_NAME":"C.N.T. INC.","POP_AT_RISK":78663,"BUSINESS_TYPE":"Home Repair","LEGAL_NAME":"CARE NETWORK TRAINING, INC.","LONGITUDE":-87.62097617307185},
{"STATE":"IL","ZIP":60639,"LATTITUDE":41.90993757874858,"ADDRESS":"1619 N MANGO AVE 1ST ","YEAR":2013,"DOING_BUSINESS_AS_NAME":"1 DAY PROJECTS INCORPORATED","POP_AT_RISK":54250,"BUSINESS_TYPE":"Home Repair","LEGAL_NAME":"1 DAY PROJECTS, INCORPORATED","LONGITUDE":-87.76897175670771},
{"STATE":"IL","ZIP":60621,"LATTITUDE":41.775890657301424,"ADDRESS":"6505 S GREEN ST 1 ","YEAR":2013,"DOING_BUSINESS_AS_NAME":"WORD OF MOUTH PLUMBING, INC.","POP_AT_RISK":64230,"BUSINESS_TYPE":"Home Repair","LEGAL_NAME":"WORD OF MOUTH PLUMBING, INC.","LONGITUDE":-87.64575633746045},
{"STATE":"IL","ZIP":60631,"LATTITUDE":42.01882619849735,"ADDRESS":"7570 N MILWAUKEE AVE 1ST ","YEAR":2013,"DOING_BUSINESS_AS_NAME":"KENNEY EXTERIOR PRODUCTS INC","POP_AT_RISK":48296,"BUSINESS_TYPE":"Home Repair","LEGAL_NAME":"KENNEY EXTERIOR PRODUCTS, INC","LONGITUDE":-87.8076355368563},
{"STATE":"IL","ZIP":60652,"LATTITUDE":41.73932735609536,"ADDRESS":"8432 S KOLMAR AVE 1ST ","YEAR":2013,"DOING_BUSINESS_AS_NAME":"S S CONSTRUCTION CO CHICAGO, LTD.","POP_AT_RISK":38886,"BUSINESS_TYPE":"Home Repair","LEGAL_NAME":"S S CONSTRUCTION CO CHICAGO, LTD.","LONGITUDE":-87.73588500876386},
{"STATE":"IL","ZIP":60645,"LATTITUDE":42.01915321151339,"ADDRESS":"2917 W HOWARD ST 1 1","YEAR":2013,"DOING_BUSINESS_AS_NAME":"VULIC MAINTENANCE & REMODELING, LLC","POP_AT_RISK":27293,"BUSINESS_TYPE":"Home Repair","LEGAL_NAME":"VULIC MAINTENANCE & REMODELING, LLC","LONGITUDE":-87.70264451558536},
{"STATE":"IL","ZIP":60656,"LATTITUDE":41.97209202574758,"ADDRESS":"5105 N EAST RIVER RD 3 3L","YEAR":2013,"DOING_BUSINESS_AS_NAME":"UPGRADE CONSTRUCTION OF CHICAGO, INC.","POP_AT_RISK":27608,"BUSINESS_TYPE":"Home Repair","LEGAL_NAME":"UPGRADE CONSTRUCTION OF CHICAGO, INC.","LONGITUDE":-87.84638299588168},
{"STATE":"IL","ZIP":60629,"LATTITUDE":41.770929230449845,"ADDRESS":"6734 S MAPLEWOOD AVE 2ND ","YEAR":2013,"DOING_BUSINESS_AS_NAME":"PULL TOGETHER PROPERTY MANAGEMENT","POP_AT_RISK":40046,"BUSINESS_TYPE":"Home Repair","LEGAL_NAME":"PULL TOGETHER PROPERTY MANAGEMENT CORP.","LONGITUDE":-87.68723010505626},
{"STATE":"IL","ZIP":60655,"LATTITUDE":41.67788984281194,"ADDRESS":"11841 S ARTESIAN AVE  ","YEAR":2013,"DOING_BUSINESS_AS_NAME":"RESURRECTION PROPERTY SERVICE HEATING AND AIR CO.","POP_AT_RISK":38986,"BUSINESS_TYPE":"Home Repair","LEGAL_NAME":"RESURRECTION PROPERTY SERVICE HEATING AND AIR CO.","LONGITUDE":-87.68180057712748},
}