{
{"STATE":"IL","ZIP":60827,"LATTITUDE":41.64471651864612,"ADDRESS":"612 E 138TH ST  ","YEAR":2006,"DOING_BUSINESS_AS_NAME":"INNOPHOS INC.","POP_AT_RISK":13381,"BUSINESS_TYPE":"Manufacturing Establishments","LEGAL_NAME":"INNOPHOS INC.","LONGITUDE":-87.60679330792205},
{"STATE":"IL","ZIP":60626,"LATTITUDE":41.998705414717755,"ADDRESS":"6423 N RAVENSWOOD AVE  ","YEAR":2006,"DOING_BUSINESS_AS_NAME":"SUS IRON CORP","POP_AT_RISK":75271,"BUSINESS_TYPE":"Manufacturing Establishments","LEGAL_NAME":"SUS IRON CORP","LONGITUDE":-87.67489125512769},
{"STATE":"IL","ZIP":60634,"LATTITUDE":41.9452825522059,"ADDRESS":"7746 W ADDISON ST 1ST ","YEAR":2006,"DOING_BUSINESS_AS_NAME":"VOLTRONICS INC","POP_AT_RISK":175602,"BUSINESS_TYPE":"Manufacturing Establishments","LEGAL_NAME":"VOLTRONICS INC","LONGITUDE":-87.82148508277187},
{"STATE":"IL","ZIP":60626,"LATTITUDE":42.01032472895419,"ADDRESS":"1724 W GREENLEAF AVE  REAR","YEAR":2006,"DOING_BUSINESS_AS_NAME":"ORGANICS L.L.C.","POP_AT_RISK":69338,"BUSINESS_TYPE":"Manufacturing Establishments","LEGAL_NAME":"ORGANICS L.L.C.","LONGITUDE":-87.67339987061956},
{"STATE":"IL","ZIP":60626,"LATTITUDE":42.02266026807753,"ADDRESS":"1832 W JUNEWAY TER  NW CO","YEAR":2006,"DOING_BUSINESS_AS_NAME":"DURO DECAL CO INC","POP_AT_RISK":144654,"BUSINESS_TYPE":"Manufacturing Establishments","LEGAL_NAME":"DURO DECAL CO INC","LONGITUDE":-87.67664723812041},
{"STATE":"IL","ZIP":60629,"LATTITUDE":41.77905562837101,"ADDRESS":"3240 W 63RD ST  ","YEAR":2006,"DOING_BUSINESS_AS_NAME":"J & J ELECTRONIC","POP_AT_RISK":62644,"BUSINESS_TYPE":"Manufacturing Establishments","LEGAL_NAME":"J & J ELECTRONICS","LONGITUDE":-87.70476487332088},
{"STATE":"IL","ZIP":60621,"LATTITUDE":41.78463248965462,"ADDRESS":"6028 S PERRY AVE  ","YEAR":2006,"DOING_BUSINESS_AS_NAME":"RUSSELL'S WELDING & MFG","POP_AT_RISK":29078,"BUSINESS_TYPE":"Manufacturing Establishments","LEGAL_NAME":"RUSSELL SUTHERLAND","LONGITUDE":-87.62770213406625},
{"STATE":"IL","ZIP":60638,"LATTITUDE":41.774471369513115,"ADDRESS":"5654 W 65TH ST  ","YEAR":2006,"DOING_BUSINESS_AS_NAME":"EXCEL MACHINING INC","POP_AT_RISK":19217,"BUSINESS_TYPE":"Manufacturing Establishments","LEGAL_NAME":"EXCEL MACHINING INC","LONGITUDE":-87.76375997030551},
{"STATE":"IL","ZIP":60629,"LATTITUDE":41.76206778422306,"ADDRESS":"4651 W 72ND ST  ","YEAR":2006,"DOING_BUSINESS_AS_NAME":"KNIGHT PAPER BOX CO","POP_AT_RISK":11154,"BUSINESS_TYPE":"Manufacturing Establishments","LEGAL_NAME":"KNIGHT PAPER BOX CO","LONGITUDE":-87.73899171505894},
{"STATE":"IL","ZIP":60638,"LATTITUDE":41.7947047678449,"ADDRESS":"5432 W 54TH ST  ","YEAR":2006,"DOING_BUSINESS_AS_NAME":"STERLING SPRING LLC","POP_AT_RISK":19549,"BUSINESS_TYPE":"Manufacturing Establishments","LEGAL_NAME":"STERLING SPRING LLC","LONGITUDE":-87.75883544408453},
{"STATE":"IL","ZIP":60659,"LATTITUDE":41.99754902760403,"ADDRESS":"6355 N CLAREMONT AVE  208","YEAR":2006,"DOING_BUSINESS_AS_NAME":"UA DENTAL LAB, INC.","POP_AT_RISK":284092,"BUSINESS_TYPE":"Manufacturing Establishments","LEGAL_NAME":"UA DENTAL LAB, INC.","LONGITUDE":-87.68850931804137},
{"STATE":"IL","ZIP":60625,"LATTITUDE":41.97998297927229,"ADDRESS":"5419 N KEDZIE AVE 1ST ","YEAR":2006,"DOING_BUSINESS_AS_NAME":"MODERN DIE CASTING","POP_AT_RISK":114378,"BUSINESS_TYPE":"Manufacturing Establishments","LEGAL_NAME":"M D C INDUSTRIES INC","LONGITUDE":-87.70863753841802},
{"STATE":"IL","ZIP":60639,"LATTITUDE":41.91272939470666,"ADDRESS":"5750 W BLOOMINGDALE AVE  ","YEAR":2006,"DOING_BUSINESS_AS_NAME":"NELLA WINDOW COMPANY","POP_AT_RISK":47566,"BUSINESS_TYPE":"Manufacturing Establishments","LEGAL_NAME":"NELLA WINDOW COMPANY","LONGITUDE":-87.76944064303055},
{"STATE":"IL","ZIP":60640,"LATTITUDE":41.98301912837452,"ADDRESS":"5540 N BROADWAY  1ST ","YEAR":2006,"DOING_BUSINESS_AS_NAME":"ZIRLIN INTERIORS INC","POP_AT_RISK":70300,"BUSINESS_TYPE":"Manufacturing Establishments","LEGAL_NAME":"ZIRLIN INTERIORS INC","LONGITUDE":-87.66019880136832},
{"STATE":"IL","ZIP":60617,"LATTITUDE":41.737524443063855,"ADDRESS":"3100 E 87TH ST 1ST ","YEAR":2006,"DOING_BUSINESS_AS_NAME":"CARLO STEEL CORPORATION","POP_AT_RISK":57230,"BUSINESS_TYPE":"Manufacturing Establishments","LEGAL_NAME":"CARLO STEEL CORPORATION","LONGITUDE":-87.5487715297924},
{"STATE":"IL","ZIP":60652,"LATTITUDE":41.737498226797825,"ADDRESS":"8532 S PULASKI RD  ","YEAR":2006,"DOING_BUSINESS_AS_NAME":"ROLAND LAB INC","POP_AT_RISK":75699,"BUSINESS_TYPE":"Manufacturing Establishments","LEGAL_NAME":"ROLAND DENTAL LAB, INC.","LONGITUDE":-87.72167126456692},
{"STATE":"IL","ZIP":60638,"LATTITUDE":41.77750446371041,"ADDRESS":"6255 S HARLEM AVE  ","YEAR":2006,"DOING_BUSINESS_AS_NAME":"ARMBRUST PAPER TUBES INC","POP_AT_RISK":23658,"BUSINESS_TYPE":"Manufacturing Establishments","LEGAL_NAME":"ARMBRUST PAPER TUBES INC","LONGITUDE":-87.80076866830747},
{"STATE":"IL","ZIP":60609,"LATTITUDE":41.82088004242324,"ADDRESS":"328 W 40TH PL  ","YEAR":2006,"DOING_BUSINESS_AS_NAME":"JERNBERG INDUSTRIES, INC.","POP_AT_RISK":57664,"BUSINESS_TYPE":"Manufacturing Establishments","LEGAL_NAME":"JERNBERG INDUSTRIES INC.","LONGITUDE":-87.63424403899519},
{"STATE":"IL","ZIP":60619,"LATTITUDE":41.73259590815749,"ADDRESS":"31 E 89TH ST  ","YEAR":2006,"DOING_BUSINESS_AS_NAME":"MASTERPIECE PRODUCTS INC","POP_AT_RISK":57964,"BUSINESS_TYPE":"Manufacturing Establishments","LEGAL_NAME":"MASTERPIECE PRODUCTS INC","LONGITUDE":-87.62286873161595},
{"STATE":"IL","ZIP":60617,"LATTITUDE":41.71812799992384,"ADDRESS":"9746 S AVENUE N   ","YEAR":2006,"DOING_BUSINESS_AS_NAME":"SO CHICAGO & IN HARBOR RWY","POP_AT_RISK":13632,"BUSINESS_TYPE":"Manufacturing Establishments","LEGAL_NAME":"ISG SO CHICAGO & IN HBR RY","LONGITUDE":-87.53905015329579},
{"STATE":"IL","ZIP":60655,"LATTITUDE":41.691141049982924,"ADDRESS":"11118 S ROCKWELL ST 1ST ","YEAR":2006,"DOING_BUSINESS_AS_NAME":"AMERICAN WILBERT VAULT","POP_AT_RISK":21672,"BUSINESS_TYPE":"Manufacturing Establishments","LEGAL_NAME":"AMERICAN WILBERT VAULT CORP","LONGITUDE":-87.68619901989888},
{"STATE":"IL","ZIP":60637,"LATTITUDE":41.76837202098898,"ADDRESS":"755-765 E 69TH PL  ","YEAR":2006,"DOING_BUSINESS_AS_NAME":"BILL'S SHADE & BLIND SERVICE","POP_AT_RISK":35253,"BUSINESS_TYPE":"Manufacturing Establishments","LEGAL_NAME":"BILL'S SHADE & BLIND SERVICE","LONGITUDE":-87.60684191296633},
{"STATE":"IL","ZIP":60620,"LATTITUDE":41.721748458056226,"ADDRESS":"9449 S HALSTED ST  1","YEAR":2006,"DOING_BUSINESS_AS_NAME":"HOMECRAFT CONSTRUCTION,  INC.","POP_AT_RISK":33383,"BUSINESS_TYPE":"Manufacturing Establishments","LEGAL_NAME":"HOMECRAFT CONSTRUCTION,  INC.","LONGITUDE":-87.64307373522628},
{"STATE":"IL","ZIP":60646,"LATTITUDE":42.01210106862045,"ADDRESS":"6050 W TOUHY AVE  109","YEAR":2006,"DOING_BUSINESS_AS_NAME":"ECCENTRIC DENTAL LAB","POP_AT_RISK":32259,"BUSINESS_TYPE":"Manufacturing Establishments","LEGAL_NAME":"ECCENTRIC DENTAL LABORATORY LLC","LONGITUDE":-87.77895789805753},
{"STATE":"IL","ZIP":60655,"LATTITUDE":41.69172972597,"ADDRESS":"3004 W 111TH ST 1ST ","YEAR":2006,"DOING_BUSINESS_AS_NAME":"BEVERLY SHEAR MFG CORP","POP_AT_RISK":21393,"BUSINESS_TYPE":"Manufacturing Establishments","LEGAL_NAME":"BEVERLY SHEAR MANUFACTURING CORP","LONGITUDE":-87.6963775207205},
{"STATE":"IL","ZIP":60657,"LATTITUDE":41.939094818078736,"ADDRESS":"860 W FLETCHER ST  ","YEAR":2006,"DOING_BUSINESS_AS_NAME":"ERIE BRUSH & MANUFACTURING CORP.","POP_AT_RISK":454555,"BUSINESS_TYPE":"Manufacturing Establishments","LEGAL_NAME":"ERIE BRUSH & MANUFACTURING CORP.","LONGITUDE":-87.65155455766002},
{"STATE":"IL","ZIP":60622,"LATTITUDE":41.90956224371685,"ADDRESS":"1530 N HALSTED ST 1ST ","YEAR":2006,"DOING_BUSINESS_AS_NAME":"NELSON & LAVOLD MFG CO","POP_AT_RISK":50038,"BUSINESS_TYPE":"Manufacturing Establishments","LEGAL_NAME":"NELSON & LAVOLD MANUFACTURING CO","LONGITUDE":-87.6483885323108},
{"STATE":"IL","ZIP":60649,"LATTITUDE":41.7590622669018,"ADDRESS":"2240 E 75TH ST  ","YEAR":2006,"DOING_BUSINESS_AS_NAME":"COMMERCIAL LEATHER PRODUCTS, INC.","POP_AT_RISK":263460,"BUSINESS_TYPE":"Manufacturing Establishments","LEGAL_NAME":"COMMERCIAL LEATHER PRODUCTS, INC.","LONGITUDE":-87.56962604416944},
{"STATE":"IL","ZIP":60613,"LATTITUDE":41.948077626553534,"ADDRESS":"3625 N HALSTED ST  ","YEAR":2006,"DOING_BUSINESS_AS_NAME":"PHOENIX ELECTRIC MFG CO","POP_AT_RISK":85431,"BUSINESS_TYPE":"Manufacturing Establishments","LEGAL_NAME":"PHOENIX ELECTRIC MANUFACTURING CO","LONGITUDE":-87.64936304335718},
{"STATE":"IL","ZIP":60620,"LATTITUDE":41.74471460514321,"ADDRESS":"8200 S HOYNE AVE 1ST ","YEAR":2006,"DOING_BUSINESS_AS_NAME":"TOPLINE AUTOMOTIVE","POP_AT_RISK":72752,"BUSINESS_TYPE":"Manufacturing Establishments","LEGAL_NAME":"TOPLINE AUTOMOTIVE ENGINEERING, INC","LONGITUDE":-87.67549915075645},
{"STATE":"IL","ZIP":60616,"LATTITUDE":41.844614022638424,"ADDRESS":"2635 S WABASH AVE  ","YEAR":2006,"DOING_BUSINESS_AS_NAME":"STAR THEMOPLASTIC ALLOYS AND RUBBER, INC","POP_AT_RISK":118104,"BUSINESS_TYPE":"Manufacturing Establishments","LEGAL_NAME":"STAR THERMOPLASTIC ALLOYS AND RUBBER, INC","LONGITUDE":-87.6251535376535},
}