{
{"STATE":"IL","ZIP":60647,"LATTITUDE":41.93012611532404,"ADDRESS":"2657 N KEDZIE AVE 2ND ","YEAR":2012,"DOING_BUSINESS_AS_NAME":"LONGMAN & EAGLE","POP_AT_RISK":1270620,"BUSINESS_TYPE":"Bed-And-Breakfast Establishment","LEGAL_NAME":"LOGAN B&B, LLC","LONGITUDE":-87.7072308071835},
{"STATE":"IL","ZIP":60616,"LATTITUDE":41.854923625683334,"ADDRESS":"2020 S CALUMET AVE 1-3 ","YEAR":2012,"DOING_BUSINESS_AS_NAME":"THE WHEELER MANSION","POP_AT_RISK":155945,"BUSINESS_TYPE":"Bed-And-Breakfast Establishment","LEGAL_NAME":"MANOR HOME, LLC","LONGITUDE":-87.61923591538195},
{"STATE":"IL","ZIP":60637,"LATTITUDE":41.78307385935575,"ADDRESS":"6137 S KIMBARK AVE 1 ","YEAR":2012,"DOING_BUSINESS_AS_NAME":"UNIVERSITY QUARTERS","POP_AT_RISK":593856,"BUSINESS_TYPE":"Bed-And-Breakfast Establishment","LEGAL_NAME":"QB PARTNERS LLC","LONGITUDE":-87.59455735897593},
{"STATE":"IL","ZIP":60626,"LATTITUDE":42.016815596678676,"ADDRESS":"7421 N SHERIDAN RD  ","YEAR":2012,"DOING_BUSINESS_AS_NAME":"THE LANG HOUSE B&B ON SHERIDAN","POP_AT_RISK":262960,"BUSINESS_TYPE":"Bed-And-Breakfast Establishment","LEGAL_NAME":"CAT'S CRADLE LLC","LONGITUDE":-87.66515820029109},
{"STATE":"IL","ZIP":60660,"LATTITUDE":41.98847127357948,"ADDRESS":"5863 N GLENWOOD AVE 2 ","YEAR":2012,"DOING_BUSINESS_AS_NAME":"HOUSE 5863, INC.","POP_AT_RISK":134164,"BUSINESS_TYPE":"Bed-And-Breakfast Establishment","LEGAL_NAME":"HOUSE 5863, INC.","LONGITUDE":-87.66494926835773},
{"STATE":"IL","ZIP":60615,"LATTITUDE":41.807395667081856,"ADDRESS":"4810 S ELLIS AVE  ","YEAR":2012,"DOING_BUSINESS_AS_NAME":"HUTCHINS HOUSE LTD","POP_AT_RISK":475260,"BUSINESS_TYPE":"Bed-And-Breakfast Establishment","LEGAL_NAME":"HUTCHINS HOUSE LTD","LONGITUDE":-87.60180487566743},
{"STATE":"IL","ZIP":60640,"LATTITUDE":41.97527615293627,"ADDRESS":"1303 W WINONA ST 2 2","YEAR":2012,"DOING_BUSINESS_AS_NAME":"NINA'S BED AND BREAKFAST","POP_AT_RISK":528451,"BUSINESS_TYPE":"Bed-And-Breakfast Establishment","LEGAL_NAME":"BARNES & HENLEY LLC","LONGITUDE":-87.66264799211612},
{"STATE":"IL","ZIP":60613,"LATTITUDE":41.95327822988729,"ADDRESS":"3924 N JANSSEN AVE  ","YEAR":2012,"DOING_BUSINESS_AS_NAME":"NYBERG B & B","POP_AT_RISK":994396,"BUSINESS_TYPE":"Bed-And-Breakfast Establishment","LEGAL_NAME":"ANDERS AND MYRA NYBERG","LONGITUDE":-87.66596582772932},
{"STATE":"IL","ZIP":60653,"LATTITUDE":41.81125870704504,"ADDRESS":"4563 S MICHIGAN AVE 2ND ","YEAR":2012,"DOING_BUSINESS_AS_NAME":"WELCOME INN MANOR INC.","POP_AT_RISK":337722,"BUSINESS_TYPE":"Bed-And-Breakfast Establishment","LEGAL_NAME":"WELCOME INN MANOR INC.","LONGITUDE":-87.62274179271307},
{"STATE":"IL","ZIP":60608,"LATTITUDE":41.837590524804014,"ADDRESS":"3111 S ABERDEEN ST  ","YEAR":2012,"DOING_BUSINESS_AS_NAME":"BENEDINTINE BED & BREAKFAST","POP_AT_RISK":85938,"BUSINESS_TYPE":"Bed-And-Breakfast Establishment","LEGAL_NAME":"MONASTERY OF THE HOLY CROSS","LONGITUDE":-87.65342653239723},
{"STATE":"IL","ZIP":60608,"LATTITUDE":41.83361886880686,"ADDRESS":"3322 S MORGAN ST  ","YEAR":2012,"DOING_BUSINESS_AS_NAME":"POLO CAFE AND CATERING BRIDGEPORT U.S.A.","POP_AT_RISK":39947,"BUSINESS_TYPE":"Bed-And-Breakfast Establishment","LEGAL_NAME":"BRIDGEPORT U.S.A. CORPORATION","LONGITUDE":-87.65118268844637},
{"STATE":"IL","ZIP":60626,"LATTITUDE":41.99831399969696,"ADDRESS":"6408 N CLARK ST 3 3","YEAR":2012,"DOING_BUSINESS_AS_NAME":"THE ASHLAND ARMS GUEST HOUSE","POP_AT_RISK":242490,"BUSINESS_TYPE":"Bed-And-Breakfast Establishment","LEGAL_NAME":"THE ASHLAND ARMS GUEST HOUSE, INC.","LONGITUDE":-87.67083013237472},
{"STATE":"IL","ZIP":60657,"LATTITUDE":41.940625752567506,"ADDRESS":"3222 N SHEFFIELD AVE  ","YEAR":2012,"DOING_BUSINESS_AS_NAME":"OLD CHICAGO INN","POP_AT_RISK":990638,"BUSINESS_TYPE":"Bed-And-Breakfast Establishment","LEGAL_NAME":"OLD CHICAGO INN & TRANSIT COMPANY, LTD.","LONGITUDE":-87.65427606293785},
}