{
{"STATE":"IL","ZIP":60608,"LATTITUDE":41.834745401604216,"ADDRESS":"3265 S ARCHER AVE 1ST ","YEAR":2013,"DOING_BUSINESS_AS_NAME":"THE HARDCORE ELEMENT TATTOO STUDIO","POP_AT_RISK":300447,"BUSINESS_TYPE":"Body Piercing","LEGAL_NAME":"JOSE L RAMIREZ","LONGITUDE":-87.67031467723689},
{"STATE":"IL","ZIP":60622,"LATTITUDE":41.89577571634698,"ADDRESS":"2706 W CHICAGO AVE 1ST ","YEAR":2013,"DOING_BUSINESS_AS_NAME":"FOREVER INK","POP_AT_RISK":494736,"BUSINESS_TYPE":"Body Piercing","LEGAL_NAME":"MARIO MUNOZ JR.","LONGITUDE":-87.69450806537272},
{"STATE":"IL","ZIP":60622,"LATTITUDE":41.91067434035661,"ADDRESS":"1754 W NORTH AVE 1ST ","YEAR":2013,"DOING_BUSINESS_AS_NAME":"TATU TATTOO INC","POP_AT_RISK":129738,"BUSINESS_TYPE":"Body Piercing","LEGAL_NAME":"TATU TATTOO INC","LONGITUDE":-87.67228303147428},
{"STATE":"IL","ZIP":60642,"LATTITUDE":41.90110296450634,"ADDRESS":"1062 N MILWAUKEE AVE 1ST ","YEAR":2013,"DOING_BUSINESS_AS_NAME":"INSIGHT STUDIOS","POP_AT_RISK":245980,"BUSINESS_TYPE":"Body Piercing","LEGAL_NAME":"HTH INCORPORATED","LONGITUDE":-87.66319844892888},
{"STATE":"IL","ZIP":60641,"LATTITUDE":41.9430471545609,"ADDRESS":"3418 N CICERO AVE 1 1","YEAR":2013,"DOING_BUSINESS_AS_NAME":"VAMPIRES PROFESSIONAL TATTOOS","POP_AT_RISK":485199,"BUSINESS_TYPE":"Body Piercing","LEGAL_NAME":"MIGUEL ACOSTA III","LONGITUDE":-87.74712637857343},
{"STATE":"IL","ZIP":60652,"LATTITUDE":41.75466012439374,"ADDRESS":"7601 S CICERO AVE  K-2","YEAR":2013,"DOING_BUSINESS_AS_NAME":"PIERCING PAGODA","POP_AT_RISK":129110,"BUSINESS_TYPE":"Body Piercing","LEGAL_NAME":"ZALE DELAWARE, INC.","LONGITUDE":-87.74138475860521},
{"STATE":"IL","ZIP":60618,"LATTITUDE":41.95665252968386,"ADDRESS":"4168 N ELSTON AVE 1 ","YEAR":2013,"DOING_BUSINESS_AS_NAME":"Twisted Tattoo Studio","POP_AT_RISK":656736,"BUSINESS_TYPE":"Body Piercing","LEGAL_NAME":"Tattoo Temple Company","LONGITUDE":-87.72369697421021},
{"STATE":"IL","ZIP":60613,"LATTITUDE":41.95474491770697,"ADDRESS":"4005 N BROADWAY  1 ","YEAR":2013,"DOING_BUSINESS_AS_NAME":"ROYAL FLESH TATTOO AND BODY PIERCING","POP_AT_RISK":1661990,"BUSINESS_TYPE":"Body Piercing","LEGAL_NAME":"CHICAGO TATTOO WORLD INC.","LONGITUDE":-87.65049531048885},
{"STATE":"IL","ZIP":60623,"LATTITUDE":41.84776668182944,"ADDRESS":"2410 S KEDZIE AVE  ","YEAR":2013,"DOING_BUSINESS_AS_NAME":"AGELESS ARTS","POP_AT_RISK":1466860,"BUSINESS_TYPE":"Body Piercing","LEGAL_NAME":"EXOTIC BODY CREATIONS INC.","LONGITUDE":-87.70528457405833},
{"STATE":"IL","ZIP":60641,"LATTITUDE":41.95739629659589,"ADDRESS":"4211 N MILWAUKEE AVE 1ST ","YEAR":2013,"DOING_BUSINESS_AS_NAME":"STAINED IN PAIN TATTOOS","POP_AT_RISK":150816,"BUSINESS_TYPE":"Body Piercing","LEGAL_NAME":"TAT 2 JIMMYS' BODY SHOP LLC","LONGITUDE":-87.7515031559091},
{"STATE":"IL","ZIP":60610,"LATTITUDE":41.90395181395662,"ADDRESS":"218 W DIVISION ST 1 1","YEAR":2013,"DOING_BUSINESS_AS_NAME":"WINDY CITY TATTOO GALLERY","POP_AT_RISK":1591640,"BUSINESS_TYPE":"Body Piercing","LEGAL_NAME":"WINDY CITY TATTOO GALLERY LLC","LONGITUDE":-87.63531980287914},
{"STATE":"IL","ZIP":60617,"LATTITUDE":41.7477492117195,"ADDRESS":"8100 S STONY ISLAND AVE 1ST ","YEAR":2013,"DOING_BUSINESS_AS_NAME":"INKFUL THOUGHTS ART STUDIO INC.","POP_AT_RISK":179210,"BUSINESS_TYPE":"Body Piercing","LEGAL_NAME":"INKFUL THOUGHTS ART STUDIO INC.","LONGITUDE":-87.58603741639237},
{"STATE":"IL","ZIP":60620,"LATTITUDE":41.728908842874795,"ADDRESS":"9046 S ASHLAND AVE 1ST ","YEAR":2013,"DOING_BUSINESS_AS_NAME":"INKHART TATTOOS AND BODY PIERCING","POP_AT_RISK":263664,"BUSINESS_TYPE":"Body Piercing","LEGAL_NAME":"INKHART TATTOOS AND BODY PIERCING","LONGITUDE":-87.66300955881535},
{"STATE":"IL","ZIP":60617,"LATTITUDE":41.73909042472304,"ADDRESS":"8548 S STONY ISLAND AVE  ","YEAR":2013,"DOING_BUSINESS_AS_NAME":"SOUTHSIDE TATTOOS & BODY PIERCING LLC","POP_AT_RISK":130492,"BUSINESS_TYPE":"Body Piercing","LEGAL_NAME":"SOUTHSIDE TATTOOS & BODY PIERCING LLC","LONGITUDE":-87.5858420548468},
{"STATE":"IL","ZIP":60608,"LATTITUDE":41.8533014640748,"ADDRESS":"2150 S CANALPORT AVE 4TH 4C-16","YEAR":2013,"DOING_BUSINESS_AS_NAME":"VIVID INK GALLERY","POP_AT_RISK":568945,"BUSINESS_TYPE":"Body Piercing","LEGAL_NAME":"JAYCE THOMAS, JUSTIN WRICE, AARON HOPKINS","LONGITUDE":-87.649929695282},
{"STATE":"IL","ZIP":60622,"LATTITUDE":41.91073535164557,"ADDRESS":"1606 W NORTH AVE 1 ","YEAR":2013,"DOING_BUSINESS_AS_NAME":"INFAMOUS INK","POP_AT_RISK":58439,"BUSINESS_TYPE":"Body Piercing","LEGAL_NAME":"INFAMOUS INK TATTOO & BODY PIERCING STUDIO LLC","LONGITUDE":-87.66800890812752},
{"STATE":"IL","ZIP":60634,"LATTITUDE":41.94614067741539,"ADDRESS":"3629 N HARLEM AVE 1ST ","YEAR":2013,"DOING_BUSINESS_AS_NAME":"KIDD JOE' S TAT CAVE TATTOO & BODY PIERCING","POP_AT_RISK":339948,"BUSINESS_TYPE":"Body Piercing","LEGAL_NAME":"KIDD JOE' S TAT CAVE TATTOO & BODY PIERCING LLC","LONGITUDE":-87.80688892934933},
}