{
{"STATE":"IL","ZIP":60623,"LATTITUDE":41.85540289350027,"ADDRESS":"2875 W 19TH ST  1","YEAR":2013,"DOING_BUSINESS_AS_NAME":"ST. ANTHONY HOSPITAL","POP_AT_RISK":687358,"BUSINESS_TYPE":"Hospital","LEGAL_NAME":"SAINT ANTHONY HOSPITAL","LONGITUDE":-87.69870754487314},
{"STATE":"IL","ZIP":60624,"LATTITUDE":41.89056922593429,"ADDRESS":"520 N RIDGEWAY AVE  1","YEAR":2013,"DOING_BUSINESS_AS_NAME":"HARTGROVE HOSPITAL","POP_AT_RISK":117903,"BUSINESS_TYPE":"Hospital","LEGAL_NAME":"UHS OF HARTGROVE, INC.","LONGITUDE":-87.71998387578803},
{"STATE":"IL","ZIP":60644,"LATTITUDE":41.86565488609488,"ADDRESS":"5730 W ROOSEVELT RD  ","YEAR":2013,"DOING_BUSINESS_AS_NAME":"HARTGROVE HOSPITAL","POP_AT_RISK":482870,"BUSINESS_TYPE":"Hospital","LEGAL_NAME":"UHS OF HARTGROVE, INC.","LONGITUDE":-87.76805077897151},
{"STATE":"IL","ZIP":60613,"LATTITUDE":41.95464082537165,"ADDRESS":"850 W IRVING PARK RD  1","YEAR":2013,"DOING_BUSINESS_AS_NAME":"THOREK MEMORIAL HOSPITAL","POP_AT_RISK":1208720,"BUSINESS_TYPE":"Hospital","LEGAL_NAME":"THOREK MEMORIAL HOSPITAL","LONGITUDE":-87.65156901235385},
{"STATE":"IL","ZIP":60617,"LATTITUDE":41.74945060417943,"ADDRESS":"8012 S CRANDON AVE 1ST ","YEAR":2013,"DOING_BUSINESS_AS_NAME":"SOUTH SHORE HOSPITAL","POP_AT_RISK":264684,"BUSINESS_TYPE":"Hospital","LEGAL_NAME":"SOUTH SHORE HOSPITAL CORP","LONGITUDE":-87.5687786244394},
{"STATE":"IL","ZIP":60612,"LATTITUDE":41.87499492139062,"ADDRESS":"1753 W CONGRESS PKWY  ","YEAR":2013,"DOING_BUSINESS_AS_NAME":"RUSH CHILDREN'S SERVICES","POP_AT_RISK":101532,"BUSINESS_TYPE":"Hospital","LEGAL_NAME":"RUSH UNIVERSITY MEDICAL CENTER","LONGITUDE":-87.67126464972608},
{"STATE":"IL","ZIP":60612,"LATTITUDE":41.87503334144109,"ADDRESS":"1653 W CONGRESS PKWY POB III 364","YEAR":2013,"DOING_BUSINESS_AS_NAME":"RUSH UNIVERSITY MEDICAL CENTER","POP_AT_RISK":30712,"BUSINESS_TYPE":"Hospital","LEGAL_NAME":"RUSH UNIVERSITY MEDICAL CENTER","LONGITUDE":-87.66875300130346},
{"STATE":"IL","ZIP":60707,"LATTITUDE":41.920336171536384,"ADDRESS":"2211 N OAK PARK AVE  ","YEAR":2013,"DOING_BUSINESS_AS_NAME":"SHRINERS HOSPITALS FOR CHILDREN","POP_AT_RISK":289898,"BUSINESS_TYPE":"Hospital","LEGAL_NAME":"SHRINERS HOSPITALS FOR CHILDREN","LONGITUDE":-87.7949943024895},
{"STATE":"IL","ZIP":60616,"LATTITUDE":41.847231123487234,"ADDRESS":"2510 S DR MARTIN LUTHER KING JR DR  ","YEAR":2013,"DOING_BUSINESS_AS_NAME":"MERCY HOSPITAL\/MEDICAL CENTER","POP_AT_RISK":452738,"BUSINESS_TYPE":"Hospital","LEGAL_NAME":"MERCY HOSPITAL AND MEDICAL CENTER","LONGITUDE":-87.61785599314607},
{"STATE":"IL","ZIP":60622,"LATTITUDE":41.900524957170965,"ADDRESS":"1044 N FRANCISCO AVE # 1","YEAR":2013,"DOING_BUSINESS_AS_NAME":"NORWEGIAN-AMERICIAN HOSPITAL","POP_AT_RISK":189828,"BUSINESS_TYPE":"Hospital","LEGAL_NAME":"NORWEGIAN AMERICAN HOSPITAL, INC.","LONGITUDE":-87.69943295362468},
{"STATE":"IL","ZIP":60621,"LATTITUDE":41.77821515610851,"ADDRESS":"326 W 64TH ST 1ST ","YEAR":2013,"DOING_BUSINESS_AS_NAME":"ST BERNARD HOSPITAL & HEALTH CENTER","POP_AT_RISK":282460,"BUSINESS_TYPE":"Hospital","LEGAL_NAME":"ST BERNARD HOSPITAL & HEALTH CENTER","LONGITUDE":-87.63346442603714},
{"STATE":"IL","ZIP":60631,"LATTITUDE":41.98857518279947,"ADDRESS":"7435 W TALCOTT AVE 1ST ","YEAR":2013,"DOING_BUSINESS_AS_NAME":"PRESENCE RESURRECTION MEDICAL CENTER","POP_AT_RISK":108720,"BUSINESS_TYPE":"Hospital","LEGAL_NAME":"PRESENCE RESURRECTION MEDICAL CENTER","LONGITUDE":-87.81297791219501},
{"STATE":"IL","ZIP":60640,"LATTITUDE":41.97035250602275,"ADDRESS":"4840 N MARINE DR 1ST ","YEAR":2013,"DOING_BUSINESS_AS_NAME":"AURORA CHICAGO LAKESHORE HOSPITAL","POP_AT_RISK":500128,"BUSINESS_TYPE":"Hospital","LEGAL_NAME":"AURORA CHICAGO LAKESHORE HOSPITAL, LLC","LONGITUDE":-87.65013474477234},
{"STATE":"IL","ZIP":60624,"LATTITUDE":41.87532906210967,"ADDRESS":"3435 W VAN BUREN ST 1 1","YEAR":2013,"DOING_BUSINESS_AS_NAME":"RML CHICAGO","POP_AT_RISK":332224,"BUSINESS_TYPE":"Hospital","LEGAL_NAME":"RML HEALTH PROVIDERS LIMITED PARTNERSHIP","LONGITUDE":-87.71214702805145},
{"STATE":"IL","ZIP":60617,"LATTITUDE":41.726329231442904,"ADDRESS":"2320 E 93RD ST  ","YEAR":2013,"DOING_BUSINESS_AS_NAME":"ADVOCATE TRINITY HOSPITAL","POP_AT_RISK":123864,"BUSINESS_TYPE":"Hospital","LEGAL_NAME":"ADVOCATE HEALTH AND HOSPITALS CORPORATION","LONGITUDE":-87.56727090823563},
{"STATE":"IL","ZIP":60622,"LATTITUDE":41.907627207523525,"ADDRESS":"1431 N CLAREMONT AVE  1","YEAR":2013,"DOING_BUSINESS_AS_NAME":"PRESENCE SAINT ELIZABETH HOSPITAL","POP_AT_RISK":277916,"BUSINESS_TYPE":"Hospital","LEGAL_NAME":"PRESENCE SAINTS MARY AND ELIZABETH MEDICAL CENTER","LONGITUDE":-87.68578575863826},
{"STATE":"IL","ZIP":60622,"LATTITUDE":41.90297191226172,"ADDRESS":"2233 W DIVISION ST 1ST ","YEAR":2013,"DOING_BUSINESS_AS_NAME":"PRESENCE SAINT MARY OF NAZARETH HOSPITAL","POP_AT_RISK":293232,"BUSINESS_TYPE":"Hospital","LEGAL_NAME":"PRESENCE SAINTS MARY AND ELIZABETH MEDICAL CENTER","LONGITUDE":-87.68348493134597},
}