{
{"STATE":"IL","ZIP":60639,"LATTITUDE":41.92414989457289,"ADDRESS":"5406-5408 W FULLERTON AVE 1ST ","YEAR":2013,"DOING_BUSINESS_AS_NAME":"ALEGRA","POP_AT_RISK":915194,"BUSINESS_TYPE":"Food - Shared Kitchen - Supplemental","LEGAL_NAME":"S 5408 INC.","LONGITUDE":-87.76136988672664},
{"STATE":"IL","ZIP":60647,"LATTITUDE":41.91023000926717,"ADDRESS":"2325 W NORTH AVE 1ST ","YEAR":2013,"DOING_BUSINESS_AS_NAME":"NAVEEN' S CUISINE","POP_AT_RISK":140630,"BUSINESS_TYPE":"Food - Shared Kitchen - Supplemental","LEGAL_NAME":"SACHAR INC.","LONGITUDE":-87.6858503668328},
{"STATE":"IL","ZIP":60649,"LATTITUDE":41.75888651800864,"ADDRESS":"2419-2425 E 75TH ST 1 ","YEAR":2013,"DOING_BUSINESS_AS_NAME":"THE QUARRY EVENT CENTER","POP_AT_RISK":654332,"BUSINESS_TYPE":"Food - Shared Kitchen - Supplemental","LEGAL_NAME":"UNEARTHED LLC","LONGITUDE":-87.56565795329745},
{"STATE":"IL","ZIP":60608,"LATTITUDE":41.85045102427,"ADDRESS":"2300 S THROOP ST  ","YEAR":2013,"DOING_BUSINESS_AS_NAME":"CHICAGO SMOKE LTD","POP_AT_RISK":288708,"BUSINESS_TYPE":"Food - Shared Kitchen - Supplemental","LEGAL_NAME":"CHICAGO SMOKE LTD.","LONGITUDE":-87.65879785567869},
{"STATE":"IL","ZIP":60611,"LATTITUDE":41.89924859703626,"ADDRESS":"900 N MICHIGAN AVE LOWER LEVEL L320","YEAR":2013,"DOING_BUSINESS_AS_NAME":"SUR LA TABLE","POP_AT_RISK":253236,"BUSINESS_TYPE":"Food - Shared Kitchen - Supplemental","LEGAL_NAME":"SUR LA TABLE, INC.","LONGITUDE":-87.62427497820545},
{"STATE":"IL","ZIP":60608,"LATTITUDE":41.85923166317091,"ADDRESS":"2443 W 16TH ST 1ST ","YEAR":2013,"DOING_BUSINESS_AS_NAME":"CATERING OUT THE BOX","POP_AT_RISK":220548,"BUSINESS_TYPE":"Food - Shared Kitchen - Supplemental","LEGAL_NAME":"CATERING OUT THE BOX","LONGITUDE":-87.68748555402212},
{"STATE":"IL","ZIP":60647,"LATTITUDE":41.92521769617991,"ADDRESS":"2409 N WESTERN AVE 1ST ","YEAR":2013,"DOING_BUSINESS_AS_NAME":"VERUCA CHOCOLATES","POP_AT_RISK":168597,"BUSINESS_TYPE":"Food - Shared Kitchen - Supplemental","LEGAL_NAME":"VERUCA CHOCOLATES CO.","LONGITUDE":-87.68750659490456},
{"STATE":"IL","ZIP":60622,"LATTITUDE":41.89777927693502,"ADDRESS":"901 N DAMEN AVE 1ST ","YEAR":2013,"DOING_BUSINESS_AS_NAME":"CAESAR'S FOODS INC","POP_AT_RISK":322630,"BUSINESS_TYPE":"Food - Shared Kitchen - Supplemental","LEGAL_NAME":"CAESAR'S FOODS, INC.  ","LONGITUDE":-87.67695886634722},
{"STATE":"IL","ZIP":60646,"LATTITUDE":41.985762969681936,"ADDRESS":"5740 N MILWAUKEE AVE 1 1","YEAR":2013,"DOING_BUSINESS_AS_NAME":"A MIDWEST KITCHEN","POP_AT_RISK":165282,"BUSINESS_TYPE":"Food - Shared Kitchen - Supplemental","LEGAL_NAME":"A MIDWEST KITCHEN, INC.","LONGITUDE":-87.77712906969982},
{"STATE":"IL","ZIP":60618,"LATTITUDE":41.95483275387562,"ADDRESS":"4019 N DAMEN AVE 1 ","YEAR":2013,"DOING_BUSINESS_AS_NAME":"ESPRESSO THY ART","POP_AT_RISK":1392995,"BUSINESS_TYPE":"Food - Shared Kitchen - Supplemental","LEGAL_NAME":"THE BALINGIT GROUP, LLC","LONGITUDE":-87.67862617510166},
{"STATE":"IL","ZIP":60612,"LATTITUDE":41.89275410387521,"ADDRESS":"627 N ALBANY AVE 1ST 170","YEAR":2013,"DOING_BUSINESS_AS_NAME":"MILK & HONEY GRANOLA","POP_AT_RISK":347418,"BUSINESS_TYPE":"Food - Shared Kitchen - Supplemental","LEGAL_NAME":"MILK & HONEY GRANOLA, LLC","LONGITUDE":-87.70386026922512},
{"STATE":"IL","ZIP":60608,"LATTITUDE":41.84994008002549,"ADDRESS":"2332 S BLUE ISLAND AVE GROUND ","YEAR":2013,"DOING_BUSINESS_AS_NAME":"MEXICANDY DISTRIBUTOR, INC.","POP_AT_RISK":40302,"BUSINESS_TYPE":"Food - Shared Kitchen - Supplemental","LEGAL_NAME":"MEXICANDY DISTRIBUTOR, INC.","LONGITUDE":-87.67242100722251},
{"STATE":"IL","ZIP":60623,"LATTITUDE":41.84635540148372,"ADDRESS":"2459 S HOMAN AVE 1ST 1","YEAR":2013,"DOING_BUSINESS_AS_NAME":"EL CHIVITO JALICIENSE CORP","POP_AT_RISK":1171520,"BUSINESS_TYPE":"Food - Shared Kitchen - Supplemental","LEGAL_NAME":"EL CHIVITO JALICIENSE, CORP.","LONGITUDE":-87.70981611899299},
{"STATE":"IL","ZIP":60660,"LATTITUDE":41.994481856507505,"ADDRESS":"1039-1041 W GRANVILLE AVE  ","YEAR":2013,"DOING_BUSINESS_AS_NAME":"METROPOLIS COFFEE COMPANY","POP_AT_RISK":1156914,"BUSINESS_TYPE":"Food - Shared Kitchen - Supplemental","LEGAL_NAME":"METROPOLIS COFFEE COMPANY LLC","LONGITUDE":-87.65710041981102},
{"STATE":"IL","ZIP":60609,"LATTITUDE":41.80273484640242,"ADDRESS":"5032 S STATE ST  ","YEAR":2013,"DOING_BUSINESS_AS_NAME":"UNIVERSITY FOOD SYSTEMS, INC.","POP_AT_RISK":367170,"BUSINESS_TYPE":"Food - Shared Kitchen - Supplemental","LEGAL_NAME":"UNIVERSITY FOOD SYSTEMS, INC.","LONGITUDE":-87.6260562037592},
{"STATE":"IL","ZIP":60618,"LATTITUDE":41.94254075021183,"ADDRESS":"3355-3361 N ELSTON AVE 1 ","YEAR":2013,"DOING_BUSINESS_AS_NAME":"HONEY BUTTER FRIED CHICKEN","POP_AT_RISK":473427,"BUSINESS_TYPE":"Food - Shared Kitchen - Supplemental","LEGAL_NAME":"HONEY BUTTER FRIED CHICKEN LLC","LONGITUDE":-87.70268272764137},
{"STATE":"IL","ZIP":60647,"LATTITUDE":41.917386311482865,"ADDRESS":"2745 W ARMITAGE AVE  ","YEAR":2013,"DOING_BUSINESS_AS_NAME":"KATHERINE ANNE CONFECTIONS","POP_AT_RISK":398064,"BUSINESS_TYPE":"Food - Shared Kitchen - Supplemental","LEGAL_NAME":"KATHERINE ANNE CONFECTIONS, LLC","LONGITUDE":-87.69658543262949},
{"STATE":"IL","ZIP":60631,"LATTITUDE":42.00224676505933,"ADDRESS":"6701 N OLMSTED AVE 1ST ","YEAR":2013,"DOING_BUSINESS_AS_NAME":"LE FLOUR BAKE SHOP & MARKET INC.","POP_AT_RISK":94590,"BUSINESS_TYPE":"Food - Shared Kitchen - Supplemental","LEGAL_NAME":"LE FLOUR BAKE SHOP & MARKET INC.","LONGITUDE":-87.81681363623768},
{"STATE":"IL","ZIP":60614,"LATTITUDE":41.91849213778706,"ADDRESS":"2008 N HALSTED ST 1REAR ","YEAR":2013,"DOING_BUSINESS_AS_NAME":"INTERURBAN CAFE & PASTRY SHOP","POP_AT_RISK":53684,"BUSINESS_TYPE":"Food - Shared Kitchen - Supplemental","LEGAL_NAME":"INTERURBAN CAFE & PASTRY SHOP LLC","LONGITUDE":-87.64866909416301},
{"STATE":"IL","ZIP":60621,"LATTITUDE":41.7798631678725,"ADDRESS":"740 W 63RD ST 1ST REAR","YEAR":2013,"DOING_BUSINESS_AS_NAME":"WASHBURNE CULINARY INSITUTE INCUBATOR KITCHENS","POP_AT_RISK":455056,"BUSINESS_TYPE":"Food - Shared Kitchen - Supplemental","LEGAL_NAME":"COMMUNITY COLLEGE DISTRICT 508, INC.","LONGITUDE":-87.6445278756232},
{"STATE":"IL","ZIP":60625,"LATTITUDE":41.978707104958744,"ADDRESS":"5333 N LINCOLN AVE 1 ","YEAR":2013,"DOING_BUSINESS_AS_NAME":"RUTH AND PHILS GOURMET ICE CREAM","POP_AT_RISK":445290,"BUSINESS_TYPE":"Food - Shared Kitchen - Supplemental","LEGAL_NAME":"RUTH AND PHILS GOURMET ICE CREAM INC.","LONGITUDE":-87.69248157921781},
{"STATE":"IL","ZIP":60607,"LATTITUDE":41.88157126308661,"ADDRESS":"1045 W MADISON ST FIRST ","YEAR":2013,"DOING_BUSINESS_AS_NAME":"The Westminster Hot Dog","POP_AT_RISK":237834,"BUSINESS_TYPE":"Food - Shared Kitchen - Supplemental","LEGAL_NAME":"The Westminster Hot Dog on Madison, Inc.","LONGITUDE":-87.65380789789538},
}