{
{"STATE":"IL","ZIP":60617,"LATTITUDE":41.73836365090802,"ADDRESS":"8610 S STONY ISLAND AVE  1","YEAR":2013,"DOING_BUSINESS_AS_NAME":"MCCANNS TRAVEL CONSULTANTS","POP_AT_RISK":293607,"BUSINESS_TYPE":"Broker","LEGAL_NAME":"GERALDINE MCCANN","LONGITUDE":-87.58582376980675},
{"STATE":"IL","ZIP":60638,"LATTITUDE":41.792020152973315,"ADDRESS":"6835 W ARCHER AVE 1ST ","YEAR":2013,"DOING_BUSINESS_AS_NAME":"TRAVEL FORUM,INC","POP_AT_RISK":37594,"BUSINESS_TYPE":"Broker","LEGAL_NAME":"TRAVEL FORUM,INC","LONGITUDE":-87.79293805360257},
{"STATE":"IL","ZIP":60617,"LATTITUDE":41.72769636162106,"ADDRESS":"9214 S COMMERCIAL AVE 1ST ","YEAR":2013,"DOING_BUSINESS_AS_NAME":"AEREA TRAVELS","POP_AT_RISK":123914,"BUSINESS_TYPE":"Broker","LEGAL_NAME":"AEREA TRAVELS INC","LONGITUDE":-87.551350171216},
{"STATE":"IL","ZIP":60659,"LATTITUDE":41.9971660175205,"ADDRESS":"3601 W DEVON AVE 3RD 302","YEAR":2013,"DOING_BUSINESS_AS_NAME":"NATRAJ TRAVEL INC","POP_AT_RISK":66728,"BUSINESS_TYPE":"Broker","LEGAL_NAME":"NATRAJ TRAVEL INC","LONGITUDE":-87.71912546490086},
{"STATE":"IL","ZIP":60618,"LATTITUDE":41.95596282713479,"ADDRESS":"4107 N KEDZIE AVE 1ST ","YEAR":2013,"DOING_BUSINESS_AS_NAME":"STYLE TRAVEL INC.","POP_AT_RISK":249120,"BUSINESS_TYPE":"Broker","LEGAL_NAME":"STYLE TRAVEL INC.","LONGITUDE":-87.70792906171704},
{"STATE":"IL","ZIP":60631,"LATTITUDE":41.9983154842264,"ADDRESS":"6444 N MILWAUKEE AVE 1 ","YEAR":2013,"DOING_BUSINESS_AS_NAME":"UNIDEA TRAVEL INC","POP_AT_RISK":20191,"BUSINESS_TYPE":"Broker","LEGAL_NAME":"Unidea Travel Inc","LONGITUDE":-87.78893311288257},
{"STATE":"IL","ZIP":60620,"LATTITUDE":41.74595426680885,"ADDRESS":"8116 S WESTERN AVE 1ST ","YEAR":2013,"DOING_BUSINESS_AS_NAME":"WAY TO GO TRAVEL","POP_AT_RISK":171042,"BUSINESS_TYPE":"Broker","LEGAL_NAME":"VIRGINIA L. SMITH","LONGITUDE":-87.68289677791954},
{"STATE":"IL","ZIP":60622,"LATTITUDE":41.89578536128671,"ADDRESS":"2642 W CHICAGO AVE FIRST ","YEAR":2013,"DOING_BUSINESS_AS_NAME":"BRIDGE2CUBA","POP_AT_RISK":258510,"BUSINESS_TYPE":"Broker","LEGAL_NAME":"C&T CHARTERS, INC.","LONGITUDE":-87.69350395147679},
{"STATE":"IL","ZIP":60616,"LATTITUDE":41.834666275350294,"ADDRESS":"3258 S WELLS ST  ","YEAR":2013,"DOING_BUSINESS_AS_NAME":"GOLD COAST TICKETS","POP_AT_RISK":33335,"BUSINESS_TYPE":"Broker","LEGAL_NAME":"GOLD COAST TICKETS","LONGITUDE":-87.63294499555415},
{"STATE":"IL","ZIP":60612,"LATTITUDE":41.88142460173036,"ADDRESS":"1960 W MADISON ST 1ST ","YEAR":2013,"DOING_BUSINESS_AS_NAME":"GOLD COAST TICKETS","POP_AT_RISK":185484,"BUSINESS_TYPE":"Broker","LEGAL_NAME":"GOLD COAST TICKETS","LONGITUDE":-87.67658458679239},
{"STATE":"IL","ZIP":60639,"LATTITUDE":41.90979943439147,"ADDRESS":"4560 W NORTH AVE 1 1","YEAR":2013,"DOING_BUSINESS_AS_NAME":"TICKETMASER","POP_AT_RISK":362408,"BUSINESS_TYPE":"Broker","LEGAL_NAME":"TICKETMASTER L.L.C.","LONGITUDE":-87.74095425785855},
{"STATE":"IL","ZIP":60657,"LATTITUDE":41.93982199239818,"ADDRESS":"929 W BELMONT AVE 1ST ","YEAR":2013,"DOING_BUSINESS_AS_NAME":"TICKETMASTER","POP_AT_RISK":188468,"BUSINESS_TYPE":"Broker","LEGAL_NAME":"TICKETMASTER L.L.C.","LONGITUDE":-87.6526752946832},
{"STATE":"IL","ZIP":60609,"LATTITUDE":41.80869986325559,"ADDRESS":"1640 W 47TH ST 1ST FLOOR 1","YEAR":2013,"DOING_BUSINESS_AS_NAME":"ACUARIO TRAVEL AGENCY","POP_AT_RISK":37859,"BUSINESS_TYPE":"Broker","LEGAL_NAME":"DORANTES CORPORATION","LONGITUDE":-87.66655836957318},
{"STATE":"IL","ZIP":60639,"LATTITUDE":41.931747646640716,"ADDRESS":"4444 W DIVERSEY AVE 1ST ","YEAR":2013,"DOING_BUSINESS_AS_NAME":"AGENCIA LATINOS","POP_AT_RISK":560744,"BUSINESS_TYPE":"Broker","LEGAL_NAME":"MARIA LUCERO MONTOYA","LONGITUDE":-87.73863903726463},
{"STATE":"IL","ZIP":60666,"LATTITUDE":42.008536400868735,"ADDRESS":"11601 W TOUHY AVE  ","YEAR":2013,"DOING_BUSINESS_AS_NAME":"CONTINENTAL AIRLINES","POP_AT_RISK":4956,"BUSINESS_TYPE":"Broker","LEGAL_NAME":"UNITED AIRLINES, INC.","LONGITUDE":-87.91442843927047},
{"STATE":"IL","ZIP":60616,"LATTITUDE":41.84105059239382,"ADDRESS":"2930 S MICHIGAN AVE 1ST 100","YEAR":2013,"DOING_BUSINESS_AS_NAME":"TRA-VAL SERVICES, INC.","POP_AT_RISK":65092,"BUSINESS_TYPE":"Broker","LEGAL_NAME":"TRA-VAL SERVICES, INC.","LONGITUDE":-87.62366893370942},
{"STATE":"IL","ZIP":60617,"LATTITUDE":41.70261747341196,"ADDRESS":"3701 E 106TH ST  ","YEAR":2013,"DOING_BUSINESS_AS_NAME":"UNLIMITED WORLD TRAVEL III INC","POP_AT_RISK":20967,"BUSINESS_TYPE":"Broker","LEGAL_NAME":"UNLIMITED WORLD TRAVEL","LONGITUDE":-87.53402141983864},
{"STATE":"IL","ZIP":60614,"LATTITUDE":41.91235946124527,"ADDRESS":"1640 N WELLS ST 1 207","YEAR":2013,"DOING_BUSINESS_AS_NAME":"Global Adrenaline, Inc.","POP_AT_RISK":65410,"BUSINESS_TYPE":"Broker","LEGAL_NAME":"Global Adrenaline, Inc.","LONGITUDE":-87.63489424214782},
{"STATE":"IL","ZIP":60638,"LATTITUDE":41.796621894790114,"ADDRESS":"5770 S ARCHER AVE 1ST ","YEAR":2013,"DOING_BUSINESS_AS_NAME":"LOTUS TRAVEL WORLD, INC.","POP_AT_RISK":63195,"BUSINESS_TYPE":"Broker","LEGAL_NAME":"LOTUS TRAVEL WORLD, INC.","LONGITUDE":-87.7572396276837},
{"STATE":"IL","ZIP":60634,"LATTITUDE":41.94198875556009,"ADDRESS":"3410 N HARLEM AVE  ","YEAR":2013,"DOING_BUSINESS_AS_NAME":"DOMA CENTER","POP_AT_RISK":369864,"BUSINESS_TYPE":"Broker","LEGAL_NAME":"DOMA CENTERS, INCORPORATED","LONGITUDE":-87.80703653075511},
{"STATE":"IL","ZIP":60632,"LATTITUDE":41.801477606997246,"ADDRESS":"5034 S ARCHER AVE  ","YEAR":2013,"DOING_BUSINESS_AS_NAME":"DOMA CENTER","POP_AT_RISK":335538,"BUSINESS_TYPE":"Broker","LEGAL_NAME":"DOMA CENTERS, INCORPORATED","LONGITUDE":-87.72550237289114},
{"STATE":"IL","ZIP":60638,"LATTITUDE":41.7932347787373,"ADDRESS":"6287 S ARCHER AVE  ","YEAR":2013,"DOING_BUSINESS_AS_NAME":"DOMA CENTER","POP_AT_RISK":31161,"BUSINESS_TYPE":"Broker","LEGAL_NAME":"DOMA CENTERS, INCORPORATED","LONGITUDE":-87.77777643611029},
{"STATE":"IL","ZIP":60634,"LATTITUDE":41.93840673082925,"ADDRESS":"5749 W BELMONT AVE  ","YEAR":2013,"DOING_BUSINESS_AS_NAME":"DOMA CENTER","POP_AT_RISK":186984,"BUSINESS_TYPE":"Broker","LEGAL_NAME":"DOMA CENTERS, INCORPORATED","LONGITUDE":-87.77090348929643},
{"STATE":"IL","ZIP":60630,"LATTITUDE":41.961838407682265,"ADDRESS":"4448 N MILWAUKEE AVE  ","YEAR":2013,"DOING_BUSINESS_AS_NAME":"DOMA CENTER","POP_AT_RISK":400698,"BUSINESS_TYPE":"Broker","LEGAL_NAME":"DOMA CENTERS, INCORPORATED","LONGITUDE":-87.75569931676146},
{"STATE":"IL","ZIP":60618,"LATTITUDE":41.95407145444475,"ADDRESS":"2900 W IRVING PARK RD 1ST ","YEAR":2013,"DOING_BUSINESS_AS_NAME":"Mac Travel and Tours, Inc.","POP_AT_RISK":188997,"BUSINESS_TYPE":"Broker","LEGAL_NAME":"Mac Travel and Tours, Inc.","LONGITUDE":-87.70074523452875},
{"STATE":"IL","ZIP":60645,"LATTITUDE":42.002223375062094,"ADDRESS":"6623 N DAMEN AVE  ","YEAR":2013,"DOING_BUSINESS_AS_NAME":"DOMINICK'S","POP_AT_RISK":338156,"BUSINESS_TYPE":"Broker","LEGAL_NAME":"DOMINICK'S FINER FOODS, LLC","LONGITUDE":-87.68012882798133},
{"STATE":"IL","ZIP":60625,"LATTITUDE":41.976895098405,"ADDRESS":"5233 N LINCOLN AVE 1 ","YEAR":2013,"DOING_BUSINESS_AS_NAME":"DOMINICKS #2889","POP_AT_RISK":184172,"BUSINESS_TYPE":"Broker","LEGAL_NAME":"DOMINICK'S FINER FOODS, LLC","LONGITUDE":-87.69227966776424},
{"STATE":"IL","ZIP":60608,"LATTITUDE":41.836468347729024,"ADDRESS":"3145 S ASHLAND AVE  ","YEAR":2013,"DOING_BUSINESS_AS_NAME":"DOMINICK'S # 1100","POP_AT_RISK":60056,"BUSINESS_TYPE":"Broker","LEGAL_NAME":"DOMINICK'S FINER FOODS, LLC","LONGITUDE":-87.66556690213167},
{"STATE":"IL","ZIP":60660,"LATTITUDE":41.9911817534467,"ADDRESS":"6009 N BROADWAY   ","YEAR":2013,"DOING_BUSINESS_AS_NAME":"DOMINICK'S # 12\/0012","POP_AT_RISK":330990,"BUSINESS_TYPE":"Broker","LEGAL_NAME":"DOMINICK'S FINER FOODS, LLC","LONGITUDE":-87.6601550832236},
{"STATE":"IL","ZIP":60626,"LATTITUDE":42.01928855008811,"ADDRESS":"1763 W HOWARD ST  ","YEAR":2013,"DOING_BUSINESS_AS_NAME":"DOMINICK'S #160\/1698","POP_AT_RISK":375444,"BUSINESS_TYPE":"Broker","LEGAL_NAME":"DOMINICK'S FINER FOODS, LLC","LONGITUDE":-87.67505850938775},
{"STATE":"IL","ZIP":60646,"LATTITUDE":41.99598528606219,"ADDRESS":"6312 N NAGLE AVE  ","YEAR":2013,"DOING_BUSINESS_AS_NAME":"DOMINICK'S # 113\/1113","POP_AT_RISK":22437,"BUSINESS_TYPE":"Broker","LEGAL_NAME":"DOMINICK'S FINER FOODS, LLC","LONGITUDE":-87.78763711707086},
{"STATE":"IL","ZIP":60649,"LATTITUDE":41.765990001140594,"ADDRESS":"2101 E 71ST ST  ","YEAR":2013,"DOING_BUSINESS_AS_NAME":"DOMINICK'S # 130\/1130","POP_AT_RISK":130011,"BUSINESS_TYPE":"Broker","LEGAL_NAME":"DOMINICK'S FINER FOODS, LLC","LONGITUDE":-87.57378733665412},
{"STATE":"IL","ZIP":60614,"LATTITUDE":41.92787172311833,"ADDRESS":"2550 N CLYBOURN AVE  ","YEAR":2013,"DOING_BUSINESS_AS_NAME":"DOMINICK'S # 304\/2304","POP_AT_RISK":596046,"BUSINESS_TYPE":"Broker","LEGAL_NAME":"DOMINICK'S FINER FOODS, LLC","LONGITUDE":-87.67325881463049},
{"STATE":"IL","ZIP":60614,"LATTITUDE":41.925268275703296,"ADDRESS":"959 W FULLERTON AVE  ","YEAR":2013,"DOING_BUSINESS_AS_NAME":"DOMINICK'S Finer Foods, Inc. #1695","POP_AT_RISK":138036,"BUSINESS_TYPE":"Broker","LEGAL_NAME":"DOMINICK'S FINER FOODS, LLC","LONGITUDE":-87.65348756413924},
{"STATE":"IL","ZIP":60622,"LATTITUDE":41.89578522959797,"ADDRESS":"2021 W CHICAGO AVE  ","YEAR":2013,"DOING_BUSINESS_AS_NAME":"DOMINICK'S FINER FOODS - STORE # 2775","POP_AT_RISK":258104,"BUSINESS_TYPE":"Broker","LEGAL_NAME":"DOMINICK'S FINER FOODS, LLC","LONGITUDE":-87.67793089259229},
{"STATE":"IL","ZIP":60638,"LATTITUDE":41.77832046195974,"ADDRESS":"5240 W 63RD ST  1","YEAR":2013,"DOING_BUSINESS_AS_NAME":"MIDWAY AIRCRAFT BROKERS INC","POP_AT_RISK":32916,"BUSINESS_TYPE":"Broker","LEGAL_NAME":"MIDWAY AIRCRAFT BROKERS INC","LONGITUDE":-87.75361651789787},
{"STATE":"IL","ZIP":60647,"LATTITUDE":41.92467235630948,"ADDRESS":"3720 W FULLERTON AVE 1ST ","YEAR":2013,"DOING_BUSINESS_AS_NAME":"AUTOBUSES  EL CUBILETE ","POP_AT_RISK":1237875,"BUSINESS_TYPE":"Broker","LEGAL_NAME":"JEREMY' S TRANSPORTATION, INC.","LONGITUDE":-87.72028777830636},
{"STATE":"IL","ZIP":60608,"LATTITUDE":41.858809414593296,"ADDRESS":"1600-1604 W 17TH ST 1ST ","YEAR":2013,"DOING_BUSINESS_AS_NAME":"TRANSPORTES REGIOMONTANOS, INC.","POP_AT_RISK":251664,"BUSINESS_TYPE":"Broker","LEGAL_NAME":"TRANSPORTES REGIOMONTANOS, INC.","LONGITUDE":-87.66621676637793},
{"STATE":"IL","ZIP":60613,"LATTITUDE":41.96173309897769,"ADDRESS":"1448 W MONTROSE AVE  ","YEAR":2013,"DOING_BUSINESS_AS_NAME":"WORLWIDE TRAVEL MANAGEMENT INC.","POP_AT_RISK":245883,"BUSINESS_TYPE":"Broker","LEGAL_NAME":"WORLDWIDE TRAVEL MANAGEMENT INC","LONGITUDE":-87.66688434806943},
{"STATE":"IL","ZIP":60609,"LATTITUDE":41.80863703587124,"ADDRESS":"1904 W 47TH ST REAR REAR","YEAR":2013,"DOING_BUSINESS_AS_NAME":"OLYMPIA TRAVEL & TAX SERVICES, INC.","POP_AT_RISK":125946,"BUSINESS_TYPE":"Broker","LEGAL_NAME":"OLYMPIA TRAVEL & TAX SERVICES, INC.","LONGITUDE":-87.6724999386301},
{"STATE":"IL","ZIP":60617,"LATTITUDE":41.70418876858517,"ADDRESS":"10510 S EWING AVE 1 ","YEAR":2013,"DOING_BUSINESS_AS_NAME":"U.P. TRAVEL AND TAX SERVICE AGENCY","POP_AT_RISK":21953,"BUSINESS_TYPE":"Broker","LEGAL_NAME":"UNITED PROFESSIONAL TRAVEL INCORPORATED","LONGITUDE":-87.53543081954446},
}