{
{"STATE":"IL","ZIP":60621,"LATTITUDE":41.79122840228547,"ADDRESS":"5649 S PRINCETON AVE  ","YEAR":2009,"DOING_BUSINESS_AS_NAME":"LOUIS DAVIS","POP_AT_RISK":45476,"BUSINESS_TYPE":"Peddler, food (fruits and vegtables only)","LEGAL_NAME":"LOUIS DAVIS","LONGITUDE":-87.63276160084743},
{"STATE":"IL","ZIP":60645,"LATTITUDE":42.00862534343065,"ADDRESS":"2654 W LUNT AVE 1 1","YEAR":2009,"DOING_BUSINESS_AS_NAME":"ERICA CHAVEZ","POP_AT_RISK":44980,"BUSINESS_TYPE":"Peddler, food (fruits and vegtables only)","LEGAL_NAME":"ERICA CHAVEZ","LONGITUDE":-87.69710538440577},
{"STATE":"IL","ZIP":60616,"LATTITUDE":41.85935931906892,"ADDRESS":"1619 S RUBLE ST  ","YEAR":2009,"DOING_BUSINESS_AS_NAME":"JOSE M. RIOS","POP_AT_RISK":31546,"BUSINESS_TYPE":"Peddler, food (fruits and vegtables only)","LEGAL_NAME":"JOSE M. RIOS","LONGITUDE":-87.64369581160189},
{"STATE":"IL","ZIP":60617,"LATTITUDE":41.75126537137126,"ADDRESS":"7919 S BURNHAM AVE  ","YEAR":2009,"DOING_BUSINESS_AS_NAME":"LINDA DILLON","POP_AT_RISK":83816,"BUSINESS_TYPE":"Peddler, food (fruits and vegtables only)","LEGAL_NAME":"LINDA DILLON","LONGITUDE":-87.55637631558733},
{"STATE":"IL","ZIP":60617,"LATTITUDE":41.72775069205135,"ADDRESS":"9210 S COLFAX AVE  ","YEAR":2009,"DOING_BUSINESS_AS_NAME":"NAKIA HUGHES","POP_AT_RISK":52424,"BUSINESS_TYPE":"Peddler, food (fruits and vegtables only)","LEGAL_NAME":"NAKIA HUGHES","LONGITUDE":-87.56100720184969},
{"STATE":"IL","ZIP":60620,"LATTITUDE":41.73716911939938,"ADDRESS":"8613 S MARSHFIELD AVE 1 1","YEAR":2009,"DOING_BUSINESS_AS_NAME":"TENA M. SMITH","POP_AT_RISK":35686,"BUSINESS_TYPE":"Peddler, food (fruits and vegtables only)","LEGAL_NAME":"TENA M SMITH","LONGITUDE":-87.66417045649116},
{"STATE":"IL","ZIP":60644,"LATTITUDE":41.873285322246446,"ADDRESS":"521 S LAVERGNE AVE 1ST ","YEAR":2009,"DOING_BUSINESS_AS_NAME":"KECIA LEGRIER","POP_AT_RISK":43245,"BUSINESS_TYPE":"Peddler, food (fruits and vegtables only)","LEGAL_NAME":"KECIA LEGRIER","LONGITUDE":-87.7490076138498},
{"STATE":"IL","ZIP":60707,"LATTITUDE":41.92972324122959,"ADDRESS":"2725 N NEVA AVE  ","YEAR":2009,"DOING_BUSINESS_AS_NAME":"LUIGI ADDANTE","POP_AT_RISK":152439,"BUSINESS_TYPE":"Peddler, food (fruits and vegtables only)","LEGAL_NAME":"LUIGI ADDANTE","LONGITUDE":-87.80508781506443},
{"STATE":"IL","ZIP":60634,"LATTITUDE":41.94177246444778,"ADDRESS":"3353 N NARRAGANSETT AVE  ","YEAR":2009,"DOING_BUSINESS_AS_NAME":"MARIA SANCHEZ","POP_AT_RISK":48415,"BUSINESS_TYPE":"Peddler, food (fruits and vegtables only)","LEGAL_NAME":"MARIA SANCHEZ","LONGITUDE":-87.78605410875612},
{"STATE":"IL","ZIP":60657,"LATTITUDE":41.93998328496912,"ADDRESS":"441 W BELMONT AVE  ","YEAR":2009,"DOING_BUSINESS_AS_NAME":"MAXWELL LEE MINOR","POP_AT_RISK":1028706,"BUSINESS_TYPE":"Peddler, food (fruits and vegtables only)","LEGAL_NAME":"MAXWELL MINOR","LONGITUDE":-87.64118502063089},
{"STATE":"IL","ZIP":60619,"LATTITUDE":41.75619457777317,"ADDRESS":"7612 S EBERHART AVE  ","YEAR":2009,"DOING_BUSINESS_AS_NAME":"HOGAN","POP_AT_RISK":166092,"BUSINESS_TYPE":"Peddler, food (fruits and vegtables only)","LEGAL_NAME":"ROBERTA HOGAN","LONGITUDE":-87.61276996803532},
{"STATE":"IL","ZIP":60625,"LATTITUDE":41.96787728112339,"ADDRESS":"4748 N HARDING AVE  ","YEAR":2009,"DOING_BUSINESS_AS_NAME":"IRENIA ANTUNEZ","POP_AT_RISK":67391,"BUSINESS_TYPE":"Peddler, food (fruits and vegtables only)","LEGAL_NAME":"IRENIA ANTUNEZ","LONGITUDE":-87.72694929529115},
{"STATE":"IL","ZIP":60617,"LATTITUDE":41.69689210805197,"ADDRESS":"10912 S GREEN BAY AVE  ","YEAR":2009,"DOING_BUSINESS_AS_NAME":"BEATRIZ MORALES","POP_AT_RISK":17150,"BUSINESS_TYPE":"Peddler, food (fruits and vegtables only)","LEGAL_NAME":"BEATRIZ MORALES","LONGITUDE":-87.54149604078766},
{"STATE":"IL","ZIP":60623,"LATTITUDE":41.8460938480936,"ADDRESS":"4306 W 25TH ST  ","YEAR":2009,"DOING_BUSINESS_AS_NAME":"GRISELDA FLORES","POP_AT_RISK":47984,"BUSINESS_TYPE":"Peddler, food (fruits and vegtables only)","LEGAL_NAME":"GRISELDA FLORES","LONGITUDE":-87.73143564909104},
{"STATE":"IL","ZIP":60643,"LATTITUDE":41.69784228023647,"ADDRESS":"1046 W 108TH ST  ","YEAR":2009,"DOING_BUSINESS_AS_NAME":"KEITH ERROL DYE","POP_AT_RISK":23880,"BUSINESS_TYPE":"Peddler, food (fruits and vegtables only)","LEGAL_NAME":"KEITH ERROL DYE","LONGITUDE":-87.64924173590215},
{"STATE":"IL","ZIP":60652,"LATTITUDE":41.74415996477245,"ADDRESS":"8138 S KILBOURN AVE  ","YEAR":2009,"DOING_BUSINESS_AS_NAME":"MARIA CASTANEDA","POP_AT_RISK":26052,"BUSINESS_TYPE":"Peddler, food (fruits and vegtables only)","LEGAL_NAME":"MARIA CASTANEDA","LONGITUDE":-87.73406292529194},
{"STATE":"IL","ZIP":60608,"LATTITUDE":41.862632473766375,"ADDRESS":"1050 W 14TH PL  ","YEAR":2009,"DOING_BUSINESS_AS_NAME":"VALERIE JOHNSON","POP_AT_RISK":35551,"BUSINESS_TYPE":"Peddler, food (fruits and vegtables only)","LEGAL_NAME":"VALERIE JOHNSON","LONGITUDE":-87.65285871635315},
{"STATE":"IL","ZIP":60638,"LATTITUDE":41.777069083609454,"ADDRESS":"5533 W 63RD PL  ","YEAR":2009,"DOING_BUSINESS_AS_NAME":"YOLANDA PANTOJA","POP_AT_RISK":13531,"BUSINESS_TYPE":"Peddler, food (fruits and vegtables only)","LEGAL_NAME":"YOLANDA PANTOJA","LONGITUDE":-87.76058559758407},
{"STATE":"IL","ZIP":60619,"LATTITUDE":41.7406443241023,"ADDRESS":"1516 E 85TH ST 1 ","YEAR":2009,"DOING_BUSINESS_AS_NAME":"ANTHONY  MATTHEWS","POP_AT_RISK":121972,"BUSINESS_TYPE":"Peddler, food (fruits and vegtables only)","LEGAL_NAME":"ANTHONY MATTHEWS","LONGITUDE":-87.58723726359024},
{"STATE":"IL","ZIP":60640,"LATTITUDE":41.96561422474166,"ADDRESS":"4608 N BEACON ST  A-1","YEAR":2009,"DOING_BUSINESS_AS_NAME":"JOSEFA RODRIGUEZ","POP_AT_RISK":199290,"BUSINESS_TYPE":"Peddler, food (fruits and vegtables only)","LEGAL_NAME":"JOSEFA RODRIGUEZ","LONGITUDE":-87.66403511172471},
{"STATE":"IL","ZIP":60638,"LATTITUDE":41.79636515256535,"ADDRESS":"5254 S MOODY AVE 1 ","YEAR":2009,"DOING_BUSINESS_AS_NAME":"PATRICIA ALARCON","POP_AT_RISK":28182,"BUSINESS_TYPE":"Peddler, food (fruits and vegtables only)","LEGAL_NAME":"PATRICIA ALARCON","LONGITUDE":-87.77598195314998},
{"STATE":"IL","ZIP":60619,"LATTITUDE":41.73419069670633,"ADDRESS":"8814 S CALUMET AVE 1ST ","YEAR":2009,"DOING_BUSINESS_AS_NAME":"WILLIAM S MARTIN","POP_AT_RISK":231568,"BUSINESS_TYPE":"Peddler, food (fruits and vegtables only)","LEGAL_NAME":"WILLIAM S MARTIN","LONGITUDE":-87.61622754774335},
{"STATE":"IL","ZIP":60617,"LATTITUDE":41.72176508879081,"ADDRESS":"9544 S AVENUE L   ","YEAR":2009,"DOING_BUSINESS_AS_NAME":"JESSICA L. ABRAMS","POP_AT_RISK":13632,"BUSINESS_TYPE":"Peddler, food (fruits and vegtables only)","LEGAL_NAME":"JESSICA L. ABRAMS","LONGITUDE":-87.53664604799327},
{"STATE":"IL","ZIP":60643,"LATTITUDE":41.713904584941645,"ADDRESS":"1433 W 99TH ST  ","YEAR":2009,"DOING_BUSINESS_AS_NAME":"SHIRLEY ANN BROWN","POP_AT_RISK":82362,"BUSINESS_TYPE":"Peddler, food (fruits and vegtables only)","LEGAL_NAME":"SHIRLEY ANN BROWN","LONGITUDE":-87.65894649918634},
{"STATE":"IL","ZIP":60637,"LATTITUDE":41.77093290430151,"ADDRESS":"109 E 68TH ST 1ST 1A","YEAR":2009,"DOING_BUSINESS_AS_NAME":"GWENDOLYN D. BELLE","POP_AT_RISK":106671,"BUSINESS_TYPE":"Peddler, food (fruits and vegtables only)","LEGAL_NAME":"GWENDOLYN D. BELLE","LONGITUDE":-87.62142251771269},
{"STATE":"IL","ZIP":60644,"LATTITUDE":41.8765215325819,"ADDRESS":"5255 W JACKSON BLVD  ","YEAR":2009,"DOING_BUSINESS_AS_NAME":"SHANETTA C. HOWARD","POP_AT_RISK":73660,"BUSINESS_TYPE":"Peddler, food (fruits and vegtables only)","LEGAL_NAME":"SHANETTA C. HOWARD","LONGITUDE":-87.75711635443172},
{"STATE":"IL","ZIP":60620,"LATTITUDE":41.73683183311421,"ADDRESS":"8630 S MAY ST  ","YEAR":2009,"DOING_BUSINESS_AS_NAME":"CHARLIE LEE ODOM JR.","POP_AT_RISK":82906,"BUSINESS_TYPE":"Peddler, food (fruits and vegtables only)","LEGAL_NAME":"CHARLIE LEE ODOM JR.","LONGITUDE":-87.65229719751666},
{"STATE":"IL","ZIP":60625,"LATTITUDE":41.982179969726474,"ADDRESS":"5527 N CAMPBELL AVE 1 3F","YEAR":2009,"DOING_BUSINESS_AS_NAME":"GAUDENCIA BUSTAMANTE","POP_AT_RISK":47427,"BUSINESS_TYPE":"Peddler, food (fruits and vegtables only)","LEGAL_NAME":"GAUDENCIA BUSTAMANTE","LONGITUDE":-87.6916900084371},
{"STATE":"IL","ZIP":60628,"LATTITUDE":41.702914574309354,"ADDRESS":"10520 S INDIANA AVE  ","YEAR":2009,"DOING_BUSINESS_AS_NAME":"DR FRESH FRUITS & VEGETABLES (LESLY GATHERIGHT JR.)","POP_AT_RISK":105048,"BUSINESS_TYPE":"Peddler, food (fruits and vegtables only)","LEGAL_NAME":"LESLY GATHERIGHT JR.","LONGITUDE":-87.61867125598516},
{"STATE":"IL","ZIP":60624,"LATTITUDE":41.87536192994058,"ADDRESS":"4030 W VAN BUREN ST 1 ","YEAR":2009,"DOING_BUSINESS_AS_NAME":"MICHAEL BATISE TAYLOR","POP_AT_RISK":169284,"BUSINESS_TYPE":"Peddler, food (fruits and vegtables only)","LEGAL_NAME":"MICHAEL BATISE TAYLOR","LONGITUDE":-87.72675129485236},
{"STATE":"IL","ZIP":60643,"LATTITUDE":41.674052619031144,"ADDRESS":"12056 S JUSTINE ST 1 ","YEAR":2009,"DOING_BUSINESS_AS_NAME":"ROBERT L. JOHNSON JR.","POP_AT_RISK":101440,"BUSINESS_TYPE":"Peddler, food (fruits and vegtables only)","LEGAL_NAME":"ROBERT L. JOHNSON, JR","LONGITUDE":-87.66020570250922},
{"STATE":"IL","ZIP":60651,"LATTITUDE":41.89684260037361,"ADDRESS":"900 N LARAMIE AVE 1ST ","YEAR":2009,"DOING_BUSINESS_AS_NAME":"YOLAND NIGEL CANNON","POP_AT_RISK":53642,"BUSINESS_TYPE":"Peddler, food (fruits and vegtables only)","LEGAL_NAME":"YOLAND  NIGEL  CANNON","LONGITUDE":-87.75579414316837},
{"STATE":"IL","ZIP":60634,"LATTITUDE":41.95966347848037,"ADDRESS":"5632 W PENSACOLA AVE  ","YEAR":2009,"DOING_BUSINESS_AS_NAME":"EMPERATRIZ FRUIT","POP_AT_RISK":257495,"BUSINESS_TYPE":"Peddler, food (fruits and vegtables only)","LEGAL_NAME":"EMPERATRIZ M. MALDONADO","LONGITUDE":-87.76855204500197},
{"STATE":"IL","ZIP":60622,"LATTITUDE":41.894260242232065,"ADDRESS":"700 N PAULINA ST  ","YEAR":2009,"DOING_BUSINESS_AS_NAME":"ALFONSO OSORIO-VELAZQUEZ","POP_AT_RISK":52291,"BUSINESS_TYPE":"Peddler, food (fruits and vegtables only)","LEGAL_NAME":"ALFONSO OSORIO-VELAZQUEZ","LONGITUDE":-87.66981732221582},
{"STATE":"IL","ZIP":60657,"LATTITUDE":41.94303831725289,"ADDRESS":"3352 N RAVENSWOOD AVE  ","YEAR":2009,"DOING_BUSINESS_AS_NAME":"JENNIFER DORON BORCHARDT","POP_AT_RISK":1079637,"BUSINESS_TYPE":"Peddler, food (fruits and vegtables only)","LEGAL_NAME":"JENNIFER DORON BORCHARDT","LONGITUDE":-87.67412619487052},
{"STATE":"IL","ZIP":60626,"LATTITUDE":42.01246170731674,"ADDRESS":"1905 W TOUHY AVE BSMT ","YEAR":2009,"DOING_BUSINESS_AS_NAME":"LEONARDO AMEZCUA-HERNANDES","POP_AT_RISK":154582,"BUSINESS_TYPE":"Peddler, food (fruits and vegtables only)","LEGAL_NAME":"LEONARDO AMERZCUA-HERNANDES","LONGITUDE":-87.67843727631055},
{"STATE":"IL","ZIP":60453,"LATTITUDE":41.71079394114223,"ADDRESS":"10016 S PULASKI   ","YEAR":2009,"DOING_BUSINESS_AS_NAME":"SUSANA FURLONG","POP_AT_RISK":136960,"BUSINESS_TYPE":"Peddler, food (fruits and vegtables only)","LEGAL_NAME":"MARIA SUSANA FURLONG-ESTRADA","LONGITUDE":-87.72122110079165},
}