{
{"STATE":"IL","ZIP":60643,"LATTITUDE":41.721038458771744,"ADDRESS":"1767 W 95TH ST 1ST ","YEAR":1997,"DOING_BUSINESS_AS_NAME":"MICK'S ITALIAN BEEF","POP_AT_RISK":163002,"BUSINESS_TYPE":"Retail Food Establishment","LEGAL_NAME":"MY RAY INC","LONGITUDE":-87.6673976804851},
{"STATE":"IL","ZIP":60623,"LATTITUDE":41.85158988257894,"ADDRESS":"4156 W CERMAK RD  ","YEAR":1997,"DOING_BUSINESS_AS_NAME":"CC & XT DELI & SWEET SHOP","POP_AT_RISK":919568,"BUSINESS_TYPE":"Retail Food Establishment","LEGAL_NAME":"JAMES THOMAS","LONGITUDE":-87.72945401335832},
{"STATE":"IL","ZIP":60618,"LATTITUDE":41.96108549588017,"ADDRESS":"3125 W MONTROSE AVE  STORE","YEAR":1997,"DOING_BUSINESS_AS_NAME":"MI LINDO PALMAR","POP_AT_RISK":686640,"BUSINESS_TYPE":"Retail Food Establishment","LEGAL_NAME":"PEDRO BERRUN","LONGITUDE":-87.70680488608014},
{"STATE":"IL","ZIP":60641,"LATTITUDE":41.95597261759733,"ADDRESS":"4128 N MILWAUKEE AVE  ","YEAR":1997,"DOING_BUSINESS_AS_NAME":"FINO CAPPUCCINO & CAFE","POP_AT_RISK":418760,"BUSINESS_TYPE":"Retail Food Establishment","LEGAL_NAME":"CAFEFINO, INC","LONGITUDE":-87.75062091807962},
{"STATE":"IL","ZIP":60632,"LATTITUDE":41.79359400970021,"ADDRESS":"3250 W 55TH ST  ","YEAR":1997,"DOING_BUSINESS_AS_NAME":"PASS HEALTH FOODS","POP_AT_RISK":543430,"BUSINESS_TYPE":"Retail Food Establishment","LEGAL_NAME":"DONGSHENG JIN","LONGITUDE":-87.7055524413178},
{"STATE":"IL","ZIP":60617,"LATTITUDE":41.73199489677372,"ADDRESS":"8959 S COMMERCIAL AVE  ","YEAR":1997,"DOING_BUSINESS_AS_NAME":"8959 FAMILY MARKET","POP_AT_RISK":123914,"BUSINESS_TYPE":"Retail Food Establishment","LEGAL_NAME":"NABIL HUSSEIN","LONGITUDE":-87.55115188421783},
{"STATE":"IL","ZIP":60639,"LATTITUDE":41.92067663098194,"ADDRESS":"6000 W GRAND AVE  1","YEAR":1997,"DOING_BUSINESS_AS_NAME":"BURRITO KING\/FRIED CHICKEN","POP_AT_RISK":468600,"BUSINESS_TYPE":"Retail Food Establishment","LEGAL_NAME":"RICARDO AVELAR","LONGITUDE":-87.77563026904085},
{"STATE":"IL","ZIP":60640,"LATTITUDE":41.96908885472496,"ADDRESS":"4801 N BROADWAY  1ST ","YEAR":1997,"DOING_BUSINESS_AS_NAME":"HUNG VVOUNG PALACE","POP_AT_RISK":1279165,"BUSINESS_TYPE":"Retail Food Establishment","LEGAL_NAME":"HUNG VU PALACE INC","LONGITUDE":-87.65952538050671},
{"STATE":"IL","ZIP":60661,"LATTITUDE":41.88669457455147,"ADDRESS":"655-657 W FULTON MARKET   ","YEAR":1997,"DOING_BUSINESS_AS_NAME":"THE CHICAGO FISH HOUSE","POP_AT_RISK":309631,"BUSINESS_TYPE":"Retail Food Establishment","LEGAL_NAME":"T P C AQUISITION INC","LONGITUDE":-87.64494790556684},
{"STATE":"IL","ZIP":60625,"LATTITUDE":41.96830263137529,"ADDRESS":"4753 N WESTERN AVE  ","YEAR":1997,"DOING_BUSINESS_AS_NAME":"TAQUERIA EL GALLO BRAVO","POP_AT_RISK":580680,"BUSINESS_TYPE":"Retail Food Establishment","LEGAL_NAME":"J C LOZANO & D D LOPEZ","LONGITUDE":-87.68875156213396},
{"STATE":"IL","ZIP":60615,"LATTITUDE":41.7995820117793,"ADDRESS":"1236 E 53RD ST  ","YEAR":1997,"DOING_BUSINESS_AS_NAME":"LEONA'S PIZZERIA, INC.","POP_AT_RISK":724986,"BUSINESS_TYPE":"Retail Food Establishment","LEGAL_NAME":"LEONA'S PIZZERIA, INC.","LONGITUDE":-87.59510894342813},
{"STATE":"IL","ZIP":60617,"LATTITUDE":41.702238583811834,"ADDRESS":"10616 S TORRENCE AVE  ","YEAR":1997,"DOING_BUSINESS_AS_NAME":"JULIO'S ROTISSERIE & GRILL","POP_AT_RISK":13032,"BUSINESS_TYPE":"Retail Food Establishment","LEGAL_NAME":"JULIO'S ROTISSERIE & GRILL INC","LONGITUDE":-87.55974071115317},
{"STATE":"IL","ZIP":60652,"LATTITUDE":41.74985414580406,"ADDRESS":"2601 W 79TH ST  1","YEAR":1997,"DOING_BUSINESS_AS_NAME":"SISTERS CHICKEN 'N' PIG INN IN","POP_AT_RISK":174408,"BUSINESS_TYPE":"Retail Food Establishment","LEGAL_NAME":"SISTERS CHICKEN 'N' PIG INN IN","LONGITUDE":-87.68790020157316},
}