{
{"STATE":"IL","ZIP":60637,"LATTITUDE":41.79353306416303,"ADDRESS":"5531 S DR MARTIN LUTHER KING JR DR  WASHI","YEAR":2007,"DOING_BUSINESS_AS_NAME":"SOUL CIRCUS, INC.","POP_AT_RISK":494080,"BUSINESS_TYPE":"Animal Exhibition","LEGAL_NAME":"SOUL CIRCUS, INC.","LONGITUDE":-87.61580305486778},
{"STATE":"IL","ZIP":60639,"LATTITUDE":41.91960741091449,"ADDRESS":"5742 W GRAND AVE # 1ST","YEAR":2007,"DOING_BUSINESS_AS_NAME":"ANIMAL RENTALS INC","POP_AT_RISK":600787,"BUSINESS_TYPE":"Animal Exhibition","LEGAL_NAME":"ANIMAL RENTALS INC","LONGITUDE":-87.7698146342922},
{"STATE":"IL","ZIP":60641,"LATTITUDE":41.945385823999025,"ADDRESS":"3555 N MILWAUKEE AVE  FRONT","YEAR":2007,"DOING_BUSINESS_AS_NAME":"AMAZING ANIMALS BY SAMANTHA","POP_AT_RISK":801000,"BUSINESS_TYPE":"Animal Exhibition","LEGAL_NAME":"SCALES TO TAILS, INC.","LONGITUDE":-87.73394213198259},
{"STATE":"IL","ZIP":60605,"LATTITUDE":41.867484227164155,"ADDRESS":"1200 S LAKE SHORE DR  LEVEL","YEAR":2007,"DOING_BUSINESS_AS_NAME":"SHEDD AQUARIUM SOCIETY","POP_AT_RISK":69252,"BUSINESS_TYPE":"Animal Exhibition","LEGAL_NAME":"SHEDD AQUARIUM SOCIETY","LONGITUDE":-87.61915038338188},
{"STATE":"IL","ZIP":60601,"LATTITUDE":41.88421673051023,"ADDRESS":"331 E RANDOLPH ST  ","YEAR":2007,"DOING_BUSINESS_AS_NAME":"BUDWEISER","POP_AT_RISK":50633,"BUSINESS_TYPE":"Animal Exhibition","LEGAL_NAME":"CHICAGO DISTRIBUTING L.L.C.","LONGITUDE":-87.61952637129471},
{"STATE":"IL","ZIP":60632,"LATTITUDE":41.807666255012776,"ADDRESS":"4301 W 47TH ST  ","YEAR":2007,"DOING_BUSINESS_AS_NAME":"MONKEYS AND MORE EXOTIC ANIMAL RESCUE","POP_AT_RISK":305822,"BUSINESS_TYPE":"Animal Exhibition","LEGAL_NAME":"ED AND ANNETTES MONKEYS & MORE","LONGITUDE":-87.7311361484095},
{"STATE":"IL","ZIP":60610,"LATTITUDE":41.907964258895646,"ADDRESS":"1410 N ORLEANS ST GROUND ","YEAR":2007,"DOING_BUSINESS_AS_NAME":"NOBLE HORSE THEATRE","POP_AT_RISK":1152828,"BUSINESS_TYPE":"Animal Exhibition","LEGAL_NAME":"OLD TRIUMPH HORSE COMPANY, INC.","LONGITUDE":-87.63767787486852},
{"STATE":"IL","ZIP":60631,"LATTITUDE":41.98818135794568,"ADDRESS":"5900 N NINA AVE  ","YEAR":2007,"DOING_BUSINESS_AS_NAME":"KELLY-MILLER BROTHERS CIRCUS","POP_AT_RISK":83296,"BUSINESS_TYPE":"Animal Exhibition","LEGAL_NAME":"AL G. KELLY-MILLER BROS. CIRCUS LTD.","LONGITUDE":-87.80299207101535},
}