{
{"STATE":"IL","ZIP":60621,"LATTITUDE":41.7798631678725,"ADDRESS":"740 W 63RD ST  ","YEAR":2015,"DOING_BUSINESS_AS_NAME":"CUPCAKE GANGSTERS","POP_AT_RISK":162520,"BUSINESS_TYPE":"Mobile Food License","LEGAL_NAME":"24 KARAT CAKES, INC.","LONGITUDE":-87.6445278756232},
{"STATE":"IL","ZIP":60657,"LATTITUDE":41.933979804573255,"ADDRESS":"2850 N CLARK ST  ","YEAR":2015,"DOING_BUSINESS_AS_NAME":"FIFTY FOUR ELEVEN","POP_AT_RISK":2096600,"BUSINESS_TYPE":"Mobile Food License","LEGAL_NAME":"FIFTY FOUR ELEVEN LLC","LONGITUDE":-87.64601179219122},
{"STATE":"IL","ZIP":60604,"LATTITUDE":41.87788826272627,"ADDRESS":"310 S STATE ST  ","YEAR":2015,"DOING_BUSINESS_AS_NAME":"CHICAGO FRUIT CART, INC.","POP_AT_RISK":42544,"BUSINESS_TYPE":"Mobile Food License","LEGAL_NAME":"CHICAGO FRUIT CART, INC.","LONGITUDE":-87.62781582644176},
{"STATE":"IL","ZIP":60609,"LATTITUDE":41.83078218057412,"ADDRESS":"3506 S STATE ST  ","YEAR":2015,"DOING_BUSINESS_AS_NAME":"CHICAGO FRUIT CART, INC.","POP_AT_RISK":551520,"BUSINESS_TYPE":"Mobile Food License","LEGAL_NAME":"CHICAGO FRUIT CART, INC.","LONGITUDE":-87.62679017621963},
{"STATE":"IL","ZIP":60636,"LATTITUDE":41.7789224055316,"ADDRESS":"6316 S ASHLAND AVE  ","YEAR":2015,"DOING_BUSINESS_AS_NAME":"CHICAGO FRUIT CART, INC.","POP_AT_RISK":435180,"BUSINESS_TYPE":"Mobile Food License","LEGAL_NAME":"CHICAGO FRUIT CART, INC.","LONGITUDE":-87.66435268109221},
{"STATE":"IL","ZIP":60637,"LATTITUDE":41.78050308134812,"ADDRESS":"6259 S COTTAGE GROVE AVE  ","YEAR":2015,"DOING_BUSINESS_AS_NAME":"CHICAGO FRUIT CART, INC.","POP_AT_RISK":505935,"BUSINESS_TYPE":"Mobile Food License","LEGAL_NAME":"CHICAGO FRUIT CART, INC.","LONGITUDE":-87.60578538902264},
{"STATE":"IL","ZIP":60613,"LATTITUDE":41.95420873655159,"ADDRESS":"1467 W IRVING PARK RD  ","YEAR":2015,"DOING_BUSINESS_AS_NAME":"THE ROOST","POP_AT_RISK":2182842,"BUSINESS_TYPE":"Mobile Food License","LEGAL_NAME":"CHICAGO LOCAL MARKETS LLC","LONGITUDE":-87.66684726495454},
{"STATE":"IL","ZIP":60654,"LATTITUDE":41.88926053865928,"ADDRESS":"228-230 W KINZIE ST  ","YEAR":2015,"DOING_BUSINESS_AS_NAME":"DOUGHNUT VAULT","POP_AT_RISK":212505,"BUSINESS_TYPE":"Mobile Food License","LEGAL_NAME":"INTERNATIONAL ORANGE, LLC","LONGITUDE":-87.63526544931696},
{"STATE":"IL","ZIP":60619,"LATTITUDE":41.75821363711059,"ADDRESS":"203-205 E 75TH ST 1 1","YEAR":2015,"DOING_BUSINESS_AS_NAME":"THE ORIGINAL SOUL VEGETARIAN","POP_AT_RISK":276984,"BUSINESS_TYPE":"Mobile Food License","LEGAL_NAME":"ORIGINAL SOUL VEGETARIAN INC.","LONGITUDE":-87.61975560674928},
}