{
{"STATE":"IL","ZIP":60643,"LATTITUDE":41.67798852250068,"ADDRESS":"11833 S WESTERN AVE 1 ","YEAR":2015,"DOING_BUSINESS_AS_NAME":"WALGREENS #06762","POP_AT_RISK":19493,"BUSINESS_TYPE":"Tobacco Retail Over Counter","LEGAL_NAME":"WALGREEN CO.","LONGITUDE":-87.68057983898257},
{"STATE":"IL","ZIP":60707,"LATTITUDE":41.909134570904456,"ADDRESS":"6800 W NORTH AVE 1ST 1","YEAR":2015,"DOING_BUSINESS_AS_NAME":"7-ELEVEN #33921B","POP_AT_RISK":57556,"BUSINESS_TYPE":"Tobacco Retail Over Counter","LEGAL_NAME":"PATELCO, INC.","LONGITUDE":-87.79492813078483},
{"STATE":"IL","ZIP":60628,"LATTITUDE":41.69475452654066,"ADDRESS":"11001 S DOTY AVE  ","YEAR":2015,"DOING_BUSINESS_AS_NAME":"HARBORSIDE INTERNATIONAL GOLF CENTER & PIER 37 BAR & GRILLE","POP_AT_RISK":3681,"BUSINESS_TYPE":"Tobacco Retail Over Counter","LEGAL_NAME":"KS HARBORSIDE, LLC","LONGITUDE":-87.5961860043188},
{"STATE":"IL","ZIP":60652,"LATTITUDE":41.75466012439374,"ADDRESS":"7601 S CICERO AVE 1 1340","YEAR":2015,"DOING_BUSINESS_AS_NAME":"FORD CITY NEWS STAND","POP_AT_RISK":25822,"BUSINESS_TYPE":"Tobacco Retail Over Counter","LEGAL_NAME":"AAHA MANAGEMENT INC","LONGITUDE":-87.74138475860521},
{"STATE":"IL","ZIP":60659,"LATTITUDE":41.997131785245806,"ADDRESS":"3947-3949 W DEVON AVE 1 ","YEAR":2015,"DOING_BUSINESS_AS_NAME":"EDEN'S FOOD & LIQUOR","POP_AT_RISK":20014,"BUSINESS_TYPE":"Tobacco Retail Over Counter","LEGAL_NAME":"BINU RICH SOFT INC.","LONGITUDE":-87.7282236873304},
{"STATE":"IL","ZIP":60638,"LATTITUDE":41.77415695093783,"ADDRESS":"6316-6318 W 65TH ST 1ST ","YEAR":2015,"DOING_BUSINESS_AS_NAME":"LAST CALL LOUNGE","POP_AT_RISK":22742,"BUSINESS_TYPE":"Tobacco Retail Over Counter","LEGAL_NAME":"LAST CALL LOUNGE INC","LONGITUDE":-87.77940788571328},
{"STATE":"IL","ZIP":60631,"LATTITUDE":42.011109822202236,"ADDRESS":"7140 N HARLEM AVE  ","YEAR":2015,"DOING_BUSINESS_AS_NAME":"SPARTAN BROS.INC.","POP_AT_RISK":19160,"BUSINESS_TYPE":"Tobacco Retail Over Counter","LEGAL_NAME":"SPARTAN BROTHERS.INC.","LONGITUDE":-87.80678967268501},
{"STATE":"IL","ZIP":60629,"LATTITUDE":41.764431087792644,"ADDRESS":"2759 W 71ST ST  ","YEAR":2015,"DOING_BUSINESS_AS_NAME":"JJ FISH & GROCERY INC.","POP_AT_RISK":34471,"BUSINESS_TYPE":"Tobacco Retail Over Counter","LEGAL_NAME":"JJ FISH & GROCERY INC.","LONGITUDE":-87.69296412238828},
{"STATE":"IL","ZIP":60656,"LATTITUDE":41.96601140133553,"ADDRESS":"4734 N CUMBERLAND AVE  ","YEAR":2015,"DOING_BUSINESS_AS_NAME":"OSCO DRUG STORE #3477","POP_AT_RISK":34164,"BUSINESS_TYPE":"Tobacco Retail Over Counter","LEGAL_NAME":"AMERICAN DRUG STORES LLC","LONGITUDE":-87.83683116913842},
{"STATE":"IL","ZIP":60655,"LATTITUDE":41.70576966137161,"ADDRESS":"3951 W 103RD ST  ","YEAR":2015,"DOING_BUSINESS_AS_NAME":"CVS\/PHARMACY #2798","POP_AT_RISK":68406,"BUSINESS_TYPE":"Tobacco Retail Over Counter","LEGAL_NAME":"HIGHLAND PARK CVS, L.L.C.","LONGITUDE":-87.72053293739903},
{"STATE":"IL","ZIP":60652,"LATTITUDE":41.73524227693795,"ADDRESS":"8639 S CICERO AVE  ","YEAR":2015,"DOING_BUSINESS_AS_NAME":"CVS\/PHARMACY #2846","POP_AT_RISK":23923,"BUSINESS_TYPE":"Tobacco Retail Over Counter","LEGAL_NAME":"HIGHLAND PARK CVS, L.L.C.","LONGITUDE":-87.74084401681829},
{"STATE":"IL","ZIP":60656,"LATTITUDE":41.97192639673687,"ADDRESS":"5001 N HARLEM AVE 1 & 2 1","YEAR":2015,"DOING_BUSINESS_AS_NAME":"PRINCE HOOKAH LOUNGE, INC.","POP_AT_RISK":30252,"BUSINESS_TYPE":"Tobacco Retail Over Counter","LEGAL_NAME":"PRINCE HOOKAH LOUNGE, INC.","LONGITUDE":-87.80694068312152},
{"STATE":"IL","ZIP":60644,"LATTITUDE":41.86558951464324,"ADDRESS":"5924 W ROOSEVELT RD 1ST ","YEAR":2015,"DOING_BUSINESS_AS_NAME":"ROSALINDA FOOD MARKET","POP_AT_RISK":183920,"BUSINESS_TYPE":"Tobacco Retail Over Counter","LEGAL_NAME":"ROSALINDA FOOD MARKET, INC.","LONGITUDE":-87.77283829265612},
{"STATE":"IL","ZIP":60827,"LATTITUDE":41.6486883798811,"ADDRESS":"13547 S INDIANA AVE  ","YEAR":2015,"DOING_BUSINESS_AS_NAME":"GAS SHOP AND MINI MART","POP_AT_RISK":11254,"BUSINESS_TYPE":"Tobacco Retail Over Counter","LEGAL_NAME":"GAS SHOP AND MINI MART, INC.","LONGITUDE":-87.61707897789567},
{"STATE":"IL","ZIP":60646,"LATTITUDE":41.99592392276426,"ADDRESS":"6310 N NAGLE AVE 1ST ","YEAR":2015,"DOING_BUSINESS_AS_NAME":"WALGREENS #1496","POP_AT_RISK":22437,"BUSINESS_TYPE":"Tobacco Retail Over Counter","LEGAL_NAME":"BOND DRUG COMPANY OF ILLINOIS, LLC","LONGITUDE":-87.78763799175523},
{"STATE":"IL","ZIP":60638,"LATTITUDE":41.792056479464385,"ADDRESS":"7150 W ARCHER AVE  ","YEAR":2015,"DOING_BUSINESS_AS_NAME":"WALGREENS #2711","POP_AT_RISK":24498,"BUSINESS_TYPE":"Tobacco Retail Over Counter","LEGAL_NAME":"BOND DRUG COMPANY OF ILLINOIS, LLC","LONGITUDE":-87.80105899332642},
{"STATE":"IL","ZIP":60655,"LATTITUDE":41.69166492445589,"ADDRESS":"3220 W 111TH ST 1ST ","YEAR":2015,"DOING_BUSINESS_AS_NAME":"WALGREENS #7360","POP_AT_RISK":24012,"BUSINESS_TYPE":"Tobacco Retail Over Counter","LEGAL_NAME":"BOND DRUG COMPANY OF ILLINOIS, LLC","LONGITUDE":-87.70175366578924},
}