{
{"STATE":"IL","ZIP":60632,"LATTITUDE":41.80786703501327,"ADDRESS":"4340 W 47TH ST  ","YEAR":2005,"DOING_BUSINESS_AS_NAME":"CHIPAC , LLC","POP_AT_RISK":94052,"BUSINESS_TYPE":"Hazardous Materials","LEGAL_NAME":"CHIPAC , LLC","LONGITUDE":-87.73259504132248},
{"STATE":"IL","ZIP":60623,"LATTITUDE":41.83985975439069,"ADDRESS":"2816 S KILBOURN AVE  ","YEAR":2005,"DOING_BUSINESS_AS_NAME":"UNILEVER HOME & PERSONAL CARE USA","POP_AT_RISK":145128,"BUSINESS_TYPE":"Hazardous Materials","LEGAL_NAME":"CONOPCO INC.","LONGITUDE":-87.73675533287768},
{"STATE":"IL","ZIP":60626,"LATTITUDE":42.02266026807753,"ADDRESS":"1832 W JUNEWAY TER  NW CO","YEAR":2005,"DOING_BUSINESS_AS_NAME":"DURO DECAL CO INC","POP_AT_RISK":144654,"BUSINESS_TYPE":"Hazardous Materials","LEGAL_NAME":"DURO DECAL CO INC","LONGITUDE":-87.67664723812041},
{"STATE":"IL","ZIP":60609,"LATTITUDE":41.826610094607204,"ADDRESS":"1201 W 37TH ST 1ST ","YEAR":2005,"DOING_BUSINESS_AS_NAME":"KENTEX CORPORATION","POP_AT_RISK":31653,"BUSINESS_TYPE":"Hazardous Materials","LEGAL_NAME":"KENTEX CORPORATION","LONGITUDE":-87.6556679141761},
{"STATE":"IL","ZIP":60659,"LATTITUDE":41.99481704318551,"ADDRESS":"6211 N LINCOLN AVE  ","YEAR":2005,"DOING_BUSINESS_AS_NAME":"HOME DEPOT #8598","POP_AT_RISK":70136,"BUSINESS_TYPE":"Hazardous Materials","LEGAL_NAME":"HOME DEPOT USA INC.","LONGITUDE":-87.71434276828107},
{"STATE":"IL","ZIP":60647,"LATTITUDE":41.92820408016415,"ADDRESS":"2570 N ELSTON AVE  ","YEAR":2005,"DOING_BUSINESS_AS_NAME":"HOME DEPOT # 1961","POP_AT_RISK":146901,"BUSINESS_TYPE":"Hazardous Materials","LEGAL_NAME":"HOME DEPOT USA INC.","LONGITUDE":-87.68225482659578},
{"STATE":"IL","ZIP":60707,"LATTITUDE":41.92692480560085,"ADDRESS":"2555 N NORMANDY AVE 1ST ","YEAR":2005,"DOING_BUSINESS_AS_NAME":"THE HOME DEPOT #1903","POP_AT_RISK":196210,"BUSINESS_TYPE":"Hazardous Materials","LEGAL_NAME":"HOME DEPOT USA INC.","LONGITUDE":-87.79275104806534},
{"STATE":"IL","ZIP":60618,"LATTITUDE":41.944881073845465,"ADDRESS":"3500 N KIMBALL AVE  ","YEAR":2005,"DOING_BUSINESS_AS_NAME":"THE HOME DEPOT #1980","POP_AT_RISK":191268,"BUSINESS_TYPE":"Hazardous Materials","LEGAL_NAME":"HOME DEPOT USA INC.","LONGITUDE":-87.71280508875888},
{"STATE":"IL","ZIP":60639,"LATTITUDE":41.91571014555266,"ADDRESS":"1919 N CICERO AVE  ","YEAR":2005,"DOING_BUSINESS_AS_NAME":"The Home Depot #1974","POP_AT_RISK":323520,"BUSINESS_TYPE":"Hazardous Materials","LEGAL_NAME":"HOME DEPOT USA INC.","LONGITUDE":-87.74590775451382},
{"STATE":"IL","ZIP":60614,"LATTITUDE":41.930899896796184,"ADDRESS":"2665 N HALSTED ST  ","YEAR":2005,"DOING_BUSINESS_AS_NAME":"The Home Depot #1976","POP_AT_RISK":659352,"BUSINESS_TYPE":"Hazardous Materials","LEGAL_NAME":"HOME DEPOT USA INC.","LONGITUDE":-87.64880320303855},
{"STATE":"IL","ZIP":60622,"LATTITUDE":41.90861723050099,"ADDRESS":"1500 N DAYTON ST  ","YEAR":2005,"DOING_BUSINESS_AS_NAME":"EXPO DESIGN CENTER #1972","POP_AT_RISK":46525,"BUSINESS_TYPE":"Hazardous Materials","LEGAL_NAME":"HOME DEPOT USA INC.","LONGITUDE":-87.64958844044676},
{"STATE":"IL","ZIP":60652,"LATTITUDE":41.73556669396829,"ADDRESS":"2540 W 87TH ST  ","YEAR":2005,"DOING_BUSINESS_AS_NAME":"BEVERLY COUNTRY CLUB","POP_AT_RISK":114995,"BUSINESS_TYPE":"Hazardous Materials","LEGAL_NAME":"BEVERLY COUNTRY CLUB","LONGITUDE":-87.68665924270518},
{"STATE":"IL","ZIP":60628,"LATTITUDE":41.67772568283731,"ADDRESS":"707 W 119TH ST  ","YEAR":2005,"DOING_BUSINESS_AS_NAME":"C & J AUTO REPAIR INC","POP_AT_RISK":31406,"BUSINESS_TYPE":"Hazardous Materials","LEGAL_NAME":"C & J AUTO REPAIR INC","LONGITUDE":-87.63982947790603},
{"STATE":"IL","ZIP":60617,"LATTITUDE":41.68355440910715,"ADDRESS":"11600 S BURLEY AVE  ","YEAR":2005,"DOING_BUSINESS_AS_NAME":"CHICAGO COKE CO. INC","POP_AT_RISK":6845,"BUSINESS_TYPE":"Hazardous Materials","LEGAL_NAME":"CHICAGO COKE CO., INC","LONGITUDE":-87.54521873675726},
{"STATE":"IL","ZIP":60623,"LATTITUDE":41.83022704248013,"ADDRESS":"3501 S PULASKI RD  1","YEAR":2005,"DOING_BUSINESS_AS_NAME":"COMMONWEALTH EDISON CO","POP_AT_RISK":59056,"BUSINESS_TYPE":"Hazardous Materials","LEGAL_NAME":"COMMONWEALTH EDISON CO","LONGITUDE":-87.72405845974058},
{"STATE":"IL","ZIP":60652,"LATTITUDE":41.755030985336106,"ADDRESS":"7601 S LAWNDALE AVE 1ST ","YEAR":2005,"DOING_BUSINESS_AS_NAME":"COMMONWEALTH EDISON CO","POP_AT_RISK":146220,"BUSINESS_TYPE":"Hazardous Materials","LEGAL_NAME":"COMMONWEALTH EDISON CO","LONGITUDE":-87.71412042508263},
{"STATE":"IL","ZIP":60624,"LATTITUDE":41.87341167381478,"ADDRESS":"3707 W HARRISON ST 1ST ","YEAR":2005,"DOING_BUSINESS_AS_NAME":"ELGIN DAIRY FOODS, INC.","POP_AT_RISK":40308,"BUSINESS_TYPE":"Hazardous Materials","LEGAL_NAME":"ELGIN DAIRY FOODS, INC.","LONGITUDE":-87.71837696523508},
{"STATE":"IL","ZIP":60609,"LATTITUDE":41.809592874106485,"ADDRESS":"4633 S RACINE AVE  ","YEAR":2005,"DOING_BUSINESS_AS_NAME":"COLLINS INTERNATIONAL INC","POP_AT_RISK":323554,"BUSINESS_TYPE":"Hazardous Materials","LEGAL_NAME":"COLLINS INTERNATIONAL INC","LONGITUDE":-87.65511503536169},
{"STATE":"IL","ZIP":60628,"LATTITUDE":41.67621856342034,"ADDRESS":"803 E 120TH ST  ","YEAR":2005,"DOING_BUSINESS_AS_NAME":"PHILIP SERVICES - ALLWASTE CONTAINER SERVICES, INC","POP_AT_RISK":41412,"BUSINESS_TYPE":"Hazardous Materials","LEGAL_NAME":"ALLWASTE TANK CLEANING, INC","LONGITUDE":-87.60321320012437},
{"STATE":"IL","ZIP":60643,"LATTITUDE":41.683167634551616,"ADDRESS":"821 W 116TH ST  ","YEAR":2005,"DOING_BUSINESS_AS_NAME":"RIVERDALE BODY SHOP","POP_AT_RISK":30208,"BUSINESS_TYPE":"Hazardous Materials","LEGAL_NAME":"RIVERDALE COLLISION.COM, INC.","LONGITUDE":-87.64291470712476},
{"STATE":"IL","ZIP":60619,"LATTITUDE":41.73679677855031,"ADDRESS":"910 E 87TH ST  ","YEAR":2005,"DOING_BUSINESS_AS_NAME":"CHATHAM 30 MINUTE CLEANERS, INC","POP_AT_RISK":35150,"BUSINESS_TYPE":"Hazardous Materials","LEGAL_NAME":"CHATHAM 30 MINUTE CLEANER, INC","LONGITUDE":-87.6019190541873},
{"STATE":"IL","ZIP":60617,"LATTITUDE":41.70743754880744,"ADDRESS":"10332 S COMMERCIAL AVE  ","YEAR":2005,"DOING_BUSINESS_AS_NAME":"DANMARIE CABINET & SINK TOP CO","POP_AT_RISK":33096,"BUSINESS_TYPE":"Hazardous Materials","LEGAL_NAME":"DANMARIE CABINET & SINK TOP CO","LONGITUDE":-87.55381156432037},
{"STATE":"IL","ZIP":60610,"LATTITUDE":41.89365280831704,"ADDRESS":"641 N DEARBORN ST  ","YEAR":2005,"DOING_BUSINESS_AS_NAME":"SBC","POP_AT_RISK":86032,"BUSINESS_TYPE":"Hazardous Materials","LEGAL_NAME":"ILLINOIS BELL TELEPHONE COMPANY","LONGITUDE":-87.62955908843963},
{"STATE":"IL","ZIP":60620,"LATTITUDE":41.75619663076557,"ADDRESS":"233 W 76TH ST  ","YEAR":2005,"DOING_BUSINESS_AS_NAME":"AMERITECH","POP_AT_RISK":23475,"BUSINESS_TYPE":"Hazardous Materials","LEGAL_NAME":"ILLINOIS BELL TELEPHONE COMPANY","LONGITUDE":-87.63103373094566},
{"STATE":"IL","ZIP":60643,"LATTITUDE":41.714049981329175,"ADDRESS":"1620 W 99TH ST  ","YEAR":2005,"DOING_BUSINESS_AS_NAME":"AMERITECH","POP_AT_RISK":150738,"BUSINESS_TYPE":"Hazardous Materials","LEGAL_NAME":"ILLINOIS BELL TELEPHONE COMPANY","LONGITUDE":-87.66422344365411},
{"STATE":"IL","ZIP":60609,"LATTITUDE":41.826780021981016,"ADDRESS":"2240 W 37TH ST  ","YEAR":2005,"DOING_BUSINESS_AS_NAME":"AMERITECH","POP_AT_RISK":276094,"BUSINESS_TYPE":"Hazardous Materials","LEGAL_NAME":"ILLINOIS BELL TELEPHONE COMPANY","LONGITUDE":-87.68175624552158},
{"STATE":"IL","ZIP":60636,"LATTITUDE":41.779322196128334,"ADDRESS":"2300 W 63RD ST  ","YEAR":2005,"DOING_BUSINESS_AS_NAME":"AMERITECH","POP_AT_RISK":48674,"BUSINESS_TYPE":"Hazardous Materials","LEGAL_NAME":"ILLINOIS BELL TELEPHONE COMPANY","LONGITUDE":-87.68115453975074},
{"STATE":"IL","ZIP":60617,"LATTITUDE":41.7228180631397,"ADDRESS":"2816 E 95TH ST  ","YEAR":2005,"DOING_BUSINESS_AS_NAME":"AMERITECH","POP_AT_RISK":92145,"BUSINESS_TYPE":"Hazardous Materials","LEGAL_NAME":"ILLINOIS BELL TELEPHONE COMPANY","LONGITUDE":-87.55587524936195},
{"STATE":"IL","ZIP":60619,"LATTITUDE":41.73264541324881,"ADDRESS":"8901 S STATE ST  ","YEAR":2005,"DOING_BUSINESS_AS_NAME":"AMERITECH","POP_AT_RISK":28982,"BUSINESS_TYPE":"Hazardous Materials","LEGAL_NAME":"ILLINOIS BELL TELEPHONE COMPANY","LONGITUDE":-87.62388755298336},
{"STATE":"IL","ZIP":60644,"LATTITUDE":41.885565683843055,"ADDRESS":"5055 W FULTON ST  ","YEAR":2005,"DOING_BUSINESS_AS_NAME":"AMERITECH","POP_AT_RISK":516213,"BUSINESS_TYPE":"Hazardous Materials","LEGAL_NAME":"ILLINOIS BELL TELEPHONE COMPANY","LONGITUDE":-87.75253831420298},
{"STATE":"IL","ZIP":60616,"LATTITUDE":41.852217346539845,"ADDRESS":"2221 S WABASH AVE  ","YEAR":2005,"DOING_BUSINESS_AS_NAME":"AMERITECH","POP_AT_RISK":70528,"BUSINESS_TYPE":"Hazardous Materials","LEGAL_NAME":"ILLINOIS BELL TELEPHONE COMPANY","LONGITUDE":-87.62533974700575},
{"STATE":"IL","ZIP":60616,"LATTITUDE":41.83809477783018,"ADDRESS":"301-323 W 31ST ST  ","YEAR":2005,"DOING_BUSINESS_AS_NAME":"AMERITECH","POP_AT_RISK":269520,"BUSINESS_TYPE":"Hazardous Materials","LEGAL_NAME":"ILLINOIS BELL TELEPHONE COMPANY","LONGITUDE":-87.63416230912509},
{"STATE":"IL","ZIP":60639,"LATTITUDE":41.92226416858896,"ADDRESS":"5604 W BELDEN AVE  ","YEAR":2005,"DOING_BUSINESS_AS_NAME":"AMERITECH","POP_AT_RISK":476553,"BUSINESS_TYPE":"Hazardous Materials","LEGAL_NAME":"ILLINOIS BELL TELEPHONE COMPANY","LONGITUDE":-87.76616974536883},
{"STATE":"IL","ZIP":60628,"LATTITUDE":41.703277510578516,"ADDRESS":"411-413 W 105TH ST  ","YEAR":2005,"DOING_BUSINESS_AS_NAME":"AMERITECH","POP_AT_RISK":169590,"BUSINESS_TYPE":"Hazardous Materials","LEGAL_NAME":"ILLINOIS BELL TELEPHONE COMPANY","LONGITUDE":-87.63379741919952},
{"STATE":"IL","ZIP":60640,"LATTITUDE":41.98309163731156,"ADDRESS":"5555 N WOLCOTT AVE  ","YEAR":2005,"DOING_BUSINESS_AS_NAME":"AMERITECH","POP_AT_RISK":146830,"BUSINESS_TYPE":"Hazardous Materials","LEGAL_NAME":"ILLINOIS BELL TELEPHONE COMPANY","LONGITUDE":-87.67647672976352},
{"STATE":"IL","ZIP":60623,"LATTITUDE":41.854972740653494,"ADDRESS":"1908 S ST LOUIS AVE  ","YEAR":2005,"DOING_BUSINESS_AS_NAME":"AMERITECH","POP_AT_RISK":58198,"BUSINESS_TYPE":"Hazardous Materials","LEGAL_NAME":"ILLINOIS BELL TELEPHONE COMPANY","LONGITUDE":-87.71257809158668},
{"STATE":"IL","ZIP":60618,"LATTITUDE":41.96117849565121,"ADDRESS":"3600 W MONTROSE AVE  ","YEAR":2005,"DOING_BUSINESS_AS_NAME":"AMERITECH","POP_AT_RISK":151320,"BUSINESS_TYPE":"Hazardous Materials","LEGAL_NAME":"ILLINOIS BELL TELEPHONE COMPANY","LONGITUDE":-87.71810260241007},
{"STATE":"IL","ZIP":60629,"LATTITUDE":41.77889237134726,"ADDRESS":"6249 S KILBOURN AVE  ","YEAR":2005,"DOING_BUSINESS_AS_NAME":"AMERITECH","POP_AT_RISK":277384,"BUSINESS_TYPE":"Hazardous Materials","LEGAL_NAME":"ILLINOIS BELL TELEPHONE COMPANY","LONGITUDE":-87.73483022588016},
{"STATE":"IL","ZIP":60647,"LATTITUDE":41.91376744052053,"ADDRESS":"1802 N CENTRAL PARK AVE  ","YEAR":2005,"DOING_BUSINESS_AS_NAME":"AMERITECH","POP_AT_RISK":196002,"BUSINESS_TYPE":"Hazardous Materials","LEGAL_NAME":"ILLINOIS BELL TELEPHONE COMPANY","LONGITUDE":-87.71680936867637},
{"STATE":"IL","ZIP":60637,"LATTITUDE":41.76767785934833,"ADDRESS":"6962 S COTTAGE GROVE AVE  ","YEAR":2005,"DOING_BUSINESS_AS_NAME":"AMERITECH","POP_AT_RISK":282024,"BUSINESS_TYPE":"Hazardous Materials","LEGAL_NAME":"ILLINOIS BELL TELEPHONE COMPANY","LONGITUDE":-87.60578975089204},
{"STATE":"IL","ZIP":60641,"LATTITUDE":41.94245868016251,"ADDRESS":"4533 W ROSCOE ST  ","YEAR":2005,"DOING_BUSINESS_AS_NAME":"AT&T ILLINOIS","POP_AT_RISK":205430,"BUSINESS_TYPE":"Hazardous Materials","LEGAL_NAME":"ILLINOIS BELL TELEPHONE COMPANY","LONGITUDE":-87.74088982932454},
{"STATE":"IL","ZIP":60640,"LATTITUDE":41.974459085528615,"ADDRESS":"1512 W CARMEN AVE 1 ","YEAR":2005,"DOING_BUSINESS_AS_NAME":"AT&T ILLINOIS","POP_AT_RISK":523240,"BUSINESS_TYPE":"Hazardous Materials","LEGAL_NAME":"ILLINOIS BELL TELEPHONE COMPANY","LONGITUDE":-87.66880683641001},
{"STATE":"IL","ZIP":60647,"LATTITUDE":41.9157483070977,"ADDRESS":"2940 W CORTLAND ST 1 ","YEAR":2005,"DOING_BUSINESS_AS_NAME":"AT&T ILLINOIS","POP_AT_RISK":417468,"BUSINESS_TYPE":"Hazardous Materials","LEGAL_NAME":"ILLINOIS BELL TELEPHONE COMPANY","LONGITUDE":-87.70088189888799},
{"STATE":"IL","ZIP":60641,"LATTITUDE":41.952978945892696,"ADDRESS":"3949 N LECLAIRE AVE  ","YEAR":2005,"DOING_BUSINESS_AS_NAME":"AT&T ILLINOIS","POP_AT_RISK":370286,"BUSINESS_TYPE":"Hazardous Materials","LEGAL_NAME":"ILLINOIS BELL TELEPHONE COMPANY","LONGITUDE":-87.75453729243588},
{"STATE":"IL","ZIP":60631,"LATTITUDE":41.99032095901972,"ADDRESS":"6001 N NORTHWEST HWY  ","YEAR":2005,"DOING_BUSINESS_AS_NAME":"AT&T ILLINOIS","POP_AT_RISK":92284,"BUSINESS_TYPE":"Hazardous Materials","LEGAL_NAME":"ILLINOIS BELL TELEPHONE COMPANY","LONGITUDE":-87.79526583816198},
{"STATE":"IL","ZIP":60657,"LATTITUDE":41.946403771362306,"ADDRESS":"3532 N SHEFFIELD AVE 1 ","YEAR":2005,"DOING_BUSINESS_AS_NAME":"AT&T ILLINOIS","POP_AT_RISK":1655793,"BUSINESS_TYPE":"Hazardous Materials","LEGAL_NAME":"ILLINOIS BELL TELEPHONE COMPANY","LONGITUDE":-87.65444977698675},
{"STATE":"IL","ZIP":60633,"LATTITUDE":41.64479806975451,"ADDRESS":"13707 S JEFFERY AVE  ","YEAR":2005,"DOING_BUSINESS_AS_NAME":"CID RECYCLING AND DISPOSAL FACILITY","POP_AT_RISK":6348,"BUSINESS_TYPE":"Hazardous Materials","LEGAL_NAME":"WASTE MANAGEMENT OF ILLINOIS INC.","LONGITUDE":-87.57463364482439},
{"STATE":"IL","ZIP":60625,"LATTITUDE":41.96405483275474,"ADDRESS":"4535 - 4537 N KEDZIE AVE  ","YEAR":2005,"DOING_BUSINESS_AS_NAME":"UNIQUE AUTO REPAIR & BODY SHOP INC.","POP_AT_RISK":351892,"BUSINESS_TYPE":"Hazardous Materials","LEGAL_NAME":"UNIQUE AUTO REPAIR & BODY SHOP INC.","LONGITUDE":-87.7081893219363},
{"STATE":"IL","ZIP":60633,"LATTITUDE":41.67326684598578,"ADDRESS":"12200 S STONY ISLAND AVE  ","YEAR":2005,"DOING_BUSINESS_AS_NAME":"KINDER MORGAN LIQUIDS TERMINALS, LLC","POP_AT_RISK":3233,"BUSINESS_TYPE":"Hazardous Materials","LEGAL_NAME":"KINDER MORGAN LIQUIDS TERMINALS, LLC","LONGITUDE":-87.57549200322636},
{"STATE":"IL","ZIP":60623,"LATTITUDE":41.84720714089235,"ADDRESS":"2430 S KEDZIE AVE 1ST ","YEAR":2005,"DOING_BUSINESS_AS_NAME":"FALCON AUTO REPAIR AND AUTO BODY, INC.","POP_AT_RISK":211143,"BUSINESS_TYPE":"Hazardous Materials","LEGAL_NAME":"FALCON AUTO REPAIR AND AUTO BODY, INC.","LONGITUDE":-87.70526743768191},
{"STATE":"IL","ZIP":60645,"LATTITUDE":42.00272789242179,"ADDRESS":"6659 N KEDZIE AVE  ","YEAR":2005,"DOING_BUSINESS_AS_NAME":"THE PEOPLES GAS LIGHT & COKE CO","POP_AT_RISK":132759,"BUSINESS_TYPE":"Hazardous Materials","LEGAL_NAME":"THE PEOPLES GAS LIGHT AND COKE COMPANY","LONGITUDE":-87.70921629958798},
{"STATE":"IL","ZIP":60619,"LATTITUDE":41.73687674505874,"ADDRESS":"1130 E 87TH ST  ","YEAR":2005,"DOING_BUSINESS_AS_NAME":"KENYATTA'S TRANSPORTATION","POP_AT_RISK":31625,"BUSINESS_TYPE":"Hazardous Materials","LEGAL_NAME":"KENYATTA'S TRANSPORTATION SERVICE, INC.","LONGITUDE":-87.59641860067727},
{"STATE":"IL","ZIP":60608,"LATTITUDE":41.85246580631648,"ADDRESS":"977 W CERMAK RD 1ST ","YEAR":2005,"DOING_BUSINESS_AS_NAME":"SEIGLES HOME & BUILDING CENTER","POP_AT_RISK":277860,"BUSINESS_TYPE":"Hazardous Materials","LEGAL_NAME":"SEIGLE'S HOME AND BUILDING CENTERS, INC.","LONGITUDE":-87.65140176057953},
{"STATE":"IL","ZIP":60619,"LATTITUDE":41.75341241918843,"ADDRESS":"7780 S DANTE AVE 1ST ","YEAR":2005,"DOING_BUSINESS_AS_NAME":"DENORMANDIE TOWEL & LINEN","POP_AT_RISK":104229,"BUSINESS_TYPE":"Hazardous Materials","LEGAL_NAME":"DE NORMANDIE TOWEL & LINEN SUPPLY COMPANY","LONGITUDE":-87.59173773427642},
}