{
{"STATE":"IL","ZIP":60617,"LATTITUDE":41.701062728606225,"ADDRESS":"10656 S AVENUE J   ","YEAR":2012,"DOING_BUSINESS_AS_NAME":"ELISEO LEON","POP_AT_RISK":104835,"BUSINESS_TYPE":"Peddler, non-food","LEGAL_NAME":"ELISEO LEON","LONGITUDE":-87.53422470733575},
{"STATE":"IL","ZIP":60612,"LATTITUDE":41.87818795988158,"ADDRESS":"2947 W ADAMS ST  1","YEAR":2012,"DOING_BUSINESS_AS_NAME":"DONYEL YOUNG","POP_AT_RISK":33095,"BUSINESS_TYPE":"Peddler, non-food","LEGAL_NAME":"DONYEL YOUNG","LONGITUDE":-87.70054673092312},
{"STATE":"IL","ZIP":60633,"LATTITUDE":41.64688489537353,"ADDRESS":"13673 S BRAINARD AVE 1ST ","YEAR":2012,"DOING_BUSINESS_AS_NAME":"KIZZY NELSON","POP_AT_RISK":4206,"BUSINESS_TYPE":"Peddler, non-food","LEGAL_NAME":"KIZZY NELSON","LONGITUDE":-87.54366077064283},
{"STATE":"IL","ZIP":60622,"LATTITUDE":41.91072118380229,"ADDRESS":"1634 W NORTH AVE 1ST ","YEAR":2012,"DOING_BUSINESS_AS_NAME":"NDIAYE MODOU","POP_AT_RISK":53997,"BUSINESS_TYPE":"Peddler, non-food","LEGAL_NAME":"NDIAVE MODOU","LONGITUDE":-87.66905969538016},
{"STATE":"IL","ZIP":60617,"LATTITUDE":41.71618166671418,"ADDRESS":"9805 S OGLESBY AVE 1 1","YEAR":2012,"DOING_BUSINESS_AS_NAME":"AARON GLASPER","POP_AT_RISK":20958,"BUSINESS_TYPE":"Peddler, non-food","LEGAL_NAME":"AARON GLASPER","LONGITUDE":-87.56571534717423},
{"STATE":"IL","ZIP":60304,"LATTITUDE":41.86965653757877,"ADDRESS":"926 S TAYLOR   ","YEAR":2012,"DOING_BUSINESS_AS_NAME":"LARENZO","POP_AT_RISK":40825,"BUSINESS_TYPE":"Peddler, non-food","LEGAL_NAME":"LARENZO ADAMS","LONGITUDE":-87.65025240383251},
{"STATE":"IL","ZIP":60634,"LATTITUDE":41.958750362646,"ADDRESS":"5630 W CULLOM AVE  ","YEAR":2012,"DOING_BUSINESS_AS_NAME":"ROBERT BECKER","POP_AT_RISK":94294,"BUSINESS_TYPE":"Peddler, non-food","LEGAL_NAME":"ROBERT BECKER","LONGITUDE":-87.76847041244794},
{"STATE":"IL","ZIP":60622,"LATTITUDE":41.89108690106291,"ADDRESS":"1606 W GRAND AVE  ","YEAR":2012,"DOING_BUSINESS_AS_NAME":"HAROLD P CIANI","POP_AT_RISK":47191,"BUSINESS_TYPE":"Peddler, non-food","LEGAL_NAME":"HAROLD P CIANI","LONGITUDE":-87.66745851977954},
{"STATE":"IL","ZIP":60616,"LATTITUDE":41.860170404620284,"ADDRESS":"1600 S PRAIRIE AVE  ","YEAR":2012,"DOING_BUSINESS_AS_NAME":"ROBERT R EVANS","POP_AT_RISK":78724,"BUSINESS_TYPE":"Peddler, non-food","LEGAL_NAME":"ROBERT R EVANS","LONGITUDE":-87.62097159169389},
{"STATE":"IL","ZIP":60626,"LATTITUDE":42.0063399206843,"ADDRESS":"1951 W FARWELL AVE APT G ","YEAR":2012,"DOING_BUSINESS_AS_NAME":"WALEED ALGHHIZI","POP_AT_RISK":81261,"BUSINESS_TYPE":"Peddler, non-food","LEGAL_NAME":"WALEED ALGHIZI","LONGITUDE":-87.67999363074951},
{"STATE":"IL","ZIP":60646,"LATTITUDE":41.99691044531468,"ADDRESS":"6333 N LEONA AVE  ","YEAR":2012,"DOING_BUSINESS_AS_NAME":"HOWARD K. KADET","POP_AT_RISK":29738,"BUSINESS_TYPE":"Peddler, non-food","LEGAL_NAME":"HOWARD K. KADET","LONGITUDE":-87.75384375298215},
{"STATE":"IL","ZIP":60643,"LATTITUDE":41.70427546034645,"ADDRESS":"10414 S PROSPECT AVE  ","YEAR":2012,"DOING_BUSINESS_AS_NAME":"JONATHAN  SMITH","POP_AT_RISK":44480,"BUSINESS_TYPE":"Peddler, non-food","LEGAL_NAME":"JONATHAN  SMITH","LONGITUDE":-87.66222281553401},
{"STATE":"IL","ZIP":60655,"LATTITUDE":41.68556100263544,"ADDRESS":"11431 S ST LOUIS AVE  ","YEAR":2012,"DOING_BUSINESS_AS_NAME":"JOSHUA JAMES SOICH","POP_AT_RISK":73892,"BUSINESS_TYPE":"Peddler, non-food","LEGAL_NAME":"JOSHUA J. SOICH","LONGITUDE":-87.70778792327808},
{"STATE":"IL","ZIP":60646,"LATTITUDE":41.987234552868365,"ADDRESS":"5823 N MULLIGAN AVE  ","YEAR":2012,"DOING_BUSINESS_AS_NAME":"SCOTT A. MARVEL","POP_AT_RISK":36314,"BUSINESS_TYPE":"Peddler, non-food","LEGAL_NAME":"SCOTT A. MARVEL","LONGITUDE":-87.7862944557037},
{"STATE":"IL","ZIP":60302,"LATTITUDE":41.89588561695357,"ADDRESS":"840 N AUSTIN BLVD  ","YEAR":2012,"DOING_BUSINESS_AS_NAME":"ABDOULAYE NDIAYE","POP_AT_RISK":43157,"BUSINESS_TYPE":"Peddler, non-food","LEGAL_NAME":"ABDOULAYE NDIAYE","LONGITUDE":-87.77531628242156},
{"STATE":"IL","ZIP":60638,"LATTITUDE":41.79105802412348,"ADDRESS":"5548 S MCVICKER AVE  ","YEAR":2012,"DOING_BUSINESS_AS_NAME":"BENJAMIN","POP_AT_RISK":31019,"BUSINESS_TYPE":"Peddler, non-food","LEGAL_NAME":"BENJAMIN G GALLO","LONGITUDE":-87.77337547404142},
{"STATE":"IL","ZIP":60628,"LATTITUDE":41.675441894623816,"ADDRESS":"118 E 120TH PL  ","YEAR":2012,"DOING_BUSINESS_AS_NAME":"CLARISSA MILES","POP_AT_RISK":23839,"BUSINESS_TYPE":"Peddler, non-food","LEGAL_NAME":"CLARISSA S MILES","LONGITUDE":-87.61968970462848},
{"STATE":"IL","ZIP":60302,"LATTITUDE":41.883118636394194,"ADDRESS":"1116  WASHINGTON BLVD  ","YEAR":2012,"DOING_BUSINESS_AS_NAME":"EDGAR M RUFFIN","POP_AT_RISK":39106,"BUSINESS_TYPE":"Peddler, non-food","LEGAL_NAME":"EDGAR  M  RUFFIN","LONGITUDE":-87.65516146361095},
{"STATE":"IL","ZIP":60617,"LATTITUDE":41.72927464299358,"ADDRESS":"9126 S BALTIMORE AVE 2 ","YEAR":2012,"DOING_BUSINESS_AS_NAME":"IGNACIO GONZALEZ","POP_AT_RISK":35404,"BUSINESS_TYPE":"Peddler, non-food","LEGAL_NAME":"IGNACIO GONZALEZ","LONGITUDE":-87.54862567200976},
{"STATE":"IL","ZIP":60652,"LATTITUDE":41.75506753429627,"ADDRESS":"3920 W 76TH ST  ","YEAR":2012,"DOING_BUSINESS_AS_NAME":"SADAT A. AFFANEH","POP_AT_RISK":29424,"BUSINESS_TYPE":"Peddler, non-food","LEGAL_NAME":"SADAT A. AFFANEH","LONGITUDE":-87.72133288516798},
{"STATE":"IL","ZIP":60644,"LATTITUDE":41.88023523529787,"ADDRESS":"5912 W MADISON ST  ","YEAR":2012,"DOING_BUSINESS_AS_NAME":"BARBARA L WARMACK","POP_AT_RISK":46733,"BUSINESS_TYPE":"Peddler, non-food","LEGAL_NAME":"BARBARA L WARMACK","LONGITUDE":-87.77232918177985},
{"STATE":"IL","ZIP":60624,"LATTITUDE":41.86699618215448,"ADDRESS":"4528 W GRENSHAW ST  ","YEAR":2012,"DOING_BUSINESS_AS_NAME":"CATHERINE BURNETT","POP_AT_RISK":48000,"BUSINESS_TYPE":"Peddler, non-food","LEGAL_NAME":"CATHERINE BURNETT","LONGITUDE":-87.73865305959102},
{"STATE":"IL","ZIP":60652,"LATTITUDE":41.73571339120002,"ADDRESS":"8629 S KENNETH AVE 1 ","YEAR":2012,"DOING_BUSINESS_AS_NAME":"LAURA NICOLE ZARO","POP_AT_RISK":19810,"BUSINESS_TYPE":"Peddler, non-food","LEGAL_NAME":"LAURA NICOLE ZARO","LONGITUDE":-87.73224099889644},
{"STATE":"IL","ZIP":60620,"LATTITUDE":41.728411233587664,"ADDRESS":"1553 W 91ST ST  208","YEAR":2012,"DOING_BUSINESS_AS_NAME":"FRED DONNELL HARRIS","POP_AT_RISK":29296,"BUSINESS_TYPE":"Peddler, non-food","LEGAL_NAME":"FRED DONNELL HARRIS","LONGITUDE":-87.66261069811212},
{"STATE":"IL","ZIP":60655,"LATTITUDE":41.68259714093822,"ADDRESS":"2439 W 116TH ST 1ST 1W","YEAR":2012,"DOING_BUSINESS_AS_NAME":"JENNIPHER V BUCKNER","POP_AT_RISK":22950,"BUSINESS_TYPE":"Peddler, non-food","LEGAL_NAME":"JENNIPHER V BUCKNER","LONGITUDE":-87.68247206160281},
{"STATE":"IL","ZIP":60707,"LATTITUDE":41.91900397937436,"ADDRESS":"2131 N NORDICA AVE 1 1","YEAR":2012,"DOING_BUSINESS_AS_NAME":"RICHARD FRANK WELLS","POP_AT_RISK":38446,"BUSINESS_TYPE":"Peddler, non-food","LEGAL_NAME":"RICHARD FRANK WELLS","LONGITUDE":-87.80228131029853},
{"STATE":"IL","ZIP":60611,"LATTITUDE":41.88911847301037,"ADDRESS":"400 N MCCLURG CT 24TH 2416","YEAR":2012,"DOING_BUSINESS_AS_NAME":"SHEIKH TAHA  WASEEM","POP_AT_RISK":108152,"BUSINESS_TYPE":"Peddler, non-food","LEGAL_NAME":"SHEIKH TAHA  WASEEM","LONGITUDE":-87.61775487651728},
{"STATE":"IL","ZIP":60646,"LATTITUDE":41.98593151418279,"ADDRESS":"5801 N PULASKI RD  ","YEAR":2012,"DOING_BUSINESS_AS_NAME":"CHARLES V. UTSLER, JR.","POP_AT_RISK":28641,"BUSINESS_TYPE":"Peddler, non-food","LEGAL_NAME":"CHARLES V. UTSLER JR.","LONGITUDE":-87.7283692100341},
{"STATE":"IL","ZIP":60607,"LATTITUDE":41.8619488347298,"ADDRESS":"1458 S CANAL ST  ","YEAR":2012,"DOING_BUSINESS_AS_NAME":"GABRIELLA EDITH JOHNSON","POP_AT_RISK":32989,"BUSINESS_TYPE":"Peddler, non-food","LEGAL_NAME":"GABRIELLA EDITHJOHNSON","LONGITUDE":-87.639221139667},
{"STATE":"IL","ZIP":60631,"LATTITUDE":42.01219322871207,"ADDRESS":"7715 W JARLATH ST  ","YEAR":2012,"DOING_BUSINESS_AS_NAME":"JOSE M TORRES SR.","POP_AT_RISK":19740,"BUSINESS_TYPE":"Peddler, non-food","LEGAL_NAME":"JOSE MANUEL TORRES SR.","LONGITUDE":-87.81948791220417},
{"STATE":"IL","ZIP":60629,"LATTITUDE":41.78454380300825,"ADDRESS":"5945 S TRIPP AVE  ","YEAR":2012,"DOING_BUSINESS_AS_NAME":"MARCO ANTONIO SANDOVAL","POP_AT_RISK":41400,"BUSINESS_TYPE":"Peddler, non-food","LEGAL_NAME":"MARCO ANTONIO SANDOVAL","LONGITUDE":-87.7288885476095},
{"STATE":"IL","ZIP":60638,"LATTITUDE":41.77502533729492,"ADDRESS":"6456 W 64TH PL 3S ","YEAR":2012,"DOING_BUSINESS_AS_NAME":"RICHARD  G.  LADD, JR.","POP_AT_RISK":22742,"BUSINESS_TYPE":"Peddler, non-food","LEGAL_NAME":"RICHARD   G.  LADD, JR.","LONGITUDE":-87.78340774656445},
{"STATE":"IL","ZIP":60634,"LATTITUDE":41.93945406332852,"ADDRESS":"3300 N PANAMA AVE  ","YEAR":2012,"DOING_BUSINESS_AS_NAME":"ALLISON VICTORIA PINCSAK","POP_AT_RISK":27736,"BUSINESS_TYPE":"Peddler, non-food","LEGAL_NAME":"ALLISON VICTORIA PINCSAK","LONGITUDE":-87.82898482892645},
}