{
{"STATE":"IL","ZIP":60659,"LATTITUDE":41.99782767313986,"ADDRESS":"2412 W DEVON AVE 1ST ","YEAR":2002,"DOING_BUSINESS_AS_NAME":"DEVON SHOES","POP_AT_RISK":606184,"BUSINESS_TYPE":"Limited Business License","LEGAL_NAME":"PUN Y. LEE","LONGITUDE":-87.6904539194658},
{"STATE":"IL","ZIP":60615,"LATTITUDE":41.79960897430728,"ADDRESS":"1362 E 53RD ST 1ST ","YEAR":2002,"DOING_BUSINESS_AS_NAME":"HAPPY MART","POP_AT_RISK":80554,"BUSINESS_TYPE":"Limited Business License","LEGAL_NAME":"BO HYUN NAM","LONGITUDE":-87.592695407772},
{"STATE":"IL","ZIP":60657,"LATTITUDE":41.93333795438663,"ADDRESS":"2815 N PINE GROVE AVE 1ST ","YEAR":2002,"DOING_BUSINESS_AS_NAME":"ROYAL GATE CLEANERS","POP_AT_RISK":285508,"BUSINESS_TYPE":"Limited Business License","LEGAL_NAME":"MARRIA CHOI","LONGITUDE":-87.64121320941341},
{"STATE":"IL","ZIP":60617,"LATTITUDE":41.70770343525996,"ADDRESS":"10315 S COMMERCIAL AVE  ","YEAR":2002,"DOING_BUSINESS_AS_NAME":"CORREA IRON WORK","POP_AT_RISK":66192,"BUSINESS_TYPE":"Limited Business License","LEGAL_NAME":"RAUL CORREA","LONGITUDE":-87.55325842415722},
{"STATE":"IL","ZIP":60636,"LATTITUDE":41.779542678524315,"ADDRESS":"1634 W 63RD ST 1ST ","YEAR":2002,"DOING_BUSINESS_AS_NAME":"GREENWOODS USED FURNITURE","POP_AT_RISK":616505,"BUSINESS_TYPE":"Limited Business License","LEGAL_NAME":"ROSE LESLEY","LONGITUDE":-87.66560618809415},
{"STATE":"IL","ZIP":60620,"LATTITUDE":41.72787706541583,"ADDRESS":"9111 S WESTERN AVE  ","YEAR":2002,"DOING_BUSINESS_AS_NAME":"OVER FORTY FITNESS STUDIO","POP_AT_RISK":86220,"BUSINESS_TYPE":"Limited Business License","LEGAL_NAME":"DORIS R KING","LONGITUDE":-87.68213103188249},
{"STATE":"IL","ZIP":60637,"LATTITUDE":41.780399558246835,"ADDRESS":"510 E 63RD ST  ","YEAR":2002,"DOING_BUSINESS_AS_NAME":"YOUR'S & MINE MUSIC DEN","POP_AT_RISK":112689,"BUSINESS_TYPE":"Limited Business License","LEGAL_NAME":"GRADY JORDAN","LONGITUDE":-87.6127408049517},
{"STATE":"IL","ZIP":60623,"LATTITUDE":41.85196534141037,"ADDRESS":"2878 W CERMAK RD 1ST ","YEAR":2002,"DOING_BUSINESS_AS_NAME":"RAMIREZ CLOTHING STORE","POP_AT_RISK":67959,"BUSINESS_TYPE":"Limited Business License","LEGAL_NAME":"JOSE RAMIREZ","LONGITUDE":-87.69874969092463},
{"STATE":"IL","ZIP":60615,"LATTITUDE":41.800735550150485,"ADDRESS":"5211 S HARPER AVE 1ST ","YEAR":2002,"DOING_BUSINESS_AS_NAME":"ART DIRECTIONS","POP_AT_RISK":38939,"BUSINESS_TYPE":"Limited Business License","LEGAL_NAME":"SHERMAN BECK","LONGITUDE":-87.58893621765584},
{"STATE":"IL","ZIP":60629,"LATTITUDE":41.77280603833205,"ADDRESS":"6611 S PULASKI RD  1","YEAR":2002,"DOING_BUSINESS_AS_NAME":"SNUKST   MUSIC","POP_AT_RISK":81210,"BUSINESS_TYPE":"Limited Business License","LEGAL_NAME":"JOSEPH SNUKST","LONGITUDE":-87.7224665579386},
{"STATE":"IL","ZIP":60651,"LATTITUDE":41.90900572797745,"ADDRESS":"1552 N MASON AVE  ","YEAR":2002,"DOING_BUSINESS_AS_NAME":"SMOOTH J","POP_AT_RISK":41044,"BUSINESS_TYPE":"Limited Business License","LEGAL_NAME":"CYNTHIA THOMAS","LONGITUDE":-87.77452857704169},
{"STATE":"IL","ZIP":60628,"LATTITUDE":41.68742945644115,"ADDRESS":"11355 S MICHIGAN AVE  ","YEAR":2002,"DOING_BUSINESS_AS_NAME":"BROOKS APPLIANCE","POP_AT_RISK":26588,"BUSINESS_TYPE":"Limited Business License","LEGAL_NAME":"LORENZA BROOKS","LONGITUDE":-87.62080593696126},
{"STATE":"IL","ZIP":60617,"LATTITUDE":41.7493333768042,"ADDRESS":"8009 S SOUTH CHICAGO AVE 1ST ","YEAR":2002,"DOING_BUSINESS_AS_NAME":"BEAR IRON WORKS","POP_AT_RISK":68422,"BUSINESS_TYPE":"Limited Business License","LEGAL_NAME":"PHILIPPE ASCAR","LONGITUDE":-87.58236084706236},
{"STATE":"IL","ZIP":60619,"LATTITUDE":41.73659748352024,"ADDRESS":"352 E 87TH ST 1ST ","YEAR":2002,"DOING_BUSINESS_AS_NAME":"WINDY CITY TAX","POP_AT_RISK":34006,"BUSINESS_TYPE":"Limited Business License","LEGAL_NAME":"WINDY CITY TAX","LONGITUDE":-87.61565796265458},
{"STATE":"IL","ZIP":60612,"LATTITUDE":41.880920983710624,"ADDRESS":"2949 W MADISON ST MAIN ","YEAR":2002,"DOING_BUSINESS_AS_NAME":"BESSIE'S BEAUTY SALON","POP_AT_RISK":32840,"BUSINESS_TYPE":"Limited Business License","LEGAL_NAME":"BESSIE WILLIAMS","LONGITUDE":-87.70069606026841},
{"STATE":"IL","ZIP":60620,"LATTITUDE":41.73591936401199,"ADDRESS":"913 W 87TH ST  ","YEAR":2002,"DOING_BUSINESS_AS_NAME":"LITTLE B'S SNACK SHOP","POP_AT_RISK":261842,"BUSINESS_TYPE":"Limited Business License","LEGAL_NAME":"DEMETRIUS SMITH","LONGITUDE":-87.64668188690325},
{"STATE":"IL","ZIP":60628,"LATTITUDE":41.66580730288807,"ADDRESS":"12521 S EDBROOKE AVE  1ST","YEAR":2002,"DOING_BUSINESS_AS_NAME":"R J WATKINS REMODELING & CONST","POP_AT_RISK":56190,"BUSINESS_TYPE":"Limited Business License","LEGAL_NAME":"RILEY J WATKINS","LONGITUDE":-87.61863740038103},
{"STATE":"IL","ZIP":60651,"LATTITUDE":41.89487873423334,"ADDRESS":"4849 W CHICAGO AVE  ","YEAR":2002,"DOING_BUSINESS_AS_NAME":"JO-BARS, NUTRITION CLINIC","POP_AT_RISK":42220,"BUSINESS_TYPE":"Limited Business License","LEGAL_NAME":"DR. JOE BOLLS ND","LONGITUDE":-87.74775373166064},
{"STATE":"IL","ZIP":60656,"LATTITUDE":41.97926005682032,"ADDRESS":"6835 W HIGGINS AVE  203","YEAR":2002,"DOING_BUSINESS_AS_NAME":"DIVERSIFIED FOOD BROKERS","POP_AT_RISK":20996,"BUSINESS_TYPE":"Limited Business License","LEGAL_NAME":"S M & R T LAMICK","LONGITUDE":-87.79889338785712},
{"STATE":"IL","ZIP":60629,"LATTITUDE":41.76444092457939,"ADDRESS":"2745 W 71ST ST 1ST ","YEAR":2002,"DOING_BUSINESS_AS_NAME":"DIJICO GIFTS & MORE","POP_AT_RISK":34471,"BUSINESS_TYPE":"Limited Business License","LEGAL_NAME":"ARTHUR J WILLIAMS","LONGITUDE":-87.69237089145282},
{"STATE":"IL","ZIP":60623,"LATTITUDE":41.86032252263789,"ADDRESS":"1511 S PULASKI RD 1ST ","YEAR":2002,"DOING_BUSINESS_AS_NAME":"DANITA A COZART FUNERAL SERVIC","POP_AT_RISK":167216,"BUSINESS_TYPE":"Limited Business License","LEGAL_NAME":"DANITA ANN COZART","LONGITUDE":-87.72485068177258},
{"STATE":"IL","ZIP":60649,"LATTITUDE":41.75757168970851,"ADDRESS":"7538 S STONY ISLAND AVE  ","YEAR":2002,"DOING_BUSINESS_AS_NAME":"LFD OPERATING, INC","POP_AT_RISK":166108,"BUSINESS_TYPE":"Limited Business License","LEGAL_NAME":"LFD OPERATING, INC","LONGITUDE":-87.58625840314843},
{"STATE":"IL","ZIP":60616,"LATTITUDE":41.83186711935957,"ADDRESS":"3445 S DR MARTIN LUTHER KING JR DR  ","YEAR":2002,"DOING_BUSINESS_AS_NAME":"LFD OPERATING, INC","POP_AT_RISK":156275,"BUSINESS_TYPE":"Limited Business License","LEGAL_NAME":"LFD OPERATING, INC","LONGITUDE":-87.61683052733929},
{"STATE":"IL","ZIP":60607,"LATTITUDE":41.88020811723141,"ADDRESS":"1217 W MONROE ST 2ND ","YEAR":2002,"DOING_BUSINESS_AS_NAME":"BARNES PLATING CORP","POP_AT_RISK":39639,"BUSINESS_TYPE":"Limited Business License","LEGAL_NAME":"BARNES PLATING CORP","LONGITUDE":-87.65782183804951},
{"STATE":"IL","ZIP":60617,"LATTITUDE":41.729245316805674,"ADDRESS":"9126 S COMMERCIAL AVE  ","YEAR":2002,"DOING_BUSINESS_AS_NAME":"F & E FURNTURE INC","POP_AT_RISK":123914,"BUSINESS_TYPE":"Limited Business License","LEGAL_NAME":"F & E FURNITURE INC","LONGITUDE":-87.55138286179314},
{"STATE":"IL","ZIP":60643,"LATTITUDE":41.70620981651653,"ADDRESS":"10311 S HALE AVE 1ST ","YEAR":2002,"DOING_BUSINESS_AS_NAME":"ESPECIALLY YOURS BOUTIQUE","POP_AT_RISK":166180,"BUSINESS_TYPE":"Limited Business License","LEGAL_NAME":"ESPECIALLY YOURS INC","LONGITUDE":-87.66850094221266},
{"STATE":"IL","ZIP":60634,"LATTITUDE":41.952915858495615,"ADDRESS":"6039 W IRVING PARK RD FRONT STORE","YEAR":2002,"DOING_BUSINESS_AS_NAME":"KASIA'S BRIDAL & SPECIAL OCCASION","POP_AT_RISK":205072,"BUSINESS_TYPE":"Limited Business License","LEGAL_NAME":"KATARZYNA M LABEDZKI","LONGITUDE":-87.77837260426908},
{"STATE":"IL","ZIP":60638,"LATTITUDE":41.79624915577635,"ADDRESS":"5333 S LARAMIE AVE 2 203","YEAR":2002,"DOING_BUSINESS_AS_NAME":"MARCA MED MGMT","POP_AT_RISK":40988,"BUSINESS_TYPE":"Limited Business License","LEGAL_NAME":"MARCA INDUSTRIES INC","LONGITUDE":-87.75245264211209},
{"STATE":"IL","ZIP":60618,"LATTITUDE":41.95973637833554,"ADDRESS":"4310- 4312 N KEDZIE AVE 1ST ","YEAR":2002,"DOING_BUSINESS_AS_NAME":"ALL RIGHT SALES INC","POP_AT_RISK":221565,"BUSINESS_TYPE":"Limited Business License","LEGAL_NAME":"ALL RIGHT SALES, INC.","LONGITUDE":-87.7083480982049},
{"STATE":"IL","ZIP":60612,"LATTITUDE":41.873473313585954,"ADDRESS":"608 S CALIFORNIA AVE  ","YEAR":2002,"DOING_BUSINESS_AS_NAME":"CALIFORNIA CANDY","POP_AT_RISK":32029,"BUSINESS_TYPE":"Limited Business License","LEGAL_NAME":"ELSTON HOWARD WINSTON","LONGITUDE":-87.69623826206077},
{"STATE":"IL","ZIP":60629,"LATTITUDE":41.77900099532133,"ADDRESS":"2807 W 63RD ST  1ST","YEAR":2002,"DOING_BUSINESS_AS_NAME":"FASHION SPOT","POP_AT_RISK":57928,"BUSINESS_TYPE":"Limited Business License","LEGAL_NAME":"MUHAMMAD FAROUQ WAHID","LONGITUDE":-87.69370328399741},
{"STATE":"IL","ZIP":60609,"LATTITUDE":41.81944142629576,"ADDRESS":"4100 S ASHLAND AVE  466","YEAR":2002,"DOING_BUSINESS_AS_NAME":"ITASOL ENT","POP_AT_RISK":40680,"BUSINESS_TYPE":"Limited Business License","LEGAL_NAME":"CARMEN\/ITALO FERNANDEZ","LONGITUDE":-87.6653755449091},
{"STATE":"IL","ZIP":60616,"LATTITUDE":41.85419663973395,"ADDRESS":"2108 S ARCHER AVE  ","YEAR":2002,"DOING_BUSINESS_AS_NAME":"CHINA STAR MEDIA CORP","POP_AT_RISK":161532,"BUSINESS_TYPE":"Limited Business License","LEGAL_NAME":"CHINA STAR MEDIA CORP.","LONGITUDE":-87.63233146709493},
{"STATE":"IL","ZIP":60655,"LATTITUDE":41.69793767496546,"ADDRESS":"10727 S PULASKI RD 1ST ","YEAR":2002,"DOING_BUSINESS_AS_NAME":"D.F.CURLEY SONS INC","POP_AT_RISK":160506,"BUSINESS_TYPE":"Limited Business License","LEGAL_NAME":"D. F. CURLEY SONS, INC.","LONGITUDE":-87.7204632123981},
{"STATE":"IL","ZIP":60639,"LATTITUDE":41.931504597409,"ADDRESS":"5206 W DIVERSEY AVE 1ST ","YEAR":2002,"DOING_BUSINESS_AS_NAME":"BUY LOW LIQUOR","POP_AT_RISK":65716,"BUSINESS_TYPE":"Limited Business License","LEGAL_NAME":"G & G ENTERPRISES, INC.","LONGITUDE":-87.75677325434731},
{"STATE":"IL","ZIP":60609,"LATTITUDE":41.814741921526455,"ADDRESS":"4335 S WESTERN AVE  1","YEAR":2002,"DOING_BUSINESS_AS_NAME":"WESTERN WAREHOUSE, INC.","POP_AT_RISK":215112,"BUSINESS_TYPE":"Limited Business License","LEGAL_NAME":"WESTERN WAREHOUSE, INC.","LONGITUDE":-87.68445355944723},
{"STATE":"IL","ZIP":60646,"LATTITUDE":41.99183095563341,"ADDRESS":"6105 N ELSTON AVE  ","YEAR":2002,"DOING_BUSINESS_AS_NAME":"DIAMOND TECHNOLOGIES INC","POP_AT_RISK":24342,"BUSINESS_TYPE":"Limited Business License","LEGAL_NAME":"DIAMOND TECHNOLOGIES INC","LONGITUDE":-87.78124857274635},
{"STATE":"IL","ZIP":60707,"LATTITUDE":41.92375020104243,"ADDRESS":"6560 W FULLERTON AVE 1ST ","YEAR":2002,"DOING_BUSINESS_AS_NAME":"FASHION FACTORY OUTLET","POP_AT_RISK":39242,"BUSINESS_TYPE":"Limited Business License","LEGAL_NAME":"HUYNH NGOC DUNG BUI, INC","LONGITUDE":-87.78988085962634},
{"STATE":"IL","ZIP":60634,"LATTITUDE":41.94256835641735,"ADDRESS":"3431 N HARLEM AVE 1ST ","YEAR":2002,"DOING_BUSINESS_AS_NAME":"TIME TO TAN AND CLOSET INC","POP_AT_RISK":71544,"BUSINESS_TYPE":"Limited Business License","LEGAL_NAME":"TIME TO TAN & CLOSET INC","LONGITUDE":-87.80676404747243},
{"STATE":"IL","ZIP":60631,"LATTITUDE":42.001703623441614,"ADDRESS":"6650 N NORTHWEST HWY  200","YEAR":2002,"DOING_BUSINESS_AS_NAME":"RIGALI PACKAGING PRODUCTS","POP_AT_RISK":94590,"BUSINESS_TYPE":"Limited Business License","LEGAL_NAME":"RIGALI PACKAGING PRODUCTS","LONGITUDE":-87.81468276254567},
{"STATE":"IL","ZIP":60060,"LATTITUDE":41.968562000308786,"ADDRESS":"2223 S MAYFAIR   1","YEAR":2002,"DOING_BUSINESS_AS_NAME":"DRIVCO CONTRACTORS LTD","POP_AT_RISK":113072,"BUSINESS_TYPE":"Limited Business License","LEGAL_NAME":"DRIVCO CONTRACTORS LIMITED","LONGITUDE":-87.68490050574755},
{"STATE":"IL","ZIP":60631,"LATTITUDE":41.98106319707633,"ADDRESS":"8750 W BRYN MAWR AVE  ","YEAR":2002,"DOING_BUSINESS_AS_NAME":"CHAMPION INTERNATIONAL","POP_AT_RISK":105845,"BUSINESS_TYPE":"Limited Business License","LEGAL_NAME":"CHAMPION INTERNATIONAL CORP","LONGITUDE":-87.84567441591551},
{"STATE":"IL","ZIP":60619,"LATTITUDE":41.754504307392594,"ADDRESS":"7701 S STATE ST  ","YEAR":2002,"DOING_BUSINESS_AS_NAME":"HALSTED ST SPARKLE CAR WAS","POP_AT_RISK":146064,"BUSINESS_TYPE":"Limited Business License","LEGAL_NAME":"HALSTED ST SPARKLE CAR WASH","LONGITUDE":-87.62449585083768},
{"STATE":"IL","ZIP":60622,"LATTITUDE":41.915962703573605,"ADDRESS":"1854 N BESLY CT 1ST ","YEAR":2002,"DOING_BUSINESS_AS_NAME":"PAYLESS APPLIANCE WAREHOUSE","POP_AT_RISK":54034,"BUSINESS_TYPE":"Limited Business License","LEGAL_NAME":"PAYLESS APPLIANCE WAREHOUSE","LONGITUDE":-87.66689918368252},
{"STATE":"IL","ZIP":60441,"LATTITUDE":41.833443182818655,"ADDRESS":"3341 S STATE ST  ","YEAR":2002,"DOING_BUSINESS_AS_NAME":"SCOTTY'S OF WILLCOUNTY INC","POP_AT_RISK":65580,"BUSINESS_TYPE":"Limited Business License","LEGAL_NAME":"SCOTTY'S OF WILL COUNTY INC","LONGITUDE":-87.62630714096831},
{"STATE":"IL","ZIP":60652,"LATTITUDE":41.749852091211714,"ADDRESS":"3524 W 79TH ST  1ST","YEAR":2002,"DOING_BUSINESS_AS_NAME":"BADGER PAINT PLUS OF CHICAGO","POP_AT_RISK":52830,"BUSINESS_TYPE":"Limited Business License","LEGAL_NAME":"BADGER PAINT PLUS OF CHICAGO","LONGITUDE":-87.71069520824956},
{"STATE":"IL","ZIP":60652,"LATTITUDE":41.75466012439374,"ADDRESS":"7601 S CICERO AVE  ","YEAR":2002,"DOING_BUSINESS_AS_NAME":"VALLEY TREASURES","POP_AT_RISK":77466,"BUSINESS_TYPE":"Limited Business License","LEGAL_NAME":"VALLEY TREASURES INCORPORATED","LONGITUDE":-87.74138475860521},
{"STATE":"IL","ZIP":60644,"LATTITUDE":41.872779718209514,"ADDRESS":"5401 W HARRISON ST  ","YEAR":2002,"DOING_BUSINESS_AS_NAME":"CONTRACTING & MATERIAL COMPANY","POP_AT_RISK":321643,"BUSINESS_TYPE":"Limited Business License","LEGAL_NAME":"CONTRACTING & MATERIAL COMPANY","LONGITUDE":-87.75960969797298},
{"STATE":"IL","ZIP":60647,"LATTITUDE":41.92452947796793,"ADDRESS":"3509 W FULLERTON AVE 1ST ","YEAR":2002,"DOING_BUSINESS_AS_NAME":"FULLERTON AUTO SALES & REBUILD","POP_AT_RISK":399990,"BUSINESS_TYPE":"Limited Business License","LEGAL_NAME":"FULLERTON AUTO SALES & REBUILD","LONGITUDE":-87.71414212248216},
{"STATE":"IL","ZIP":60632,"LATTITUDE":41.79426937887318,"ADDRESS":"5424 S PULASKI RD  ","YEAR":2002,"DOING_BUSINESS_AS_NAME":"PULASKI ANIMAL HOSPITAL LTD","POP_AT_RISK":410576,"BUSINESS_TYPE":"Limited Business License","LEGAL_NAME":"PULASKI ANIMAL HOSPITAL LIMITED","LONGITUDE":-87.72333668984069},
{"STATE":"IL","ZIP":60638,"LATTITUDE":41.78058065043016,"ADDRESS":"6150 S LARAMIE AVE  ","YEAR":2002,"DOING_BUSINESS_AS_NAME":"JET AVIATION","POP_AT_RISK":37638,"BUSINESS_TYPE":"Limited Business License","LEGAL_NAME":"JET AVIATION FLIGHT SERVICES, INC.","LONGITUDE":-87.75268097816075},
{"STATE":"IL","ZIP":60628,"LATTITUDE":41.7218041410881,"ADDRESS":"9501 S DR MARTIN LUTHER KING JR DR  460","YEAR":2002,"DOING_BUSINESS_AS_NAME":"CHICAGO STATE UNIVERSITY BOOKSTORE","POP_AT_RISK":22570,"BUSINESS_TYPE":"Limited Business License","LEGAL_NAME":"FOLLETT HIGHER EDUCATION GROUP, INC","LONGITUDE":-87.61399411519453},
}