{
{"STATE":"IL","ZIP":60656,"LATTITUDE":41.97609709532233,"ADDRESS":"8718 W SUMMERDALE AVE  2N","YEAR":2014,"DOING_BUSINESS_AS_NAME":"RUTH M REYES","POP_AT_RISK":41412,"BUSINESS_TYPE":"Peddler License","LEGAL_NAME":"RUTH M REYES","LONGITUDE":-87.84480162731042},
{"STATE":"IL","ZIP":60804,"LATTITUDE":41.86545291278558,"ADDRESS":"5701 W ROOSEVELT   2A","YEAR":2014,"DOING_BUSINESS_AS_NAME":"THERESA JETT","POP_AT_RISK":96388,"BUSINESS_TYPE":"Peddler License","LEGAL_NAME":"THERESA  JETT","LONGITUDE":-87.76681660684827},
{"STATE":"IL","ZIP":60646,"LATTITUDE":41.99691044531468,"ADDRESS":"6333 N LEONA AVE  ","YEAR":2014,"DOING_BUSINESS_AS_NAME":"HOWARD K. KADET","POP_AT_RISK":14869,"BUSINESS_TYPE":"Peddler License","LEGAL_NAME":"HOWARD K. KADET","LONGITUDE":-87.75384375298215},
{"STATE":"IL","ZIP":60638,"LATTITUDE":41.798900444532265,"ADDRESS":"5122 S NASHVILLE AVE  ","YEAR":2014,"DOING_BUSINESS_AS_NAME":"PAMELA M. STARON","POP_AT_RISK":19291,"BUSINESS_TYPE":"Peddler License","LEGAL_NAME":"PAMELA M. STARON","LONGITUDE":-87.78703221954771},
{"STATE":"IL","ZIP":60628,"LATTITUDE":41.66030706909066,"ADDRESS":"12839 S LOWE AVE 1 ","YEAR":2014,"DOING_BUSINESS_AS_NAME":"SHAWNTELL J. LEE","POP_AT_RISK":12940,"BUSINESS_TYPE":"Peddler License","LEGAL_NAME":"SHAWNTELL J. LEE","LONGITUDE":-87.63757404295332},
{"STATE":"IL","ZIP":60655,"LATTITUDE":41.69691968234274,"ADDRESS":"3227 W 108TH ST 1ST ","YEAR":2014,"DOING_BUSINESS_AS_NAME":"PAUL RYAN O'GRADY","POP_AT_RISK":19004,"BUSINESS_TYPE":"Peddler License","LEGAL_NAME":"PAUL RYAN O'GRADY","LONGITUDE":-87.70210158951616},
{"STATE":"IL","ZIP":60707,"LATTITUDE":41.91900397937436,"ADDRESS":"2131 N NORDICA AVE  ","YEAR":2014,"DOING_BUSINESS_AS_NAME":"RICHARD FRANK WELLS","POP_AT_RISK":38446,"BUSINESS_TYPE":"Peddler License","LEGAL_NAME":"RICHARD FRANK WELLS","LONGITUDE":-87.80228131029853},
{"STATE":"IL","ZIP":60827,"LATTITUDE":41.644497176447054,"ADDRESS":"335 W 138TH ST  ","YEAR":2014,"DOING_BUSINESS_AS_NAME":"RONALD MARVIN DRAIN","POP_AT_RISK":29698,"BUSINESS_TYPE":"Peddler License","LEGAL_NAME":"RONALD MARVIN DRAIN","LONGITUDE":-87.61304702421506},
{"STATE":"IL","ZIP":60643,"LATTITUDE":41.674052619031144,"ADDRESS":"12056 S JUSTINE ST 1 ","YEAR":2014,"DOING_BUSINESS_AS_NAME":"ROBERT L. JOHNSON JR.","POP_AT_RISK":25360,"BUSINESS_TYPE":"Peddler License","LEGAL_NAME":"ROBERT L. JOHNSON, JR","LONGITUDE":-87.66020570250922},
{"STATE":"IL","ZIP":60631,"LATTITUDE":42.01219322871207,"ADDRESS":"7715 W JARLATH ST  ","YEAR":2014,"DOING_BUSINESS_AS_NAME":"JOSE M TORRES SR.","POP_AT_RISK":39480,"BUSINESS_TYPE":"Peddler License","LEGAL_NAME":"JOSE MANUEL TORRES SR.","LONGITUDE":-87.81948791220417},
{"STATE":"IL","ZIP":60652,"LATTITUDE":41.73711825613592,"ADDRESS":"8538 S KOLMAR AVE  ","YEAR":2014,"DOING_BUSINESS_AS_NAME":"MARIA PASCUALA ALMARAZ","POP_AT_RISK":19443,"BUSINESS_TYPE":"Peddler License","LEGAL_NAME":"MARIA PASCUALA ALMARAZ","LONGITUDE":-87.73501123834968},
{"STATE":"IL","ZIP":60638,"LATTITUDE":41.779596736587074,"ADDRESS":"6158 S NARRAGANSETT AVE  ","YEAR":2014,"DOING_BUSINESS_AS_NAME":"MATTHEW GRANT BALZEKAS","POP_AT_RISK":27624,"BUSINESS_TYPE":"Peddler License","LEGAL_NAME":"MATTHEW GRANT BALZEKAS","LONGITUDE":-87.78148025635566},
{"STATE":"IL","ZIP":60646,"LATTITUDE":42.00935494983697,"ADDRESS":"7041 N IONIA AVE 1 ","YEAR":2014,"DOING_BUSINESS_AS_NAME":"SEAN THOMAS GOEBELBECKER","POP_AT_RISK":10753,"BUSINESS_TYPE":"Peddler License","LEGAL_NAME":"SEAN THOMAS GOEBELBECKER","LONGITUDE":-87.77532344294809},
}