{
{"STATE":"IL","ZIP":60827,"LATTITUDE":41.64661613548738,"ADDRESS":"13701 S INDIANA AVE 1ST ","YEAR":2013,"DOING_BUSINESS_AS_NAME":"TRIANGLE SERVICE","POP_AT_RISK":17826,"BUSINESS_TYPE":"Motor Vehicle Services License","LEGAL_NAME":"GUS KATSENIS","LONGITUDE":-87.61708342711016},
{"STATE":"IL","ZIP":60644,"LATTITUDE":41.86561698574138,"ADDRESS":"5838 W ROOSEVELT RD  ","YEAR":2013,"DOING_BUSINESS_AS_NAME":"ROOSEVELT TIRE SHOP","POP_AT_RISK":262090,"BUSINESS_TYPE":"Motor Vehicle Services License","LEGAL_NAME":"JAMES GOODMAN","LONGITUDE":-87.77069153109431},
{"STATE":"IL","ZIP":60653,"LATTITUDE":41.816863888355286,"ADDRESS":"636 E 43RD ST 1ST ","YEAR":2013,"DOING_BUSINESS_AS_NAME":"PAUL JONES TIRE REPAIR","POP_AT_RISK":79372,"BUSINESS_TYPE":"Motor Vehicle Services License","LEGAL_NAME":"THOMAS PAUL JONES","LONGITUDE":-87.61026414566696},
{"STATE":"IL","ZIP":60656,"LATTITUDE":41.980383034707465,"ADDRESS":"7045 W HIGGINS AVE 1ST ","YEAR":2013,"DOING_BUSINESS_AS_NAME":"AUTOPOL CAR CARE, INC.","POP_AT_RISK":59228,"BUSINESS_TYPE":"Motor Vehicle Services License","LEGAL_NAME":"AUTOPOL CAR CARE INC","LONGITUDE":-87.80412335118584},
{"STATE":"IL","ZIP":60614,"LATTITUDE":41.93083301378749,"ADDRESS":"2650 N CLARK ST  ","YEAR":2013,"DOING_BUSINESS_AS_NAME":"BEST BUY","POP_AT_RISK":81141,"BUSINESS_TYPE":"Motor Vehicle Services License","LEGAL_NAME":"BEST BUY STORES, L.P.","LONGITUDE":-87.64413543645641},
{"STATE":"IL","ZIP":60646,"LATTITUDE":41.99343746173311,"ADDRESS":"6152 N PULASKI RD  ","YEAR":2013,"DOING_BUSINESS_AS_NAME":"SNAPPY CAR WASH, INC.","POP_AT_RISK":52980,"BUSINESS_TYPE":"Motor Vehicle Services License","LEGAL_NAME":"SNAPPY CAR WASH, INC.","LONGITUDE":-87.72903033512165},
{"STATE":"IL","ZIP":60616,"LATTITUDE":41.831303366547964,"ADDRESS":"460 E 35TH ST 1 ","YEAR":2013,"DOING_BUSINESS_AS_NAME":"BRONZEVILLE AUTO REPAIR","POP_AT_RISK":30114,"BUSINESS_TYPE":"Motor Vehicle Services License","LEGAL_NAME":"LINDSAY ENTERPRISES, INC.","LONGITUDE":-87.61461418521799},
{"STATE":"IL","ZIP":60646,"LATTITUDE":41.996166547688986,"ADDRESS":"6301 N CENTRAL AVE  ","YEAR":2013,"DOING_BUSINESS_AS_NAME":"CENTRAL AND CALDWELL SERVICE","POP_AT_RISK":17956,"BUSINESS_TYPE":"Motor Vehicle Services License","LEGAL_NAME":"CENTRAL AND CALDWELL SERVICE","LONGITUDE":-87.76404923745231},
{"STATE":"IL","ZIP":60623,"LATTITUDE":41.84751899202058,"ADDRESS":"4418 W OGDEN AVE 1ST ","YEAR":2013,"DOING_BUSINESS_AS_NAME":"STANDARD GENERATOR SERVICE INC","POP_AT_RISK":51250,"BUSINESS_TYPE":"Motor Vehicle Services License","LEGAL_NAME":"STANDARD GENERATOR SERVICE INC","LONGITUDE":-87.73519589944601},
{"STATE":"IL","ZIP":60656,"LATTITUDE":41.9732901158506,"ADDRESS":"5200-5202 N WESLEY TER 1ST ","YEAR":2013,"DOING_BUSINESS_AS_NAME":"MGS CAR REPAIR & BODY WORK INC.","POP_AT_RISK":16526,"BUSINESS_TYPE":"Motor Vehicle Services License","LEGAL_NAME":"MGS CAR REPAIR & BODY WORK INC.","LONGITUDE":-87.86421548940504},
{"STATE":"IL","ZIP":60652,"LATTITUDE":41.754130799316805,"ADDRESS":"7615 S CICERO AVE  GROUN","YEAR":2013,"DOING_BUSINESS_AS_NAME":"FIRESTONE","POP_AT_RISK":25822,"BUSINESS_TYPE":"Motor Vehicle Services License","LEGAL_NAME":"BRIDGESTONE RETAIL OPERATIONS, LLC","LONGITUDE":-87.74136799600143},
{"STATE":"IL","ZIP":60605,"LATTITUDE":41.86047126325852,"ADDRESS":"1550 - 1558 S WABASH AVE  ","YEAR":2013,"DOING_BUSINESS_AS_NAME":"BRIDGESTONE USA, INC","POP_AT_RISK":40698,"BUSINESS_TYPE":"Motor Vehicle Services License","LEGAL_NAME":"BRIDGESTONE RETAIL OPERATIONS, LLC","LONGITUDE":-87.62581515314527},
{"STATE":"IL","ZIP":60652,"LATTITUDE":41.73628922702488,"ADDRESS":"8601-8611 S CICERO AVE 1 ","YEAR":2013,"DOING_BUSINESS_AS_NAME":"PAISANO MUFFLERS AND AUTO SERVICE, LLC","POP_AT_RISK":23923,"BUSINESS_TYPE":"Motor Vehicle Services License","LEGAL_NAME":"PAISANO MUFFLERS AND AUTO SERVICE, LLC","LONGITUDE":-87.74078193737448},
}