{
{"STATE":"IL","ZIP":60647,"LATTITUDE":41.92454422776579,"ADDRESS":"3421 W FULLERTON AVE 1ST ","YEAR":2014,"DOING_BUSINESS_AS_NAME":"THE CHARNEL HOUSE","POP_AT_RISK":568540,"BUSINESS_TYPE":"Performing Arts Venue","LEGAL_NAME":"WILLIAM BERMINGHAM","LONGITUDE":-87.71294962947451},
{"STATE":"IL","ZIP":60610,"LATTITUDE":41.91008024220972,"ADDRESS":"1531 N WELLS ST  ","YEAR":2014,"DOING_BUSINESS_AS_NAME":"A RED ORCHID THEATER","POP_AT_RISK":129778,"BUSINESS_TYPE":"Performing Arts Venue","LEGAL_NAME":"A RED ORCHID THEATER","LONGITUDE":-87.63452976939911},
{"STATE":"IL","ZIP":60660,"LATTITUDE":41.99433043833787,"ADDRESS":"6157 N CLARK ST  ","YEAR":2014,"DOING_BUSINESS_AS_NAME":"RAVEN THEATRE COMPANY","POP_AT_RISK":145564,"BUSINESS_TYPE":"Performing Arts Venue","LEGAL_NAME":"RAVEN THEATRE COMPANY","LONGITUDE":-87.67000007450335},
{"STATE":"IL","ZIP":60618,"LATTITUDE":41.94478724870374,"ADDRESS":"3502-3504 N ELSTON AVE 1 ","YEAR":2014,"DOING_BUSINESS_AS_NAME":"PROP THTR","POP_AT_RISK":217772,"BUSINESS_TYPE":"Performing Arts Venue","LEGAL_NAME":"THE PROP THEATER GROUP","LONGITUDE":-87.70637490705921},
{"STATE":"IL","ZIP":60630,"LATTITUDE":41.96789000575237,"ADDRESS":"4802 N MILWAUKEE AVE  ","YEAR":2014,"DOING_BUSINESS_AS_NAME":"THE GIFT THEATRE COMPANY","POP_AT_RISK":374598,"BUSINESS_TYPE":"Performing Arts Venue","LEGAL_NAME":"THE GIFT THEATRE COMPANY","LONGITUDE":-87.76093810809842},
{"STATE":"IL","ZIP":60608,"LATTITUDE":41.86697696574831,"ADDRESS":"1001 W ROOSEVELT RD 1ST REAR","YEAR":2014,"DOING_BUSINESS_AS_NAME":"PROVISION THEATER COMPANY","POP_AT_RISK":451902,"BUSINESS_TYPE":"Performing Arts Venue","LEGAL_NAME":"PROVISION THEATER COMPANY","LONGITUDE":-87.65108183642205},
{"STATE":"IL","ZIP":60637,"LATTITUDE":41.79397980947568,"ADDRESS":"5535 S ELLIS AVE  ","YEAR":2014,"DOING_BUSINESS_AS_NAME":"UNIVERSITY OF CHICAGO COURT THEATRE","POP_AT_RISK":965756,"BUSINESS_TYPE":"Performing Arts Venue","LEGAL_NAME":"THE UNIVERSITY OF CHICAGO","LONGITUDE":-87.60121393569158},
{"STATE":"IL","ZIP":60647,"LATTITUDE":41.91640803246923,"ADDRESS":"1919 N MILWAUKEE AVE  1","YEAR":2014,"DOING_BUSINESS_AS_NAME":"GORILLA TANGO THEATRE","POP_AT_RISK":448805,"BUSINESS_TYPE":"Performing Arts Venue","LEGAL_NAME":"GORILLA TANGO INCORPORATED","LONGITUDE":-87.6865471493126},
{"STATE":"IL","ZIP":60618,"LATTITUDE":41.931924343764976,"ADDRESS":"2800-2810 N MILWAUKEE AVE 2 ","YEAR":2014,"DOING_BUSINESS_AS_NAME":"HAIRPIN ARTS CENTER","POP_AT_RISK":78488,"BUSINESS_TYPE":"Performing Arts Venue","LEGAL_NAME":"LOGAN SQUARE CHAMBER OF ARTS","LONGITUDE":-87.71238138589705},
{"STATE":"IL","ZIP":60639,"LATTITUDE":41.92984029473928,"ADDRESS":"2707 N LARAMIE AVE  ","YEAR":2014,"DOING_BUSINESS_AS_NAME":"AGUIJON THEATER COMPANY","POP_AT_RISK":1172944,"BUSINESS_TYPE":"Performing Arts Venue","LEGAL_NAME":"AGUIJON THEATER COMPANY OF CHICAGO","LONGITUDE":-87.75621406151068},
{"STATE":"IL","ZIP":60625,"LATTITUDE":41.964372388216674,"ADDRESS":"4543-4551 N LINCOLN AVE  ","YEAR":2014,"DOING_BUSINESS_AS_NAME":"OLD TOWN SCHOOL OF FOLK MUSIC","POP_AT_RISK":316155,"BUSINESS_TYPE":"Performing Arts Venue","LEGAL_NAME":"THE OLD TOWN SCHOOL OF FOLK MUSIC, INC.","LONGITUDE":-87.68560704977685},
{"STATE":"IL","ZIP":60642,"LATTITUDE":41.90026661899035,"ADDRESS":"1012 N NOBLE ST 1-3 ","YEAR":2014,"DOING_BUSINESS_AS_NAME":"NORTHWESTERN UNIVERSITY SETTLEMENT HOUSE & VITTUM THEATER","POP_AT_RISK":92044,"BUSINESS_TYPE":"Performing Arts Venue","LEGAL_NAME":"NORTHWESTERN UNIVERSITY SETTLEMENT ASSOCIATION","LONGITUDE":-87.66266641552214},
}