{
{"STATE":"IL","ZIP":60640,"LATTITUDE":41.96210413223745,"ADDRESS":"4409 N BROADWAY  1 ","YEAR":2014,"DOING_BUSINESS_AS_NAME":"GRACE AFRICAN RESTAURANT","POP_AT_RISK":75114,"BUSINESS_TYPE":"Mobile Food License","LEGAL_NAME":"SMART FRIMPONG","LONGITUDE":-87.65520382960334},
{"STATE":"IL","ZIP":60608,"LATTITUDE":41.85058668017878,"ADDRESS":"2296 S BLUE ISLAND AVE 1ST ","YEAR":2014,"DOING_BUSINESS_AS_NAME":"CURRIED","POP_AT_RISK":78056,"BUSINESS_TYPE":"Mobile Food License","LEGAL_NAME":"CURRY CATERING LLC","LONGITUDE":-87.67074548829262},
{"STATE":"IL","ZIP":60647,"LATTITUDE":41.92521769617991,"ADDRESS":"2409 N WESTERN AVE  ","YEAR":2014,"DOING_BUSINESS_AS_NAME":"CHICAGO CUPCAKE LLC","POP_AT_RISK":786786,"BUSINESS_TYPE":"Mobile Food License","LEGAL_NAME":"CHICAGO CUPCAKE LLC","LONGITUDE":-87.68750659490456},
{"STATE":"IL","ZIP":60607,"LATTITUDE":41.86959706650426,"ADDRESS":"1030 W TAYLOR ST  ","YEAR":2014,"DOING_BUSINESS_AS_NAME":"FLIRTY CUPCAKES","POP_AT_RISK":38046,"BUSINESS_TYPE":"Mobile Food License","LEGAL_NAME":"FLIRTY CUPCAKES LLC","LONGITUDE":-87.6523490175014},
{"STATE":"IL","ZIP":60621,"LATTITUDE":41.7798631678725,"ADDRESS":"740 W 63RD ST  ","YEAR":2014,"DOING_BUSINESS_AS_NAME":"CUPCAKE GANGSTERS","POP_AT_RISK":162520,"BUSINESS_TYPE":"Mobile Food License","LEGAL_NAME":"24 KARAT CAKES, INC.","LONGITUDE":-87.6445278756232},
{"STATE":"IL","ZIP":60608,"LATTITUDE":41.836731631091354,"ADDRESS":"3142 S MORGAN ST 1ST ","YEAR":2014,"DOING_BUSINESS_AS_NAME":"Bridgeport Pasty, LLC","POP_AT_RISK":41733,"BUSINESS_TYPE":"Mobile Food License","LEGAL_NAME":"Bridgeport Pasty, LLC","LONGITUDE":-87.65125761223642},
{"STATE":"IL","ZIP":60657,"LATTITUDE":41.933979804573255,"ADDRESS":"2850 N CLARK ST  ","YEAR":2014,"DOING_BUSINESS_AS_NAME":"FIFTY FOUR ELEVEN","POP_AT_RISK":251592,"BUSINESS_TYPE":"Mobile Food License","LEGAL_NAME":"FIFTY FOUR ELEVEN LLC","LONGITUDE":-87.64601179219122},
{"STATE":"IL","ZIP":60657,"LATTITUDE":41.94357905335495,"ADDRESS":"3404 N SOUTHPORT AVE  ","YEAR":2014,"DOING_BUSINESS_AS_NAME":"JENI'S SPLENDID ICE CREAM","POP_AT_RISK":134100,"BUSINESS_TYPE":"Mobile Food License","LEGAL_NAME":"JENI'S - ILLINOIS LLC","LONGITUDE":-87.6640687897183},
{"STATE":"IL","ZIP":60609,"LATTITUDE":41.83078218057412,"ADDRESS":"3506 S STATE ST  ","YEAR":2014,"DOING_BUSINESS_AS_NAME":"CHICAGO FRUIT CART, INC.","POP_AT_RISK":482580,"BUSINESS_TYPE":"Mobile Food License","LEGAL_NAME":"CHICAGO FRUIT CART, INC.","LONGITUDE":-87.62679017621963},
{"STATE":"IL","ZIP":60637,"LATTITUDE":41.78050308134812,"ADDRESS":"6259 S COTTAGE GROVE AVE  ","YEAR":2014,"DOING_BUSINESS_AS_NAME":"CHICAGO FRUIT CART, INC.","POP_AT_RISK":505935,"BUSINESS_TYPE":"Mobile Food License","LEGAL_NAME":"CHICAGO FRUIT CART, INC.","LONGITUDE":-87.60578538902264},
{"STATE":"IL","ZIP":60613,"LATTITUDE":41.95420873655159,"ADDRESS":"1467 W IRVING PARK RD  ","YEAR":2014,"DOING_BUSINESS_AS_NAME":"THE ROOST","POP_AT_RISK":80846,"BUSINESS_TYPE":"Mobile Food License","LEGAL_NAME":"CHICAGO LOCAL MARKETS LLC","LONGITUDE":-87.66684726495454},
{"STATE":"IL","ZIP":60619,"LATTITUDE":41.75821363711059,"ADDRESS":"203-205 E 75TH ST 1 1","YEAR":2014,"DOING_BUSINESS_AS_NAME":"THE ORIGINAL SOUL VEGETARIAN","POP_AT_RISK":276984,"BUSINESS_TYPE":"Mobile Food License","LEGAL_NAME":"ORIGINAL SOUL VEGETARIAN INC.","LONGITUDE":-87.61975560674928},
{"STATE":"IL","ZIP":60610,"LATTITUDE":41.89557506687819,"ADDRESS":"721 N LA SALLE DR  ","YEAR":2014,"DOING_BUSINESS_AS_NAME":"CATHOLIC CHARITIES","POP_AT_RISK":83129,"BUSINESS_TYPE":"Mobile Food License","LEGAL_NAME":"THE CATHOLIC CHARITIES OF THE ARCHDIOCESE OF CHICAGO","LONGITUDE":-87.63254328007797},
}