{
{"STATE":"IL","ZIP":60632,"LATTITUDE":41.82318948604133,"ADDRESS":"3872 S ARCHER AVE 1ST ","YEAR":2014,"DOING_BUSINESS_AS_NAME":"BODY HEALTH CENTER","POP_AT_RISK":363944,"BUSINESS_TYPE":"Massage Establishment","LEGAL_NAME":"MICHELLE YU","LONGITUDE":-87.6896467958713},
{"STATE":"IL","ZIP":60630,"LATTITUDE":41.9685316281803,"ADDRESS":"6338 W GUNNISON ST 1 ","YEAR":2014,"DOING_BUSINESS_AS_NAME":"GUNNISON SPA","POP_AT_RISK":114858,"BUSINESS_TYPE":"Massage Establishment","LEGAL_NAME":"SUE S. SHIN","LONGITUDE":-87.78709609897045},
{"STATE":"IL","ZIP":60643,"LATTITUDE":41.721126408196376,"ADDRESS":"2150 W 95TH ST  1","YEAR":2014,"DOING_BUSINESS_AS_NAME":"VEOLA'S BOUTIQUE & DAY SPA","POP_AT_RISK":31510,"BUSINESS_TYPE":"Massage Establishment","LEGAL_NAME":"VEOLA JAMES","LONGITUDE":-87.67685067307792},
{"STATE":"IL","ZIP":60641,"LATTITUDE":41.93608209790628,"ADDRESS":"3022 N PULASKI RD  ","YEAR":2014,"DOING_BUSINESS_AS_NAME":"ARIES MASSAGE","POP_AT_RISK":136460,"BUSINESS_TYPE":"Massage Establishment","LEGAL_NAME":"CARMEN Y WONG","LONGITUDE":-87.72724452413887},
{"STATE":"IL","ZIP":60618,"LATTITUDE":41.93637933112725,"ADDRESS":"3020 N KIMBALL AVE  ","YEAR":2014,"DOING_BUSINESS_AS_NAME":"GARRETT HYPNOSIS AND WELLNESS","POP_AT_RISK":63858,"BUSINESS_TYPE":"Massage Establishment","LEGAL_NAME":"LARRY GARRETT","LONGITUDE":-87.71254866327882},
{"STATE":"IL","ZIP":60646,"LATTITUDE":41.99834871292628,"ADDRESS":"6434 N CENTRAL AVE  ","YEAR":2014,"DOING_BUSINESS_AS_NAME":"THE FRENCH MANICURE","POP_AT_RISK":17956,"BUSINESS_TYPE":"Massage Establishment","LEGAL_NAME":"MARIA MATERNA","LONGITUDE":-87.76357981364337},
{"STATE":"IL","ZIP":60632,"LATTITUDE":41.79850767912813,"ADDRESS":"5215 S KEDZIE AVE 1ST ","YEAR":2014,"DOING_BUSINESS_AS_NAME":"ALOE PLUS CORP","POP_AT_RISK":415752,"BUSINESS_TYPE":"Massage Establishment","LEGAL_NAME":"ALOE PLUS CORP","LONGITUDE":-87.70355219322796},
{"STATE":"IL","ZIP":60616,"LATTITUDE":41.85297382613197,"ADDRESS":"80 E CERMAK RD 1 A","YEAR":2014,"DOING_BUSINESS_AS_NAME":"RELAX MASSAGE","POP_AT_RISK":35264,"BUSINESS_TYPE":"Massage Establishment","LEGAL_NAME":"SEN GUANG CHEN","LONGITUDE":-87.6238956826966},
{"STATE":"IL","ZIP":60612,"LATTITUDE":41.87075810919069,"ADDRESS":"819 S WESTERN AVE 1ST ","YEAR":2014,"DOING_BUSINESS_AS_NAME":"YUAN YUAN SPA","POP_AT_RISK":311292,"BUSINESS_TYPE":"Massage Establishment","LEGAL_NAME":"LIEH YUEN HWANG","LONGITUDE":-87.68600614866033},
{"STATE":"IL","ZIP":60617,"LATTITUDE":41.72803591373235,"ADDRESS":"9204 S COMMERCIAL AVE  306","YEAR":2014,"DOING_BUSINESS_AS_NAME":"CREATIONS TOUCH","POP_AT_RISK":123914,"BUSINESS_TYPE":"Massage Establishment","LEGAL_NAME":"BARBARA A GODINA","LONGITUDE":-87.55135785246874},
{"STATE":"IL","ZIP":60615,"LATTITUDE":41.807254392728545,"ADDRESS":"4800 S CHICAGO BEACH DR LOBBY 1000","YEAR":2014,"DOING_BUSINESS_AS_NAME":"WALTONS URBAN RETREAT","POP_AT_RISK":106002,"BUSINESS_TYPE":"Massage Establishment","LEGAL_NAME":"PATRICIA A WALTON","LONGITUDE":-87.5866743553796},
{"STATE":"IL","ZIP":60631,"LATTITUDE":41.99981429063915,"ADDRESS":"6565 N AVONDALE AVE 1ST 1","YEAR":2014,"DOING_BUSINESS_AS_NAME":"BREATHING ROOM","POP_AT_RISK":21690,"BUSINESS_TYPE":"Massage Establishment","LEGAL_NAME":"BREATHING ROOM LLC","LONGITUDE":-87.81490696841291},
{"STATE":"IL","ZIP":60652,"LATTITUDE":41.75466012439374,"ADDRESS":"7601 S CICERO AVE  5581","YEAR":2014,"DOING_BUSINESS_AS_NAME":"RELAX CENTER","POP_AT_RISK":129110,"BUSINESS_TYPE":"Massage Establishment","LEGAL_NAME":"RELAX CENTER, INC.","LONGITUDE":-87.74138475860521},
{"STATE":"IL","ZIP":60616,"LATTITUDE":41.845601286354665,"ADDRESS":"262 W 26TH ST  ","YEAR":2014,"DOING_BUSINESS_AS_NAME":"WINNIE PEK HA CHAN","POP_AT_RISK":31392,"BUSINESS_TYPE":"Massage Establishment","LEGAL_NAME":"WINNIE PEK HA CHAN","LONGITUDE":-87.6342287947557},
{"STATE":"IL","ZIP":60651,"LATTITUDE":41.89492662954099,"ADDRESS":"5700 W CHICAGO AVE 2 ","YEAR":2014,"DOING_BUSINESS_AS_NAME":"ONLY BY FAITH","POP_AT_RISK":772798,"BUSINESS_TYPE":"Massage Establishment","LEGAL_NAME":"ONLY BY FAITH, INC.","LONGITUDE":-87.76800833135303},
{"STATE":"IL","ZIP":60707,"LATTITUDE":41.92370919344607,"ADDRESS":"7163 W GRAND AVE 1 ","YEAR":2014,"DOING_BUSINESS_AS_NAME":"P.S. Yoga","POP_AT_RISK":277890,"BUSINESS_TYPE":"Massage Establishment","LEGAL_NAME":"PERFECT SCIENCE INC.","LONGITUDE":-87.8050531174861},
{"STATE":"IL","ZIP":60629,"LATTITUDE":41.77861837124476,"ADDRESS":"3809 W 63RD ST  ","YEAR":2014,"DOING_BUSINESS_AS_NAME":"RENOVACIONES VALLEJO","POP_AT_RISK":459104,"BUSINESS_TYPE":"Massage Establishment","LEGAL_NAME":"RENOVACIONES VALLEJO","LONGITUDE":-87.71827863897089},
{"STATE":"IL","ZIP":60631,"LATTITUDE":42.01086108894005,"ADDRESS":"7132 N HARLEM AVE 1ST 109","YEAR":2014,"DOING_BUSINESS_AS_NAME":"IRYNA MARTYN","POP_AT_RISK":19160,"BUSINESS_TYPE":"Massage Establishment","LEGAL_NAME":"IRENE'S MASSAGE, INC.","LONGITUDE":-87.80679380310987},
{"STATE":"IL","ZIP":60626,"LATTITUDE":42.007782579829936,"ADDRESS":"6934 N GLENWOOD AVE 2 F","YEAR":2014,"DOING_BUSINESS_AS_NAME":"ROGERS PARK CENTER FOR MASSAGE THERAPY","POP_AT_RISK":134726,"BUSINESS_TYPE":"Massage Establishment","LEGAL_NAME":"KAREN MARGARET WERNER","LONGITUDE":-87.66632158333684},
{"STATE":"IL","ZIP":60646,"LATTITUDE":41.98881553278768,"ADDRESS":"5901 N CICERO AVE  G-11","YEAR":2014,"DOING_BUSINESS_AS_NAME":"MASSAGE MIRACLE","POP_AT_RISK":31444,"BUSINESS_TYPE":"Massage Establishment","LEGAL_NAME":"MARYNA MITSKO-SCHLITZ","LONGITUDE":-87.74817539211976},
{"STATE":"IL","ZIP":60656,"LATTITUDE":41.978307146086195,"ADDRESS":"5441 N EAST RIVER RD  ","YEAR":2014,"DOING_BUSINESS_AS_NAME":"PAVILION SALON & SPA","POP_AT_RISK":63276,"BUSINESS_TYPE":"Massage Establishment","LEGAL_NAME":"ESCAPE TO BEAUTY, INC.","LONGITUDE":-87.84631557802447},
{"STATE":"IL","ZIP":60609,"LATTITUDE":41.83005601941041,"ADDRESS":"3523 S HALSTED ST 1ST ","YEAR":2014,"DOING_BUSINESS_AS_NAME":"FOOT THERAPY SPOT INC.","POP_AT_RISK":65800,"BUSINESS_TYPE":"Massage Establishment","LEGAL_NAME":"FOOT THERAPY SPOT INC.","LONGITUDE":-87.64594464028859},
{"STATE":"IL","ZIP":60643,"LATTITUDE":41.69937269957871,"ADDRESS":"10655 S HALE AVE  1","YEAR":2014,"DOING_BUSINESS_AS_NAME":"RELAXATION STATION","POP_AT_RISK":37650,"BUSINESS_TYPE":"Massage Establishment","LEGAL_NAME":"MICHELLE MANNING PAPPAS","LONGITUDE":-87.66933262982369},
{"STATE":"IL","ZIP":60655,"LATTITUDE":41.6915538005651,"ADDRESS":"3502 W 111TH ST  ","YEAR":2014,"DOING_BUSINESS_AS_NAME":"FACE TO FACE","POP_AT_RISK":25020,"BUSINESS_TYPE":"Massage Establishment","LEGAL_NAME":"ANTONELLA FRANGELLA-QUINN","LONGITUDE":-87.70829980245604},
{"STATE":"IL","ZIP":60641,"LATTITUDE":41.94431699793207,"ADDRESS":"3500-3504 N CICERO AVE  ","YEAR":2014,"DOING_BUSINESS_AS_NAME":"REHYDRATE WATER BAR & CAFE","POP_AT_RISK":107822,"BUSINESS_TYPE":"Massage Establishment","LEGAL_NAME":"CHICAGO SWEATLODGE L.L.C.","LONGITUDE":-87.74716146412266},
{"STATE":"IL","ZIP":60638,"LATTITUDE":41.79223321698213,"ADDRESS":"6842 W ARCHER AVE  ","YEAR":2014,"DOING_BUSINESS_AS_NAME":"THE BLOOMING LOTUS, CORP","POP_AT_RISK":75188,"BUSINESS_TYPE":"Massage Establishment","LEGAL_NAME":"THE BLOOMING LOTUS, CORP.","LONGITUDE":-87.7932838035596},
{"STATE":"IL","ZIP":60630,"LATTITUDE":41.968189860661056,"ADDRESS":"4606 W LAWRENCE AVE 1ST ","YEAR":2014,"DOING_BUSINESS_AS_NAME":"THE GREAT ESCAPE DAY SPA","POP_AT_RISK":37252,"BUSINESS_TYPE":"Massage Establishment","LEGAL_NAME":"KAVA KALLEN GRAY-CHRISTIAN","LONGITUDE":-87.74317842165861},
{"STATE":"IL","ZIP":60659,"LATTITUDE":41.997531904503475,"ADDRESS":"3110-3112 W DEVON AVE 1 ","YEAR":2014,"DOING_BUSINESS_AS_NAME":"DEVON SPA","POP_AT_RISK":169437,"BUSINESS_TYPE":"Massage Establishment","LEGAL_NAME":"DEVON SPA BODY THERAPY, INC","LONGITUDE":-87.70742852530599},
{"STATE":"IL","ZIP":60634,"LATTITUDE":41.95312667626641,"ADDRESS":"6052 W IRVING PARK RD 1ST E & W","YEAR":2014,"DOING_BUSINESS_AS_NAME":"THE ART OF HEALING","POP_AT_RISK":51268,"BUSINESS_TYPE":"Massage Establishment","LEGAL_NAME":"ROMAN JONKO & ANNA TOKARSKI","LONGITUDE":-87.7789099614034},
{"STATE":"IL","ZIP":60620,"LATTITUDE":41.72814388801822,"ADDRESS":"9101 S WESTERN AVE  1 & 2","YEAR":2014,"DOING_BUSINESS_AS_NAME":"Serenity Spa and Wellness, Inc.","POP_AT_RISK":27042,"BUSINESS_TYPE":"Massage Establishment","LEGAL_NAME":"SERENITY SPA AND WELLNESS, INC.","LONGITUDE":-87.6821399005298},
{"STATE":"IL","ZIP":60608,"LATTITUDE":41.85340779273068,"ADDRESS":"2122 S ASHLAND AVE 1ST ","YEAR":2014,"DOING_BUSINESS_AS_NAME":"VERDE WELLNESS AND MASSAGE","POP_AT_RISK":41282,"BUSINESS_TYPE":"Massage Establishment","LEGAL_NAME":"VERDE WELLNESS AND MASSAGE, INC.","LONGITUDE":-87.66618173767567},
{"STATE":"IL","ZIP":60626,"LATTITUDE":42.01594471000577,"ADDRESS":"1445 W JARVIS AVE  ","YEAR":2014,"DOING_BUSINESS_AS_NAME":"LUMBAR LOUNGE","POP_AT_RISK":186888,"BUSINESS_TYPE":"Massage Establishment","LEGAL_NAME":"SUZEN COOK  MASSAGE THERAPY, INC.","LONGITUDE":-87.66789581133165},
}