{
{"STATE":"IL","ZIP":60610,"LATTITUDE":41.90146341490292,"ADDRESS":"1030 N STATE ST 2ND ","YEAR":2010,"DOING_BUSINESS_AS_NAME":"ELOISE BEASLEY","POP_AT_RISK":731770,"BUSINESS_TYPE":"Mobile Frozen Desserts Dispenser - Non-Motorized","LEGAL_NAME":"ELOISE BEASLEY","LONGITUDE":-87.62848137148605},
{"STATE":"IL","ZIP":60617,"LATTITUDE":41.70630204741836,"ADDRESS":"10400 S AVENUE L   ","YEAR":2010,"DOING_BUSINESS_AS_NAME":"ISAI F. PAGAZA","POP_AT_RISK":21953,"BUSINESS_TYPE":"Mobile Frozen Desserts Dispenser - Non-Motorized","LEGAL_NAME":"ISAI F. PAGAZA","LONGITUDE":-87.5366401357901},
{"STATE":"IL","ZIP":60601,"LATTITUDE":41.885862105115756,"ADDRESS":"30 E LAKE ST BSMT ","YEAR":2010,"DOING_BUSINESS_AS_NAME":"M.H.R.,L.L.C.","POP_AT_RISK":494606,"BUSINESS_TYPE":"Mobile Frozen Desserts Dispenser - Non-Motorized","LEGAL_NAME":"M.H.R., L.L.C.","LONGITUDE":-87.62685864521356},
{"STATE":"IL","ZIP":60637,"LATTITUDE":41.77951299434515,"ADDRESS":"6324 S EBERHART AVE 1 ","YEAR":2010,"DOING_BUSINESS_AS_NAME":"BEE'S ICE CREAM","POP_AT_RISK":638571,"BUSINESS_TYPE":"Mobile Frozen Desserts Dispenser - Non-Motorized","LEGAL_NAME":"ALBERTA GOODSON","LONGITUDE":-87.613336813933},
{"STATE":"IL","ZIP":60620,"LATTITUDE":41.74784955544534,"ADDRESS":"8026 S RACINE AVE  ","YEAR":2010,"DOING_BUSINESS_AS_NAME":"DUJUAN A MORGAN, SR.","POP_AT_RISK":738705,"BUSINESS_TYPE":"Mobile Frozen Desserts Dispenser - Non-Motorized","LEGAL_NAME":"DUJUAN A MORGAN, SR.","LONGITUDE":-87.65381275340782},
{"STATE":"IL","ZIP":60622,"LATTITUDE":41.89768855433332,"ADDRESS":"859 N DAMEN AVE 1 1","YEAR":2010,"DOING_BUSINESS_AS_NAME":"BLACK DOG GELATO","POP_AT_RISK":774312,"BUSINESS_TYPE":"Mobile Frozen Desserts Dispenser - Non-Motorized","LEGAL_NAME":"BLACK DOG GELATO, LLC","LONGITUDE":-87.67695627466466},
{"STATE":"IL","ZIP":60632,"LATTITUDE":41.79572690980605,"ADDRESS":"5358 S MAPLEWOOD AVE 1ST ","YEAR":2010,"DOING_BUSINESS_AS_NAME":"BERNARDO SOLANO","POP_AT_RISK":233024,"BUSINESS_TYPE":"Mobile Frozen Desserts Dispenser - Non-Motorized","LEGAL_NAME":"BERNARDO SOLANO-GUZMAN","LONGITUDE":-87.68790296924833},
{"STATE":"IL","ZIP":60608,"LATTITUDE":41.84638121795965,"ADDRESS":"2520 S HALSTED ST  ","YEAR":2010,"DOING_BUSINESS_AS_NAME":"MIMI'S CHURROS","POP_AT_RISK":717416,"BUSINESS_TYPE":"Mobile Frozen Desserts Dispenser - Non-Motorized","LEGAL_NAME":"MIMI'S CHURROS USA INC.","LONGITUDE":-87.64661301435865},
}