{
{"STATE":"IL","ZIP":60609,"LATTITUDE":41.81064440590946,"ADDRESS":"125 W 46TH PL  ","YEAR":2012,"DOING_BUSINESS_AS_NAME":"ARTOPOLIS BAKERY, CAFE & A GORA","POP_AT_RISK":118290,"BUSINESS_TYPE":"Wholesale Food Establishment","LEGAL_NAME":"ARTOS LIMITED","LONGITUDE":-87.62945032101811},
{"STATE":"IL","ZIP":60827,"LATTITUDE":41.64471651864612,"ADDRESS":"612 E 138TH ST  ","YEAR":2012,"DOING_BUSINESS_AS_NAME":"INNOPHOS INC.","POP_AT_RISK":40143,"BUSINESS_TYPE":"Wholesale Food Establishment","LEGAL_NAME":"INNOPHOS INC.","LONGITUDE":-87.60679330792205},
{"STATE":"IL","ZIP":60657,"LATTITUDE":41.9366100784149,"ADDRESS":"3017 N LINCOLN AVE  303","YEAR":2012,"DOING_BUSINESS_AS_NAME":"CHAR CRUST COMPANY","POP_AT_RISK":141830,"BUSINESS_TYPE":"Wholesale Food Establishment","LEGAL_NAME":"BERNARD SILVER","LONGITUDE":-87.66417114868288},
{"STATE":"IL","ZIP":60637,"LATTITUDE":41.77220370005425,"ADDRESS":"6717 S STATE ST 1ST ","YEAR":2012,"DOING_BUSINESS_AS_NAME":"CORNELUIS RYAN","POP_AT_RISK":32512,"BUSINESS_TYPE":"Wholesale Food Establishment","LEGAL_NAME":"CORNELUIS RYAN","LONGITUDE":-87.62496810528351},
{"STATE":"IL","ZIP":60619,"LATTITUDE":41.73441096044655,"ADDRESS":"8815 S DOBSON AVE  ","YEAR":2012,"DOING_BUSINESS_AS_NAME":"MARIGOLD, INC.","POP_AT_RISK":87207,"BUSINESS_TYPE":"Wholesale Food Establishment","LEGAL_NAME":"MARIGOLD, INC.","LONGITUDE":-87.59893837985673},
{"STATE":"IL","ZIP":60621,"LATTITUDE":41.78539649045057,"ADDRESS":"101 W 60TH ST 1ST ","YEAR":2012,"DOING_BUSINESS_AS_NAME":"LANG ICE CO","POP_AT_RISK":52908,"BUSINESS_TYPE":"Wholesale Food Establishment","LEGAL_NAME":"LANG ICE COMPANY","LONGITUDE":-87.62762829621866},
{"STATE":"IL","ZIP":60629,"LATTITUDE":41.786196544925204,"ADDRESS":"3600 W 59TH ST  1","YEAR":2012,"DOING_BUSINESS_AS_NAME":"LANG ICE COMPANY","POP_AT_RISK":484141,"BUSINESS_TYPE":"Wholesale Food Establishment","LEGAL_NAME":"LANG ICE COMPANY","LONGITUDE":-87.71348942184615},
{"STATE":"IL","ZIP":60613,"LATTITUDE":41.95180634357866,"ADDRESS":"3830 N CLARK ST  ","YEAR":2012,"DOING_BUSINESS_AS_NAME":"NUTS ON CLARK INC","POP_AT_RISK":83060,"BUSINESS_TYPE":"Wholesale Food Establishment","LEGAL_NAME":"NUTS ON CLARK INC","LONGITUDE":-87.66038145990446},
{"STATE":"IL","ZIP":60621,"LATTITUDE":41.7605150241803,"ADDRESS":"7335 S HALSTED ST  ","YEAR":2012,"DOING_BUSINESS_AS_NAME":"MAJOR PRODUCTS DISTRIBUTOR","POP_AT_RISK":73192,"BUSINESS_TYPE":"Wholesale Food Establishment","LEGAL_NAME":"CHARLES E CHANDLER","LONGITUDE":-87.64414732309463},
{"STATE":"IL","ZIP":60630,"LATTITUDE":41.973343672651914,"ADDRESS":"5120 N MILWAUKEE AVE  1","YEAR":2012,"DOING_BUSINESS_AS_NAME":"ELLENGEE MARKET CO","POP_AT_RISK":81908,"BUSINESS_TYPE":"Wholesale Food Establishment","LEGAL_NAME":"ELLENGEE MARKET CO","LONGITUDE":-87.76582919513253},
{"STATE":"IL","ZIP":60660,"LATTITUDE":41.98824288245684,"ADDRESS":"5845 N BROADWAY   1ST","YEAR":2012,"DOING_BUSINESS_AS_NAME":"VIET HOA","POP_AT_RISK":117622,"BUSINESS_TYPE":"Wholesale Food Establishment","LEGAL_NAME":"VIET HOA PLAZA INC","LONGITUDE":-87.66006346126679},
{"STATE":"IL","ZIP":60707,"LATTITUDE":41.9289626042484,"ADDRESS":"2701 N HARLEM AVE 1ST ","YEAR":2012,"DOING_BUSINESS_AS_NAME":"MICHAELANGELO'S FOODS","POP_AT_RISK":87052,"BUSINESS_TYPE":"Wholesale Food Establishment","LEGAL_NAME":"MICHAEL CIAMPANELLI","LONGITUDE":-87.80628280360719},
{"STATE":"IL","ZIP":60018,"LATTITUDE":42.00519055693345,"ADDRESS":"1769  PRATT AVE 1ST ","YEAR":2012,"DOING_BUSINESS_AS_NAME":"RONALD G MULHOLLAND","POP_AT_RISK":870220,"BUSINESS_TYPE":"Wholesale Food Establishment","LEGAL_NAME":"RONALD G MULHOLLAND","LONGITUDE":-87.6754482343933},
{"STATE":"IL","ZIP":60644,"LATTITUDE":41.868444563183594,"ADDRESS":"5610 W TAYLOR ST  ","YEAR":2012,"DOING_BUSINESS_AS_NAME":"THE PUCKERED PICKLE","POP_AT_RISK":91034,"BUSINESS_TYPE":"Wholesale Food Establishment","LEGAL_NAME":"PICKLES SORRELL, INC","LONGITUDE":-87.76497544455088},
{"STATE":"IL","ZIP":60628,"LATTITUDE":41.66008633887119,"ADDRESS":"12847 S HALSTED ST  1ST","YEAR":2012,"DOING_BUSINESS_AS_NAME":"THE MEAT FACTORY INC","POP_AT_RISK":81390,"BUSINESS_TYPE":"Wholesale Food Establishment","LEGAL_NAME":"THE MEAT FACTORY INC","LONGITUDE":-87.64116883216026},
{"STATE":"IL","ZIP":60631,"LATTITUDE":41.99412935894236,"ADDRESS":"6186 N NORTHWEST HWY 1ST ","YEAR":2012,"DOING_BUSINESS_AS_NAME":"UNION FISHERIES CORP","POP_AT_RISK":95712,"BUSINESS_TYPE":"Wholesale Food Establishment","LEGAL_NAME":"UNION FISHERIES CORP","LONGITUDE":-87.80226201134202},
{"STATE":"IL","ZIP":60610,"LATTITUDE":41.89213347860132,"ADDRESS":"545 N WELLS ST # 1ST","YEAR":2012,"DOING_BUSINESS_AS_NAME":"ANICHINI BROS INC","POP_AT_RISK":463968,"BUSINESS_TYPE":"Wholesale Food Establishment","LEGAL_NAME":"ANICHINI BROTHERS INC","LONGITUDE":-87.63393294670098},
{"STATE":"IL","ZIP":60634,"LATTITUDE":41.952632794111594,"ADDRESS":"6851 W IRVING PARK RD 1ST FL ","YEAR":2012,"DOING_BUSINESS_AS_NAME":"CHEF EARL'S","POP_AT_RISK":216096,"BUSINESS_TYPE":"Wholesale Food Establishment","LEGAL_NAME":"GOOD FOODS GROUP, INC.","LONGITUDE":-87.79830631114467},
{"STATE":"IL","ZIP":60651,"LATTITUDE":41.902434921792604,"ADDRESS":"4900 W DIVISION ST 1ST ","YEAR":2012,"DOING_BUSINESS_AS_NAME":"BIONDILLO'S BAKERY","POP_AT_RISK":53986,"BUSINESS_TYPE":"Wholesale Food Establishment","LEGAL_NAME":"BIONDILLO'S BAKERY, LLC","LONGITUDE":-87.74854487187145},
{"STATE":"IL","ZIP":60645,"LATTITUDE":42.019181973030165,"ADDRESS":"2841 W HOWARD ST  ","YEAR":2012,"DOING_BUSINESS_AS_NAME":"JR DESSERT BAKERY","POP_AT_RISK":132128,"BUSINESS_TYPE":"Wholesale Food Establishment","LEGAL_NAME":"CHEESECAKES BY JR, INC.","LONGITUDE":-87.70116444187651},
{"STATE":"IL","ZIP":60609,"LATTITUDE":41.81901264253939,"ADDRESS":"215 W ROOT ST  ","YEAR":2012,"DOING_BUSINESS_AS_NAME":"DANIELSON FOOD PROD INC","POP_AT_RISK":41374,"BUSINESS_TYPE":"Wholesale Food Establishment","LEGAL_NAME":"DANIELSON FOOD PROD INC","LONGITUDE":-87.63184863563215},
{"STATE":"IL","ZIP":60619,"LATTITUDE":41.72565184476607,"ADDRESS":"945 E 93RD ST  ","YEAR":2012,"DOING_BUSINESS_AS_NAME":"FOOD & PAPER SUPPLY CO.","POP_AT_RISK":41092,"BUSINESS_TYPE":"Wholesale Food Establishment","LEGAL_NAME":"FOOD & PAPER SUPPLY CO.","LONGITUDE":-87.60079152053679},
{"STATE":"IL","ZIP":60619,"LATTITUDE":41.763518738292134,"ADDRESS":"7247-7249 S SOUTH CHICAGO AVE  1ST","YEAR":2012,"DOING_BUSINESS_AS_NAME":"FOOD & PAPER SUPPLY CO.","POP_AT_RISK":142640,"BUSINESS_TYPE":"Wholesale Food Establishment","LEGAL_NAME":"FOOD & PAPER SUPPLY CO.","LONGITUDE":-87.6020811928112},
{"STATE":"IL","ZIP":60617,"LATTITUDE":41.72552276451634,"ADDRESS":"9332 S ANTHONY AVE  ","YEAR":2012,"DOING_BUSINESS_AS_NAME":"ALL UNITED IMPORTS","POP_AT_RISK":36858,"BUSINESS_TYPE":"Wholesale Food Establishment","LEGAL_NAME":"ALL UNITED IMPORTS, INC.","LONGITUDE":-87.55287606866008},
{"STATE":"IL","ZIP":60629,"LATTITUDE":41.76066858314362,"ADDRESS":"7300 S KEDZIE AVE  ","YEAR":2012,"DOING_BUSINESS_AS_NAME":"KRAFT FOODS","POP_AT_RISK":26650,"BUSINESS_TYPE":"Wholesale Food Establishment","LEGAL_NAME":"KRAFT FOODS GLOBAL, INC.","LONGITUDE":-87.7028547971541},
{"STATE":"IL","ZIP":60614,"LATTITUDE":41.924966179088,"ADDRESS":"2345 N CLARK ST  ","YEAR":2012,"DOING_BUSINESS_AS_NAME":"BIG APPLE FINER FOODS INC","POP_AT_RISK":511101,"BUSINESS_TYPE":"Wholesale Food Establishment","LEGAL_NAME":"BIG APPLE FINER FOODS INC","LONGITUDE":-87.63992601896568},
{"STATE":"IL","ZIP":60617,"LATTITUDE":41.74070086244649,"ADDRESS":"8508  -08512 S COMMERCIAL AVE  1","YEAR":2012,"DOING_BUSINESS_AS_NAME":"DANISH MAID BUTTER CO IN","POP_AT_RISK":32160,"BUSINESS_TYPE":"Wholesale Food Establishment","LEGAL_NAME":"DANISH MAID BUTTER CO INC","LONGITUDE":-87.55163779548799},
{"STATE":"IL","ZIP":60652,"LATTITUDE":41.74150692710327,"ADDRESS":"3636 W 83RD PL  ","YEAR":2012,"DOING_BUSINESS_AS_NAME":"NADER WHOLESALE GROCERS INC","POP_AT_RISK":82479,"BUSINESS_TYPE":"Wholesale Food Establishment","LEGAL_NAME":"NADER WHOLESALE GROCERS INC","LONGITUDE":-87.7135424197768},
{"STATE":"IL","ZIP":60638,"LATTITUDE":41.78519267395424,"ADDRESS":"5757 W 59TH ST 1ST ","YEAR":2012,"DOING_BUSINESS_AS_NAME":"OLYMPIA FOOD INDUSTRIES INC","POP_AT_RISK":139165,"BUSINESS_TYPE":"Wholesale Food Establishment","LEGAL_NAME":"OLYMPIA FOOD INDUSTRIES INC","LONGITUDE":-87.7667534323291},
{"STATE":"IL","ZIP":60629,"LATTITUDE":41.75872799769038,"ADDRESS":"7401 S CICERO AVE  ","YEAR":2012,"DOING_BUSINESS_AS_NAME":"TOOTSIE ROLL INDUSTRIES, LLC","POP_AT_RISK":32094,"BUSINESS_TYPE":"Wholesale Food Establishment","LEGAL_NAME":"TOOTSIE ROLL INDUSTRIES, LLC","LONGITUDE":-87.74153566231715},
{"STATE":"IL","ZIP":60633,"LATTITUDE":41.65928603914349,"ADDRESS":"2400 E 130TH ST  ","YEAR":2012,"DOING_BUSINESS_AS_NAME":"American Sugar Refining, Inc.","POP_AT_RISK":2798,"BUSINESS_TYPE":"Wholesale Food Establishment","LEGAL_NAME":"AMERICAN SUGAR REFINING, INC.","LONGITUDE":-87.565517863218},
{"STATE":"IL","ZIP":60620,"LATTITUDE":41.75016167702497,"ADDRESS":"1841 W 79TH ST 1 #","YEAR":2012,"DOING_BUSINESS_AS_NAME":"DEARBORN WHOLESALE GROCER LP","POP_AT_RISK":118808,"BUSINESS_TYPE":"Wholesale Food Establishment","LEGAL_NAME":"DEARBORN WHOLESALE GROCERS LP","LONGITUDE":-87.66988951666725},
{"STATE":"IL","ZIP":60613,"LATTITUDE":41.96190984490327,"ADDRESS":"918 W MONTROSE AVE 1ST #","YEAR":2012,"DOING_BUSINESS_AS_NAME":"DEARBORN WHOLESALE GROCERS INC","POP_AT_RISK":78611,"BUSINESS_TYPE":"Wholesale Food Establishment","LEGAL_NAME":"DEARBORN WHOLESALE GROCERS LP","LONGITUDE":-87.65312737854316},
{"STATE":"IL","ZIP":60644,"LATTITUDE":41.873092477389,"ADDRESS":"5070 W HARRISON ST  ","YEAR":2012,"DOING_BUSINESS_AS_NAME":"Salad Oils International Corp.","POP_AT_RISK":38547,"BUSINESS_TYPE":"Wholesale Food Establishment","LEGAL_NAME":"Salad Oils International Corp.","LONGITUDE":-87.75201236878274},
{"STATE":"IL","ZIP":60638,"LATTITUDE":41.79468154402482,"ADDRESS":"5370 S CICERO AVE 1ST ","YEAR":2012,"DOING_BUSINESS_AS_NAME":"FLYING FOOD FARE MIDWAY L.L.C.","POP_AT_RISK":28658,"BUSINESS_TYPE":"Wholesale Food Establishment","LEGAL_NAME":"FLYING FOOD FARE MIDWAY, L.L.C.","LONGITUDE":-87.74292108541009},
{"STATE":"IL","ZIP":60628,"LATTITUDE":41.715083039432876,"ADDRESS":"9880 S DORCHESTER AVE  11","YEAR":2012,"DOING_BUSINESS_AS_NAME":"DEL MONTE FRESH PRODUCE N A IN","POP_AT_RISK":13388,"BUSINESS_TYPE":"Wholesale Food Establishment","LEGAL_NAME":"DEL MONTE FRESH PRODUCE N.A., INC.","LONGITUDE":-87.59056162053739},
{"STATE":"IL","ZIP":60616,"LATTITUDE":41.85096722084695,"ADDRESS":"15-19 E 23RD ST 1 ","YEAR":2012,"DOING_BUSINESS_AS_NAME":"Chicago Oriental Wholesale Market","POP_AT_RISK":39535,"BUSINESS_TYPE":"Wholesale Food Establishment","LEGAL_NAME":"CHICAGO ORIENTAL WHOLESALE MARKET, INC.","LONGITUDE":-87.62631731778754},
{"STATE":"IL","ZIP":60617,"LATTITUDE":41.682696264898055,"ADDRESS":"11700 S TORRENCE AVE  ","YEAR":2012,"DOING_BUSINESS_AS_NAME":"CHICAGO & ILLINOIS RIVER MARKETING,  LLC","POP_AT_RISK":3233,"BUSINESS_TYPE":"Wholesale Food Establishment","LEGAL_NAME":"CHICAGO & ILLINOIS  RIVER MARKETING,  LLC","LONGITUDE":-87.55950138523278},
}