{
{"STATE":"IL","ZIP":60609,"LATTITUDE":41.808780247267606,"ADDRESS":"1356 W 47TH ST  ","YEAR":2012,"DOING_BUSINESS_AS_NAME":"QUIK WASH #5","POP_AT_RISK":39265,"BUSINESS_TYPE":"Laundry, Late Hour","LEGAL_NAME":"TRKAM LLC","LONGITUDE":-87.65995685711123},
{"STATE":"IL","ZIP":60632,"LATTITUDE":41.81945368004568,"ADDRESS":"4049 S CALIFORNIA AVE 1ST ","YEAR":2012,"DOING_BUSINESS_AS_NAME":"Su Primera Lavanderia","POP_AT_RISK":47040,"BUSINESS_TYPE":"Laundry, Late Hour","LEGAL_NAME":"HANCO, INC.","LONGITUDE":-87.6944017448022},
{"STATE":"IL","ZIP":60651,"LATTITUDE":41.89472402028131,"ADDRESS":"5637 W CHICAGO AVE  ","YEAR":2012,"DOING_BUSINESS_AS_NAME":"MOM'S WASHLAND","POP_AT_RISK":445920,"BUSINESS_TYPE":"Laundry, Late Hour","LEGAL_NAME":"KWAN H. KIM","LONGITUDE":-87.76677717696077},
{"STATE":"IL","ZIP":60619,"LATTITUDE":41.744048665452944,"ADDRESS":"716 - 724 E 83RD ST 1 ","YEAR":2012,"DOING_BUSINESS_AS_NAME":"CHATHAM COIN LAUNDRY","POP_AT_RISK":300744,"BUSINESS_TYPE":"Laundry, Late Hour","LEGAL_NAME":"J J 43, INC.","LONGITUDE":-87.60672382628643},
{"STATE":"IL","ZIP":60636,"LATTITUDE":41.76432516557912,"ADDRESS":"7110-7114 S WESTERN AVE 1 ","YEAR":2012,"DOING_BUSINESS_AS_NAME":"71ST BEST COIN LAUNDRY","POP_AT_RISK":38963,"BUSINESS_TYPE":"Laundry, Late Hour","LEGAL_NAME":"J J 43, INC.","LONGITUDE":-87.68338003409055},
{"STATE":"IL","ZIP":60632,"LATTITUDE":41.80035417322028,"ADDRESS":"5141 S ARCHER AVE 1 ","YEAR":2012,"DOING_BUSINESS_AS_NAME":"CRAZY BUBBLES","POP_AT_RISK":254480,"BUSINESS_TYPE":"Laundry, Late Hour","LEGAL_NAME":"R. ROCHA LLC","LONGITUDE":-87.73141349738898},
{"STATE":"IL","ZIP":60641,"LATTITUDE":41.93954779849134,"ADDRESS":"3214 N PULASKI RD 1 ","YEAR":2012,"DOING_BUSINESS_AS_NAME":"SOAP BOX, INC","POP_AT_RISK":178341,"BUSINESS_TYPE":"Laundry, Late Hour","LEGAL_NAME":"SOAP BOX, INC","LONGITUDE":-87.72734535116106},
{"STATE":"IL","ZIP":60640,"LATTITUDE":41.96399288099084,"ADDRESS":"4511 N SHERIDAN RD 1ST ","YEAR":2012,"DOING_BUSINESS_AS_NAME":"ROYOL LAUNDRY","POP_AT_RISK":334145,"BUSINESS_TYPE":"Laundry, Late Hour","LEGAL_NAME":"HAK JOONG YOON","LONGITUDE":-87.6546245629947},
{"STATE":"IL","ZIP":60628,"LATTITUDE":41.70699083676394,"ADDRESS":"201 W 103RD ST  ","YEAR":2012,"DOING_BUSINESS_AS_NAME":"WORLD OF SUDS II","POP_AT_RISK":254240,"BUSINESS_TYPE":"Laundry, Late Hour","LEGAL_NAME":"RICKY L. BOONE","LONGITUDE":-87.62835517689021},
{"STATE":"IL","ZIP":60623,"LATTITUDE":41.839059711918594,"ADDRESS":"2858 S HOMAN AVE  ","YEAR":2012,"DOING_BUSINESS_AS_NAME":"RIO BRAVO LAUNDROMAT","POP_AT_RISK":64488,"BUSINESS_TYPE":"Laundry, Late Hour","LEGAL_NAME":"EVENCIO RAMIREZ","LONGITUDE":-87.70990866883383},
{"STATE":"IL","ZIP":60637,"LATTITUDE":41.77668883611632,"ADDRESS":"6501 S COTTAGE GROVE AVE  ","YEAR":2012,"DOING_BUSINESS_AS_NAME":"FAMILY WASH SPIN CYCLE","POP_AT_RISK":76878,"BUSINESS_TYPE":"Laundry, Late Hour","LEGAL_NAME":"FAMILY WASH INC.","LONGITUDE":-87.60570034929327},
{"STATE":"IL","ZIP":60639,"LATTITUDE":41.92937566449219,"ADDRESS":"2700 N AUSTIN AVE  ","YEAR":2012,"DOING_BUSINESS_AS_NAME":"2700 N AUSTIN CORP","POP_AT_RISK":111796,"BUSINESS_TYPE":"Laundry, Late Hour","LEGAL_NAME":"2700 N AUSTIN CORP","LONGITUDE":-87.77605228197332},
{"STATE":"IL","ZIP":60621,"LATTITUDE":41.783558051651426,"ADDRESS":"6049 S HALSTED ST  ","YEAR":2012,"DOING_BUSINESS_AS_NAME":"FLETCHER LAUNDRYWORLD I","POP_AT_RISK":183897,"BUSINESS_TYPE":"Laundry, Late Hour","LEGAL_NAME":"ALEXANDER FLETCHER","LONGITUDE":-87.64473538608424},
{"STATE":"IL","ZIP":60619,"LATTITUDE":41.75882789443388,"ADDRESS":"1346 E 75TH ST  ","YEAR":2012,"DOING_BUSINESS_AS_NAME":"FLETCHER LAUNDRYWORLD II","POP_AT_RISK":35021,"BUSINESS_TYPE":"Laundry, Late Hour","LEGAL_NAME":"ALEXANDER FLETCHER","LONGITUDE":-87.59136612676487},
{"STATE":"IL","ZIP":60630,"LATTITUDE":41.96597189407212,"ADDRESS":"4716 N MILWAUKEE AVE  B","YEAR":2012,"DOING_BUSINESS_AS_NAME":"CAJAN LAUNDRY  THE FRIENDLY WASH ","POP_AT_RISK":166488,"BUSINESS_TYPE":"Laundry, Late Hour","LEGAL_NAME":"CAJAN LAUNDRY, LLC","LONGITUDE":-87.75928157828317},
{"STATE":"IL","ZIP":60623,"LATTITUDE":41.85152144233116,"ADDRESS":"2200 S PULASKI RD 1ST ","YEAR":2012,"DOING_BUSINESS_AS_NAME":"THE WASH TUB I","POP_AT_RISK":559400,"BUSINESS_TYPE":"Laundry, Late Hour","LEGAL_NAME":"THE WASH TUB I INC","LONGITUDE":-87.7249047867499},
{"STATE":"IL","ZIP":60625,"LATTITUDE":41.979352398054665,"ADDRESS":"5355 N LINCOLN AVE  A","YEAR":2012,"DOING_BUSINESS_AS_NAME":"SPIN CYCLE WASH & DRYER","POP_AT_RISK":89058,"BUSINESS_TYPE":"Laundry, Late Hour","LEGAL_NAME":"YOUNG 'S WASH, INC","LONGITUDE":-87.69253592254636},
{"STATE":"IL","ZIP":60624,"LATTITUDE":41.88075011866137,"ADDRESS":"4258 W MADISON ST  ","YEAR":2012,"DOING_BUSINESS_AS_NAME":"SPIN CYCLE","POP_AT_RISK":335670,"BUSINESS_TYPE":"Laundry, Late Hour","LEGAL_NAME":"ALL IN MADISON INC.","LONGITUDE":-87.73290463298663},
{"STATE":"IL","ZIP":60608,"LATTITUDE":41.85217043136012,"ADDRESS":"1707 W CERMAK RD  ","YEAR":2012,"DOING_BUSINESS_AS_NAME":"SPINCYCLE  LAUNDRY","POP_AT_RISK":80720,"BUSINESS_TYPE":"Laundry, Late Hour","LEGAL_NAME":"DON'S WASHLAND INC.","LONGITUDE":-87.66881183504428},
{"STATE":"IL","ZIP":60660,"LATTITUDE":41.98358188928506,"ADDRESS":"5602 N CLARK ST  ","YEAR":2012,"DOING_BUSINESS_AS_NAME":"BELLA'S LAUNDRY","POP_AT_RISK":77357,"BUSINESS_TYPE":"Laundry, Late Hour","LEGAL_NAME":"SILVA SERVICES INC.","LONGITUDE":-87.6689263098409},
{"STATE":"IL","ZIP":60622,"LATTITUDE":41.90458941380305,"ADDRESS":"1246-1248 N ASHLAND AVE 1ST ","YEAR":2012,"DOING_BUSINESS_AS_NAME":"SUDS LAUNDROMAT","POP_AT_RISK":588350,"BUSINESS_TYPE":"Laundry, Late Hour","LEGAL_NAME":"SUDZ LAUNDROMAT INC","LONGITUDE":-87.66767596550207},
{"STATE":"IL","ZIP":60640,"LATTITUDE":41.97066946375275,"ADDRESS":"4857-4859 N BROADWAY  1ST ","YEAR":2012,"DOING_BUSINESS_AS_NAME":"BROADWAY SPINCYLCLE","POP_AT_RISK":77602,"BUSINESS_TYPE":"Laundry, Late Hour","LEGAL_NAME":"YS SPIN CYCLE, INC.","LONGITUDE":-87.6595680020605},
{"STATE":"IL","ZIP":60609,"LATTITUDE":41.813966327139475,"ADDRESS":"4400-4406 S ASHLAND AVE 1ST ","YEAR":2012,"DOING_BUSINESS_AS_NAME":"EL RIO GRANDE","POP_AT_RISK":35642,"BUSINESS_TYPE":"Laundry, Late Hour","LEGAL_NAME":"OSA ENTERPRISE, INC.","LONGITUDE":-87.66525392868716},
{"STATE":"IL","ZIP":60647,"LATTITUDE":41.92888486519136,"ADDRESS":"2599 N ELSTON AVE 1ST ","YEAR":2012,"DOING_BUSINESS_AS_NAME":"ELSTON COIN LAUNDRY","POP_AT_RISK":480250,"BUSINESS_TYPE":"Laundry, Late Hour","LEGAL_NAME":"LAUNDRY PARTNERS, LLC","LONGITUDE":-87.68280838007405},
{"STATE":"IL","ZIP":60649,"LATTITUDE":41.77119712308174,"ADDRESS":"6808 S STONY ISLAND AVE 1ST ","YEAR":2012,"DOING_BUSINESS_AS_NAME":"STONY LAUNDROMAT INC.","POP_AT_RISK":71734,"BUSINESS_TYPE":"Laundry, Late Hour","LEGAL_NAME":"STONY LAUNDROMAT INC.","LONGITUDE":-87.58642129634357},
{"STATE":"IL","ZIP":60612,"LATTITUDE":41.882832314409654,"ADDRESS":"100 N KEDZIE AVE  ","YEAR":2012,"DOING_BUSINESS_AS_NAME":"SOAP OPERA","POP_AT_RISK":234815,"BUSINESS_TYPE":"Laundry, Late Hour","LEGAL_NAME":"O & B ENTERPRISE, INC.","LONGITUDE":-87.70631821355352},
{"STATE":"IL","ZIP":60628,"LATTITUDE":41.66132050978263,"ADDRESS":"12800 S HALSTED ST GROUND ","YEAR":2012,"DOING_BUSINESS_AS_NAME":"WORLD OF SUDS","POP_AT_RISK":81390,"BUSINESS_TYPE":"Laundry, Late Hour","LEGAL_NAME":"RICKI L & STACEY BOONE","LONGITUDE":-87.64150297449095},
{"STATE":"IL","ZIP":60630,"LATTITUDE":41.97088668756526,"ADDRESS":"4926 N PULASKI RD 1ST ","YEAR":2012,"DOING_BUSINESS_AS_NAME":"TOP COIN LAUNDRY","POP_AT_RISK":63203,"BUSINESS_TYPE":"Laundry, Late Hour","LEGAL_NAME":"TOP COIN LAUNDRY, INC.","LONGITUDE":-87.72825142075187},
{"STATE":"IL","ZIP":60639,"LATTITUDE":41.924355928882214,"ADDRESS":"4748 W FULLERTON AVE  ","YEAR":2012,"DOING_BUSINESS_AS_NAME":"BUBBLELAND","POP_AT_RISK":66342,"BUSINESS_TYPE":"Laundry, Late Hour","LEGAL_NAME":"FULLERTON LAUNDRY, INC.","LONGITUDE":-87.74584951113542},
{"STATE":"IL","ZIP":60629,"LATTITUDE":41.771387204322814,"ADDRESS":"4314 W MARQUETTE RD  ","YEAR":2012,"DOING_BUSINESS_AS_NAME":"SU NUEVA LAVANDERIA","POP_AT_RISK":157330,"BUSINESS_TYPE":"Laundry, Late Hour","LEGAL_NAME":"HANCO ENTERPRISES, INC.","LONGITUDE":-87.73059006104569},
{"STATE":"IL","ZIP":60620,"LATTITUDE":41.75054541889094,"ADDRESS":"1364 W 79TH ST  ","YEAR":2012,"DOING_BUSINESS_AS_NAME":"WASH & RELAX","POP_AT_RISK":411957,"BUSINESS_TYPE":"Laundry, Late Hour","LEGAL_NAME":"J & L DEVELOPERS L.L.C.","LONGITUDE":-87.65790718447312},
{"STATE":"IL","ZIP":60621,"LATTITUDE":41.76858970527297,"ADDRESS":"1153-55 W 69TH ST 1ST ","YEAR":2012,"DOING_BUSINESS_AS_NAME":"WASH & RELAX LAUNDRY & DELI","POP_AT_RISK":122907,"BUSINESS_TYPE":"Laundry, Late Hour","LEGAL_NAME":"J & L DEVELOPERS L.L.C.","LONGITUDE":-87.65389620673434},
{"STATE":"IL","ZIP":60647,"LATTITUDE":41.931852775217145,"ADDRESS":"3415 W DIVERSEY AVE 1ST ","YEAR":2012,"DOING_BUSINESS_AS_NAME":"SUPERWASH COIN LAUNDRY","POP_AT_RISK":150532,"BUSINESS_TYPE":"Laundry, Late Hour","LEGAL_NAME":"NEPTUNE ENTERPRISES INC","LONGITUDE":-87.71290124965446},
{"STATE":"IL","ZIP":60649,"LATTITUDE":41.75193793360491,"ADDRESS":"2660 E 79TH ST  ","YEAR":2012,"DOING_BUSINESS_AS_NAME":"SUDZ COIN LAUNDRY, INC.","POP_AT_RISK":241596,"BUSINESS_TYPE":"Laundry, Late Hour","LEGAL_NAME":"SUDZ COIN LAUNDRY, INC.","LONGITUDE":-87.55908694571022},
{"STATE":"IL","ZIP":60612,"LATTITUDE":41.88288483246447,"ADDRESS":"2355 W WASHINGTON BLVD 1ST ","YEAR":2012,"DOING_BUSINESS_AS_NAME":"WESTHAVEN COIN LAUNDRY","POP_AT_RISK":203546,"BUSINESS_TYPE":"Laundry, Late Hour","LEGAL_NAME":"AUSTIN COIN LAUNDRY, LLC","LONGITUDE":-87.68620504946527},
{"STATE":"IL","ZIP":60608,"LATTITUDE":41.85421738691659,"ADDRESS":"1700 W 21ST ST 1 ","YEAR":2012,"DOING_BUSINESS_AS_NAME":"BOLANOS LAUNDROMAT","POP_AT_RISK":34302,"BUSINESS_TYPE":"Laundry, Late Hour","LEGAL_NAME":"BOLANOS LAUNDROMAT, INC.","LONGITUDE":-87.66867148742843},
{"STATE":"IL","ZIP":60653,"LATTITUDE":41.80979548271692,"ADDRESS":"1400 E 47TH DR  ","YEAR":2012,"DOING_BUSINESS_AS_NAME":"SPIN CYCLE","POP_AT_RISK":529545,"BUSINESS_TYPE":"Laundry, Late Hour","LEGAL_NAME":"GEORGE HOMEYER (TRUSTEE)","LONGITUDE":-87.59237386663331},
{"STATE":"IL","ZIP":60652,"LATTITUDE":41.74447216541511,"ADDRESS":"8145 S PULASKI RD  1","YEAR":2012,"DOING_BUSINESS_AS_NAME":"PULASKI LAUNDROMAT, INC.","POP_AT_RISK":82479,"BUSINESS_TYPE":"Laundry, Late Hour","LEGAL_NAME":"PULASKI LAUNDROMAT, INC.","LONGITUDE":-87.72160213082438},
{"STATE":"IL","ZIP":60637,"LATTITUDE":41.780551674150196,"ADDRESS":"860 E 63RD ST 1 ","YEAR":2012,"DOING_BUSINESS_AS_NAME":"RAINBOW BRITE LAUNDRY","POP_AT_RISK":62910,"BUSINESS_TYPE":"Laundry, Late Hour","LEGAL_NAME":"FLETCHER LAUNDARY III, LLC","LONGITUDE":-87.60356167971467},
{"STATE":"IL","ZIP":60639,"LATTITUDE":41.90983882913241,"ADDRESS":"4446 W NORTH AVE  ","YEAR":2012,"DOING_BUSINESS_AS_NAME":"BUBBLELAND","POP_AT_RISK":104362,"BUSINESS_TYPE":"Laundry, Late Hour","LEGAL_NAME":"NORTH AVENUE LAUNDRY, INC.","LONGITUDE":-87.73801062020294},
{"STATE":"IL","ZIP":60629,"LATTITUDE":41.772787199544396,"ADDRESS":"6621 S KEDZIE AVE  ","YEAR":2012,"DOING_BUSINESS_AS_NAME":"GRAND SUDZ ENTERPRISES, INC.","POP_AT_RISK":52865,"BUSINESS_TYPE":"Laundry, Late Hour","LEGAL_NAME":"GRAND SUDZ ENTERPRISES, INC.","LONGITUDE":-87.702848138},
{"STATE":"IL","ZIP":60651,"LATTITUDE":41.90707619251341,"ADDRESS":"4101 W GRAND AVE  ","YEAR":2012,"DOING_BUSINESS_AS_NAME":"D & K LAUNDRY & CLEANERS INC.","POP_AT_RISK":122552,"BUSINESS_TYPE":"Laundry, Late Hour","LEGAL_NAME":"D & K LAUNDRY & CLEANERS INC.","LONGITUDE":-87.7290221159865},
{"STATE":"IL","ZIP":60625,"LATTITUDE":41.96841982548391,"ADDRESS":"2807-2811 W LAWRENCE AVE  ","YEAR":2012,"DOING_BUSINESS_AS_NAME":"RAGS TO RICHES LAUNDROMAT","POP_AT_RISK":203760,"BUSINESS_TYPE":"Laundry, Late Hour","LEGAL_NAME":"RAGS TO RICHES LAUNDROMAT INC.","LONGITUDE":-87.69903119044591},
{"STATE":"IL","ZIP":60652,"LATTITUDE":41.73668569909073,"ADDRESS":"8606 S KEDZIE AVE  ","YEAR":2012,"DOING_BUSINESS_AS_NAME":"WHITEWATER 24 HOUR LAUNDRY, INC","POP_AT_RISK":73173,"BUSINESS_TYPE":"Laundry, Late Hour","LEGAL_NAME":"WHITEWATER 24 HOUR LAUNDRY INC","LONGITUDE":-87.70219462920664},
{"STATE":"IL","ZIP":60649,"LATTITUDE":41.76550926574415,"ADDRESS":"7120-7128 S YATES BLVD  ","YEAR":2012,"DOING_BUSINESS_AS_NAME":"Aqua Wash Laundry","POP_AT_RISK":33177,"BUSINESS_TYPE":"Laundry, Late Hour","LEGAL_NAME":"Y & K LAUNDRY & CLEANERS, INC.","LONGITUDE":-87.56665105757953},
{"STATE":"IL","ZIP":60641,"LATTITUDE":41.95931410551628,"ADDRESS":"4315 N MILWAUKEE AVE 1 ","YEAR":2012,"DOING_BUSINESS_AS_NAME":"PENSACOLA PLAZA LAUNDROMAT LLC","POP_AT_RISK":39729,"BUSINESS_TYPE":"Laundry, Late Hour","LEGAL_NAME":"Pensacola Plaza Laundromat LLC ","LONGITUDE":-87.75316218382274},
{"STATE":"IL","ZIP":60660,"LATTITUDE":41.9962924088467,"ADDRESS":"6266 N CLARK ST 1ST ","YEAR":2012,"DOING_BUSINESS_AS_NAME":"BRITE WASH COIN LAUNDRY","POP_AT_RISK":1091064,"BUSINESS_TYPE":"Laundry, Late Hour","LEGAL_NAME":"JULIANA,DEMETRIO,JULIETA PASCUAL","LONGITUDE":-87.67036615105961},
{"STATE":"IL","ZIP":60644,"LATTITUDE":41.88013988276718,"ADDRESS":"5533 W MADISON ST 1ST ","YEAR":2012,"DOING_BUSINESS_AS_NAME":"AUSTIN COMMUNITY COIN LAUNDRY","POP_AT_RISK":279798,"BUSINESS_TYPE":"Laundry, Late Hour","LEGAL_NAME":"DIAMOND REALM LAUNDRY CORPORATION","LONGITUDE":-87.7646094507602},
{"STATE":"IL","ZIP":60618,"LATTITUDE":41.948738387400674,"ADDRESS":"3710 N KIMBALL AVE 1 ","YEAR":2012,"DOING_BUSINESS_AS_NAME":"BUBBLELAND","POP_AT_RISK":106446,"BUSINESS_TYPE":"Laundry, Late Hour","LEGAL_NAME":"LANDSCAPE INVESTMENTS, INCORPORATED","LONGITUDE":-87.71292354530124},
}