{
{"STATE":"IL","ZIP":60616,"LATTITUDE":41.856443768568624,"ADDRESS":"1904 S MICHIGAN AVE  ","YEAR":2000,"DOING_BUSINESS_AS_NAME":"SOME LIKE IT BLACK","POP_AT_RISK":114576,"BUSINESS_TYPE":"Retail Food Establishment","LEGAL_NAME":"KELLY RICHARDSON","LONGITUDE":-87.62404717585251},
{"STATE":"IL","ZIP":60619,"LATTITUDE":41.72590454080327,"ADDRESS":"1024 E 93RD ST  ","YEAR":2000,"DOING_BUSINESS_AS_NAME":"REOLA CHARLESTON","POP_AT_RISK":166617,"BUSINESS_TYPE":"Retail Food Establishment","LEGAL_NAME":"REOLA CHARLESTON","LONGITUDE":-87.59857044255104},
{"STATE":"IL","ZIP":60661,"LATTITUDE":41.88199433820508,"ADDRESS":"500 W MADISON ST  ","YEAR":2000,"DOING_BUSINESS_AS_NAME":"AUNTIE ANNE'S","POP_AT_RISK":758436,"BUSINESS_TYPE":"Retail Food Establishment","LEGAL_NAME":"AUNTIE ANNE'S INC","LONGITUDE":-87.6397586848809},
{"STATE":"IL","ZIP":60619,"LATTITUDE":41.76570172043141,"ADDRESS":"112 E 71ST ST  ","YEAR":2000,"DOING_BUSINESS_AS_NAME":"ERNESTINE'S HOME COOKING","POP_AT_RISK":392124,"BUSINESS_TYPE":"Retail Food Establishment","LEGAL_NAME":"ERNESTINE ANDERSON","LONGITUDE":-87.62110946315975},
{"STATE":"IL","ZIP":60651,"LATTITUDE":41.902646985546816,"ADDRESS":"4326 W DIVISION ST 1ST ","YEAR":2000,"DOING_BUSINESS_AS_NAME":"BEEF 43","POP_AT_RISK":575448,"BUSINESS_TYPE":"Retail Food Establishment","LEGAL_NAME":"ADRIANNE WILLIAMSON","LONGITUDE":-87.7348031990482},
{"STATE":"IL","ZIP":60628,"LATTITUDE":41.70040599217204,"ADDRESS":"10634 S HALSTED ST  ","YEAR":2000,"DOING_BUSINESS_AS_NAME":"7 DAY FOOD MART INC","POP_AT_RISK":242928,"BUSINESS_TYPE":"Retail Food Establishment","LEGAL_NAME":"7 DAY FOOD MART INC.","LONGITUDE":-87.6427775083289},
{"STATE":"IL","ZIP":60628,"LATTITUDE":41.67039442848964,"ADDRESS":"12303 S HALSTED ST  ","YEAR":2000,"DOING_BUSINESS_AS_NAME":"JUDO'S HOUSE OF RIBS","POP_AT_RISK":247896,"BUSINESS_TYPE":"Retail Food Establishment","LEGAL_NAME":"JUDO'S HOUSE OF RIBS","LONGITUDE":-87.6415137299169},
{"STATE":"IL","ZIP":60645,"LATTITUDE":42.012168722373204,"ADDRESS":"2804 W TOUHY AVE  ","YEAR":2000,"DOING_BUSINESS_AS_NAME":"LOW PRICE PANTRY","POP_AT_RISK":272328,"BUSINESS_TYPE":"Retail Food Establishment","LEGAL_NAME":"LOW PRICE PANTRY INC","LONGITUDE":-87.699987963031},
{"STATE":"IL","ZIP":60617,"LATTITUDE":41.733724728351504,"ADDRESS":"8871 S KINGSTON AVE 1ST ","YEAR":2000,"DOING_BUSINESS_AS_NAME":"MCDONALD'S RESTAURANT","POP_AT_RISK":328530,"BUSINESS_TYPE":"Retail Food Establishment","LEGAL_NAME":"L G SIMMOMS\/ R LUBEZNIK","LONGITUDE":-87.56428681640708},
{"STATE":"IL","ZIP":60653,"LATTITUDE":41.809316524975266,"ADDRESS":"501 E 47TH ST 1ST ","YEAR":2000,"DOING_BUSINESS_AS_NAME":"HAPPY DAYS SOUL FOOD INC","POP_AT_RISK":682062,"BUSINESS_TYPE":"Retail Food Establishment","LEGAL_NAME":"HAPPY DAYS SOUL FOOD INC","LONGITUDE":-87.61379035901513},
}