{
{"STATE":"IL","ZIP":60653,"LATTITUDE":41.815331881122646,"ADDRESS":"4355 S GREENWOOD AVE  2N","YEAR":2011,"DOING_BUSINESS_AS_NAME":"LARRY BELL","POP_AT_RISK":31653,"BUSINESS_TYPE":"Peddler, non-food, special","LEGAL_NAME":"LARRY BELL","LONGITUDE":-87.5992355530118},
{"STATE":"IL","ZIP":60613,"LATTITUDE":41.955406767031675,"ADDRESS":"4036 1\/2 N ASHLAND AVE BSMT B. N.","YEAR":2011,"DOING_BUSINESS_AS_NAME":"RATKO IKIC","POP_AT_RISK":1813575,"BUSINESS_TYPE":"Peddler, non-food, special","LEGAL_NAME":"RATKO IKIC","LONGITUDE":-87.6692268091664},
{"STATE":"IL","ZIP":60618,"LATTITUDE":41.933433854254275,"ADDRESS":"2853 N RIDGEWAY AVE  ","YEAR":2011,"DOING_BUSINESS_AS_NAME":"ROSA MALES","POP_AT_RISK":73822,"BUSINESS_TYPE":"Peddler, non-food, special","LEGAL_NAME":"ROSA MALES","LONGITUDE":-87.72075094028705},
{"STATE":"IL","ZIP":60636,"LATTITUDE":41.78872374911616,"ADDRESS":"5752 S WINCHESTER AVE  ","YEAR":2011,"DOING_BUSINESS_AS_NAME":"JOHN L RICH","POP_AT_RISK":35049,"BUSINESS_TYPE":"Peddler, non-food, special","LEGAL_NAME":"JOHN L RICH","LONGITUDE":-87.67308952839866},
{"STATE":"IL","ZIP":60632,"LATTITUDE":41.82827406533502,"ADDRESS":"2535 W 36TH ST  ","YEAR":2011,"DOING_BUSINESS_AS_NAME":"RICHARD YAU","POP_AT_RISK":131202,"BUSINESS_TYPE":"Peddler, non-food, special","LEGAL_NAME":"RICHARD YAU","LONGITUDE":-87.68872540872758},
{"STATE":"IL","ZIP":60609,"LATTITUDE":41.794436604968084,"ADDRESS":"5448 S LAFLIN ST 2ND 2","YEAR":2011,"DOING_BUSINESS_AS_NAME":"ANDRE COOPER","POP_AT_RISK":132012,"BUSINESS_TYPE":"Peddler, non-food, special","LEGAL_NAME":"ANDRE COOPER","LONGITUDE":-87.6623137282483},
{"STATE":"IL","ZIP":60657,"LATTITUDE":41.93777126333811,"ADDRESS":"3100 N LAKE SHORE DR 19 1908","YEAR":2011,"DOING_BUSINESS_AS_NAME":"A GLIMPSE OF GUATEMALA","POP_AT_RISK":934905,"BUSINESS_TYPE":"Peddler, non-food, special","LEGAL_NAME":"ANNIE FIESTA","LONGITUDE":-87.63745597579715},
{"STATE":"IL","ZIP":60630,"LATTITUDE":41.963183921265326,"ADDRESS":"4536 N ELSTON AVE  ","YEAR":2011,"DOING_BUSINESS_AS_NAME":"BYRON YABLON","POP_AT_RISK":552324,"BUSINESS_TYPE":"Peddler, non-food, special","LEGAL_NAME":"BYRON YABLON","LONGITUDE":-87.73318715325468},
{"STATE":"IL","ZIP":60612,"LATTITUDE":41.8777381893736,"ADDRESS":"2122 W JACKSON BLVD  ","YEAR":2011,"DOING_BUSINESS_AS_NAME":"HOMER CARTER","POP_AT_RISK":44654,"BUSINESS_TYPE":"Peddler, non-food, special","LEGAL_NAME":"HOMER CARTER","LONGITUDE":-87.67999701360351},
{"STATE":"IL","ZIP":60643,"LATTITUDE":41.716299189352725,"ADDRESS":"9734 S BELL AVE  ","YEAR":2011,"DOING_BUSINESS_AS_NAME":"MARK JACKSON","POP_AT_RISK":59856,"BUSINESS_TYPE":"Peddler, non-food, special","LEGAL_NAME":"MARK JACKSON","LONGITUDE":-87.6784334963623},
{"STATE":"IL","ZIP":60619,"LATTITUDE":41.74460664090422,"ADDRESS":"8241 S DREXEL AVE  ","YEAR":2011,"DOING_BUSINESS_AS_NAME":"MARY E GUICE","POP_AT_RISK":72748,"BUSINESS_TYPE":"Peddler, non-food, special","LEGAL_NAME":"MARY E GUICE","LONGITUDE":-87.60242410240733},
{"STATE":"IL","ZIP":60622,"LATTITUDE":41.90840637741184,"ADDRESS":"2315 W LE MOYNE ST 208 2","YEAR":2011,"DOING_BUSINESS_AS_NAME":"EDUARDO BRAVO","POP_AT_RISK":200466,"BUSINESS_TYPE":"Peddler, non-food, special","LEGAL_NAME":"EDUARDO BRAVO","LONGITUDE":-87.68543081077131},
{"STATE":"IL","ZIP":60624,"LATTITUDE":41.86955730666235,"ADDRESS":"4512 W FIFTH AVE  ","YEAR":2011,"DOING_BUSINESS_AS_NAME":"FRANK JENKINS","POP_AT_RISK":376520,"BUSINESS_TYPE":"Peddler, non-food, special","LEGAL_NAME":"FRANK JENKINS","LONGITUDE":-87.73820793153533},
{"STATE":"IL","ZIP":60647,"LATTITUDE":41.914872525125695,"ADDRESS":"1842 N SPRINGFIELD AVE  1","YEAR":2011,"DOING_BUSINESS_AS_NAME":"RAMON  CORONEL","POP_AT_RISK":137704,"BUSINESS_TYPE":"Peddler, non-food, special","LEGAL_NAME":"RAMON CORONEL","LONGITUDE":-87.72419022922423},
{"STATE":"IL","ZIP":60629,"LATTITUDE":41.77162872026357,"ADDRESS":"3600 W MARQUETTE RD  ","YEAR":2011,"DOING_BUSINESS_AS_NAME":"TOMASA VARGAS","POP_AT_RISK":91334,"BUSINESS_TYPE":"Peddler, non-food, special","LEGAL_NAME":"TOMASA VARGAS","LONGITUDE":-87.71309807807353},
{"STATE":"IL","ZIP":60647,"LATTITUDE":41.91306997935742,"ADDRESS":"1725 N FRANCISCO AVE 1ST ","YEAR":2011,"DOING_BUSINESS_AS_NAME":"ANA MARIA CRUZ","POP_AT_RISK":267488,"BUSINESS_TYPE":"Peddler, non-food, special","LEGAL_NAME":"ANA MARIA CRUZ","LONGITUDE":-87.69902210467707},
{"STATE":"IL","ZIP":60632,"LATTITUDE":41.81423595167177,"ADDRESS":"4347 S ROCKWELL ST 1ST ","YEAR":2011,"DOING_BUSINESS_AS_NAME":"ARTURO ALMEIDA","POP_AT_RISK":284760,"BUSINESS_TYPE":"Peddler, non-food, special","LEGAL_NAME":"ARTURO ALMEIDA","LONGITUDE":-87.6893407679075},
{"STATE":"IL","ZIP":60614,"LATTITUDE":41.920598476205505,"ADDRESS":"2123 N SEMINARY AVE  ","YEAR":2011,"DOING_BUSINESS_AS_NAME":"CARL BUONAFEDE","POP_AT_RISK":424536,"BUSINESS_TYPE":"Peddler, non-food, special","LEGAL_NAME":"CARL BUONAFEDE","LONGITUDE":-87.6557319833809},
{"STATE":"IL","ZIP":60620,"LATTITUDE":41.727384321321075,"ADDRESS":"9149 S WALLACE ST  ","YEAR":2011,"DOING_BUSINESS_AS_NAME":"GENEVA GLASPER","POP_AT_RISK":27303,"BUSINESS_TYPE":"Peddler, non-food, special","LEGAL_NAME":"GENEVA GLASPER","LONGITUDE":-87.63837083768685},
{"STATE":"IL","ZIP":60649,"LATTITUDE":41.7563710290834,"ADDRESS":"7733 S SOUTH SHORE DR  ","YEAR":2011,"DOING_BUSINESS_AS_NAME":"GEORGE GRIGSBY","POP_AT_RISK":53250,"BUSINESS_TYPE":"Peddler, non-food, special","LEGAL_NAME":"GEORGE GRIGSBY","LONGITUDE":-87.5525707335152},
{"STATE":"IL","ZIP":60617,"LATTITUDE":41.730660725451614,"ADDRESS":"9029 S CHAPPEL AVE  ","YEAR":2011,"DOING_BUSINESS_AS_NAME":"JALAINE A. MAY","POP_AT_RISK":18610,"BUSINESS_TYPE":"Peddler, non-food, special","LEGAL_NAME":"JALAINE A. MAY","LONGITUDE":-87.57419748759814},
{"STATE":"IL","ZIP":60645,"LATTITUDE":42.01215940609856,"ADDRESS":"2335 W TOUHY AVE  403","YEAR":2011,"DOING_BUSINESS_AS_NAME":"JENNIFER SWINT","POP_AT_RISK":117554,"BUSINESS_TYPE":"Peddler, non-food, special","LEGAL_NAME":"JENNIFER SWINT","LONGITUDE":-87.68905258748907},
{"STATE":"IL","ZIP":60626,"LATTITUDE":42.01607306391424,"ADDRESS":"1640 W JARVIS AVE  ","YEAR":2011,"DOING_BUSINESS_AS_NAME":"LORENZO JUAREZ","POP_AT_RISK":66427,"BUSINESS_TYPE":"Peddler, non-food, special","LEGAL_NAME":"LORENZO JUAREZ","LONGITUDE":-87.6718696026318},
{"STATE":"IL","ZIP":60622,"LATTITUDE":41.9134214150233,"ADDRESS":"1734 N PAULINA ST 1 ","YEAR":2011,"DOING_BUSINESS_AS_NAME":"RAFAEL COLLAZO","POP_AT_RISK":178875,"BUSINESS_TYPE":"Peddler, non-food, special","LEGAL_NAME":"RAFAEL COLLAZO","LONGITUDE":-87.67035633233488},
{"STATE":"IL","ZIP":60202,"LATTITUDE":42.01934077089769,"ADDRESS":"2007  HOWARD ST 2 2D","YEAR":2011,"DOING_BUSINESS_AS_NAME":"RUBEN SANTIAGO","POP_AT_RISK":124624,"BUSINESS_TYPE":"Peddler, non-food, special","LEGAL_NAME":"RUBEN SANTIAGO","LONGITUDE":-87.68077427225394},
{"STATE":"IL","ZIP":60615,"LATTITUDE":41.79871564198205,"ADDRESS":"5244 S MICHIGAN AVE  ","YEAR":2011,"DOING_BUSINESS_AS_NAME":"THOMAS WITHERS","POP_AT_RISK":27966,"BUSINESS_TYPE":"Peddler, non-food, special","LEGAL_NAME":"THOMAS WITHERS","LONGITUDE":-87.6227155813022},
{"STATE":"IL","ZIP":60623,"LATTITUDE":41.85744589061316,"ADDRESS":"1648 S SPRINGFIELD AVE  ","YEAR":2011,"DOING_BUSINESS_AS_NAME":"WILLIAM DANIEL","POP_AT_RISK":144726,"BUSINESS_TYPE":"Peddler, non-food, special","LEGAL_NAME":"WILLIAM DANIEL","LONGITUDE":-87.72256695642014},
{"STATE":"IL","ZIP":60827,"LATTITUDE":41.65576175146191,"ADDRESS":"13156 S FORRESTVILLE AVE  ","YEAR":2011,"DOING_BUSINESS_AS_NAME":"ANNA F. JAMISON","POP_AT_RISK":12964,"BUSINESS_TYPE":"Peddler, non-food, special","LEGAL_NAME":"ANNA F. JAMISON","LONGITUDE":-87.60868577123667},
{"STATE":"IL","ZIP":60644,"LATTITUDE":41.88567036803781,"ADDRESS":"300 N MASON AVE  ","YEAR":2011,"DOING_BUSINESS_AS_NAME":"EARLENE FLEMING","POP_AT_RISK":94232,"BUSINESS_TYPE":"Peddler, non-food, special","LEGAL_NAME":"EARLENE FLEMING","LONGITUDE":-87.77355350122288},
{"STATE":"IL","ZIP":60608,"LATTITUDE":41.85771947145135,"ADDRESS":"2152 W 18TH ST  ","YEAR":2011,"DOING_BUSINESS_AS_NAME":"FRANCISCA VIVAR","POP_AT_RISK":148840,"BUSINESS_TYPE":"Peddler, non-food, special","LEGAL_NAME":"FRANCISCA VIVAR","LONGITUDE":-87.6805862525463},
{"STATE":"IL","ZIP":60607,"LATTITUDE":41.88008566659281,"ADDRESS":"1515 W MONROE ST 2 215","YEAR":2011,"DOING_BUSINESS_AS_NAME":"GREGORY G. HUNT","POP_AT_RISK":71074,"BUSINESS_TYPE":"Peddler, non-food, special","LEGAL_NAME":"GREGORY G. HUNT","LONGITUDE":-87.66505441566734},
{"STATE":"IL","ZIP":60639,"LATTITUDE":41.923172564205224,"ADDRESS":"4959 W MEDILL AVE 1 ","YEAR":2011,"DOING_BUSINESS_AS_NAME":"MICHAEL HOPKINS","POP_AT_RISK":126180,"BUSINESS_TYPE":"Peddler, non-food, special","LEGAL_NAME":"MICHAEL HOPKINS","LONGITUDE":-87.7510766527435},
{"STATE":"IL","ZIP":60644,"LATTITUDE":41.887913896472526,"ADDRESS":"5670 W LAKE ST  ","YEAR":2011,"DOING_BUSINESS_AS_NAME":"BOOKER T. BOWDRY","POP_AT_RISK":47872,"BUSINESS_TYPE":"Peddler, non-food, special","LEGAL_NAME":"BOOKER T. BOWDRY","LONGITUDE":-87.76763004632718},
{"STATE":"IL","ZIP":60615,"LATTITUDE":41.80799556913032,"ADDRESS":"4747 S DR MARTIN LUTHER KING JR DR 9 902","YEAR":2011,"DOING_BUSINESS_AS_NAME":"CAROL A. BURNETT","POP_AT_RISK":37097,"BUSINESS_TYPE":"Peddler, non-food, special","LEGAL_NAME":"CAROL A. BURNETT","LONGITUDE":-87.6164048651788},
{"STATE":"IL","ZIP":60651,"LATTITUDE":41.90571895396158,"ADDRESS":"5331 W HIRSCH ST 1 2W","YEAR":2011,"DOING_BUSINESS_AS_NAME":"ISAIAH MCCLELLAN","POP_AT_RISK":46022,"BUSINESS_TYPE":"Peddler, non-food, special","LEGAL_NAME":"ISAIAH MCCLELLAN","LONGITUDE":-87.75966897241673},
{"STATE":"IL","ZIP":60652,"LATTITUDE":41.748213691450154,"ADDRESS":"7954 S RICHMOND ST 1ST ","YEAR":2011,"DOING_BUSINESS_AS_NAME":"KEELA M STUCKEY","POP_AT_RISK":104212,"BUSINESS_TYPE":"Peddler, non-food, special","LEGAL_NAME":"KEELA M. STUCKEY","LONGITUDE":-87.69639048309101},
{"STATE":"IL","ZIP":60625,"LATTITUDE":41.98121175480613,"ADDRESS":"2555 W CATALPA AVE  ","YEAR":2011,"DOING_BUSINESS_AS_NAME":"MEHMET AYDINOGLU","POP_AT_RISK":539638,"BUSINESS_TYPE":"Peddler, non-food, special","LEGAL_NAME":"MEHMET AYDINOGLU","LONGITUDE":-87.69400586807798},
{"STATE":"IL","ZIP":60640,"LATTITUDE":41.97449606849831,"ADDRESS":"5040 N KENMORE AVE  710","YEAR":2011,"DOING_BUSINESS_AS_NAME":"NORMA V. GRIZZLE","POP_AT_RISK":1120784,"BUSINESS_TYPE":"Peddler, non-food, special","LEGAL_NAME":"NORMA V. GRIZZLE","LONGITUDE":-87.65651102210414},
{"STATE":"IL","ZIP":60637,"LATTITUDE":41.78198276638777,"ADDRESS":"6210 S KIMBARK AVE  ","YEAR":2011,"DOING_BUSINESS_AS_NAME":"BEULAH M. OKONKWO","POP_AT_RISK":35549,"BUSINESS_TYPE":"Peddler, non-food, special","LEGAL_NAME":"BEULAH M. OKONKWO","LONGITUDE":-87.59482421326233},
{"STATE":"IL","ZIP":60617,"LATTITUDE":41.72044546556022,"ADDRESS":"9629 S MERRION AVE  ","YEAR":2011,"DOING_BUSINESS_AS_NAME":"KELLY BRIAN CLARK","POP_AT_RISK":34856,"BUSINESS_TYPE":"Peddler, non-food, special","LEGAL_NAME":"KELLY BRIAN CLARK","LONGITUDE":-87.56975870416848},
{"STATE":"IL","ZIP":60630,"LATTITUDE":41.96221794371823,"ADDRESS":"4455 N LINDER AVE 2ND ","YEAR":2011,"DOING_BUSINESS_AS_NAME":"LORETTA M MATHEIS","POP_AT_RISK":142821,"BUSINESS_TYPE":"Peddler, non-food, special","LEGAL_NAME":"LORETTA M MATHEIS","LONGITUDE":-87.76469069317187},
{"STATE":"IL","ZIP":60616,"LATTITUDE":41.857792921043036,"ADDRESS":"1801 S WABASH AVE 6TH 628","YEAR":2011,"DOING_BUSINESS_AS_NAME":"SAMANICO A STARKS","POP_AT_RISK":40698,"BUSINESS_TYPE":"Peddler, non-food, special","LEGAL_NAME":"SAMANICO A STARKS","LONGITUDE":-87.62546236883539},
{"STATE":"IL","ZIP":60639,"LATTITUDE":41.92560289691205,"ADDRESS":"2455 N CENTRAL AVE 1 1","YEAR":2011,"DOING_BUSINESS_AS_NAME":"BLANCA INES FRANCO","POP_AT_RISK":433812,"BUSINESS_TYPE":"Peddler, non-food, special","LEGAL_NAME":"BLANCA INES FRANCO","LONGITUDE":-87.76590097762198},
{"STATE":"IL","ZIP":60651,"LATTITUDE":41.89851496379249,"ADDRESS":"940 N DRAKE AVE  ","YEAR":2011,"DOING_BUSINESS_AS_NAME":"DOROTHY MARIE WYNN","POP_AT_RISK":401472,"BUSINESS_TYPE":"Peddler, non-food, special","LEGAL_NAME":"DOROTHY MARIE WYNN","LONGITUDE":-87.71534100849412},
{"STATE":"IL","ZIP":60610,"LATTITUDE":41.89865217853064,"ADDRESS":"866 N STATE ST  ","YEAR":2011,"DOING_BUSINESS_AS_NAME":"JAMES EDWARD FLYNN","POP_AT_RISK":71652,"BUSINESS_TYPE":"Peddler, non-food, special","LEGAL_NAME":"JAMES EDWARD FLYNN","LONGITUDE":-87.62839997352812},
{"STATE":"IL","ZIP":60632,"LATTITUDE":41.796910982327375,"ADDRESS":"3603 W 53RD ST  8","YEAR":2011,"DOING_BUSINESS_AS_NAME":"EDWARD JAMES WILSON","POP_AT_RISK":236300,"BUSINESS_TYPE":"Peddler, non-food, special","LEGAL_NAME":"EDWARD JAMES WILSON","LONGITUDE":-87.71379056476763},
{"STATE":"IL","ZIP":60659,"LATTITUDE":41.99360501680627,"ADDRESS":"3817 W GRANVILLE AVE  ","YEAR":2011,"DOING_BUSINESS_AS_NAME":"HERBERT HOFFMAN SR.","POP_AT_RISK":180228,"BUSINESS_TYPE":"Peddler, non-food, special","LEGAL_NAME":"HERBERT HOFFMAN SR.","LONGITUDE":-87.72467514813182},
{"STATE":"IL","ZIP":60634,"LATTITUDE":41.96043237259338,"ADDRESS":"6050 W MONTROSE AVE  ","YEAR":2011,"DOING_BUSINESS_AS_NAME":"MONTGOMERY LEWIS SR.","POP_AT_RISK":127818,"BUSINESS_TYPE":"Peddler, non-food, special","LEGAL_NAME":"MONTGOMERY LEWIS SR","LONGITUDE":-87.77909104597502},
{"STATE":"IL","ZIP":60628,"LATTITUDE":41.67893157362806,"ADDRESS":"11825 S PARNELL AVE 1ST ","YEAR":2011,"DOING_BUSINESS_AS_NAME":"CHARLES LENWOOD POOL","POP_AT_RISK":123755,"BUSINESS_TYPE":"Peddler, non-food, special","LEGAL_NAME":"CHARLES LENWOOD POOL","LONGITUDE":-87.6357705442063},
{"STATE":"IL","ZIP":60620,"LATTITUDE":41.74448037395297,"ADDRESS":"8231 S LA SALLE ST 1ST ","YEAR":2011,"DOING_BUSINESS_AS_NAME":"DONNA MARIE THOMASON","POP_AT_RISK":29507,"BUSINESS_TYPE":"Peddler, non-food, special","LEGAL_NAME":"DONNA MARIE THOMASON","LONGITUDE":-87.62792793396277},
{"STATE":"IL","ZIP":60612,"LATTITUDE":41.884678131218955,"ADDRESS":"2066 W RANDOLPH ST  ","YEAR":2011,"DOING_BUSINESS_AS_NAME":"GWENDOLYN M. WOODSON","POP_AT_RISK":24520,"BUSINESS_TYPE":"Peddler, non-food, special","LEGAL_NAME":"GWENDOLYN M. WOODSON","LONGITUDE":-87.67908513926295},
{"STATE":"IL","ZIP":60607,"LATTITUDE":41.88371507587743,"ADDRESS":"120 N SANGAMON ST  ","YEAR":2011,"DOING_BUSINESS_AS_NAME":"HAROLD CORNELL HALEY","POP_AT_RISK":43409,"BUSINESS_TYPE":"Peddler, non-food, special","LEGAL_NAME":"HAROLD CORNELL HALEY","LONGITUDE":-87.65106665042869},
{"STATE":"IL","ZIP":60634,"LATTITUDE":41.93849707247113,"ADDRESS":"3221 N OVERHILL AVE  ","YEAR":2011,"DOING_BUSINESS_AS_NAME":"JAMES B. FITZPATRICK","POP_AT_RISK":305280,"BUSINESS_TYPE":"Peddler, non-food, special","LEGAL_NAME":"JAMES B. FITZPATRICK","LONGITUDE":-87.81884064783011},
{"STATE":"IL","ZIP":60618,"LATTITUDE":41.942046484997896,"ADDRESS":"3335 N RIDGEWAY AVE  ","YEAR":2011,"DOING_BUSINESS_AS_NAME":"JULIANA MARIE MARTIN","POP_AT_RISK":182265,"BUSINESS_TYPE":"Peddler, non-food, special","LEGAL_NAME":"JULIANA MARIE MARTIN","LONGITUDE":-87.721007984604},
{"STATE":"IL","ZIP":60202,"LATTITUDE":41.87471264144523,"ADDRESS":"548  SHERMAN AVE  ","YEAR":2011,"DOING_BUSINESS_AS_NAME":"LOUIS ANDREW CALHOUN","POP_AT_RISK":143010,"BUSINESS_TYPE":"Peddler, non-food, special","LEGAL_NAME":"LOUIS ANDREW CALHOUN","LONGITUDE":-87.63320763683711},
{"STATE":"IL","ZIP":60617,"LATTITUDE":41.72925880560059,"ADDRESS":"9141 S SOUTH CHICAGO AVE 4 412","YEAR":2011,"DOING_BUSINESS_AS_NAME":"RICHARD PALMER THOMAS","POP_AT_RISK":17702,"BUSINESS_TYPE":"Peddler, non-food, special","LEGAL_NAME":"RICHARD PALMER THOMAS","LONGITUDE":-87.5544684353551},
{"STATE":"IL","ZIP":60653,"LATTITUDE":41.82885296053581,"ADDRESS":"60 E 36TH PL 5TH 515","YEAR":2011,"DOING_BUSINESS_AS_NAME":"VERNON FRANK THOMPSON","POP_AT_RISK":336820,"BUSINESS_TYPE":"Peddler, non-food, special","LEGAL_NAME":"VERNON FRANK THOMPSON","LONGITUDE":-87.62419843016123},
{"STATE":"IL","ZIP":60608,"LATTITUDE":41.83212690882161,"ADDRESS":"3418 S LITUANICA AVE BSMT ","YEAR":2011,"DOING_BUSINESS_AS_NAME":"OILFRE MIRANDA ROSARIO","POP_AT_RISK":511680,"BUSINESS_TYPE":"Peddler, non-food, special","LEGAL_NAME":"OILFRE MIRANDA ROSARIO","LONGITUDE":-87.64871485220716},
}