{
{"STATE":"IL","ZIP":60827,"LATTITUDE":41.645726299947334,"ADDRESS":"313 E 137TH ST 2 7","YEAR":2010,"DOING_BUSINESS_AS_NAME":"NIKITA WHITE","POP_AT_RISK":44547,"BUSINESS_TYPE":"Street Performer","LEGAL_NAME":"NIKITA WHITE","LONGITUDE":-87.61426912253975},
{"STATE":"IL","ZIP":60609,"LATTITUDE":41.79624808776697,"ADDRESS":"5347 S WOOD ST 1ST #","YEAR":2010,"DOING_BUSINESS_AS_NAME":"CECIL D LOCKE","POP_AT_RISK":146643,"BUSINESS_TYPE":"Street Performer","LEGAL_NAME":"CECIL D LOCKE","LONGITUDE":-87.66936060628221},
{"STATE":"IL","ZIP":60629,"LATTITUDE":41.784872979683584,"ADDRESS":"5944 S SPAULDING AVE  ","YEAR":2010,"DOING_BUSINESS_AS_NAME":"CORDERO CLARK","POP_AT_RISK":129142,"BUSINESS_TYPE":"Street Performer","LEGAL_NAME":"CORDERO CLARK","LONGITUDE":-87.70587445857451},
{"STATE":"IL","ZIP":60608,"LATTITUDE":41.84610923029682,"ADDRESS":"2515 S CLAREMONT AVE 1ST ","YEAR":2010,"DOING_BUSINESS_AS_NAME":"MARCUS MORENO","POP_AT_RISK":47090,"BUSINESS_TYPE":"Street Performer","LEGAL_NAME":"MARCUS MORENO","LONGITUDE":-87.68434043108581},
{"STATE":"IL","ZIP":60651,"LATTITUDE":41.89581048341885,"ADDRESS":"4937 W RICE ST  ","YEAR":2010,"DOING_BUSINESS_AS_NAME":"TABITHA HENRY","POP_AT_RISK":141141,"BUSINESS_TYPE":"Street Performer","LEGAL_NAME":"TABITHA HENRY","LONGITUDE":-87.74976866474795},
{"STATE":"IL","ZIP":60645,"LATTITUDE":42.015060035775996,"ADDRESS":"7344 N ALBANY AVE 1 ","YEAR":2010,"DOING_BUSINESS_AS_NAME":"ERICK G. MATEO","POP_AT_RISK":31488,"BUSINESS_TYPE":"Street Performer","LEGAL_NAME":"ERICK G. MATEO","LONGITUDE":-87.70689724240283},
{"STATE":"IL","ZIP":60653,"LATTITUDE":41.81922851271394,"ADDRESS":"401 E BOWEN AVE  2001","YEAR":2010,"DOING_BUSINESS_AS_NAME":"JAMES H  WATSON","POP_AT_RISK":102747,"BUSINESS_TYPE":"Street Performer","LEGAL_NAME":"JAMES H WATSON","LONGITUDE":-87.61645177529466},
{"STATE":"IL","ZIP":60638,"LATTITUDE":41.78203808780301,"ADDRESS":"6050 S CENTRAL AVE 1ST 4","YEAR":2010,"DOING_BUSINESS_AS_NAME":"JAMES P. MISUP","POP_AT_RISK":37876,"BUSINESS_TYPE":"Street Performer","LEGAL_NAME":"JAMES P. MISUP","LONGITUDE":-87.7620324686793},
{"STATE":"IL","ZIP":60608,"LATTITUDE":41.83854756706471,"ADDRESS":"3076 S LYMAN ST  ","YEAR":2010,"DOING_BUSINESS_AS_NAME":"NANCY A NAMEST","POP_AT_RISK":35553,"BUSINESS_TYPE":"Street Performer","LEGAL_NAME":"NANCY A NAMEST","LONGITUDE":-87.65864880252683},
{"STATE":"IL","ZIP":60636,"LATTITUDE":41.76415531499319,"ADDRESS":"1444 W 71ST PL  ","YEAR":2010,"DOING_BUSINESS_AS_NAME":"RODNEY JOHNSON","POP_AT_RISK":38600,"BUSINESS_TYPE":"Street Performer","LEGAL_NAME":"RODNEY JOHNSON","LONGITUDE":-87.6606397515453},
{"STATE":"IL","ZIP":60629,"LATTITUDE":41.77517987291024,"ADDRESS":"3255 W 65TH ST  ","YEAR":2010,"DOING_BUSINESS_AS_NAME":"RUTH UNDERWOOD","POP_AT_RISK":51139,"BUSINESS_TYPE":"Street Performer","LEGAL_NAME":"RUTH UNDERWOOD","LONGITUDE":-87.70519245318236},
{"STATE":"IL","ZIP":60638,"LATTITUDE":41.79774203047244,"ADDRESS":"5218 S LATROBE AVE  ","YEAR":2010,"DOING_BUSINESS_AS_NAME":"CYNTHIA STANLEY","POP_AT_RISK":34758,"BUSINESS_TYPE":"Street Performer","LEGAL_NAME":"CYNTHIA STANLEY","LONGITUDE":-87.75403481989204},
{"STATE":"IL","ZIP":60623,"LATTITUDE":41.85626275152862,"ADDRESS":"1826 S MILLARD AVE  ","YEAR":2010,"DOING_BUSINESS_AS_NAME":"JUNE A. RUSSELL","POP_AT_RISK":125390,"BUSINESS_TYPE":"Street Performer","LEGAL_NAME":"JUNE A. RUSSELL","LONGITUDE":-87.71649792945561},
{"STATE":"IL","ZIP":60624,"LATTITUDE":41.883091493549166,"ADDRESS":"3834 W WEST END AVE  ","YEAR":2010,"DOING_BUSINESS_AS_NAME":"KEVIN A. MARTIN","POP_AT_RISK":169005,"BUSINESS_TYPE":"Street Performer","LEGAL_NAME":"KEVIN A. MARTIN","LONGITUDE":-87.72211597509587},
{"STATE":"IL","ZIP":60623,"LATTITUDE":41.84993978663453,"ADDRESS":"2855 W 23RD ST  ","YEAR":2010,"DOING_BUSINESS_AS_NAME":"VALDEMAR AMBRIZ","POP_AT_RISK":132880,"BUSINESS_TYPE":"Street Performer","LEGAL_NAME":"VALDEMAR AMBRIZ","LONGITUDE":-87.69773501970995},
{"STATE":"IL","ZIP":60644,"LATTITUDE":41.876861247072966,"ADDRESS":"4908 W JACKSON BLVD 2ND ","YEAR":2010,"DOING_BUSINESS_AS_NAME":"BENJAMIN SANDERS","POP_AT_RISK":37373,"BUSINESS_TYPE":"Street Performer","LEGAL_NAME":"BENJAMIN SANDERS","LONGITUDE":-87.74774722698577},
{"STATE":"IL","ZIP":60617,"LATTITUDE":41.71100945109014,"ADDRESS":"10132 S EWING AVE  ","YEAR":2010,"DOING_BUSINESS_AS_NAME":"JOHN JOSEPH TAUS","POP_AT_RISK":98635,"BUSINESS_TYPE":"Street Performer","LEGAL_NAME":"JOHN JOSEPH TAUS","LONGITUDE":-87.5354279549906},
{"STATE":"IL","ZIP":60629,"LATTITUDE":41.7755330983029,"ADDRESS":"6437 S KILPATRICK AVE  ","YEAR":2010,"DOING_BUSINESS_AS_NAME":"LEONEL LOEZA JR.","POP_AT_RISK":94140,"BUSINESS_TYPE":"Street Performer","LEGAL_NAME":"LEONEL LOEZA JR.","LONGITUDE":-87.73961115561566},
{"STATE":"IL","ZIP":60633,"LATTITUDE":41.65222326783358,"ADDRESS":"13348 S BUFFALO AVE  ","YEAR":2010,"DOING_BUSINESS_AS_NAME":"ROSEANN M SHEICK","POP_AT_RISK":10834,"BUSINESS_TYPE":"Street Performer","LEGAL_NAME":"ROSEANN M SHEICK","LONGITUDE":-87.54366037943814},
{"STATE":"IL","ZIP":60617,"LATTITUDE":41.72173971187443,"ADDRESS":"9525 S CLYDE AVE 1 ","YEAR":2010,"DOING_BUSINESS_AS_NAME":"JANE WRIGHT","POP_AT_RISK":41858,"BUSINESS_TYPE":"Street Performer","LEGAL_NAME":"JANE MARIE WRIGHT","LONGITUDE":-87.57155310349063},
{"STATE":"IL","ZIP":60628,"LATTITUDE":41.703684473874304,"ADDRESS":"739 E 105TH ST  ","YEAR":2010,"DOING_BUSINESS_AS_NAME":"LARRY LEE STEWART","POP_AT_RISK":101545,"BUSINESS_TYPE":"Street Performer","LEGAL_NAME":"LARRY LEE STEWART","LONGITUDE":-87.6047419252213},
{"STATE":"IL","ZIP":60619,"LATTITUDE":41.746428470673344,"ADDRESS":"8141 S DREXEL AVE  ","YEAR":2010,"DOING_BUSINESS_AS_NAME":"BOBBY L. DAVIS III","POP_AT_RISK":33345,"BUSINESS_TYPE":"Street Performer","LEGAL_NAME":"BOBBY L. DAVIS III","LONGITUDE":-87.60246986693186},
{"STATE":"IL","ZIP":60617,"LATTITUDE":41.73291269272392,"ADDRESS":"8916 S MERRILL AVE  ","YEAR":2010,"DOING_BUSINESS_AS_NAME":"DONETTA L JACKSON","POP_AT_RISK":63016,"BUSINESS_TYPE":"Street Performer","LEGAL_NAME":"DONNETTA L JACKSON","LONGITUDE":-87.57211900984728},
{"STATE":"IL","ZIP":60621,"LATTITUDE":41.77644440687478,"ADDRESS":"305 W 65TH ST  ","YEAR":2010,"DOING_BUSINESS_AS_NAME":"ERIC PHILIP MARTIN","POP_AT_RISK":28246,"BUSINESS_TYPE":"Street Performer","LEGAL_NAME":"ERIC PHILIP MARTIN","LONGITUDE":-87.63271792796627},
{"STATE":"IL","ZIP":60638,"LATTITUDE":41.79891753389088,"ADDRESS":"5122 S NEENAH AVE 1 ","YEAR":2010,"DOING_BUSINESS_AS_NAME":"JASON A. MC DANIEL","POP_AT_RISK":74094,"BUSINESS_TYPE":"Street Performer","LEGAL_NAME":"JASON A. MC DANIEL","LONGITUDE":-87.78581437893766},
{"STATE":"IL","ZIP":60655,"LATTITUDE":41.70948554607259,"ADDRESS":"10115 S TALMAN AVE  ","YEAR":2010,"DOING_BUSINESS_AS_NAME":"JOHN JOSEPH AMBRIZ","POP_AT_RISK":22669,"BUSINESS_TYPE":"Street Performer","LEGAL_NAME":"JOHN JOSEPH AMBRIZ","LONGITUDE":-87.68774043845052},
{"STATE":"IL","ZIP":60631,"LATTITUDE":42.006058677122155,"ADDRESS":"7355 W IBSEN ST  ","YEAR":2010,"DOING_BUSINESS_AS_NAME":"MARISA T. BUCHHEIT","POP_AT_RISK":34023,"BUSINESS_TYPE":"Street Performer","LEGAL_NAME":"MARISA T. BUCHHEIT","LONGITUDE":-87.81124881867649},
{"STATE":"IL","ZIP":60651,"LATTITUDE":41.90769083902858,"ADDRESS":"1505 N MONITOR AVE  ","YEAR":2010,"DOING_BUSINESS_AS_NAME":"ABRAHAM GLADNEY JR.","POP_AT_RISK":226200,"BUSINESS_TYPE":"Street Performer","LEGAL_NAME":"ABRAHAM GLADNEY JR.","LONGITUDE":-87.77176581908103},
{"STATE":"IL","ZIP":60628,"LATTITUDE":41.693982121732034,"ADDRESS":"11008 S NORMAL AVE  ","YEAR":2010,"DOING_BUSINESS_AS_NAME":"EUGENE S. LOGAN III","POP_AT_RISK":171465,"BUSINESS_TYPE":"Street Performer","LEGAL_NAME":"EUGENE S. LOGAN III","LONGITUDE":-87.63533329646631},
{"STATE":"IL","ZIP":60652,"LATTITUDE":41.75030570327475,"ADDRESS":"7827 S KENNETH AVE 1 ","YEAR":2010,"DOING_BUSINESS_AS_NAME":"JAMES PATRICK SHINE","POP_AT_RISK":52248,"BUSINESS_TYPE":"Street Performer","LEGAL_NAME":"JAMES PATRICK SHINE","LONGITUDE":-87.73275235913809},
{"STATE":"IL","ZIP":60707,"LATTITUDE":41.92467401939218,"ADDRESS":"2431 N NEVA AVE  ","YEAR":2010,"DOING_BUSINESS_AS_NAME":"MATSON DARIUS ADAMS JR.","POP_AT_RISK":252114,"BUSINESS_TYPE":"Street Performer","LEGAL_NAME":"MATSON D. ADAMS, JR","LONGITUDE":-87.80426509000877},
{"STATE":"IL","ZIP":60656,"LATTITUDE":41.972880427370185,"ADDRESS":"5031 N NEWCASTLE AVE  ","YEAR":2010,"DOING_BUSINESS_AS_NAME":"JAMES THOMAS O'GRADY","POP_AT_RISK":46368,"BUSINESS_TYPE":"Street Performer","LEGAL_NAME":"JAMES THOMAS O'GRADY","LONGITUDE":-87.79747408685742},
{"STATE":"IL","ZIP":60612,"LATTITUDE":41.878234851367566,"ADDRESS":"200 S SACRAMENTO BLVD  ","YEAR":2010,"DOING_BUSINESS_AS_NAME":"JIMMIE LEE CARPENTER","POP_AT_RISK":94212,"BUSINESS_TYPE":"Street Performer","LEGAL_NAME":"JIMMIE LEE CARPENTER","LONGITUDE":-87.70127556892912},
{"STATE":"IL","ZIP":60645,"LATTITUDE":42.015606341452845,"ADDRESS":"2739 W JARVIS AVE  ","YEAR":2010,"DOING_BUSINESS_AS_NAME":"JAMAAL ANTHONY MILLER","POP_AT_RISK":43650,"BUSINESS_TYPE":"Street Performer","LEGAL_NAME":"JAMAAL ANTHONY MILLER","LONGITUDE":-87.69890329779751},
{"STATE":"IL","ZIP":60619,"LATTITUDE":41.73645547394651,"ADDRESS":"541 E 87TH ST  ","YEAR":2010,"DOING_BUSINESS_AS_NAME":"JONATHAN K. ST. CLAIR","POP_AT_RISK":202392,"BUSINESS_TYPE":"Street Performer","LEGAL_NAME":"JONATHAN K. ST. CLAIR","LONGITUDE":-87.61043650713029},
{"STATE":"IL","ZIP":60612,"LATTITUDE":41.87750767703999,"ADDRESS":"2143 W JACKSON BLVD  A","YEAR":2010,"DOING_BUSINESS_AS_NAME":"LAKITHA SHONTAY LEWIS","POP_AT_RISK":22327,"BUSINESS_TYPE":"Street Performer","LEGAL_NAME":"LAKITHA SHONTAY LEWIS","LONGITUDE":-87.6807074781638},
{"STATE":"IL","ZIP":60628,"LATTITUDE":41.71843209664356,"ADDRESS":"9640 S LOWE AVE  ","YEAR":2010,"DOING_BUSINESS_AS_NAME":"KENNETH ROBERT RUSSELL","POP_AT_RISK":111492,"BUSINESS_TYPE":"Street Performer","LEGAL_NAME":"KENNETH ROBERT RUSSELL","LONGITUDE":-87.63964005083604},
{"STATE":"IL","ZIP":60634,"LATTITUDE":41.95075861285278,"ADDRESS":"3857 N NEWCASTLE AVE  1","YEAR":2010,"DOING_BUSINESS_AS_NAME":"VLADIMIR STEVE ZUTEREK","POP_AT_RISK":72032,"BUSINESS_TYPE":"Street Performer","LEGAL_NAME":"VLADIMIR STEVE ZUTEREK","LONGITUDE":-87.79726126883155},
{"STATE":"IL","ZIP":60637,"LATTITUDE":41.794351298103074,"ADDRESS":"5530 S SHORE DR 2 2A","YEAR":2010,"DOING_BUSINESS_AS_NAME":"ROBERT DU MOND MINNERLY","POP_AT_RISK":27340,"BUSINESS_TYPE":"Street Performer","LEGAL_NAME":"ROBERT DU MOND MINNERLY","LONGITUDE":-87.5805783780428},
{"STATE":"IL","ZIP":60620,"LATTITUDE":41.74622053592393,"ADDRESS":"8132 S HARVARD AVE  ","YEAR":2010,"DOING_BUSINESS_AS_NAME":"SAIR AR RASHEED STEWART MUHAMMAD","POP_AT_RISK":28181,"BUSINESS_TYPE":"Street Performer","LEGAL_NAME":"SAIR ARRASHEED MUHAMMAD","LONGITUDE":-87.63311512812517},
{"STATE":"IL","ZIP":60632,"LATTITUDE":41.81509374784488,"ADDRESS":"4312 S MOZART ST  ","YEAR":2010,"DOING_BUSINESS_AS_NAME":"XAVIER ALEJANDRO CHAVEZ","POP_AT_RISK":331093,"BUSINESS_TYPE":"Street Performer","LEGAL_NAME":"XAVIER ALEJANDRO CHAVEZ","LONGITUDE":-87.69578802326906},
{"STATE":"IL","ZIP":60616,"LATTITUDE":41.83648775352253,"ADDRESS":"401 E 32ND ST  ","YEAR":2010,"DOING_BUSINESS_AS_NAME":"YAH UNITY RACHEL ISRAEL","POP_AT_RISK":71922,"BUSINESS_TYPE":"Street Performer","LEGAL_NAME":"YAH UNITY RACHEL ISRAEL","LONGITUDE":-87.61700840273149},
{"STATE":"IL","ZIP":60639,"LATTITUDE":41.923273966550894,"ADDRESS":"2327 N KILPATRICK AVE  ","YEAR":2010,"DOING_BUSINESS_AS_NAME":"BERNARDO GABRIEL RIVERA LOPEZ","POP_AT_RISK":66957,"BUSINESS_TYPE":"Street Performer","LEGAL_NAME":"BERNARDO GABRIEL RIVERA LOPEZ","LONGITUDE":-87.74369320356091},
}