{
{"STATE":"IL","ZIP":60660,"LATTITUDE":41.99078993443288,"ADDRESS":"1962 W PETERSON AVE 1ST ","YEAR":2012,"DOING_BUSINESS_AS_NAME":"FELINES, INC.","POP_AT_RISK":173790,"BUSINESS_TYPE":"Humane Society","LEGAL_NAME":"FELINES, INC.","LONGITUDE":-87.67952326349187},
{"STATE":"IL","ZIP":60660,"LATTITUDE":41.99793660644868,"ADDRESS":"6379 N PAULINA ST  ","YEAR":2012,"DOING_BUSINESS_AS_NAME":"FELINES & CANINES","POP_AT_RISK":889130,"BUSINESS_TYPE":"Humane Society","LEGAL_NAME":"FELINES, INC.","LONGITUDE":-87.67184080287412},
{"STATE":"IL","ZIP":60618,"LATTITUDE":41.95613992891168,"ADDRESS":"4108 N ROCKWELL ST 1ST A","YEAR":2012,"DOING_BUSINESS_AS_NAME":"FOUND CHICAGO","POP_AT_RISK":535073,"BUSINESS_TYPE":"Humane Society","LEGAL_NAME":"FOUND CHICAGO","LONGITUDE":-87.69343504249869},
{"STATE":"IL","ZIP":60618,"LATTITUDE":41.93939077744784,"ADDRESS":"2227 W BELMONT AVE 1 1","YEAR":2012,"DOING_BUSINESS_AS_NAME":"ALIVE RESCUE, NFP","POP_AT_RISK":894816,"BUSINESS_TYPE":"Humane Society","LEGAL_NAME":"ALIVE RESCUE, NFP","LONGITUDE":-87.68429704826343},
{"STATE":"IL","ZIP":60637,"LATTITUDE":41.7811377052545,"ADDRESS":"6224 S WABASH AVE  ","YEAR":2012,"DOING_BUSINESS_AS_NAME":"ANIMAL WELFARE LEAGUE","POP_AT_RISK":441519,"BUSINESS_TYPE":"Humane Society","LEGAL_NAME":"ANIMAL WELFARE LEAGUE","LONGITUDE":-87.62387647008038},
{"STATE":"IL","ZIP":60654,"LATTITUDE":41.89148516900918,"ADDRESS":"157 W GRAND AVE # 1","YEAR":2012,"DOING_BUSINESS_AS_NAME":"THE ANTI-CRUELTY SOCIETY","POP_AT_RISK":850020,"BUSINESS_TYPE":"Humane Society","LEGAL_NAME":"THE ANTI-CRUELTY SOCIETY","LONGITUDE":-87.63336728275898},
{"STATE":"IL","ZIP":60607,"LATTITUDE":41.885565275054724,"ADDRESS":"1328 W LAKE ST  ","YEAR":2012,"DOING_BUSINESS_AS_NAME":"LAKE SHORE ANIMAL SHELTER","POP_AT_RISK":74812,"BUSINESS_TYPE":"Humane Society","LEGAL_NAME":"LAKE SHORE ANIMAL SHELTER","LONGITUDE":-87.66004958966946},
{"STATE":"IL","ZIP":60640,"LATTITUDE":41.97472119607005,"ADDRESS":"1212 W CARMEN AVE 1ST ","YEAR":2012,"DOING_BUSINESS_AS_NAME":"TREE HOUSE ANIMAL FOUNDATION","POP_AT_RISK":1237753,"BUSINESS_TYPE":"Humane Society","LEGAL_NAME":"TREE HOUSE HUMANE SOCIETY","LONGITUDE":-87.66039292141231},
{"STATE":"IL","ZIP":60622,"LATTITUDE":41.911514593915015,"ADDRESS":"1629 N ASHLAND AVE 1&2 FLOOR ","YEAR":2012,"DOING_BUSINESS_AS_NAME":"TREE HOUSE ANIMAL FOUNDATION","POP_AT_RISK":938383,"BUSINESS_TYPE":"Humane Society","LEGAL_NAME":"TREE HOUSE HUMANE SOCIETY","LONGITUDE":-87.66756803804198},
}