{
{"STATE":"IL","ZIP":60616,"LATTITUDE":41.847215134956635,"ADDRESS":"53 E 25TH ST  1","YEAR":2006,"DOING_BUSINESS_AS_NAME":"ACE RESTAURANT EQUIPMENT","POP_AT_RISK":84740,"BUSINESS_TYPE":"Electronic Equipment Repair","LEGAL_NAME":"THOMAS JUE","LONGITUDE":-87.62486300142383},
{"STATE":"IL","ZIP":60623,"LATTITUDE":41.83684064720227,"ADDRESS":"3102 S RIDGEWAY AVE  ","YEAR":2006,"DOING_BUSINESS_AS_NAME":"AIROS ELECTRONICS","POP_AT_RISK":53035,"BUSINESS_TYPE":"Electronic Equipment Repair","LEGAL_NAME":"AGUSTIN SORIA","LONGITUDE":-87.71839021854599},
{"STATE":"IL","ZIP":60610,"LATTITUDE":41.910847530641384,"ADDRESS":"1559 N LA SALLE DR  ","YEAR":2006,"DOING_BUSINESS_AS_NAME":"MICOMP COMPUTER CENTER","POP_AT_RISK":64889,"BUSINESS_TYPE":"Electronic Equipment Repair","LEGAL_NAME":"S H LEE, CORP","LONGITUDE":-87.63299284825638},
{"STATE":"IL","ZIP":60609,"LATTITUDE":41.80344664758088,"ADDRESS":"4951 S ASHLAND AVE  ","YEAR":2006,"DOING_BUSINESS_AS_NAME":"T.V. CITY","POP_AT_RISK":154008,"BUSINESS_TYPE":"Electronic Equipment Repair","LEGAL_NAME":"CAROLYN GITLIN","LONGITUDE":-87.66468598750545},
{"STATE":"IL","ZIP":60655,"LATTITUDE":41.69142498976463,"ADDRESS":"3255 W 111TH ST 1ST ","YEAR":2006,"DOING_BUSINESS_AS_NAME":"UNITED TV","POP_AT_RISK":42006,"BUSINESS_TYPE":"Electronic Equipment Repair","LEGAL_NAME":"DAVID BENEDICT","LONGITUDE":-87.70308375447938},
{"STATE":"IL","ZIP":60617,"LATTITUDE":41.71748319099882,"ADDRESS":"9806 S EWING AVE 1ST ","YEAR":2006,"DOING_BUSINESS_AS_NAME":"AUTLAND ELECTRONICS","POP_AT_RISK":32754,"BUSINESS_TYPE":"Electronic Equipment Repair","LEGAL_NAME":"DIONISO GAMINO","LONGITUDE":-87.53542750254549},
{"STATE":"IL","ZIP":60617,"LATTITUDE":41.73678099454392,"ADDRESS":"8719 S COMMERCIAL AVE 1ST ","YEAR":2006,"DOING_BUSINESS_AS_NAME":"A PRONTO RADIO & TV SERVICE","POP_AT_RISK":28615,"BUSINESS_TYPE":"Electronic Equipment Repair","LEGAL_NAME":"JUAN I. RIVERA","LONGITUDE":-87.55127079933065},
{"STATE":"IL","ZIP":60632,"LATTITUDE":41.79927517730882,"ADDRESS":"5310 S ARCHER AVE  1ST","YEAR":2006,"DOING_BUSINESS_AS_NAME":"ARCHER ELECTRONIC INC","POP_AT_RISK":29168,"BUSINESS_TYPE":"Electronic Equipment Repair","LEGAL_NAME":"LESZEK RABCZAK","LONGITUDE":-87.73990095453236},
{"STATE":"IL","ZIP":60620,"LATTITUDE":41.73712783579394,"ADDRESS":"8615 S ASHLAND AVE  ","YEAR":2006,"DOING_BUSINESS_AS_NAME":"SMI INKMASTER","POP_AT_RISK":142744,"BUSINESS_TYPE":"Electronic Equipment Repair","LEGAL_NAME":"NNAMDI E  OZOH","LONGITUDE":-87.66295046431365},
{"STATE":"IL","ZIP":60624,"LATTITUDE":41.875688749340995,"ADDRESS":"346 S PULASKI RD  1","YEAR":2006,"DOING_BUSINESS_AS_NAME":"BILLS RADIO & TV REPAIR","POP_AT_RISK":634815,"BUSINESS_TYPE":"Electronic Equipment Repair","LEGAL_NAME":"WILLIAM HUNTER","LONGITUDE":-87.7256458606552},
{"STATE":"IL","ZIP":60652,"LATTITUDE":41.73862454427184,"ADDRESS":"8457 S PULASKI RD  ","YEAR":2006,"DOING_BUSINESS_AS_NAME":"HIGH POWER INC.","POP_AT_RISK":50466,"BUSINESS_TYPE":"Electronic Equipment Repair","LEGAL_NAME":"HIGH POWER INC.","LONGITUDE":-87.72141660738357},
{"STATE":"IL","ZIP":60620,"LATTITUDE":41.72793858111568,"ADDRESS":"9116 S ASHLAND AVE 1ST ","YEAR":2006,"DOING_BUSINESS_AS_NAME":"PROFESSIONAL STEREO & TV","POP_AT_RISK":29296,"BUSINESS_TYPE":"Electronic Equipment Repair","LEGAL_NAME":"JAMES W RANKINS","LONGITUDE":-87.66298359358422},
{"STATE":"IL","ZIP":60707,"LATTITUDE":41.90905336260015,"ADDRESS":"7016 W NORTH AVE  1","YEAR":2006,"DOING_BUSINESS_AS_NAME":"SAV ELECTRONICS","POP_AT_RISK":82908,"BUSINESS_TYPE":"Electronic Equipment Repair","LEGAL_NAME":"SAV ELECTRONICS","LONGITUDE":-87.80104727544312},
{"STATE":"IL","ZIP":60639,"LATTITUDE":41.90970355124287,"ADDRESS":"4207 W NORTH AVE  1ST","YEAR":2006,"DOING_BUSINESS_AS_NAME":"A Q TV SERVICE","POP_AT_RISK":52678,"BUSINESS_TYPE":"Electronic Equipment Repair","LEGAL_NAME":"ADELMEES QUINTANA","LONGITUDE":-87.73171761370901},
{"STATE":"IL","ZIP":60644,"LATTITUDE":41.88049014080993,"ADDRESS":"5144 W MADISON ST  ","YEAR":2006,"DOING_BUSINESS_AS_NAME":"TV SERVICE","POP_AT_RISK":48029,"BUSINESS_TYPE":"Electronic Equipment Repair","LEGAL_NAME":"JESSIE L WILLIAMS","LONGITUDE":-87.75443273133736},
{"STATE":"IL","ZIP":60608,"LATTITUDE":41.83342857697663,"ADDRESS":"3331 S HALSTED ST 1ST ","YEAR":2006,"DOING_BUSINESS_AS_NAME":"A B ELECTRONICS","POP_AT_RISK":38114,"BUSINESS_TYPE":"Electronic Equipment Repair","LEGAL_NAME":"MIGUEL A  BELTRAN","LONGITUDE":-87.64602187479579},
{"STATE":"IL","ZIP":60625,"LATTITUDE":41.97555792932682,"ADDRESS":"3453 W FOSTER AVE  ","YEAR":2006,"DOING_BUSINESS_AS_NAME":"PHUONG HOANG INC","POP_AT_RISK":51804,"BUSINESS_TYPE":"Electronic Equipment Repair","LEGAL_NAME":"PHUONG HOANG INC.","LONGITUDE":-87.71569201034919},
{"STATE":"IL","ZIP":60612,"LATTITUDE":41.882165578261116,"ADDRESS":"2532 W WARREN BLVD  ","YEAR":2006,"DOING_BUSINESS_AS_NAME":"TELESERVICE CORP","POP_AT_RISK":316450,"BUSINESS_TYPE":"Electronic Equipment Repair","LEGAL_NAME":"TELESERVICES CORP","LONGITUDE":-87.68980000092242},
{"STATE":"IL","ZIP":60629,"LATTITUDE":41.78659584336789,"ADDRESS":"2600 W 59TH ST  ","YEAR":2006,"DOING_BUSINESS_AS_NAME":"J D TECHNYCOPY & CO","POP_AT_RISK":122538,"BUSINESS_TYPE":"Electronic Equipment Repair","LEGAL_NAME":"J D TECHNYCOPY & CO","LONGITUDE":-87.68878189537217},
{"STATE":"IL","ZIP":60656,"LATTITUDE":41.97684790695398,"ADDRESS":"5245 N HARLEM AVE  1","YEAR":2006,"DOING_BUSINESS_AS_NAME":"NOVA COMPUTERS INC","POP_AT_RISK":132740,"BUSINESS_TYPE":"Electronic Equipment Repair","LEGAL_NAME":"NOVA COMPUTERS INC.","LONGITUDE":-87.80686558240922},
{"STATE":"IL","ZIP":60653,"LATTITUDE":41.80973408310273,"ADDRESS":"1120 E 47TH ST  ","YEAR":2006,"DOING_BUSINESS_AS_NAME":"TWOSTEP INCORPORATED","POP_AT_RISK":266203,"BUSINESS_TYPE":"Electronic Equipment Repair","LEGAL_NAME":"TWOSTEP INCORPORATED","LONGITUDE":-87.59839106098786},
{"STATE":"IL","ZIP":60620,"LATTITUDE":41.732590136822296,"ADDRESS":"8900 S LAFAYETTE AVE  ","YEAR":2006,"DOING_BUSINESS_AS_NAME":"BEST BUY #1122","POP_AT_RISK":31180,"BUSINESS_TYPE":"Electronic Equipment Repair","LEGAL_NAME":"BEST BUY STORES, L.P.","LONGITUDE":-87.62548577469329},
{"STATE":"IL","ZIP":60645,"LATTITUDE":42.016053205008,"ADDRESS":"7409 N WESTERN AVE  ","YEAR":2006,"DOING_BUSINESS_AS_NAME":"COMPUTECH SERVICES INC","POP_AT_RISK":45582,"BUSINESS_TYPE":"Electronic Equipment Repair","LEGAL_NAME":"COMPUTECH SERVICES INC","LONGITUDE":-87.69006386649397},
{"STATE":"IL","ZIP":60632,"LATTITUDE":41.81428995873421,"ADDRESS":"4359 S ARCHER AVE 1ST ","YEAR":2006,"DOING_BUSINESS_AS_NAME":"RADIO SHACK #6516","POP_AT_RISK":227835,"BUSINESS_TYPE":"Electronic Equipment Repair","LEGAL_NAME":"RADIOSHACK CORPORATION","LONGITUDE":-87.70369104773336},
{"STATE":"IL","ZIP":60652,"LATTITUDE":41.75466012439374,"ADDRESS":"7601 S CICERO AVE  ","YEAR":2006,"DOING_BUSINESS_AS_NAME":"RADIO SHACK #6560","POP_AT_RISK":51644,"BUSINESS_TYPE":"Electronic Equipment Repair","LEGAL_NAME":"RADIOSHACK CORPORATION","LONGITUDE":-87.74138475860521},
{"STATE":"IL","ZIP":60638,"LATTITUDE":41.79554052343161,"ADDRESS":"5897 S ARCHER AVE  ","YEAR":2006,"DOING_BUSINESS_AS_NAME":"RADIO SHACK #6582","POP_AT_RISK":46350,"BUSINESS_TYPE":"Electronic Equipment Repair","LEGAL_NAME":"RADIOSHACK CORPORATION","LONGITUDE":-87.76276028417233},
{"STATE":"IL","ZIP":60628,"LATTITUDE":41.68354217732462,"ADDRESS":"11613 S HALSTED ST  ","YEAR":2006,"DOING_BUSINESS_AS_NAME":"RADIO SHACK #6585","POP_AT_RISK":241664,"BUSINESS_TYPE":"Electronic Equipment Repair","LEGAL_NAME":"RADIOSHACK CORPORATION","LONGITUDE":-87.6419554902047},
{"STATE":"IL","ZIP":60649,"LATTITUDE":41.765189524327816,"ADDRESS":"7131 S JEFFERY BLVD 1ST #","YEAR":2006,"DOING_BUSINESS_AS_NAME":"RADIO SHACK #6597","POP_AT_RISK":43337,"BUSINESS_TYPE":"Electronic Equipment Repair","LEGAL_NAME":"RADIOSHACK CORPORATION","LONGITUDE":-87.57613310396634},
{"STATE":"IL","ZIP":60639,"LATTITUDE":41.928847223323764,"ADDRESS":"2650 N NARRAGANSETT AVE SPACE C-3 ","YEAR":2006,"DOING_BUSINESS_AS_NAME":"Radio Shack #01-6319","POP_AT_RISK":103644,"BUSINESS_TYPE":"Electronic Equipment Repair","LEGAL_NAME":"RADIOSHACK CORPORATION","LONGITUDE":-87.78578101920121},
{"STATE":"IL","ZIP":60631,"LATTITUDE":42.01803262230275,"ADDRESS":"7534 N MILWAUKEE AVE 1ST ","YEAR":2006,"DOING_BUSINESS_AS_NAME":"PC REPAIR & SALES","POP_AT_RISK":168474,"BUSINESS_TYPE":"Electronic Equipment Repair","LEGAL_NAME":"ELIZABETH & LARRY LIEGGI","LONGITUDE":-87.80693773851367},
{"STATE":"IL","ZIP":60655,"LATTITUDE":41.70324313400033,"ADDRESS":"10437 S KEDZIE AVE  ","YEAR":2006,"DOING_BUSINESS_AS_NAME":"VIDEO PLAYGROUND","POP_AT_RISK":26161,"BUSINESS_TYPE":"Electronic Equipment Repair","LEGAL_NAME":"VIDEO PLAYGROUND LIMITED","LONGITUDE":-87.70109598899346},
{"STATE":"IL","ZIP":60634,"LATTITUDE":41.95270759569199,"ADDRESS":"6615 W IRVING PARK RD 201 #","YEAR":2006,"DOING_BUSINESS_AS_NAME":"PROCOM ENTERPRISES LTD","POP_AT_RISK":34740,"BUSINESS_TYPE":"Electronic Equipment Repair","LEGAL_NAME":"PROCOM ENTERPRISE LIMITED","LONGITUDE":-87.79210947400955},
{"STATE":"IL","ZIP":60619,"LATTITUDE":41.758314126125775,"ADDRESS":"421 E 75TH ST  ","YEAR":2006,"DOING_BUSINESS_AS_NAME":"RAHBOO COMPUTER WORKS INC","POP_AT_RISK":76292,"BUSINESS_TYPE":"Electronic Equipment Repair","LEGAL_NAME":"RAHBOO COMPUTER WORKS INC","LONGITUDE":-87.61431155905635},
{"STATE":"IL","ZIP":60615,"LATTITUDE":41.795082096806134,"ADDRESS":"1521 E 55TH ST  ","YEAR":2006,"DOING_BUSINESS_AS_NAME":"WINDY CITY COMPUTER, INC.","POP_AT_RISK":121167,"BUSINESS_TYPE":"Electronic Equipment Repair","LEGAL_NAME":"WINDY CITY COMPUTER, INC.","LONGITUDE":-87.58826812316532},
{"STATE":"IL","ZIP":60634,"LATTITUDE":41.93806004273094,"ADDRESS":"7548 W BELMONT AVE  ","YEAR":2006,"DOING_BUSINESS_AS_NAME":"PAUL TV & ELECTRONICS, INC.","POP_AT_RISK":35096,"BUSINESS_TYPE":"Electronic Equipment Repair","LEGAL_NAME":"PAUL TV & ELECTRONIC, INC.","LONGITUDE":-87.8160366647532},
{"STATE":"IL","ZIP":60616,"LATTITUDE":41.830986702567515,"ADDRESS":"329 E 35TH ST 1 ","YEAR":2006,"DOING_BUSINESS_AS_NAME":"CHICAGO COMPUTER CLUB","POP_AT_RISK":29759,"BUSINESS_TYPE":"Electronic Equipment Repair","LEGAL_NAME":"CHICAGO COMPUTER CLUB, CORP.","LONGITUDE":-87.61807593164153},
{"STATE":"IL","ZIP":60646,"LATTITUDE":41.997926038054146,"ADDRESS":"6416 N CENTRAL AVE  ","YEAR":2006,"DOING_BUSINESS_AS_NAME":"EDGEBROOK","POP_AT_RISK":35912,"BUSINESS_TYPE":"Electronic Equipment Repair","LEGAL_NAME":"EDGEBROOK TELEVISION SALES INC","LONGITUDE":-87.76372671651097},
{"STATE":"IL","ZIP":60626,"LATTITUDE":42.01928855008811,"ADDRESS":"1763 W HOWARD ST  ","YEAR":2006,"DOING_BUSINESS_AS_NAME":"U S CELLULAR","POP_AT_RISK":125148,"BUSINESS_TYPE":"Electronic Equipment Repair","LEGAL_NAME":"UNITED STATES CELLULAR OPERATING COMPANY OF CHICAGO, LLC","LONGITUDE":-87.67505850938775},
{"STATE":"IL","ZIP":60643,"LATTITUDE":41.713013336357946,"ADDRESS":"9920 S WESTERN AVE  ","YEAR":2006,"DOING_BUSINESS_AS_NAME":"U S CELLULAR","POP_AT_RISK":18818,"BUSINESS_TYPE":"Electronic Equipment Repair","LEGAL_NAME":"UNITED STATES CELLULAR OPERATING COMPANY OF CHICAGO, LLC","LONGITUDE":-87.68196971044577},
}