{
{"STATE":"IL","ZIP":60623,"LATTITUDE":41.86143137154052,"ADDRESS":"3126 W 15TH ST 2ND ","YEAR":2007,"DOING_BUSINESS_AS_NAME":"CALVIN BROWN","POP_AT_RISK":702882,"BUSINESS_TYPE":"Junk Peddler","LEGAL_NAME":"CALVIN BROWN","LONGITUDE":-87.7041599066367},
{"STATE":"IL","ZIP":60617,"LATTITUDE":41.74006767448875,"ADDRESS":"8531 S EXCHANGE AVE  ","YEAR":2007,"DOING_BUSINESS_AS_NAME":"NOHEMI LOPEZ","POP_AT_RISK":171690,"BUSINESS_TYPE":"Junk Peddler","LEGAL_NAME":"NOHEMI LOPEZ","LONGITUDE":-87.5525570733546},
{"STATE":"IL","ZIP":60625,"LATTITUDE":41.96903717047044,"ADDRESS":"4823 N LAWNDALE AVE 1 ","YEAR":2007,"DOING_BUSINESS_AS_NAME":"GERARDO CORTES","POP_AT_RISK":70605,"BUSINESS_TYPE":"Junk Peddler","LEGAL_NAME":"GERARDO CORTES","LONGITUDE":-87.72056867372734},
{"STATE":"IL","ZIP":60647,"LATTITUDE":41.91840969148484,"ADDRESS":"2859 W MCLEAN AVE  ","YEAR":2007,"DOING_BUSINESS_AS_NAME":"LIONEL VAZQUES","POP_AT_RISK":1009176,"BUSINESS_TYPE":"Junk Peddler","LEGAL_NAME":"LIONEL VAZQUES","LONGITUDE":-87.69956283625015},
{"STATE":"IL","ZIP":60634,"LATTITUDE":41.93917993271026,"ADDRESS":"6223 W MELROSE ST  1","YEAR":2007,"DOING_BUSINESS_AS_NAME":"MAX E. ESCOBAR","POP_AT_RISK":160041,"BUSINESS_TYPE":"Junk Peddler","LEGAL_NAME":"MAX E. ESCOBAR","LONGITUDE":-87.78205916305474},
{"STATE":"IL","ZIP":60608,"LATTITUDE":41.85746450689397,"ADDRESS":"1816 S PEORIA ST  ","YEAR":2007,"DOING_BUSINESS_AS_NAME":"CARMELO  CORNEJO","POP_AT_RISK":115068,"BUSINESS_TYPE":"Junk Peddler","LEGAL_NAME":"CARMELO CORNEJO","LONGITUDE":-87.6484176872875},
{"STATE":"IL","ZIP":60641,"LATTITUDE":41.94242706002071,"ADDRESS":"3356 N KILBOURN AVE  ","YEAR":2007,"DOING_BUSINESS_AS_NAME":"CAYETANA ARROYO","POP_AT_RISK":269916,"BUSINESS_TYPE":"Junk Peddler","LEGAL_NAME":"CAYETANA ARROYO","LONGITUDE":-87.73974616060217},
{"STATE":"IL","ZIP":60609,"LATTITUDE":41.82667191007427,"ADDRESS":"928 W 37TH PL  ","YEAR":2007,"DOING_BUSINESS_AS_NAME":"GLORIA ROLDAN","POP_AT_RISK":217712,"BUSINESS_TYPE":"Junk Peddler","LEGAL_NAME":"GLORIA F ROLDAN","LONGITUDE":-87.64884189142097},
{"STATE":"IL","ZIP":60632,"LATTITUDE":41.79472637617802,"ADDRESS":"5414 S ARTESIAN AVE 1ST ","YEAR":2007,"DOING_BUSINESS_AS_NAME":"JAVIER SAAVEDRA","POP_AT_RISK":158691,"BUSINESS_TYPE":"Junk Peddler","LEGAL_NAME":"JAVIER SAAVEDRA","LONGITUDE":-87.68600714191798},
{"STATE":"IL","ZIP":60608,"LATTITUDE":41.853989748101526,"ADDRESS":"1717 W 21ST ST  ","YEAR":2007,"DOING_BUSINESS_AS_NAME":"JOSE R ARELLANO","POP_AT_RISK":91842,"BUSINESS_TYPE":"Junk Peddler","LEGAL_NAME":"JOSE R ARELLANO","LONGITUDE":-87.66927455182932},
{"STATE":"IL","ZIP":60621,"LATTITUDE":41.77290461716235,"ADDRESS":"6644 S SANGAMON ST  ","YEAR":2007,"DOING_BUSINESS_AS_NAME":"LUTHER J. MOORE\/LJM DUMP TRUCK HAULING","POP_AT_RISK":455039,"BUSINESS_TYPE":"Junk Peddler","LEGAL_NAME":"LUTHER J. MOORE","LONGITUDE":-87.6483957286829},
{"STATE":"IL","ZIP":60617,"LATTITUDE":41.72036463387103,"ADDRESS":"9617 S ESCANABA AVE  ","YEAR":2007,"DOING_BUSINESS_AS_NAME":"MACRINO DE LEON","POP_AT_RISK":17749,"BUSINESS_TYPE":"Junk Peddler","LEGAL_NAME":"MACRINO DE LEON","LONGITUDE":-87.55366029763196},
{"STATE":"IL","ZIP":60707,"LATTITUDE":41.92771744983967,"ADDRESS":"2615 N NEWCASTLE AVE 1ST ","YEAR":2007,"DOING_BUSINESS_AS_NAME":"MARIA ZACATENCO","POP_AT_RISK":53158,"BUSINESS_TYPE":"Junk Peddler","LEGAL_NAME":"MARIA ZACATENCO","LONGITUDE":-87.79644644789033},
{"STATE":"IL","ZIP":60647,"LATTITUDE":41.910782436610525,"ADDRESS":"3721 W CONCORD PL 1ST ","YEAR":2007,"DOING_BUSINESS_AS_NAME":"JOSE LUIS AVALOS","POP_AT_RISK":68393,"BUSINESS_TYPE":"Junk Peddler","LEGAL_NAME":"JOSE LUIS AVALOS","LONGITUDE":-87.71985809372791},
{"STATE":"IL","ZIP":60632,"LATTITUDE":41.82200751195603,"ADDRESS":"2802 W 39TH PL  ","YEAR":2007,"DOING_BUSINESS_AS_NAME":"ROSALINA MENDOZA","POP_AT_RISK":86984,"BUSINESS_TYPE":"Junk Peddler","LEGAL_NAME":"ROSALINA MENDOZA","LONGITUDE":-87.69482536959555},
{"STATE":"IL","ZIP":60639,"LATTITUDE":41.920128224947796,"ADDRESS":"2175 N MENARD AVE  B2","YEAR":2007,"DOING_BUSINESS_AS_NAME":"DOMINGO ALCANTARA","POP_AT_RISK":47203,"BUSINESS_TYPE":"Junk Peddler","LEGAL_NAME":"DOMINGO ALCANTARA","LONGITUDE":-87.77057114315538},
{"STATE":"IL","ZIP":60615,"LATTITUDE":41.80069588141605,"ADDRESS":"5210 S CORNELL AVE  ","YEAR":2007,"DOING_BUSINESS_AS_NAME":"JOHN HENRY HESTER","POP_AT_RISK":598560,"BUSINESS_TYPE":"Junk Peddler","LEGAL_NAME":"JOHN HENRY HESTER","LONGITUDE":-87.58607155703696},
{"STATE":"IL","ZIP":60638,"LATTITUDE":41.7986688685488,"ADDRESS":"5135 S MOBILE AVE  ","YEAR":2007,"DOING_BUSINESS_AS_NAME":"NATIVIDAD BARRERA","POP_AT_RISK":123490,"BUSINESS_TYPE":"Junk Peddler","LEGAL_NAME":"NATIVIDAD BARRERA","LONGITUDE":-87.7794136459954},
{"STATE":"IL","ZIP":60621,"LATTITUDE":41.79293901338443,"ADDRESS":"537 W 56TH ST  ","YEAR":2007,"DOING_BUSINESS_AS_NAME":"DAVID PIZARRO, SR.","POP_AT_RISK":93568,"BUSINESS_TYPE":"Junk Peddler","LEGAL_NAME":"DAVID PIZARRO, SR.","LONGITUDE":-87.63911832773616},
{"STATE":"IL","ZIP":60618,"LATTITUDE":41.96056897920127,"ADDRESS":"4338 N FRANCISCO AVE  ","YEAR":2007,"DOING_BUSINESS_AS_NAME":"SCRAP PICK-UP","POP_AT_RISK":517566,"BUSINESS_TYPE":"Junk Peddler","LEGAL_NAME":"FERNANDO R FLORIAN","LONGITUDE":-87.70103857813962},
{"STATE":"IL","ZIP":60609,"LATTITUDE":41.79837929252183,"ADDRESS":"5242 S ABERDEEN ST  ","YEAR":2007,"DOING_BUSINESS_AS_NAME":"HENRY L. REEVES, SR.","POP_AT_RISK":29565,"BUSINESS_TYPE":"Junk Peddler","LEGAL_NAME":"HENRY L REEVES, SR.","LONGITUDE":-87.65270253502555},
{"STATE":"IL","ZIP":60707,"LATTITUDE":41.92121164504666,"ADDRESS":"7108 W BELDEN AVE  ","YEAR":2007,"DOING_BUSINESS_AS_NAME":"MARCELINO CASTREJON","POP_AT_RISK":133806,"BUSINESS_TYPE":"Junk Peddler","LEGAL_NAME":"MARCELINO CASTREJON","LONGITUDE":-87.80291778669316},
}