{
{"STATE":"IL","ZIP":60617,"LATTITUDE":41.703109210731576,"ADDRESS":"10548 S EWING AVE 1 ","YEAR":2012,"DOING_BUSINESS_AS_NAME":"East Side Self Defense Studio","POP_AT_RISK":104835,"BUSINESS_TYPE":"Children's Activities Facilities","LEGAL_NAME":"JEFF SIEGLER","LONGITUDE":-87.53543097764681},
{"STATE":"IL","ZIP":60623,"LATTITUDE":41.844248490307756,"ADDRESS":"4344 W 26TH ST  1ST","YEAR":2012,"DOING_BUSINESS_AS_NAME":"BERNAL'S TAE KWON DO CENTER","POP_AT_RISK":91804,"BUSINESS_TYPE":"Children's Activities Facilities","LEGAL_NAME":"TOMAS BERNAL","LONGITUDE":-87.73268068857368},
{"STATE":"IL","ZIP":60629,"LATTITUDE":41.77877584447439,"ADDRESS":"3944 W 63RD ST 1ST ","YEAR":2012,"DOING_BUSINESS_AS_NAME":"WARRIORS MARTIAL ARTS","POP_AT_RISK":604472,"BUSINESS_TYPE":"Children's Activities Facilities","LEGAL_NAME":"MAYOLO GARCIA","LONGITUDE":-87.72210746989846},
{"STATE":"IL","ZIP":60646,"LATTITUDE":41.98554475251073,"ADDRESS":"5719 N MILWAUKEE AVE 1 1","YEAR":2012,"DOING_BUSINESS_AS_NAME":"ARTORIUM","POP_AT_RISK":137735,"BUSINESS_TYPE":"Children's Activities Facilities","LEGAL_NAME":"ARTORIUM, INC.","LONGITUDE":-87.77657452473282},
{"STATE":"IL","ZIP":60634,"LATTITUDE":41.94563582431377,"ADDRESS":"6101 W ADDISON ST 1ST ","YEAR":2012,"DOING_BUSINESS_AS_NAME":"BSI GROUP INC.","POP_AT_RISK":112674,"BUSINESS_TYPE":"Children's Activities Facilities","LEGAL_NAME":"BSI GROUP INC.","LONGITUDE":-87.77905846188027},
{"STATE":"IL","ZIP":60641,"LATTITUDE":41.931558615500826,"ADDRESS":"2804-2808 N LARAMIE AVE 1ST ","YEAR":2012,"DOING_BUSINESS_AS_NAME":"CARDENAS TAEKWONDO ACADEMY USA","POP_AT_RISK":262864,"BUSINESS_TYPE":"Children's Activities Facilities","LEGAL_NAME":"JESUS CARDENAS","LONGITUDE":-87.75657409129889},
{"STATE":"IL","ZIP":60609,"LATTITUDE":41.82960301165377,"ADDRESS":"3539 S ARCHER AVE 1ST ","YEAR":2012,"DOING_BUSINESS_AS_NAME":"FIRE DRAGONS TAEKWONDO ACADEMY","POP_AT_RISK":182376,"BUSINESS_TYPE":"Children's Activities Facilities","LEGAL_NAME":"PABLO MARTINEZ","LONGITUDE":-87.67870060758895},
{"STATE":"IL","ZIP":60609,"LATTITUDE":41.808119633948046,"ADDRESS":"4715 S ASHLAND AVE 2ND ","YEAR":2012,"DOING_BUSINESS_AS_NAME":"MTZ TAEWONDO ACADEMY","POP_AT_RISK":512252,"BUSINESS_TYPE":"Children's Activities Facilities","LEGAL_NAME":"CLAUDIA L PEREZ","LONGITUDE":-87.66481400072492},
{"STATE":"IL","ZIP":60659,"LATTITUDE":41.98312017858479,"ADDRESS":"3354 W BRYN MAWR AVE 1ST ","YEAR":2012,"DOING_BUSINESS_AS_NAME":"BRAINY BOULEVARD DAYCARE","POP_AT_RISK":42525,"BUSINESS_TYPE":"Children's Activities Facilities","LEGAL_NAME":"JAL GROUP, INC.","LONGITUDE":-87.71352537786245},
{"STATE":"IL","ZIP":60626,"LATTITUDE":42.01182840147204,"ADDRESS":"7110 N SHERIDAN RD 1ST ","YEAR":2012,"DOING_BUSINESS_AS_NAME":"MADONNA MISSION","POP_AT_RISK":119774,"BUSINESS_TYPE":"Children's Activities Facilities","LEGAL_NAME":"MADONNA MISSION","LONGITUDE":-87.66313299964642},
{"STATE":"IL","ZIP":60643,"LATTITUDE":41.70001842313509,"ADDRESS":"10628 S WESTERN AVE 1ST ","YEAR":2012,"DOING_BUSINESS_AS_NAME":"DANCE GALLERY","POP_AT_RISK":129138,"BUSINESS_TYPE":"Children's Activities Facilities","LEGAL_NAME":"MARYLEE SINOPOLI","LONGITUDE":-87.68156397098628},
{"STATE":"IL","ZIP":60618,"LATTITUDE":41.95385946910342,"ADDRESS":"3660 W IRVING PARK RD  ","YEAR":2012,"DOING_BUSINESS_AS_NAME":"CHICAGO DANCE","POP_AT_RISK":131714,"BUSINESS_TYPE":"Children's Activities Facilities","LEGAL_NAME":"CHICAGO DANCE LLC","LONGITUDE":-87.72006394486716},
{"STATE":"IL","ZIP":60622,"LATTITUDE":41.890770132136616,"ADDRESS":"1837 W GRAND AVE 1 ","YEAR":2012,"DOING_BUSINESS_AS_NAME":"KID CITY","POP_AT_RISK":44120,"BUSINESS_TYPE":"Children's Activities Facilities","LEGAL_NAME":"KID CITY CHICAGO LLC","LONGITUDE":-87.67350592654243},
{"STATE":"IL","ZIP":60613,"LATTITUDE":41.95449395556194,"ADDRESS":"655 W IRVING PARK RD 1ST 102&105","YEAR":2012,"DOING_BUSINESS_AS_NAME":"YOGA BOUTIQUE LLC","POP_AT_RISK":67276,"BUSINESS_TYPE":"Children's Activities Facilities","LEGAL_NAME":"YOGA BOUTIQUE L.L.C.","LONGITUDE":-87.64724433122487},
{"STATE":"IL","ZIP":60653,"LATTITUDE":41.822416876468615,"ADDRESS":"3947 S MICHIGAN AVE 1 1","YEAR":2012,"DOING_BUSINESS_AS_NAME":"ELLIOTT DONNELLEY","POP_AT_RISK":279171,"BUSINESS_TYPE":"Children's Activities Facilities","LEGAL_NAME":"CHICAGO YOUTH CENTERS","LONGITUDE":-87.62303736173813},
{"STATE":"IL","ZIP":60651,"LATTITUDE":41.90292929858984,"ADDRESS":"3232 W DIVISION ST 1 ","YEAR":2012,"DOING_BUSINESS_AS_NAME":"CENTRO NUESTRO CHILD","POP_AT_RISK":66886,"BUSINESS_TYPE":"Children's Activities Facilities","LEGAL_NAME":"CHICAGO YOUTH CENTERS","LONGITUDE":-87.70804857041449},
{"STATE":"IL","ZIP":60610,"LATTITUDE":41.89899799424835,"ADDRESS":"900 N FRANKLIN ST 5TH 508","YEAR":2012,"DOING_BUSINESS_AS_NAME":"TRUHARMONY YOGA","POP_AT_RISK":74601,"BUSINESS_TYPE":"Children's Activities Facilities","LEGAL_NAME":"TRUHARMONY YOGA, INC.","LONGITUDE":-87.63592067312285},
{"STATE":"IL","ZIP":60632,"LATTITUDE":41.80921292483018,"ADDRESS":"4614-16 S PULASKI RD 1 ","YEAR":2012,"DOING_BUSINESS_AS_NAME":"MALTI DANCE ACADEMY","POP_AT_RISK":235944,"BUSINESS_TYPE":"Children's Activities Facilities","LEGAL_NAME":"MALTI ARTS CENTER, NFP","LONGITUDE":-87.72378015965671},
{"STATE":"IL","ZIP":60634,"LATTITUDE":41.95687428646395,"ADDRESS":"4200 N CENTRAL AVE 1ST ","YEAR":2012,"DOING_BUSINESS_AS_NAME":"ABC DANCE ACADEMY","POP_AT_RISK":49213,"BUSINESS_TYPE":"Children's Activities Facilities","LEGAL_NAME":"ABC DANCE ACADEMY, INC.","LONGITUDE":-87.76727186013788},
{"STATE":"IL","ZIP":60626,"LATTITUDE":42.019257023057904,"ADDRESS":"1543-1545 W HOWARD ST 1ST ","YEAR":2012,"DOING_BUSINESS_AS_NAME":"STARFISH LEARNING CENTER","POP_AT_RISK":54153,"BUSINESS_TYPE":"Children's Activities Facilities","LEGAL_NAME":"STARFISH LEARNING CENTER","LONGITUDE":-87.66998101341417},
{"STATE":"IL","ZIP":60630,"LATTITUDE":41.96794063966362,"ADDRESS":"4705 W LAWRENCE AVE  ","YEAR":2012,"DOING_BUSINESS_AS_NAME":"DEMAIRA DANCE STUDIOS, INC.","POP_AT_RISK":92043,"BUSINESS_TYPE":"Children's Activities Facilities","LEGAL_NAME":"DEMAIRA DANCE STUDIOS, INC.","LONGITUDE":-87.74555558305532},
{"STATE":"IL","ZIP":60707,"LATTITUDE":41.92343318428224,"ADDRESS":"7115 W GRAND AVE 2ND ","YEAR":2012,"DOING_BUSINESS_AS_NAME":"KARATE ACADEMY","POP_AT_RISK":126057,"BUSINESS_TYPE":"Children's Activities Facilities","LEGAL_NAME":"GRAND BALLROOM & BEYOND INC","LONGITUDE":-87.8032678930031},
{"STATE":"IL","ZIP":60652,"LATTITUDE":41.74979086945611,"ADDRESS":"3716-3722 W 79TH ST 1ST ","YEAR":2012,"DOING_BUSINESS_AS_NAME":"HYUNS HAPKIDO SCHOOL","POP_AT_RISK":86148,"BUSINESS_TYPE":"Children's Activities Facilities","LEGAL_NAME":"KWANG S HYUN & W. PATTERSON","LONGITUDE":-87.71490023506215},
{"STATE":"IL","ZIP":60615,"LATTITUDE":41.795355327310034,"ADDRESS":"1742 E 55TH ST 1ST ","YEAR":2012,"DOING_BUSINESS_AS_NAME":"FITZGERALDS MARTIAL ARTS","POP_AT_RISK":350472,"BUSINESS_TYPE":"Children's Activities Facilities","LEGAL_NAME":"FITZGERALDS MARTIAL ARTS LLC","LONGITUDE":-87.58229940901545},
{"STATE":"IL","ZIP":60647,"LATTITUDE":41.92453416582817,"ADDRESS":"3501 W FULLERTON AVE 1ST ","YEAR":2012,"DOING_BUSINESS_AS_NAME":"BEAUTY & BRAWN ART GALLERY AND THINK SPACE","POP_AT_RISK":246300,"BUSINESS_TYPE":"Children's Activities Facilities","LEGAL_NAME":"THE SOUTHERN FAN COMPANY, INC.","LONGITUDE":-87.71377687135791},
{"STATE":"IL","ZIP":60659,"LATTITUDE":41.997388252633314,"ADDRESS":"2927 W DEVON AVE 1ST ","YEAR":2012,"DOING_BUSINESS_AS_NAME":"ACADEMY OF MUSIC AND DANCE, NFP","POP_AT_RISK":56567,"BUSINESS_TYPE":"Children's Activities Facilities","LEGAL_NAME":"ACADEMY OF MUSIC AND DANCE, NFP","LONGITUDE":-87.70323053037541},
{"STATE":"IL","ZIP":60640,"LATTITUDE":41.97706272077924,"ADDRESS":"5228-5230 N CLARK ST 2 2","YEAR":2012,"DOING_BUSINESS_AS_NAME":"GUS GIORDANO DANCE SCHOOL","POP_AT_RISK":66472,"BUSINESS_TYPE":"Children's Activities Facilities","LEGAL_NAME":"AMY GIORDANO DANCE VENTURES LLC","LONGITUDE":-87.6685370997183},
{"STATE":"IL","ZIP":60652,"LATTITUDE":41.75466012439374,"ADDRESS":"7601 S CICERO AVE 1 T86","YEAR":2012,"DOING_BUSINESS_AS_NAME":"JOLLY EXPRESS TRAIN","POP_AT_RISK":51644,"BUSINESS_TYPE":"Children's Activities Facilities","LEGAL_NAME":"JOLLY ENTERTAINMENT GROUP, INC.","LONGITUDE":-87.74138475860521},
{"STATE":"IL","ZIP":60623,"LATTITUDE":41.84446275555482,"ADDRESS":"3656 W 26TH ST 1ST ","YEAR":2012,"DOING_BUSINESS_AS_NAME":"ROSALES GOLDEN TIGERS TKD","POP_AT_RISK":193389,"BUSINESS_TYPE":"Children's Activities Facilities","LEGAL_NAME":"ROSALES GOLDEN TIGERS TKD, INC.","LONGITUDE":-87.71708307606305},
{"STATE":"IL","ZIP":60624,"LATTITUDE":41.87891736497124,"ADDRESS":"131-133 S PULASKI RD 1ST ","YEAR":2012,"DOING_BUSINESS_AS_NAME":"JANICE'S DREAMS WORKS FOUNDATION","POP_AT_RISK":668882,"BUSINESS_TYPE":"Children's Activities Facilities","LEGAL_NAME":"JANICE'S DREAMS WORKS FOUNDATION","LONGITUDE":-87.72546178408192},
{"STATE":"IL","ZIP":60628,"LATTITUDE":41.69089257787163,"ADDRESS":"28 E 112TH ST  ","YEAR":2012,"DOING_BUSINESS_AS_NAME":"NEW BEGINNINGS CHILD DEVELOPMENT CENTER","POP_AT_RISK":31674,"BUSINESS_TYPE":"Children's Activities Facilities","LEGAL_NAME":"INTERNATIONAL OUTREACH MINISTRIES","LONGITUDE":-87.62196619794452},
{"STATE":"IL","ZIP":60655,"LATTITUDE":41.691554149487835,"ADDRESS":"3504 W 111TH ST 1 1","YEAR":2012,"DOING_BUSINESS_AS_NAME":"SOUTHSIDE KNOCKOUT TRAINING","POP_AT_RISK":100080,"BUSINESS_TYPE":"Children's Activities Facilities","LEGAL_NAME":"SOUTHSIDE KNOCKOUT TRAINING, INC.","LONGITUDE":-87.70838373155944},
{"STATE":"IL","ZIP":60639,"LATTITUDE":41.9170185419664,"ADDRESS":"4111 W ARMITAGE AVE 1 1","YEAR":2012,"DOING_BUSINESS_AS_NAME":"EN LAS TABLAS PERFORMING ARTS, NFP","POP_AT_RISK":467054,"BUSINESS_TYPE":"Children's Activities Facilities","LEGAL_NAME":"EN LAS TABLAS PERFORMING ARTS, NFP","LONGITUDE":-87.72951666402047},
{"STATE":"IL","ZIP":60607,"LATTITUDE":41.87769247933526,"ADDRESS":"1147 W JACKSON BLVD  ","YEAR":2012,"DOING_BUSINESS_AS_NAME":"HUBBARD STREET DANCE CHICAGO","POP_AT_RISK":79736,"BUSINESS_TYPE":"Children's Activities Facilities","LEGAL_NAME":"HUBBARD STREET DANCE CHICAGO, INC.","LONGITUDE":-87.65643825575238},
{"STATE":"IL","ZIP":60631,"LATTITUDE":42.00327092044091,"ADDRESS":"6719-6721 N NORTHWEST HWY 1ST ","YEAR":2012,"DOING_BUSINESS_AS_NAME":"CHUNG'S TAE KWON DO INSTITUTE","POP_AT_RISK":94590,"BUSINESS_TYPE":"Children's Activities Facilities","LEGAL_NAME":"CHUNG'S TAE KWON DO INSTITUTE, INC.","LONGITUDE":-87.81670386199512},
{"STATE":"IL","ZIP":60634,"LATTITUDE":41.93807646873361,"ADDRESS":"7466 W BELMONT AVE 1 ","YEAR":2012,"DOING_BUSINESS_AS_NAME":"FOREVERMORE DANCE & THEATRE ARTS INC.","POP_AT_RISK":42383,"BUSINESS_TYPE":"Children's Activities Facilities","LEGAL_NAME":"FOREVERMORE DANCE & THEATRE ARTS INC.","LONGITUDE":-87.8140155062977},
{"STATE":"IL","ZIP":60634,"LATTITUDE":41.95286225101341,"ADDRESS":"4008 N NASHVILLE AVE  ","YEAR":2012,"DOING_BUSINESS_AS_NAME":"STUDIO OF PERFORMING ARTS    JUMP  ","POP_AT_RISK":34740,"BUSINESS_TYPE":"Children's Activities Facilities","LEGAL_NAME":"STUDIO OF PERFORMING ARTS  JUMP  INC.","LONGITUDE":-87.79150156894299},
{"STATE":"IL","ZIP":60608,"LATTITUDE":41.85221212143462,"ADDRESS":"2154 W CERMAK RD 1ST ","YEAR":2012,"DOING_BUSINESS_AS_NAME":"YOSHITAKA CHICAGO PILSEN","POP_AT_RISK":342990,"BUSINESS_TYPE":"Children's Activities Facilities","LEGAL_NAME":"INTERNATIONAL YOSHITAKA KARATE-DO, INC.","LONGITUDE":-87.68047140727501},
{"STATE":"IL","ZIP":60644,"LATTITUDE":41.88704321554462,"ADDRESS":"5819 W CORCORAN PL 1 ","YEAR":2012,"DOING_BUSINESS_AS_NAME":"LLOT AFTER SCHOOL PROGRAM","POP_AT_RISK":615744,"BUSINESS_TYPE":"Children's Activities Facilities","LEGAL_NAME":"LITTLE LEADERS OF TOMORROW DAYCARE CENTER","LONGITUDE":-87.77081237223072},
{"STATE":"IL","ZIP":60645,"LATTITUDE":42.012198149928324,"ADDRESS":"2738-2742 W TOUHY AVE 1ST ","YEAR":2012,"DOING_BUSINESS_AS_NAME":"PERFORMING ARTS LIMITED","POP_AT_RISK":136062,"BUSINESS_TYPE":"Children's Activities Facilities","LEGAL_NAME":"PERFORMING ARTS LIMITED LIABILITY COMPANY","LONGITUDE":-87.6989198743222},
{"STATE":"IL","ZIP":60616,"LATTITUDE":41.83826030922195,"ADDRESS":"209 E 31ST ST 1 B","YEAR":2012,"DOING_BUSINESS_AS_NAME":"POSH TUTORING & RECREATION CENTER","POP_AT_RISK":96891,"BUSINESS_TYPE":"Children's Activities Facilities","LEGAL_NAME":"POSH TUTORING AND RECREATION CENTERS, LLC","LONGITUDE":-87.62150105304843},
{"STATE":"IL","ZIP":60605,"LATTITUDE":41.866489279306265,"ADDRESS":"1234 S MICHIGAN AVE 2 ","YEAR":2012,"DOING_BUSINESS_AS_NAME":"INTRIGUE DANCE & PERFORMING ARTS CENTER, LLP","POP_AT_RISK":39491,"BUSINESS_TYPE":"Children's Activities Facilities","LEGAL_NAME":"INTRIGUE DANCE & PERFORMING ARTS CENTER, LLP","LONGITUDE":-87.62427930478904},
}