{
{"STATE":"IL","ZIP":60623,"LATTITUDE":41.84926649309046,"ADDRESS":"2308 S KILDARE AVE 2ND ","YEAR":2009,"DOING_BUSINESS_AS_NAME":"KBBK PRINTING","POP_AT_RISK":57034,"BUSINESS_TYPE":"Home Occupation","LEGAL_NAME":"KARLA M. KIDD","LONGITUDE":-87.73133283932808},
{"STATE":"IL","ZIP":60633,"LATTITUDE":41.6540975336315,"ADDRESS":"13248 S BRANDON AVE  ","YEAR":2009,"DOING_BUSINESS_AS_NAME":"BANIYAN ROOFING","POP_AT_RISK":9426,"BUSINESS_TYPE":"Home Occupation","LEGAL_NAME":"PAJO RAJCEVIC","LONGITUDE":-87.5460576747536},
{"STATE":"IL","ZIP":60638,"LATTITUDE":41.77603825973843,"ADDRESS":"6232 W 64TH ST  ","YEAR":2009,"DOING_BUSINESS_AS_NAME":"R C CARPET CLEANING","POP_AT_RISK":28149,"BUSINESS_TYPE":"Home Occupation","LEGAL_NAME":"RUBEN CUELLAR","LONGITUDE":-87.77764608913346},
{"STATE":"IL","ZIP":60707,"LATTITUDE":41.911213293284874,"ADDRESS":"1714 N NEVA AVE  ","YEAR":2009,"DOING_BUSINESS_AS_NAME":"HILLCO HOME PRODUCTS","POP_AT_RISK":22205,"BUSINESS_TYPE":"Home Occupation","LEGAL_NAME":"GREGORY L. HILL","LONGITUDE":-87.80416285528244},
{"STATE":"IL","ZIP":60631,"LATTITUDE":42.014543013668124,"ADDRESS":"7335 N OCONTO AVE  ","YEAR":2009,"DOING_BUSINESS_AS_NAME":"THE KDS GROUP","POP_AT_RISK":22984,"BUSINESS_TYPE":"Home Occupation","LEGAL_NAME":"KENNETH EVERETT","LONGITUDE":-87.80767629848735},
{"STATE":"IL","ZIP":60634,"LATTITUDE":41.939743109382285,"ADDRESS":"3312 N PITTSBURGH AVE 1ST ","YEAR":2009,"DOING_BUSINESS_AS_NAME":"KD FINANCIAL, LTD","POP_AT_RISK":22302,"BUSINESS_TYPE":"Home Occupation","LEGAL_NAME":"KD FINANCIAL, LTD","LONGITUDE":-87.83266783487983},
{"STATE":"IL","ZIP":60645,"LATTITUDE":42.014539127066755,"ADDRESS":"3047 W SHERWIN AVE 1 1","YEAR":2009,"DOING_BUSINESS_AS_NAME":"THE LEARNING CONNECTION","POP_AT_RISK":41806,"BUSINESS_TYPE":"Home Occupation","LEGAL_NAME":"NECHAMA DENA COHEN","LONGITUDE":-87.70619581022483},
{"STATE":"IL","ZIP":60644,"LATTITUDE":41.86870473007541,"ADDRESS":"1013 S MASON AVE  ","YEAR":2009,"DOING_BUSINESS_AS_NAME":"BROWNS JANITORIAL SERVICES, LLC","POP_AT_RISK":78902,"BUSINESS_TYPE":"Home Occupation","LEGAL_NAME":"BROWNS JANITORIAL SERVICES, LLC","LONGITUDE":-87.77287075758855},
{"STATE":"IL","ZIP":60655,"LATTITUDE":41.709579673350305,"ADDRESS":"3940 W 101ST ST 1 1","YEAR":2009,"DOING_BUSINESS_AS_NAME":"LYLE APPRAISALS","POP_AT_RISK":22978,"BUSINESS_TYPE":"Home Occupation","LEGAL_NAME":"JEFFREY A. LYLE AND ALISON A. LYLE","LONGITUDE":-87.72006864362096},
{"STATE":"IL","ZIP":60652,"LATTITUDE":41.7350433632109,"ADDRESS":"8649 S KILDARE AVE 2ND ","YEAR":2009,"DOING_BUSINESS_AS_NAME":"I L M","POP_AT_RISK":23724,"BUSINESS_TYPE":"Home Occupation","LEGAL_NAME":"INFRASTRUCTURE AND LOGISTICS MANAGEMENT, LLC","LONGITUDE":-87.72857633648098},
}