{
{"STATE":"IL","ZIP":60622,"LATTITUDE":41.89034108786063,"ADDRESS":"1917 W FERDINAND ST  ","YEAR":2012,"DOING_BUSINESS_AS_NAME":"GRAND CAB COMPANY","POP_AT_RISK":291000,"BUSINESS_TYPE":"License Manager","LEGAL_NAME":"GRAND CAB COMPANY","LONGITUDE":-87.67517696931178},
{"STATE":"IL","ZIP":60622,"LATTITUDE":41.89761489305195,"ADDRESS":"905 N CALIFORNIA AVE  ","YEAR":2012,"DOING_BUSINESS_AS_NAME":"LOCO EXPRESS INC.","POP_AT_RISK":180268,"BUSINESS_TYPE":"License Manager","LEGAL_NAME":"LOCO EXPRESS INC.","LONGITUDE":-87.69660552456575},
{"STATE":"IL","ZIP":60656,"LATTITUDE":41.97331138411917,"ADDRESS":"9696 W FOSTER AVE  ","YEAR":2012,"DOING_BUSINESS_AS_NAME":"FLASH CAB CO.","POP_AT_RISK":16526,"BUSINESS_TYPE":"License Manager","LEGAL_NAME":"5 STAR FLASH, INC.","LONGITUDE":-87.86672075423944},
{"STATE":"IL","ZIP":60659,"LATTITUDE":41.990552081681564,"ADDRESS":"2800 W PETERSON AVE  ","YEAR":2012,"DOING_BUSINESS_AS_NAME":"PATRIOT TRANS INC.","POP_AT_RISK":56600,"BUSINESS_TYPE":"License Manager","LEGAL_NAME":"PATRIOT TRANS INC.","LONGITUDE":-87.69946439622785},
{"STATE":"IL","ZIP":60644,"LATTITUDE":41.8832735212277,"ADDRESS":"151 N CICERO AVE  ","YEAR":2012,"DOING_BUSINESS_AS_NAME":"PEEPLE TRANS CAB INC.","POP_AT_RISK":632604,"BUSINESS_TYPE":"License Manager","LEGAL_NAME":"PEEPLE TRANS CAB INC.","LONGITUDE":-87.74523396526135},
{"STATE":"IL","ZIP":60616,"LATTITUDE":41.8451088467216,"ADDRESS":"2617 S WABASH AVE  ","YEAR":2012,"DOING_BUSINESS_AS_NAME":"CHICAGO ELITE CAB CORP.","POP_AT_RISK":354312,"BUSINESS_TYPE":"License Manager","LEGAL_NAME":"CHICAGO ELITE CAB CORP.","LONGITUDE":-87.62516554312204},
{"STATE":"IL","ZIP":60660,"LATTITUDE":41.996661552834716,"ADDRESS":"6306 N CLARK ST  ","YEAR":2012,"DOING_BUSINESS_AS_NAME":"AVENUE TRANSPORTATION INC","POP_AT_RISK":1304055,"BUSINESS_TYPE":"License Manager","LEGAL_NAME":"AVENUE TRANSPORTATION INC","LONGITUDE":-87.67039884123452},
{"STATE":"IL","ZIP":60641,"LATTITUDE":41.94482073871164,"ADDRESS":"4626 W CORNELIA AVE  ","YEAR":2012,"DOING_BUSINESS_AS_NAME":"SUN FINANCIAL SERVICES, INC.","POP_AT_RISK":418896,"BUSINESS_TYPE":"License Manager","LEGAL_NAME":"SUN FINANCIAL SERVICES INC.","LONGITUDE":-87.74351231039856},
{"STATE":"IL","ZIP":60618,"LATTITUDE":41.946464369592555,"ADDRESS":"3351 W ADDISON ST 1 ","YEAR":2012,"DOING_BUSINESS_AS_NAME":"TAXI MEDALLION MANAGEMENT LLC","POP_AT_RISK":502736,"BUSINESS_TYPE":"License Manager","LEGAL_NAME":"TAXI MEDALLION MANAGEMENT LLC","LONGITUDE":-87.71233717594026},
{"STATE":"IL","ZIP":60661,"LATTITUDE":41.88326270465594,"ADDRESS":"724 W WASHINGTON BLVD  ","YEAR":2012,"DOING_BUSINESS_AS_NAME":"CHICAGO MEDALLION LEASING, INC.","POP_AT_RISK":335304,"BUSINESS_TYPE":"License Manager","LEGAL_NAME":"CHICAGO MEDALLION LEASING, INC.","LONGITUDE":-87.64649415136276},
{"STATE":"IL","ZIP":60640,"LATTITUDE":41.964760947569914,"ADDRESS":"4542 N BROADWAY   ","YEAR":2012,"DOING_BUSINESS_AS_NAME":"GOLD COAST TAXI ASSOCIATION LLC","POP_AT_RISK":1275642,"BUSINESS_TYPE":"License Manager","LEGAL_NAME":"GOLD COAST TAXI ASSOCIATION LLC","LONGITUDE":-87.6572287212424},
{"STATE":"IL","ZIP":60647,"LATTITUDE":41.91166586404873,"ADDRESS":"2028 W CONCORD PL  ","YEAR":2012,"DOING_BUSINESS_AS_NAME":"CHICAGO TAXICAB MANAGEMENT, INC.","POP_AT_RISK":1063571,"BUSINESS_TYPE":"License Manager","LEGAL_NAME":"CHICAGO TAXICAB MANAGEMENT, INC.","LONGITUDE":-87.67838888182673},
{"STATE":"IL","ZIP":60612,"LATTITUDE":41.8866581728074,"ADDRESS":"2738 W FULTON ST  ","YEAR":2012,"DOING_BUSINESS_AS_NAME":"CHICAGO MEDALLION MANAGEMENT CORP.","POP_AT_RISK":35899,"BUSINESS_TYPE":"License Manager","LEGAL_NAME":"CHICAGO MEDALLION MANAGEMENT CORP.","LONGITUDE":-87.69543870163243},
{"STATE":"IL","ZIP":60612,"LATTITUDE":41.872134965023676,"ADDRESS":"2550 W LEXINGTON ST  ","YEAR":2012,"DOING_BUSINESS_AS_NAME":"CHICAGO TAXI MEDALLION MANAGEMENT INC","POP_AT_RISK":219376,"BUSINESS_TYPE":"License Manager","LEGAL_NAME":"CHICAGO TAXI MEDALLION MANAGEMENT INC","LONGITUDE":-87.6906472107561},
{"STATE":"IL","ZIP":60645,"LATTITUDE":41.999632438278006,"ADDRESS":"6500 N WESTERN AVE  ","YEAR":2012,"DOING_BUSINESS_AS_NAME":"MEDALLION LEASING AND MANAGEMENT INC.","POP_AT_RISK":215364,"BUSINESS_TYPE":"License Manager","LEGAL_NAME":"MEDALLION LEASING AND MANAGEMENT INC.","LONGITUDE":-87.690080925006},
}