{
{"STATE":"IL","ZIP":60638,"LATTITUDE":41.7920723897783,"ADDRESS":"6725 W ARCHER AVE  ","YEAR":2012,"DOING_BUSINESS_AS_NAME":"VIP POODLE SALON","POP_AT_RISK":148075,"BUSINESS_TYPE":"Animal Care Facility","LEGAL_NAME":"MARY JO KRUK","LONGITUDE":-87.79020446550868},
{"STATE":"IL","ZIP":60629,"LATTITUDE":41.785071959335326,"ADDRESS":"5930 S PULASKI RD 1ST ","YEAR":2012,"DOING_BUSINESS_AS_NAME":"CHICAGO GROOMING PARLOR","POP_AT_RISK":105668,"BUSINESS_TYPE":"Animal Care Facility","LEGAL_NAME":"ROSA ALVAREZ","LONGITUDE":-87.72308391214911},
{"STATE":"IL","ZIP":60631,"LATTITUDE":42.00276925583087,"ADDRESS":"6702 N NORTHWEST HWY 1ST ","YEAR":2012,"DOING_BUSINESS_AS_NAME":"V I P ALBREED GROOMING","POP_AT_RISK":94590,"BUSINESS_TYPE":"Animal Care Facility","LEGAL_NAME":"CAPRICE SMITH","LONGITUDE":-87.81636646266041},
{"STATE":"IL","ZIP":60632,"LATTITUDE":41.82453433956464,"ADDRESS":"3789 S ARCHER AVE  ","YEAR":2012,"DOING_BUSINESS_AS_NAME":"BRIGHTON PARK ANIMAL HOSPITAL","POP_AT_RISK":500423,"BUSINESS_TYPE":"Animal Care Facility","LEGAL_NAME":"ERNESTO PEREZ","LONGITUDE":-87.68699720971264},
{"STATE":"IL","ZIP":60633,"LATTITUDE":41.65330346047707,"ADDRESS":"13311 S BRANDON AVE 1ST ","YEAR":2012,"DOING_BUSINESS_AS_NAME":"7 SEAS TROPAQUARIUM","POP_AT_RISK":40896,"BUSINESS_TYPE":"Animal Care Facility","LEGAL_NAME":"ROBERT ELLMAN","LONGITUDE":-87.54576881121099},
{"STATE":"IL","ZIP":60616,"LATTITUDE":41.85843919371323,"ADDRESS":"1717 S STATE ST  ","YEAR":2012,"DOING_BUSINESS_AS_NAME":"DOGONE FUN INC","POP_AT_RISK":122094,"BUSINESS_TYPE":"Animal Care Facility","LEGAL_NAME":"DOGONE FUN INC","LONGITUDE":-87.62706390230666},
{"STATE":"IL","ZIP":60641,"LATTITUDE":41.93888534188782,"ADDRESS":"4934 W BELMONT AVE 1ST ","YEAR":2012,"DOING_BUSINESS_AS_NAME":"MORGAN CANINE ACADEMY","POP_AT_RISK":520677,"BUSINESS_TYPE":"Animal Care Facility","LEGAL_NAME":"JAMES R MORGAN","LONGITUDE":-87.7508275072982},
{"STATE":"IL","ZIP":60645,"LATTITUDE":42.01230251074065,"ADDRESS":"7206 N CALIFORNIA AVE 1ST ","YEAR":2012,"DOING_BUSINESS_AS_NAME":"K-9 LOVERS LLC","POP_AT_RISK":38904,"BUSINESS_TYPE":"Animal Care Facility","LEGAL_NAME":"K-9 LOVERS LLC","LONGITUDE":-87.69986264790921},
{"STATE":"IL","ZIP":60638,"LATTITUDE":41.777771632322505,"ADDRESS":"5935 W 63RD ST  1","YEAR":2012,"DOING_BUSINESS_AS_NAME":"FEE FEE'S","POP_AT_RISK":56814,"BUSINESS_TYPE":"Animal Care Facility","LEGAL_NAME":"LAURIE BENNETT","LONGITUDE":-87.77048696136391},
{"STATE":"IL","ZIP":60607,"LATTITUDE":41.86888971111206,"ADDRESS":"1101 S CANAL ST  ","YEAR":2012,"DOING_BUSINESS_AS_NAME":"PETSMART","POP_AT_RISK":64956,"BUSINESS_TYPE":"Animal Care Facility","LEGAL_NAME":"PETSMART, INC.","LONGITUDE":-87.63909892808796},
{"STATE":"IL","ZIP":60652,"LATTITUDE":41.744208291187135,"ADDRESS":"3537 W COLUMBUS AVE  1ST","YEAR":2012,"DOING_BUSINESS_AS_NAME":"Collar and Leash Inc","POP_AT_RISK":49338,"BUSINESS_TYPE":"Animal Care Facility","LEGAL_NAME":"BARBARA FLEMING","LONGITUDE":-87.71042911352212},
{"STATE":"IL","ZIP":60608,"LATTITUDE":41.851806334793636,"ADDRESS":"2733 W CERMAK RD 1 ","YEAR":2012,"DOING_BUSINESS_AS_NAME":"JOE'S PET SALON","POP_AT_RISK":847665,"BUSINESS_TYPE":"Animal Care Facility","LEGAL_NAME":"JOE'S PET SALON","LONGITUDE":-87.69434919225381},
{"STATE":"IL","ZIP":60613,"LATTITUDE":41.9540055084986,"ADDRESS":"3945 N SHERIDAN RD 1ST ","YEAR":2012,"DOING_BUSINESS_AS_NAME":"THE HOUNDRYS","POP_AT_RISK":169450,"BUSINESS_TYPE":"Animal Care Facility","LEGAL_NAME":"SANDRA FERNANDEZ","LONGITUDE":-87.65438451736664},
{"STATE":"IL","ZIP":60646,"LATTITUDE":41.98535719407338,"ADDRESS":"5706 N NORTHWEST HWY 1 1","YEAR":2012,"DOING_BUSINESS_AS_NAME":"KIRBYS","POP_AT_RISK":254198,"BUSINESS_TYPE":"Animal Care Facility","LEGAL_NAME":"JESSICA ABERNATHY","LONGITUDE":-87.78687295943976},
{"STATE":"IL","ZIP":60618,"LATTITUDE":41.961117505420496,"ADDRESS":"3800 W MONTROSE AVE 1 1","YEAR":2012,"DOING_BUSINESS_AS_NAME":"DIAMOND DOGS, LTD.","POP_AT_RISK":315885,"BUSINESS_TYPE":"Animal Care Facility","LEGAL_NAME":"DIAMOND DOGS, LTD.","LONGITUDE":-87.72299357641774},
{"STATE":"IL","ZIP":60655,"LATTITUDE":41.703470270354465,"ADDRESS":"10429 S KEDZIE AVE 1ST ","YEAR":2012,"DOING_BUSINESS_AS_NAME":"PARK PET SHOP INC","POP_AT_RISK":104644,"BUSINESS_TYPE":"Animal Care Facility","LEGAL_NAME":"PARK PET SHOP INC.","LONGITUDE":-87.70110404556713},
{"STATE":"IL","ZIP":60618,"LATTITUDE":41.9390585316529,"ADDRESS":"3735 W BELMONT AVE 1 ","YEAR":2012,"DOING_BUSINESS_AS_NAME":"The Doggy Dojo","POP_AT_RISK":64192,"BUSINESS_TYPE":"Animal Care Facility","LEGAL_NAME":"The Doggy Dojo Inc","LONGITUDE":-87.72110871899241},
{"STATE":"IL","ZIP":60643,"LATTITUDE":41.721228613887874,"ADDRESS":"1850 W 95TH ST  ","YEAR":2012,"DOING_BUSINESS_AS_NAME":"BEVERLY HILLS PUPS","POP_AT_RISK":163002,"BUSINESS_TYPE":"Animal Care Facility","LEGAL_NAME":"DAMEAN BRIAN MOLINA","LONGITUDE":-87.66957168112752},
{"STATE":"IL","ZIP":60655,"LATTITUDE":41.69155168822142,"ADDRESS":"3514 W 111TH ST 1ST ","YEAR":2012,"DOING_BUSINESS_AS_NAME":"POSH PET DAY SPA","POP_AT_RISK":50040,"BUSINESS_TYPE":"Animal Care Facility","LEGAL_NAME":"LYNN MARIA MULRENIN","LONGITUDE":-87.70880666161376},
{"STATE":"IL","ZIP":60647,"LATTITUDE":41.91347165926542,"ADDRESS":"1757 N KIMBALL AVE  ","YEAR":2012,"DOING_BUSINESS_AS_NAME":"FOR DOGS SAKE","POP_AT_RISK":523188,"BUSINESS_TYPE":"Animal Care Facility","LEGAL_NAME":"FOR DOG'S SAKE, INC.","LONGITUDE":-87.7116469589254},
{"STATE":"IL","ZIP":60618,"LATTITUDE":41.93503163276348,"ADDRESS":"2945 N ELSTON AVE  ","YEAR":2012,"DOING_BUSINESS_AS_NAME":"LUCKY DOG PET SERVICE","POP_AT_RISK":85364,"BUSINESS_TYPE":"Animal Care Facility","LEGAL_NAME":"LUCKY DOG PET SERVICES","LONGITUDE":-87.69175414089078},
{"STATE":"IL","ZIP":60639,"LATTITUDE":41.9242635842671,"ADDRESS":"4343 W FULLERTON AVE 1ST ","YEAR":2012,"DOING_BUSINESS_AS_NAME":"CHICAGO PUPPY PLACE","POP_AT_RISK":572800,"BUSINESS_TYPE":"Animal Care Facility","LEGAL_NAME":"FRANCISCO DAMIAN MOLINA","LONGITUDE":-87.73587348927045},
{"STATE":"IL","ZIP":60641,"LATTITUDE":41.94249061397192,"ADDRESS":"3358 N PULASKI RD  ","YEAR":2012,"DOING_BUSINESS_AS_NAME":"CENTRAL BARK DOGGY DAY CARE","POP_AT_RISK":53243,"BUSINESS_TYPE":"Animal Care Facility","LEGAL_NAME":"K & R ANIMAL CARE, INC.","LONGITUDE":-87.72743363975457},
{"STATE":"IL","ZIP":60645,"LATTITUDE":42.008755874705635,"ADDRESS":"2410 W LUNT AVE  ","YEAR":2012,"DOING_BUSINESS_AS_NAME":"RED DOOR ANIMAL SHELTER","POP_AT_RISK":247176,"BUSINESS_TYPE":"Animal Care Facility","LEGAL_NAME":"RED DOOR ANIMAL SHELTER","LONGITUDE":-87.69065797350389},
{"STATE":"IL","ZIP":60612,"LATTITUDE":41.8842379856099,"ADDRESS":"2916 W LAKE ST  ","YEAR":2012,"DOING_BUSINESS_AS_NAME":"ACTION K-9 SECURITY, INC","POP_AT_RISK":236048,"BUSINESS_TYPE":"Animal Care Facility","LEGAL_NAME":"ACTION K-9 SECURITY, INC","LONGITUDE":-87.69957175448842},
{"STATE":"IL","ZIP":60660,"LATTITUDE":41.99028553512525,"ADDRESS":"5943 N BROADWAY  1 1","YEAR":2012,"DOING_BUSINESS_AS_NAME":"BARK BARK CLUB PET SERVICES","POP_AT_RISK":330990,"BUSINESS_TYPE":"Animal Care Facility","LEGAL_NAME":"THE BARK BARK CLUB, INC.","LONGITUDE":-87.66012791212042},
{"STATE":"IL","ZIP":60614,"LATTITUDE":41.927691599310926,"ADDRESS":"2479 N CLARK ST 1ST ","YEAR":2012,"DOING_BUSINESS_AS_NAME":"POCKET PUPPIES BOUTIQUE, INC.","POP_AT_RISK":68386,"BUSINESS_TYPE":"Animal Care Facility","LEGAL_NAME":"POCKET PUPPIES BOUTIQUE, INC.","LONGITUDE":-87.64157502426949},
{"STATE":"IL","ZIP":60625,"LATTITUDE":41.968463488354,"ADDRESS":"2559 W LAWRENCE AVE 1 1","YEAR":2012,"DOING_BUSINESS_AS_NAME":"JACK AND GINGER'S DOGCARE, INC.","POP_AT_RISK":63276,"BUSINESS_TYPE":"Animal Care Facility","LEGAL_NAME":"JACK AND GINGER'S DOGCARE, INC.","LONGITUDE":-87.6936605940906},
{"STATE":"IL","ZIP":60618,"LATTITUDE":41.95247965581376,"ADDRESS":"3927 N ELSTON AVE 1ST ","YEAR":2012,"DOING_BUSINESS_AS_NAME":"FUZZY DOG DAY CARE","POP_AT_RISK":64463,"BUSINESS_TYPE":"Animal Care Facility","LEGAL_NAME":"A. I.  INTERNATIONAL COMPANY, INC.","LONGITUDE":-87.71716175853965},
{"STATE":"IL","ZIP":60624,"LATTITUDE":41.88995022534283,"ADDRESS":"500 N PULASKI RD 1ST 102","YEAR":2012,"DOING_BUSINESS_AS_NAME":"INTERNATIONAL SCENT SOLUTIONS, LLC","POP_AT_RISK":401775,"BUSINESS_TYPE":"Animal Care Facility","LEGAL_NAME":"INTERNATIONAL SCENT SOLUTIONS, LLC","LONGITUDE":-87.72607520391509},
{"STATE":"IL","ZIP":60610,"LATTITUDE":41.890341971280506,"ADDRESS":"440 N ORLEANS ST  ","YEAR":2012,"DOING_BUSINESS_AS_NAME":"PETCO #1965","POP_AT_RISK":263804,"BUSINESS_TYPE":"Animal Care Facility","LEGAL_NAME":"PETCO ANIMAL SUPPLIES STORES, INC.","LONGITUDE":-87.63714472645873},
{"STATE":"IL","ZIP":60643,"LATTITUDE":41.68064793017087,"ADDRESS":"11720 S MARSHFIELD AVE 1 ","YEAR":2012,"DOING_BUSINESS_AS_NAME":"PETCO #1983","POP_AT_RISK":110580,"BUSINESS_TYPE":"Animal Care Facility","LEGAL_NAME":"PETCO ANIMAL SUPPLIES STORES, INC.","LONGITUDE":-87.66259019890877},
{"STATE":"IL","ZIP":60607,"LATTITUDE":41.88042880551225,"ADDRESS":"1214 W MONROE ST  ","YEAR":2012,"DOING_BUSINESS_AS_NAME":"POOCH HOTEL - PETCO STORE #5902","POP_AT_RISK":79278,"BUSINESS_TYPE":"Animal Care Facility","LEGAL_NAME":"PETCO ANIMAL SUPPLIES STORES, INC.","LONGITUDE":-87.65775265544872},
{"STATE":"IL","ZIP":60610,"LATTITUDE":41.90791055539471,"ADDRESS":"1407 N WELLS ST  GW","YEAR":2012,"DOING_BUSINESS_AS_NAME":"ANIMALSENSE CANINE TRAINING AND BEHAVIOR, INC.","POP_AT_RISK":61690,"BUSINESS_TYPE":"Animal Care Facility","LEGAL_NAME":"ANIMALSENSE CANINE TRAINING AND BEHAVIOR, INC.","LONGITUDE":-87.63446505875015},
}