{
{"STATE":"IL","ZIP":60625,"LATTITUDE":41.96526219559948,"ADDRESS":"4616 N ST LOUIS AVE  ","YEAR":2012,"DOING_BUSINESS_AS_NAME":"MAURA DIAZ","POP_AT_RISK":141680,"BUSINESS_TYPE":"Peddler, non-food, special","LEGAL_NAME":"MAURA DIAZ","LONGITUDE":-87.7158615734193},
{"STATE":"IL","ZIP":60613,"LATTITUDE":41.955406767031675,"ADDRESS":"4036 1\/2 N ASHLAND AVE BSMT B. N.","YEAR":2012,"DOING_BUSINESS_AS_NAME":"RATKO IKIC","POP_AT_RISK":1523403,"BUSINESS_TYPE":"Peddler, non-food, special","LEGAL_NAME":"RATKO IKIC","LONGITUDE":-87.6692268091664},
{"STATE":"IL","ZIP":60629,"LATTITUDE":41.76169396007773,"ADDRESS":"7230 S SACRAMENTO AVE  ","YEAR":2012,"DOING_BUSINESS_AS_NAME":"EDWARD REID","POP_AT_RISK":51544,"BUSINESS_TYPE":"Peddler, non-food, special","LEGAL_NAME":"EDWARD REID","LONGITUDE":-87.69799053020193},
{"STATE":"IL","ZIP":60624,"LATTITUDE":41.89103101986063,"ADDRESS":"523 N SAWYER AVE  ","YEAR":2012,"DOING_BUSINESS_AS_NAME":"KEVIN ONEAL","POP_AT_RISK":123171,"BUSINESS_TYPE":"Peddler, non-food, special","LEGAL_NAME":"KEVIN ONEAL","LONGITUDE":-87.70749328882148},
{"STATE":"IL","ZIP":60612,"LATTITUDE":41.87833478034854,"ADDRESS":"2449 W ADAMS ST  ","YEAR":2012,"DOING_BUSINESS_AS_NAME":"MARY CARTER","POP_AT_RISK":60440,"BUSINESS_TYPE":"Peddler, non-food, special","LEGAL_NAME":"MARY CARTER","LONGITUDE":-87.68827717878166},
{"STATE":"IL","ZIP":60657,"LATTITUDE":41.93777126333811,"ADDRESS":"3100 N LAKE SHORE DR 19 1908","YEAR":2012,"DOING_BUSINESS_AS_NAME":"A GLIMPSE OF GUATEMALA","POP_AT_RISK":934905,"BUSINESS_TYPE":"Peddler, non-food, special","LEGAL_NAME":"ANNIE FIESTA","LONGITUDE":-87.63745597579715},
{"STATE":"IL","ZIP":60630,"LATTITUDE":41.963183921265326,"ADDRESS":"4536 N ELSTON AVE  ","YEAR":2012,"DOING_BUSINESS_AS_NAME":"BYRON YABLON","POP_AT_RISK":276162,"BUSINESS_TYPE":"Peddler, non-food, special","LEGAL_NAME":"BYRON YABLON","LONGITUDE":-87.73318715325468},
{"STATE":"IL","ZIP":60643,"LATTITUDE":41.716299189352725,"ADDRESS":"9734 S BELL AVE  ","YEAR":2012,"DOING_BUSINESS_AS_NAME":"MARK JACKSON","POP_AT_RISK":59856,"BUSINESS_TYPE":"Peddler, non-food, special","LEGAL_NAME":"MARK JACKSON","LONGITUDE":-87.6784334963623},
{"STATE":"IL","ZIP":60619,"LATTITUDE":41.74460664090422,"ADDRESS":"8241 S DREXEL AVE  ","YEAR":2012,"DOING_BUSINESS_AS_NAME":"MARY E GUICE","POP_AT_RISK":36374,"BUSINESS_TYPE":"Peddler, non-food, special","LEGAL_NAME":"MARY E GUICE","LONGITUDE":-87.60242410240733},
{"STATE":"IL","ZIP":60640,"LATTITUDE":41.96875258991914,"ADDRESS":"4750 N SHERIDAN RD  ","YEAR":2012,"DOING_BUSINESS_AS_NAME":"NAOMI G DIAZ","POP_AT_RISK":72865,"BUSINESS_TYPE":"Peddler, non-food, special","LEGAL_NAME":"NAOMI G DIAZ","LONGITUDE":-87.65496326268006},
{"STATE":"IL","ZIP":60654,"LATTITUDE":41.88755787281287,"ADDRESS":"300 N STATE ST  ","YEAR":2012,"DOING_BUSINESS_AS_NAME":"TROY J LOSKE","POP_AT_RISK":396285,"BUSINESS_TYPE":"Peddler, non-food, special","LEGAL_NAME":"TROY J LOSKE","LONGITUDE":-87.62815306467208},
{"STATE":"IL","ZIP":60628,"LATTITUDE":41.69253838919618,"ADDRESS":"161 E 111TH ST  ","YEAR":2012,"DOING_BUSINESS_AS_NAME":"ELAINE SUTTON","POP_AT_RISK":24078,"BUSINESS_TYPE":"Peddler, non-food, special","LEGAL_NAME":"ELAINE SUTTON","LONGITUDE":-87.61855290940034},
{"STATE":"IL","ZIP":60624,"LATTITUDE":41.86955730666235,"ADDRESS":"4512 W FIFTH AVE  ","YEAR":2012,"DOING_BUSINESS_AS_NAME":"FRANK JENKINS","POP_AT_RISK":263564,"BUSINESS_TYPE":"Peddler, non-food, special","LEGAL_NAME":"FRANK JENKINS","LONGITUDE":-87.73820793153533},
{"STATE":"IL","ZIP":60659,"LATTITUDE":41.993261798819134,"ADDRESS":"6146 N DAMEN AVE 1ST ","YEAR":2012,"DOING_BUSINESS_AS_NAME":"JOHN L PERRY","POP_AT_RISK":553788,"BUSINESS_TYPE":"Peddler, non-food, special","LEGAL_NAME":"JOHN L. PERRY","LONGITUDE":-87.68004628251734},
{"STATE":"IL","ZIP":60647,"LATTITUDE":41.914872525125695,"ADDRESS":"1842 N SPRINGFIELD AVE  1","YEAR":2012,"DOING_BUSINESS_AS_NAME":"RAMON  CORONEL","POP_AT_RISK":206556,"BUSINESS_TYPE":"Peddler, non-food, special","LEGAL_NAME":"RAMON CORONEL","LONGITUDE":-87.72419022922423},
{"STATE":"IL","ZIP":60629,"LATTITUDE":41.77162872026357,"ADDRESS":"3600 W MARQUETTE RD  ","YEAR":2012,"DOING_BUSINESS_AS_NAME":"TOMASA VARGAS","POP_AT_RISK":91334,"BUSINESS_TYPE":"Peddler, non-food, special","LEGAL_NAME":"TOMASA VARGAS","LONGITUDE":-87.71309807807353},
{"STATE":"IL","ZIP":60632,"LATTITUDE":41.81423595167177,"ADDRESS":"4347 S ROCKWELL ST 1ST ","YEAR":2012,"DOING_BUSINESS_AS_NAME":"ARTURO ALMEIDA","POP_AT_RISK":332220,"BUSINESS_TYPE":"Peddler, non-food, special","LEGAL_NAME":"ARTURO ALMEIDA","LONGITUDE":-87.6893407679075},
{"STATE":"IL","ZIP":60614,"LATTITUDE":41.920598476205505,"ADDRESS":"2123 N SEMINARY AVE  ","YEAR":2012,"DOING_BUSINESS_AS_NAME":"CARL BUONAFEDE","POP_AT_RISK":424536,"BUSINESS_TYPE":"Peddler, non-food, special","LEGAL_NAME":"CARL BUONAFEDE","LONGITUDE":-87.6557319833809},
{"STATE":"IL","ZIP":60636,"LATTITUDE":41.79146061137,"ADDRESS":"5628 S RACINE AVE  ","YEAR":2012,"DOING_BUSINESS_AS_NAME":"CLAUDE S BERRY","POP_AT_RISK":92676,"BUSINESS_TYPE":"Peddler, non-food, special","LEGAL_NAME":"CLAUDE S BERRY","LONGITUDE":-87.65495181543886},
{"STATE":"IL","ZIP":60620,"LATTITUDE":41.727384321321075,"ADDRESS":"9149 S WALLACE ST  ","YEAR":2012,"DOING_BUSINESS_AS_NAME":"GENEVA GLASPER","POP_AT_RISK":27303,"BUSINESS_TYPE":"Peddler, non-food, special","LEGAL_NAME":"GENEVA GLASPER","LONGITUDE":-87.63837083768685},
{"STATE":"IL","ZIP":60608,"LATTITUDE":41.849488237651684,"ADDRESS":"2316 S CALIFORNIA AVE  1","YEAR":2012,"DOING_BUSINESS_AS_NAME":"JOSE   ROMAN SR.","POP_AT_RISK":171795,"BUSINESS_TYPE":"Peddler, non-food, special","LEGAL_NAME":"JOSE ROMAN SR.","LONGITUDE":-87.69552610358805},
{"STATE":"IL","ZIP":60622,"LATTITUDE":41.9134214150233,"ADDRESS":"1734 N PAULINA ST 1 ","YEAR":2012,"DOING_BUSINESS_AS_NAME":"RAFAEL COLLAZO","POP_AT_RISK":894375,"BUSINESS_TYPE":"Peddler, non-food, special","LEGAL_NAME":"RAFAEL COLLAZO","LONGITUDE":-87.67035633233488},
{"STATE":"IL","ZIP":60619,"LATTITUDE":41.72368489436974,"ADDRESS":"9357 S BURNSIDE AVE  ","YEAR":2012,"DOING_BUSINESS_AS_NAME":"RICKEY HOPKINS","POP_AT_RISK":71808,"BUSINESS_TYPE":"Peddler, non-food, special","LEGAL_NAME":"RICKEY HOPKINS","LONGITUDE":-87.60750176524958},
{"STATE":"IL","ZIP":60202,"LATTITUDE":42.01934077089769,"ADDRESS":"2007  HOWARD ST 2 2D","YEAR":2012,"DOING_BUSINESS_AS_NAME":"RUBEN SANTIAGO","POP_AT_RISK":810056,"BUSINESS_TYPE":"Peddler, non-food, special","LEGAL_NAME":"RUBEN SANTIAGO","LONGITUDE":-87.68077427225394},
{"STATE":"IL","ZIP":60623,"LATTITUDE":41.85744589061316,"ADDRESS":"1648 S SPRINGFIELD AVE  ","YEAR":2012,"DOING_BUSINESS_AS_NAME":"WILLIAM DANIEL","POP_AT_RISK":144726,"BUSINESS_TYPE":"Peddler, non-food, special","LEGAL_NAME":"WILLIAM DANIEL","LONGITUDE":-87.72256695642014},
{"STATE":"IL","ZIP":60609,"LATTITUDE":41.79491123617567,"ADDRESS":"5427 S SEELEY AVE  ","YEAR":2012,"DOING_BUSINESS_AS_NAME":"DAVID CARPENTER","POP_AT_RISK":153681,"BUSINESS_TYPE":"Peddler, non-food, special","LEGAL_NAME":"DAVID CARPENTER","LONGITUDE":-87.67540019549078},
{"STATE":"IL","ZIP":60644,"LATTITUDE":41.88567036803781,"ADDRESS":"300 N MASON AVE  ","YEAR":2012,"DOING_BUSINESS_AS_NAME":"EARLENE FLEMING","POP_AT_RISK":188464,"BUSINESS_TYPE":"Peddler, non-food, special","LEGAL_NAME":"EARLENE FLEMING","LONGITUDE":-87.77355350122288},
{"STATE":"IL","ZIP":60643,"LATTITUDE":41.70014225660636,"ADDRESS":"10636 S VINCENNES AVE  ","YEAR":2012,"DOING_BUSINESS_AS_NAME":"LELA B ANDERSON","POP_AT_RISK":25921,"BUSINESS_TYPE":"Peddler, non-food, special","LEGAL_NAME":"LELA B ANDERSON","LONGITUDE":-87.65863650170006},
{"STATE":"IL","ZIP":60639,"LATTITUDE":41.923172564205224,"ADDRESS":"4959 W MEDILL AVE 1 ","YEAR":2012,"DOING_BUSINESS_AS_NAME":"MICHAEL HOPKINS","POP_AT_RISK":189270,"BUSINESS_TYPE":"Peddler, non-food, special","LEGAL_NAME":"MICHAEL HOPKINS","LONGITUDE":-87.7510766527435},
{"STATE":"IL","ZIP":60659,"LATTITUDE":41.98504059844381,"ADDRESS":"2840 W HOLLYWOOD AVE 3RD 3 E","YEAR":2012,"DOING_BUSINESS_AS_NAME":"RAYMOND BARANDA","POP_AT_RISK":170865,"BUSINESS_TYPE":"Peddler, non-food, special","LEGAL_NAME":"RAYMOND BARANDA","LONGITUDE":-87.70082780521618},
{"STATE":"IL","ZIP":60652,"LATTITUDE":41.73769637208855,"ADDRESS":"2627 W SEIPP ST  ","YEAR":2012,"DOING_BUSINESS_AS_NAME":"ARTHUR L. PARKER","POP_AT_RISK":59097,"BUSINESS_TYPE":"Peddler, non-food, special","LEGAL_NAME":"ARTHUR L. PARKER","LONGITUDE":-87.68869172147846},
{"STATE":"IL","ZIP":60615,"LATTITUDE":41.80799556913032,"ADDRESS":"4747 S DR MARTIN LUTHER KING JR DR 9 902","YEAR":2012,"DOING_BUSINESS_AS_NAME":"CAROL A. BURNETT","POP_AT_RISK":37097,"BUSINESS_TYPE":"Peddler, non-food, special","LEGAL_NAME":"CAROL A. BURNETT","LONGITUDE":-87.6164048651788},
{"STATE":"IL","ZIP":60651,"LATTITUDE":41.90571895396158,"ADDRESS":"5331 W HIRSCH ST 1 2W","YEAR":2012,"DOING_BUSINESS_AS_NAME":"ISAIAH MCCLELLAN","POP_AT_RISK":368176,"BUSINESS_TYPE":"Peddler, non-food, special","LEGAL_NAME":"ISAIAH MCCLELLAN","LONGITUDE":-87.75966897241673},
{"STATE":"IL","ZIP":60605,"LATTITUDE":41.86655820981653,"ADDRESS":"1231 S STATE ST  ","YEAR":2012,"DOING_BUSINESS_AS_NAME":"LAVAUGHN R. HART","POP_AT_RISK":39491,"BUSINESS_TYPE":"Peddler, non-food, special","LEGAL_NAME":"LAVAUGHN R. HART","LONGITUDE":-87.62724748973362},
{"STATE":"IL","ZIP":60640,"LATTITUDE":41.97449606849831,"ADDRESS":"5040 N KENMORE AVE  710","YEAR":2012,"DOING_BUSINESS_AS_NAME":"NORMA V. GRIZZLE","POP_AT_RISK":280196,"BUSINESS_TYPE":"Peddler, non-food, special","LEGAL_NAME":"NORMA V. GRIZZLE","LONGITUDE":-87.65651102210414},
{"STATE":"IL","ZIP":60637,"LATTITUDE":41.781431130748054,"ADDRESS":"6230 S DORCHESTER AVE 210 ","YEAR":2012,"DOING_BUSINESS_AS_NAME":"JEAN L. DE SAVIEU","POP_AT_RISK":34749,"BUSINESS_TYPE":"Peddler, non-food, special","LEGAL_NAME":"JEAN L. DE SAVIEU","LONGITUDE":-87.59152085323696},
{"STATE":"IL","ZIP":60617,"LATTITUDE":41.72044546556022,"ADDRESS":"9629 S MERRION AVE  ","YEAR":2012,"DOING_BUSINESS_AS_NAME":"KELLY BRIAN CLARK","POP_AT_RISK":52284,"BUSINESS_TYPE":"Peddler, non-food, special","LEGAL_NAME":"KELLY BRIAN CLARK","LONGITUDE":-87.56975870416848},
{"STATE":"IL","ZIP":60630,"LATTITUDE":41.96221794371823,"ADDRESS":"4455 N LINDER AVE 2ND ","YEAR":2012,"DOING_BUSINESS_AS_NAME":"LORETTA M MATHEIS","POP_AT_RISK":142821,"BUSINESS_TYPE":"Peddler, non-food, special","LEGAL_NAME":"LORETTA M MATHEIS","LONGITUDE":-87.76469069317187},
{"STATE":"IL","ZIP":60643,"LATTITUDE":41.68036167011816,"ADDRESS":"11718 S HALE AVE  ","YEAR":2012,"DOING_BUSINESS_AS_NAME":"MARVIN R. COLLINS","POP_AT_RISK":44844,"BUSINESS_TYPE":"Peddler, non-food, special","LEGAL_NAME":"MARVIN R. COLLINS","LONGITUDE":-87.67301227525277},
{"STATE":"IL","ZIP":60639,"LATTITUDE":41.92560289691205,"ADDRESS":"2455 N CENTRAL AVE 1 1","YEAR":2012,"DOING_BUSINESS_AS_NAME":"BLANCA INES FRANCO","POP_AT_RISK":433812,"BUSINESS_TYPE":"Peddler, non-food, special","LEGAL_NAME":"BLANCA INES FRANCO","LONGITUDE":-87.76590097762198},
{"STATE":"IL","ZIP":60651,"LATTITUDE":41.89851496379249,"ADDRESS":"940 N DRAKE AVE  ","YEAR":2012,"DOING_BUSINESS_AS_NAME":"DOROTHY MARIE WYNN","POP_AT_RISK":50184,"BUSINESS_TYPE":"Peddler, non-food, special","LEGAL_NAME":"DOROTHY MARIE WYNN","LONGITUDE":-87.71534100849412},
{"STATE":"IL","ZIP":60647,"LATTITUDE":41.90994333506405,"ADDRESS":"3401 W NORTH AVE  ","YEAR":2012,"DOING_BUSINESS_AS_NAME":"SHANNONE CLAIBORNE","POP_AT_RISK":248348,"BUSINESS_TYPE":"Peddler, non-food, special","LEGAL_NAME":"SHANNONE CLAIBORNE","LONGITUDE":-87.71194978316811},
{"STATE":"IL","ZIP":60620,"LATTITUDE":41.74131166439664,"ADDRESS":"8359 S PAULINA ST  ","YEAR":2012,"DOING_BUSINESS_AS_NAME":"ALVIN LOUIS SPARROW","POP_AT_RISK":77696,"BUSINESS_TYPE":"Peddler, non-food, special","LEGAL_NAME":"ALVIN LOUIS SPARROW","LONGITUDE":-87.66549134762434},
{"STATE":"IL","ZIP":60607,"LATTITUDE":41.88008566659281,"ADDRESS":"1515 W MONROE ST  ","YEAR":2012,"DOING_BUSINESS_AS_NAME":"ANTHELLAONE STEVENS","POP_AT_RISK":71074,"BUSINESS_TYPE":"Peddler, non-food, special","LEGAL_NAME":"ANTHELLAONE STEVENS","LONGITUDE":-87.66505441566734},
{"STATE":"IL","ZIP":60620,"LATTITUDE":41.75670224594428,"ADDRESS":"7536 S PEORIA ST 1 1","YEAR":2012,"DOING_BUSINESS_AS_NAME":"BETTY J. RICHARDSON","POP_AT_RISK":159304,"BUSINESS_TYPE":"Peddler, non-food, special","LEGAL_NAME":"BETTY J. RICHARDSON","LONGITUDE":-87.64677128309597},
{"STATE":"IL","ZIP":60632,"LATTITUDE":41.796910982327375,"ADDRESS":"3603 W 53RD ST  8","YEAR":2012,"DOING_BUSINESS_AS_NAME":"EDWARD JAMES WILSON","POP_AT_RISK":236300,"BUSINESS_TYPE":"Peddler, non-food, special","LEGAL_NAME":"EDWARD JAMES WILSON","LONGITUDE":-87.71379056476763},
{"STATE":"IL","ZIP":60659,"LATTITUDE":41.99360501680627,"ADDRESS":"3817 W GRANVILLE AVE  ","YEAR":2012,"DOING_BUSINESS_AS_NAME":"HERBERT HOFFMAN SR.","POP_AT_RISK":120152,"BUSINESS_TYPE":"Peddler, non-food, special","LEGAL_NAME":"HERBERT HOFFMAN SR.","LONGITUDE":-87.72467514813182},
{"STATE":"IL","ZIP":60634,"LATTITUDE":41.96043237259338,"ADDRESS":"6050 W MONTROSE AVE  ","YEAR":2012,"DOING_BUSINESS_AS_NAME":"MONTGOMERY LEWIS SR.","POP_AT_RISK":127818,"BUSINESS_TYPE":"Peddler, non-food, special","LEGAL_NAME":"MONTGOMERY LEWIS SR","LONGITUDE":-87.77909104597502},
{"STATE":"IL","ZIP":60615,"LATTITUDE":41.804923176685726,"ADDRESS":"4940 S EAST END AVE 8 8F","YEAR":2012,"DOING_BUSINESS_AS_NAME":"CARLOTA NERA GOODSON","POP_AT_RISK":88836,"BUSINESS_TYPE":"Peddler, non-food, special","LEGAL_NAME":"CARLOTA NERA GOODSON","LONGITUDE":-87.58562455528525},
{"STATE":"IL","ZIP":60628,"LATTITUDE":41.67893157362806,"ADDRESS":"11825 S PARNELL AVE 1ST ","YEAR":2012,"DOING_BUSINESS_AS_NAME":"CHARLES LENWOOD POOL","POP_AT_RISK":24751,"BUSINESS_TYPE":"Peddler, non-food, special","LEGAL_NAME":"CHARLES LENWOOD POOL","LONGITUDE":-87.6357705442063},
{"STATE":"IL","ZIP":60620,"LATTITUDE":41.74448037395297,"ADDRESS":"8231 S LA SALLE ST 1ST ","YEAR":2012,"DOING_BUSINESS_AS_NAME":"DONNA MARIE THOMASON","POP_AT_RISK":29507,"BUSINESS_TYPE":"Peddler, non-food, special","LEGAL_NAME":"DONNA MARIE THOMASON","LONGITUDE":-87.62792793396277},
{"STATE":"IL","ZIP":60634,"LATTITUDE":41.93849707247113,"ADDRESS":"3221 N OVERHILL AVE  ","YEAR":2012,"DOING_BUSINESS_AS_NAME":"JAMES B. FITZPATRICK","POP_AT_RISK":305280,"BUSINESS_TYPE":"Peddler, non-food, special","LEGAL_NAME":"JAMES B. FITZPATRICK","LONGITUDE":-87.81884064783011},
{"STATE":"IL","ZIP":60618,"LATTITUDE":41.93261150992943,"ADDRESS":"2825 N AVERS AVE  ","YEAR":2012,"DOING_BUSINESS_AS_NAME":"JAMES TYREE SLACK III","POP_AT_RISK":812999,"BUSINESS_TYPE":"Peddler, non-food, special","LEGAL_NAME":"JAMES TYREE SLACK III","LONGITUDE":-87.7231612290702},
{"STATE":"IL","ZIP":60653,"LATTITUDE":41.82885296053581,"ADDRESS":"60 E 36TH PL 5TH 515","YEAR":2012,"DOING_BUSINESS_AS_NAME":"VERNON FRANK THOMPSON","POP_AT_RISK":214340,"BUSINESS_TYPE":"Peddler, non-food, special","LEGAL_NAME":"VERNON FRANK THOMPSON","LONGITUDE":-87.62419843016123},
{"STATE":"IL","ZIP":60644,"LATTITUDE":41.88290171275498,"ADDRESS":"119 N LONG AVE 1ST ","YEAR":2012,"DOING_BUSINESS_AS_NAME":"EULAMAECHELLE ROBINSON","POP_AT_RISK":146421,"BUSINESS_TYPE":"Peddler, non-food, special","LEGAL_NAME":"EULAMAECHELLE ROBINSON","LONGITUDE":-87.76006465849835},
{"STATE":"IL","ZIP":60608,"LATTITUDE":41.83212690882161,"ADDRESS":"3418 S LITUANICA AVE BSMT ","YEAR":2012,"DOING_BUSINESS_AS_NAME":"OILFRE MIRANDA ROSARIO","POP_AT_RISK":341120,"BUSINESS_TYPE":"Peddler, non-food, special","LEGAL_NAME":"OILFRE MIRANDA ROSARIO","LONGITUDE":-87.64871485220716},
{"STATE":"IL","ZIP":60616,"LATTITUDE":41.844007892267705,"ADDRESS":"2710 S STATE ST 6TH 601","YEAR":2012,"DOING_BUSINESS_AS_NAME":"KENYATTA PHAJJA CHILEMBWE","POP_AT_RISK":27382,"BUSINESS_TYPE":"Peddler, non-food, special","LEGAL_NAME":"KENYATTA PHAJJA CHILEMBWE","LONGITUDE":-87.62707043218947},
{"STATE":"IL","ZIP":60628,"LATTITUDE":41.70384590492138,"ADDRESS":"564 E 105TH ST  ","YEAR":2012,"DOING_BUSINESS_AS_NAME":"MELODY VELERIA HOWARD-MCHERRON","POP_AT_RISK":14999,"BUSINESS_TYPE":"Peddler, non-food, special","LEGAL_NAME":"MELODY VELERIA HOWARD-MCHERRON","LONGITUDE":-87.60869172569197},
}