{
{"STATE":"IL","ZIP":60619,"LATTITUDE":41.765626134481124,"ADDRESS":"437 E 71ST ST 1ST ","YEAR":2008,"DOING_BUSINESS_AS_NAME":"A & C AMUSEMENTS","POP_AT_RISK":242753,"BUSINESS_TYPE":"Automatic Amusement Device Operator","LEGAL_NAME":"ANTHONY MCCOY","LONGITUDE":-87.61382457634382},
{"STATE":"IL","ZIP":60625,"LATTITUDE":41.9778812680018,"ADDRESS":"2214 W BERWYN AVE  1","YEAR":2008,"DOING_BUSINESS_AS_NAME":"COMPACT DISC JUKE BOX AMUSE\/CO","POP_AT_RISK":101710,"BUSINESS_TYPE":"Automatic Amusement Device Operator","LEGAL_NAME":"DIXON WHITSON","LONGITUDE":-87.68496640858088},
{"STATE":"IL","ZIP":60630,"LATTITUDE":41.971416396429284,"ADDRESS":"4939 N MASON AVE  1ST","YEAR":2008,"DOING_BUSINESS_AS_NAME":"FRANK SCHMIDT","POP_AT_RISK":200445,"BUSINESS_TYPE":"Automatic Amusement Device Operator","LEGAL_NAME":"FRANK SCHMIDT","LONGITUDE":-87.77690509797485},
{"STATE":"IL","ZIP":60649,"LATTITUDE":41.769482070317935,"ADDRESS":"6906 S STONY ISLAND AVE  ","YEAR":2008,"DOING_BUSINESS_AS_NAME":"NEW ERA AMUSEMENT","POP_AT_RISK":77276,"BUSINESS_TYPE":"Automatic Amusement Device Operator","LEGAL_NAME":"HENRY W HAZEL","LONGITUDE":-87.5863852881995},
{"STATE":"IL","ZIP":60637,"LATTITUDE":41.772310687917496,"ADDRESS":"1547 E 67TH PL  ","YEAR":2008,"DOING_BUSINESS_AS_NAME":"SOUTHWAY MUSIC CO","POP_AT_RISK":76710,"BUSINESS_TYPE":"Automatic Amusement Device Operator","LEGAL_NAME":"JAMES FLEMING","LONGITUDE":-87.58687277808008},
{"STATE":"IL","ZIP":60625,"LATTITUDE":41.97824139444383,"ADDRESS":"5320 N KEDZIE AVE 1ST ","YEAR":2008,"DOING_BUSINESS_AS_NAME":"CHICAGO NO RA BANG","POP_AT_RISK":384629,"BUSINESS_TYPE":"Automatic Amusement Device Operator","LEGAL_NAME":"KEUM SOON KIM","LONGITUDE":-87.70889000223688},
{"STATE":"IL","ZIP":60622,"LATTITUDE":41.89108690106291,"ADDRESS":"1606 W GRAND AVE 1ST ","YEAR":2008,"DOING_BUSINESS_AS_NAME":"ADVANCED AMUSEMENT","POP_AT_RISK":47191,"BUSINESS_TYPE":"Automatic Amusement Device Operator","LEGAL_NAME":"ROBERT BOWMAN","LONGITUDE":-87.66745851977954},
{"STATE":"IL","ZIP":60653,"LATTITUDE":41.82371315852375,"ADDRESS":"337 1\/2 E PERSHING RD 2 ","YEAR":2008,"DOING_BUSINESS_AS_NAME":"SNIPE & SONS","POP_AT_RISK":508968,"BUSINESS_TYPE":"Automatic Amusement Device Operator","LEGAL_NAME":"ROBERTA SNIPE","LONGITUDE":-87.61773403140582},
{"STATE":"IL","ZIP":60629,"LATTITUDE":41.78786314104743,"ADDRESS":"5756 S PULASKI RD  ","YEAR":2008,"DOING_BUSINESS_AS_NAME":"DON LINDY INC","POP_AT_RISK":387072,"BUSINESS_TYPE":"Automatic Amusement Device Operator","LEGAL_NAME":"DON LINDY INC.","LONGITUDE":-87.7231579777822},
{"STATE":"IL","ZIP":60619,"LATTITUDE":41.73901844520557,"ADDRESS":"8536 S CALUMET AVE 1ST ","YEAR":2008,"DOING_BUSINESS_AS_NAME":"FAST EDDIE JUKE BOX SERVICE","POP_AT_RISK":146575,"BUSINESS_TYPE":"Automatic Amusement Device Operator","LEGAL_NAME":"EDWARD HASKINS","LONGITUDE":-87.6163556352584},
{"STATE":"IL","ZIP":60607,"LATTITUDE":41.887132363404234,"ADDRESS":"312 N MAY ST  ","YEAR":2008,"DOING_BUSINESS_AS_NAME":"AMUSEMENT VIDEO GAMES","POP_AT_RISK":76032,"BUSINESS_TYPE":"Automatic Amusement Device Operator","LEGAL_NAME":"PAVEL STRUGACH","LONGITUDE":-87.65583233136104},
{"STATE":"IL","ZIP":60016,"LATTITUDE":41.92162970911281,"ADDRESS":"997  WEBSTER LN  ","YEAR":2008,"DOING_BUSINESS_AS_NAME":"KLM AMUSEMENT","POP_AT_RISK":753130,"BUSINESS_TYPE":"Automatic Amusement Device Operator","LEGAL_NAME":"KEITH L. MOHILL","LONGITUDE":-87.65342397353342},
{"STATE":"IL","ZIP":60634,"LATTITUDE":41.94593543035315,"ADDRESS":"5758 W ADDISON ST 1ST ","YEAR":2008,"DOING_BUSINESS_AS_NAME":"DARMAR AMUSEMENT SERVICE","POP_AT_RISK":472806,"BUSINESS_TYPE":"Automatic Amusement Device Operator","LEGAL_NAME":"MARIAN JANICZEK","LONGITUDE":-87.77150938483402},
{"STATE":"IL","ZIP":60619,"LATTITUDE":41.72559277055029,"ADDRESS":"9255 S STATE ST  1ST","YEAR":2008,"DOING_BUSINESS_AS_NAME":"ILLINOIS AMUSEMENT","POP_AT_RISK":130356,"BUSINESS_TYPE":"Automatic Amusement Device Operator","LEGAL_NAME":"ALLEN CHARLESTON","LONGITUDE":-87.62369105321733},
{"STATE":"IL","ZIP":60651,"LATTITUDE":41.905842919754804,"ADDRESS":"1404 N MASON AVE  ","YEAR":2008,"DOING_BUSINESS_AS_NAME":"EARNEST THOMPSON","POP_AT_RISK":174045,"BUSINESS_TYPE":"Automatic Amusement Device Operator","LEGAL_NAME":"EARNEST THOMPSON","LONGITUDE":-87.77442138793354},
{"STATE":"IL","ZIP":60657,"LATTITUDE":41.94574570576034,"ADDRESS":"3470 N LAKE SHORE DR  ","YEAR":2008,"DOING_BUSINESS_AS_NAME":"INTER CITY AMUSEMENT","POP_AT_RISK":1089920,"BUSINESS_TYPE":"Automatic Amusement Device Operator","LEGAL_NAME":"EDWARD CZYZOWICZ","LONGITUDE":-87.64195455215297},
{"STATE":"IL","ZIP":60191,"LATTITUDE":41.962586980460735,"ADDRESS":"393 E MONTROSE DR HOUSE ","YEAR":2008,"DOING_BUSINESS_AS_NAME":"FRONTERA AMUSEMENT","POP_AT_RISK":128148,"BUSINESS_TYPE":"Automatic Amusement Device Operator","LEGAL_NAME":"MIKE A. FRONTIER","LONGITUDE":-87.64056884251521},
{"STATE":"IL","ZIP":60620,"LATTITUDE":41.75636252722522,"ADDRESS":"400 W 76TH ST 3RD 305","YEAR":2008,"DOING_BUSINESS_AS_NAME":"SAVVY AFFAIRS","POP_AT_RISK":259763,"BUSINESS_TYPE":"Automatic Amusement Device Operator","LEGAL_NAME":"PATRICIA A PRATT","LONGITUDE":-87.63450381551364},
{"STATE":"IL","ZIP":60616,"LATTITUDE":41.8554319990211,"ADDRESS":"2001 S MICHIGAN AVE  18-A","YEAR":2008,"DOING_BUSINESS_AS_NAME":"SOULFUL STRUT MUSIC","POP_AT_RISK":189468,"BUSINESS_TYPE":"Automatic Amusement Device Operator","LEGAL_NAME":"WAYNE LEE STEELS","LONGITUDE":-87.62372821557055},
{"STATE":"IL","ZIP":60626,"LATTITUDE":41.998144211866624,"ADDRESS":"6402 N CLARK ST 1ST ","YEAR":2008,"DOING_BUSINESS_AS_NAME":"DINOS GAMES","POP_AT_RISK":161660,"BUSINESS_TYPE":"Automatic Amusement Device Operator","LEGAL_NAME":"DSG AMUSEMENT, LTD.","LONGITUDE":-87.67076765338122},
{"STATE":"IL","ZIP":60651,"LATTITUDE":41.90115137738562,"ADDRESS":"1120 N CICERO AVE  1ST","YEAR":2008,"DOING_BUSINESS_AS_NAME":"DEARBORN MUSIC","POP_AT_RISK":44477,"BUSINESS_TYPE":"Automatic Amusement Device Operator","LEGAL_NAME":"LEGACY AMUSEMENT CO","LONGITUDE":-87.7460885362502},
{"STATE":"IL","ZIP":60609,"LATTITUDE":41.811016654761566,"ADDRESS":"4541 S ASHLAND AVE  ","YEAR":2008,"DOING_BUSINESS_AS_NAME":"VELASQUEZ AUTOMATIC","POP_AT_RISK":435000,"BUSINESS_TYPE":"Automatic Amusement Device Operator","LEGAL_NAME":"VELASQUEZ AUTOMATIC","LONGITUDE":-87.66488779685228},
{"STATE":"IL","ZIP":60642,"LATTITUDE":41.89683169596937,"ADDRESS":"816 N MAY ST  ","YEAR":2008,"DOING_BUSINESS_AS_NAME":"B & O PHONOGRAPH INC","POP_AT_RISK":161396,"BUSINESS_TYPE":"Automatic Amusement Device Operator","LEGAL_NAME":"B&O PHONOGRAPH, INC.","LONGITUDE":-87.65539343607945},
{"STATE":"IL","ZIP":60617,"LATTITUDE":41.731302577649465,"ADDRESS":"9019 S COMMERCIAL AVE  ","YEAR":2008,"DOING_BUSINESS_AS_NAME":"KING AMUSEMENTS INC.","POP_AT_RISK":106212,"BUSINESS_TYPE":"Automatic Amusement Device Operator","LEGAL_NAME":"KING AMUSEMENTS, INC","LONGITUDE":-87.55113955994752},
{"STATE":"IL","ZIP":60707,"LATTITUDE":41.92346911894463,"ADDRESS":"6869 W GRAND AVE  ","YEAR":2008,"DOING_BUSINESS_AS_NAME":"WM J HONQUEST & CO INC","POP_AT_RISK":452232,"BUSINESS_TYPE":"Automatic Amusement Device Operator","LEGAL_NAME":"WM. J. HONQUEST & CO.","LONGITUDE":-87.797818415272},
{"STATE":"IL","ZIP":60632,"LATTITUDE":41.801670034831716,"ADDRESS":"5030 S KEDZIE AVE  ","YEAR":2008,"DOING_BUSINESS_AS_NAME":"CHUCK 'E' CHEESE'S","POP_AT_RISK":455320,"BUSINESS_TYPE":"Automatic Amusement Device Operator","LEGAL_NAME":"CEC ENTERTAINMENT, INC.","LONGITUDE":-87.70393836191948},
{"STATE":"IL","ZIP":60634,"LATTITUDE":41.94501011178035,"ADDRESS":"7545 W ADDISON ST 1ST ","YEAR":2008,"DOING_BUSINESS_AS_NAME":"G & A AMUSEMENT LTD","POP_AT_RISK":175602,"BUSINESS_TYPE":"Automatic Amusement Device Operator","LEGAL_NAME":"G & A AMUSEMENT LIMITED","LONGITUDE":-87.81613951887287},
{"STATE":"IL","ZIP":60639,"LATTITUDE":41.927941876789994,"ADDRESS":"4201 W WRIGHTWOOD AVE  100","YEAR":2008,"DOING_BUSINESS_AS_NAME":"MARATHAN AMUSEMENT","POP_AT_RISK":750876,"BUSINESS_TYPE":"Automatic Amusement Device Operator","LEGAL_NAME":"Marathon Amusement Inc.","LONGITUDE":-87.73183685132257},
{"STATE":"IL","ZIP":60647,"LATTITUDE":41.92149772835317,"ADDRESS":"2004 W WEBSTER AVE  1ST","YEAR":2008,"DOING_BUSINESS_AS_NAME":"SYNERGY VENDING SYSTEMS","POP_AT_RISK":497530,"BUSINESS_TYPE":"Automatic Amusement Device Operator","LEGAL_NAME":"SYNERGY VENDING SYSTEMS","LONGITUDE":-87.67797440336489},
{"STATE":"IL","ZIP":60617,"LATTITUDE":41.71765142743601,"ADDRESS":"9801 S EWING AVE  ","YEAR":2008,"DOING_BUSINESS_AS_NAME":"T'S VENDING","POP_AT_RISK":32754,"BUSINESS_TYPE":"Automatic Amusement Device Operator","LEGAL_NAME":"THEODORE J. CATTONI JR.","LONGITUDE":-87.53513484814188},
{"STATE":"IL","ZIP":60612,"LATTITUDE":41.89379308914981,"ADDRESS":"700 N SACRAMENTO BLVD  ","YEAR":2008,"DOING_BUSINESS_AS_NAME":"DIAL AMUSEMENT COMPANY","POP_AT_RISK":423400,"BUSINESS_TYPE":"Automatic Amusement Device Operator","LEGAL_NAME":"DIAL AMUSEMENT CO., INC.","LONGITUDE":-87.70229798303369},
{"STATE":"IL","ZIP":60607,"LATTITUDE":41.86921677973378,"ADDRESS":"1421 W TAYLOR ST  ","YEAR":2008,"DOING_BUSINESS_AS_NAME":"ILLINOIS OPERATOR","POP_AT_RISK":334332,"BUSINESS_TYPE":"Automatic Amusement Device Operator","LEGAL_NAME":"ILLINOIS BAR & GRILL INC","LONGITUDE":-87.66249389074504},
{"STATE":"IL","ZIP":60618,"LATTITUDE":41.95369115107353,"ADDRESS":"3535 W IRVING PARK RD  ","YEAR":2008,"DOING_BUSINESS_AS_NAME":"C CAPPS JUKE BOX SERVICE","POP_AT_RISK":442953,"BUSINESS_TYPE":"Automatic Amusement Device Operator","LEGAL_NAME":"C CAPPS JUKEBOX SERV, INC","LONGITUDE":-87.71680418417465},
{"STATE":"IL","ZIP":60646,"LATTITUDE":41.98863254695654,"ADDRESS":"5906 N KNOX AVE  ","YEAR":2008,"DOING_BUSINESS_AS_NAME":"J NOMDEN & SONS CORP","POP_AT_RISK":62888,"BUSINESS_TYPE":"Automatic Amusement Device Operator","LEGAL_NAME":"J NOMDEN & SONS CORPORATION","LONGITUDE":-87.74550717849543},
{"STATE":"IL","ZIP":60641,"LATTITUDE":41.93507535769654,"ADDRESS":"2957 N CICERO AVE # 1ST","YEAR":2008,"DOING_BUSINESS_AS_NAME":"A & J AMUSEMENT","POP_AT_RISK":253352,"BUSINESS_TYPE":"Automatic Amusement Device Operator","LEGAL_NAME":"JANUSZ WNUK & ANDRZEJ OSEKA","LONGITUDE":-87.74658937829236},
{"STATE":"IL","ZIP":60655,"LATTITUDE":41.69101068724038,"ADDRESS":"11118 S KEDZIE AVE  1ST","YEAR":2008,"DOING_BUSINESS_AS_NAME":"SHAMROCK AMUSEMENT CO","POP_AT_RISK":144072,"BUSINESS_TYPE":"Automatic Amusement Device Operator","LEGAL_NAME":"SHAMROCK AMUSEMENT CO, INC.","LONGITUDE":-87.70094824208284},
{"STATE":"IL","ZIP":60618,"LATTITUDE":41.95790093498501,"ADDRESS":"4206 N WESTERN AVE  ","YEAR":2008,"DOING_BUSINESS_AS_NAME":"WESTERN AUTOMATIC MUSIC INC","POP_AT_RISK":690312,"BUSINESS_TYPE":"Automatic Amusement Device Operator","LEGAL_NAME":"WESTERN AUTOMATIC MUSIC INC","LONGITUDE":-87.68872829293957},
{"STATE":"IL","ZIP":60628,"LATTITUDE":41.68529437668452,"ADDRESS":"313 E 115TH ST 1ST ","YEAR":2008,"DOING_BUSINESS_AS_NAME":"VALCO VENDING,INC","POP_AT_RISK":113382,"BUSINESS_TYPE":"Automatic Amusement Device Operator","LEGAL_NAME":"ANGELO VALENTE VALCO VEND CO","LONGITUDE":-87.61509232324005},
{"STATE":"IL","ZIP":60632,"LATTITUDE":41.800034054151446,"ADDRESS":"5210 S ARCHER AVE  ","YEAR":2008,"DOING_BUSINESS_AS_NAME":"SIDNEY VANCHIERS & JOS RIGGIO","POP_AT_RISK":119468,"BUSINESS_TYPE":"Automatic Amusement Device Operator","LEGAL_NAME":"SIDNEY VANCHIERS & JOS RIGGIO","LONGITUDE":-87.7349688737846},
{"STATE":"IL","ZIP":60651,"LATTITUDE":41.90237822878506,"ADDRESS":"4435 W DIVISION ST  ","YEAR":2008,"DOING_BUSINESS_AS_NAME":"VALUE VENDING","POP_AT_RISK":96028,"BUSINESS_TYPE":"Automatic Amusement Device Operator","LEGAL_NAME":"VALUE VENDING AND AMUSEMENTS, INC.","LONGITUDE":-87.73751684797544},
{"STATE":"IL","ZIP":60007,"LATTITUDE":42.011198344274554,"ADDRESS":"2001  ESTES   ","YEAR":2008,"DOING_BUSINESS_AS_NAME":"DANDY AMUSEMENTS INTERNATIONAL, INC.","POP_AT_RISK":690615,"BUSINESS_TYPE":"Automatic Amusement Device Operator","LEGAL_NAME":"DANDY AMUSEMENTS INTERNATIONAL, INC.","LONGITUDE":-87.68034623091344},
}