{
{"STATE":"IL","ZIP":60707,"LATTITUDE":41.90912535950116,"ADDRESS":"6818 W NORTH AVE  ","YEAR":2008,"DOING_BUSINESS_AS_NAME":"CAFE LAGUARDIA WEST","POP_AT_RISK":172668,"BUSINESS_TYPE":"Outdoor Patio","LEGAL_NAME":"Bubu, Inc.","LONGITUDE":-87.79562029285854},
{"STATE":"IL","ZIP":60630,"LATTITUDE":41.9775034792202,"ADDRESS":"5333 N MILWAUKEE AVE 1ST ","YEAR":2008,"DOING_BUSINESS_AS_NAME":"HAM TREE INN","POP_AT_RISK":135024,"BUSINESS_TYPE":"Outdoor Patio","LEGAL_NAME":"H.T.A. INC.","LONGITUDE":-87.76923663085236},
{"STATE":"IL","ZIP":60638,"LATTITUDE":41.79812662454975,"ADDRESS":"5518 S ARCHER AVE  D","YEAR":2008,"DOING_BUSINESS_AS_NAME":"BOHICA RESTAURANT","POP_AT_RISK":182152,"BUSINESS_TYPE":"Outdoor Patio","LEGAL_NAME":"BOHICA, INC.","LONGITUDE":-87.74741651396842},
{"STATE":"IL","ZIP":60626,"LATTITUDE":42.01890350707934,"ADDRESS":"7541-7545 N CLARK ST 1ST ","YEAR":2008,"DOING_BUSINESS_AS_NAME":"HARD WATER BAR & GRILL","POP_AT_RISK":125148,"BUSINESS_TYPE":"Outdoor Patio","LEGAL_NAME":"KEFALOS, INC.","LONGITUDE":-87.67595814790334},
{"STATE":"IL","ZIP":60612,"LATTITUDE":41.86910773759604,"ADDRESS":"2322-2324 W TAYLOR ST  ","YEAR":2008,"DOING_BUSINESS_AS_NAME":"DAMENZO'S INC","POP_AT_RISK":255663,"BUSINESS_TYPE":"Outdoor Patio","LEGAL_NAME":"DAMENZO'S, INC.","LONGITUDE":-87.6845837581009},
{"STATE":"IL","ZIP":60652,"LATTITUDE":41.74056837192125,"ADDRESS":"8352 S PULASKI RD  ","YEAR":2008,"DOING_BUSINESS_AS_NAME":"ANGIE'S","POP_AT_RISK":191052,"BUSINESS_TYPE":"Outdoor Patio","LEGAL_NAME":"EAT-N-PIE, INC.","LONGITUDE":-87.7217734812376},
{"STATE":"IL","ZIP":60645,"LATTITUDE":42.01924584097389,"ADDRESS":"2727 W HOWARD ST 1ST ","YEAR":2008,"DOING_BUSINESS_AS_NAME":"GULLIVER'S INC","POP_AT_RISK":87300,"BUSINESS_TYPE":"Outdoor Patio","LEGAL_NAME":"GULLIVERS, INC.","LONGITUDE":-87.69833170944449},
{"STATE":"IL","ZIP":60640,"LATTITUDE":41.97406911941592,"ADDRESS":"5024 N SHERIDAN RD  1ST F","YEAR":2008,"DOING_BUSINESS_AS_NAME":"BIG CHICKS, INC.","POP_AT_RISK":59642,"BUSINESS_TYPE":"Outdoor Patio","LEGAL_NAME":"BIG CHICKS, INC.","LONGITUDE":-87.6550944919287},
{"STATE":"IL","ZIP":60630,"LATTITUDE":41.96315881688357,"ADDRESS":"4530 N MILWAUKEE AVE  ","YEAR":2008,"DOING_BUSINESS_AS_NAME":"THE WINDSOR","POP_AT_RISK":196644,"BUSINESS_TYPE":"Outdoor Patio","LEGAL_NAME":"CARUSO'S, L.L.C.","LONGITUDE":-87.75684243172473},
{"STATE":"IL","ZIP":60615,"LATTITUDE":41.79492106897254,"ADDRESS":"1055 E 55TH ST  ","YEAR":2008,"DOING_BUSINESS_AS_NAME":"SEVEN TEN","POP_AT_RISK":558852,"BUSINESS_TYPE":"Outdoor Patio","LEGAL_NAME":"STRIKE TWO CORP.","LONGITUDE":-87.59985203106729},
{"STATE":"IL","ZIP":60616,"LATTITUDE":41.852075574499366,"ADDRESS":"2233 S DR MARTIN LUTHER KING JR DR  ","YEAR":2008,"DOING_BUSINESS_AS_NAME":"HYATT REGENCY MCCORMICK PLACE HOTEL","POP_AT_RISK":35622,"BUSINESS_TYPE":"Outdoor Patio","LEGAL_NAME":"HYATT CORPORATION","LONGITUDE":-87.61885080391755},
{"STATE":"IL","ZIP":60634,"LATTITUDE":41.95034769269968,"ADDRESS":"3848 N HARLEM AVE  ","YEAR":2008,"DOING_BUSINESS_AS_NAME":"P J'S BREWERY","POP_AT_RISK":209321,"BUSINESS_TYPE":"Outdoor Patio","LEGAL_NAME":"P J'S BREWERY INC","LONGITUDE":-87.80732944580947},
{"STATE":"IL","ZIP":60609,"LATTITUDE":41.82365514125402,"ADDRESS":"514 W PERSHING RD  W","YEAR":2008,"DOING_BUSINESS_AS_NAME":"COBBLESTONES BAR & GRILL","POP_AT_RISK":350400,"BUSINESS_TYPE":"Outdoor Patio","LEGAL_NAME":"LAURETTE N VACCARO","LONGITUDE":-87.63927207504646},
{"STATE":"IL","ZIP":60647,"LATTITUDE":41.92443853485333,"ADDRESS":"3749 W FULLERTON AVE  ","YEAR":2008,"DOING_BUSINESS_AS_NAME":"FONDA DEL MAR, INC.","POP_AT_RISK":794210,"BUSINESS_TYPE":"Outdoor Patio","LEGAL_NAME":"FONDA DEL MAR, INC.","LONGITUDE":-87.72142590385965},
{"STATE":"IL","ZIP":60622,"LATTITUDE":41.895543708081156,"ADDRESS":"2801 W CHICAGO AVE  ","YEAR":2008,"DOING_BUSINESS_AS_NAME":"THE CONTINENTAL LOUNGE","POP_AT_RISK":169856,"BUSINESS_TYPE":"Outdoor Patio","LEGAL_NAME":"WESTSIDE RAIL, INC.","LONGITUDE":-87.69676464023073},
{"STATE":"IL","ZIP":60659,"LATTITUDE":41.99057771185899,"ADDRESS":"2610-2612 W PETERSON AVE  ","YEAR":2008,"DOING_BUSINESS_AS_NAME":"PICCOLO","POP_AT_RISK":384186,"BUSINESS_TYPE":"Outdoor Patio","LEGAL_NAME":"2610 RESTAURANT INC.","LONGITUDE":-87.69505159486957},
{"STATE":"IL","ZIP":60632,"LATTITUDE":41.81185327457733,"ADDRESS":"4459 S KEDZIE AVE  ","YEAR":2008,"DOING_BUSINESS_AS_NAME":"CITY REFLECTIONS INC","POP_AT_RISK":590256,"BUSINESS_TYPE":"Outdoor Patio","LEGAL_NAME":"CITY REFLECTIONS INC","LONGITUDE":-87.70397505463012},
{"STATE":"IL","ZIP":60616,"LATTITUDE":41.849379215218015,"ADDRESS":"2373 S ARCHER AVE 1ST ","YEAR":2008,"DOING_BUSINESS_AS_NAME":"CONNIE'S PIZZA","POP_AT_RISK":143328,"BUSINESS_TYPE":"Outdoor Patio","LEGAL_NAME":"CONNIE'S PIZZA, INC.","LONGITUDE":-87.64105840223819},
{"STATE":"IL","ZIP":60618,"LATTITUDE":41.944311953934424,"ADDRESS":"3471 N ELSTON AVE 1ST ","YEAR":2008,"DOING_BUSINESS_AS_NAME":"CHIEF O'NEILL'S PUB & RESTAURANT","POP_AT_RISK":54443,"BUSINESS_TYPE":"Outdoor Patio","LEGAL_NAME":"MCKINNEY'S PUB, LTD.","LONGITUDE":-87.7052548221551},
{"STATE":"IL","ZIP":60634,"LATTITUDE":41.95302030864294,"ADDRESS":"5737 W IRVING PARK RD  ","YEAR":2008,"DOING_BUSINESS_AS_NAME":"MARTINI CLUB","POP_AT_RISK":330750,"BUSINESS_TYPE":"Outdoor Patio","LEGAL_NAME":"O'CONNOR'S PUB, INC.","LONGITUDE":-87.77096800058055},
{"STATE":"IL","ZIP":60656,"LATTITUDE":41.96645317297049,"ADDRESS":"8443-8445 W LAWRENCE AVE  ","YEAR":2008,"DOING_BUSINESS_AS_NAME":"CAFE IL CORTILE","POP_AT_RISK":34164,"BUSINESS_TYPE":"Outdoor Patio","LEGAL_NAME":"CAFE IL CORTILE, INC.","LONGITUDE":-87.83838525840713},
{"STATE":"IL","ZIP":60631,"LATTITUDE":41.99862606070334,"ADDRESS":"6458 N MILWAUKEE AVE 1 ","YEAR":2008,"DOING_BUSINESS_AS_NAME":"ALEXANDRA'S CAFE SHOP","POP_AT_RISK":20191,"BUSINESS_TYPE":"Outdoor Patio","LEGAL_NAME":"ALEXANDRA'S CAFE CORP.","LONGITUDE":-87.78921768990368},
{"STATE":"IL","ZIP":60655,"LATTITUDE":41.70582355306317,"ADDRESS":"3901 W 103RD ST  ","YEAR":2008,"DOING_BUSINESS_AS_NAME":"GILHOOLEY'S GRANDE SALOON","POP_AT_RISK":45604,"BUSINESS_TYPE":"Outdoor Patio","LEGAL_NAME":"COMPASS GROUP USA, INC.","LONGITUDE":-87.71853994620498},
{"STATE":"IL","ZIP":60637,"LATTITUDE":41.79518501605705,"ADDRESS":"5500 S SHORE DR  ","YEAR":2008,"DOING_BUSINESS_AS_NAME":"BAR LOUIE","POP_AT_RISK":136700,"BUSINESS_TYPE":"Outdoor Patio","LEGAL_NAME":"BAR LOUIE HYDE PARK, INC.","LONGITUDE":-87.58059777168157},
{"STATE":"IL","ZIP":60638,"LATTITUDE":41.792013747165264,"ADDRESS":"6843 W ARCHER AVE  ","YEAR":2008,"DOING_BUSINESS_AS_NAME":"BOBBY G'S","POP_AT_RISK":75188,"BUSINESS_TYPE":"Outdoor Patio","LEGAL_NAME":"GRANAT'S FIRST COUNT, INC.","LONGITUDE":-87.79327642871685},
{"STATE":"IL","ZIP":60628,"LATTITUDE":41.69074200662608,"ADDRESS":"11203 S CORLISS AVE 1ST #","YEAR":2008,"DOING_BUSINESS_AS_NAME":"111TH STREET OTB","POP_AT_RISK":42012,"BUSINESS_TYPE":"Outdoor Patio","LEGAL_NAME":"INTER-TRACK PARTNERS L.L.C.","LONGITUDE":-87.60067790215122},
{"STATE":"IL","ZIP":60639,"LATTITUDE":41.928562731071594,"ADDRESS":"2640 N NARRAGANSETT AVE  ","YEAR":2008,"DOING_BUSINESS_AS_NAME":"Chipotle Mexican Grill","POP_AT_RISK":466398,"BUSINESS_TYPE":"Outdoor Patio","LEGAL_NAME":"CHIPOTLE MEXICAN GRILL, INC.","LONGITUDE":-87.7857711640629},
{"STATE":"IL","ZIP":60643,"LATTITUDE":41.7004150669551,"ADDRESS":"10614 S WESTERN AVE  ","YEAR":2008,"DOING_BUSINESS_AS_NAME":"Cork And Kerry","POP_AT_RISK":107615,"BUSINESS_TYPE":"Outdoor Patio","LEGAL_NAME":"Chicago Pizza Department Corp.","LONGITUDE":-87.68157729870354},
{"STATE":"IL","ZIP":60631,"LATTITUDE":41.98740959681793,"ADDRESS":"8725 W HIGGINS RD  ","YEAR":2008,"DOING_BUSINESS_AS_NAME":"THE ORIGINAL GINO'S EAST","POP_AT_RISK":17648,"BUSINESS_TYPE":"Outdoor Patio","LEGAL_NAME":"PORT SILVER LIMITED PARTNERSHIP","LONGITUDE":-87.84438866503623},
}