{
{"STATE":"IL","ZIP":60609,"LATTITUDE":41.82395849637885,"ADDRESS":"3844 S EMERALD AVE  ","YEAR":2005,"DOING_BUSINESS_AS_NAME":"WINGS HEATING COOLING","POP_AT_RISK":62582,"BUSINESS_TYPE":"Home Occupation","LEGAL_NAME":"WING K NG","LONGITUDE":-87.64487665908393},
{"STATE":"IL","ZIP":60626,"LATTITUDE":42.01933156851783,"ADDRESS":"1440 W HOWARD ST  ","YEAR":2005,"DOING_BUSINESS_AS_NAME":"ANIKS, LLC","POP_AT_RISK":50188,"BUSINESS_TYPE":"Home Occupation","LEGAL_NAME":"ANIKS, LLC","LONGITUDE":-87.6677393818976},
{"STATE":"IL","ZIP":60612,"LATTITUDE":41.87460049375172,"ADDRESS":"510 S CLAREMONT AVE 1ST ","YEAR":2005,"DOING_BUSINESS_AS_NAME":"TRI-TAYLOR","POP_AT_RISK":47430,"BUSINESS_TYPE":"Home Occupation","LEGAL_NAME":"ELVIA LOPEZ","LONGITUDE":-87.68516974418817},
{"STATE":"IL","ZIP":60636,"LATTITUDE":41.76231146345891,"ADDRESS":"7222 S HONORE ST 1ST ","YEAR":2005,"DOING_BUSINESS_AS_NAME":"HEAVENLY HELPER'S CLEANING SER","POP_AT_RISK":34420,"BUSINESS_TYPE":"Home Occupation","LEGAL_NAME":"DONNELL HILL","LONGITUDE":-87.66996610650344},
{"STATE":"IL","ZIP":60707,"LATTITUDE":41.913243344391134,"ADDRESS":"1816 N NATOMA AVE  ","YEAR":2005,"DOING_BUSINESS_AS_NAME":"L MANAGEMENT","POP_AT_RISK":205115,"BUSINESS_TYPE":"Home Occupation","LEGAL_NAME":"L MANAGEMENT","LONGITUDE":-87.79139526862487},
{"STATE":"IL","ZIP":60613,"LATTITUDE":41.96166713685557,"ADDRESS":"4343 N CLARENDON AVE  2303","YEAR":2005,"DOING_BUSINESS_AS_NAME":"AC STINER CONSULTING","POP_AT_RISK":66085,"BUSINESS_TYPE":"Home Occupation","LEGAL_NAME":"AMY C. STINER","LONGITUDE":-87.64976056950601},
{"STATE":"IL","ZIP":60617,"LATTITUDE":41.72059011205031,"ADDRESS":"9622 S AVENUE N  1ST ","YEAR":2005,"DOING_BUSINESS_AS_NAME":"PERRY MASON'S TAX\/BOOKKEEPING","POP_AT_RISK":13632,"BUSINESS_TYPE":"Home Occupation","LEGAL_NAME":"DALE T SCHWER","LONGITUDE":-87.53905911237189},
{"STATE":"IL","ZIP":60624,"LATTITUDE":41.882108152760935,"ADDRESS":"4132 W WASHINGTON BLVD 1 ","YEAR":2005,"DOING_BUSINESS_AS_NAME":"DJ CONSTRUCTION","POP_AT_RISK":231845,"BUSINESS_TYPE":"Home Occupation","LEGAL_NAME":"DANARDO JONES","LONGITUDE":-87.72950310044132},
{"STATE":"IL","ZIP":60651,"LATTITUDE":41.89949382282045,"ADDRESS":"1030 N LOREL AVE 1ST ","YEAR":2005,"DOING_BUSINESS_AS_NAME":"P & J CONSTRUCTION COMPANY","POP_AT_RISK":200772,"BUSINESS_TYPE":"Home Occupation","LEGAL_NAME":"DONALD L PAGE","LONGITUDE":-87.75960406085309},
{"STATE":"IL","ZIP":60707,"LATTITUDE":41.92837715297108,"ADDRESS":"2638 N NEW ENGLAND AVE  1","YEAR":2005,"DOING_BUSINESS_AS_NAME":"GUILE'S EYEWEAR & BOUTIQUE","POP_AT_RISK":103358,"BUSINESS_TYPE":"Home Occupation","LEGAL_NAME":"GUILE JACKSON","LONGITUDE":-87.79797892694194},
{"STATE":"IL","ZIP":60613,"LATTITUDE":41.95434471865204,"ADDRESS":"3950 N LAKE SHORE DR D 1620","YEAR":2005,"DOING_BUSINESS_AS_NAME":"MAJESTIC GENTS ENTERTAINMENT","POP_AT_RISK":65569,"BUSINESS_TYPE":"Home Occupation","LEGAL_NAME":"JAMES FRAZIER","LONGITUDE":-87.6453496205995},
{"STATE":"IL","ZIP":60632,"LATTITUDE":41.818686295979894,"ADDRESS":"4118 S ARTESIAN AVE  ","YEAR":2005,"DOING_BUSINESS_AS_NAME":"MARTINA PEREZ","POP_AT_RISK":113116,"BUSINESS_TYPE":"Home Occupation","LEGAL_NAME":"MARTINA PEREZ","LONGITUDE":-87.68613064332143},
{"STATE":"IL","ZIP":60623,"LATTITUDE":41.841419913045335,"ADDRESS":"2739 S ST LOUIS AVE  ","YEAR":2005,"DOING_BUSINESS_AS_NAME":"REYNALDO RIOS","POP_AT_RISK":557976,"BUSINESS_TYPE":"Home Occupation","LEGAL_NAME":"REYNALDO RIOS","LONGITUDE":-87.712124558208},
{"STATE":"IL","ZIP":60641,"LATTITUDE":41.960706512171285,"ADDRESS":"5204 W MONTROSE AVE  ","YEAR":2005,"DOING_BUSINESS_AS_NAME":"ANASINSKI","POP_AT_RISK":133566,"BUSINESS_TYPE":"Home Occupation","LEGAL_NAME":"ANDY ANASINSKI","LONGITUDE":-87.7576651026104},
{"STATE":"IL","ZIP":60628,"LATTITUDE":41.67050376692177,"ADDRESS":"12308 S INDIANA AVE 1ST ","YEAR":2005,"DOING_BUSINESS_AS_NAME":"WILLS MEDICAL BILLINGS","POP_AT_RISK":15756,"BUSINESS_TYPE":"Home Occupation","LEGAL_NAME":"GLORIA J WILLS","LONGITUDE":-87.61751453166144},
{"STATE":"IL","ZIP":60608,"LATTITUDE":41.857996088997425,"ADDRESS":"1739 S HALSTED ST  2-F","YEAR":2005,"DOING_BUSINESS_AS_NAME":"ART OF SINISTRY","POP_AT_RISK":213456,"BUSINESS_TYPE":"Home Occupation","LEGAL_NAME":"MAYA A SHURLEY","LONGITUDE":-87.64649983463137},
{"STATE":"IL","ZIP":60621,"LATTITUDE":41.760362859126005,"ADDRESS":"7339 S PEORIA ST 1ST ","YEAR":2005,"DOING_BUSINESS_AS_NAME":"CARI'S SECRETARIAL SERVICES","POP_AT_RISK":39172,"BUSINESS_TYPE":"Home Occupation","LEGAL_NAME":"CARRIE L DUNCAN","LONGITUDE":-87.64656770763574},
{"STATE":"IL","ZIP":60637,"LATTITUDE":41.78817932537018,"ADDRESS":"5851 S BLACKSTONE AVE  214","YEAR":2005,"DOING_BUSINESS_AS_NAME":"POLAR GRAPHICS","POP_AT_RISK":36877,"BUSINESS_TYPE":"Home Occupation","LEGAL_NAME":"JULIE A. LARSON","LONGITUDE":-87.59003060493444},
{"STATE":"IL","ZIP":60659,"LATTITUDE":41.99534784709979,"ADDRESS":"6250 N ALBANY AVE  ","YEAR":2005,"DOING_BUSINESS_AS_NAME":"MAY'S CLEANING SERVICE","POP_AT_RISK":103658,"BUSINESS_TYPE":"Home Occupation","LEGAL_NAME":"KHOSHABA SARKIS","LONGITUDE":-87.70699878975833},
{"STATE":"IL","ZIP":60629,"LATTITUDE":41.79229777292703,"ADDRESS":"3631 W 55TH PL  ","YEAR":2005,"DOING_BUSINESS_AS_NAME":"CHI-TOWN HEATING & COOLING","POP_AT_RISK":55574,"BUSINESS_TYPE":"Home Occupation","LEGAL_NAME":"MARIAN M KUSPER","LONGITUDE":-87.7148227389006},
{"STATE":"IL","ZIP":60629,"LATTITUDE":41.7854196866321,"ADDRESS":"5935 S MAPLEWOOD AVE 1 ","YEAR":2005,"DOING_BUSINESS_AS_NAME":"ML & H HEALTHY LIVIN & TRAVEL","POP_AT_RISK":213972,"BUSINESS_TYPE":"Home Occupation","LEGAL_NAME":"MELVIN L HENLEY","LONGITUDE":-87.6873220047781},
{"STATE":"IL","ZIP":60646,"LATTITUDE":41.99406461039594,"ADDRESS":"6217 W HUNTINGTON ST  ","YEAR":2005,"DOING_BUSINESS_AS_NAME":"MANNION SEWERAGE","POP_AT_RISK":43028,"BUSINESS_TYPE":"Home Occupation","LEGAL_NAME":"MIKE MANNION SR","LONGITUDE":-87.78358780427489},
{"STATE":"IL","ZIP":60656,"LATTITUDE":41.97029993582406,"ADDRESS":"4905 N NOTTINGHAM AVE  ","YEAR":2005,"DOING_BUSINESS_AS_NAME":"B.K. CONTRACTING","POP_AT_RISK":90756,"BUSINESS_TYPE":"Home Occupation","LEGAL_NAME":"B.K. CONTRACTING","LONGITUDE":-87.80351831603943},
{"STATE":"IL","ZIP":60653,"LATTITUDE":41.81063738991923,"ADDRESS":"4624 S ELLIS AVE  ","YEAR":2005,"DOING_BUSINESS_AS_NAME":"CHRISTINE'S CLEANING","POP_AT_RISK":38623,"BUSINESS_TYPE":"Home Occupation","LEGAL_NAME":"CHRISTINE MATHIS","LONGITUDE":-87.60186884782422},
{"STATE":"IL","ZIP":60660,"LATTITUDE":41.99824422132006,"ADDRESS":"1400 W DEVON AVE  ","YEAR":2005,"DOING_BUSINESS_AS_NAME":"VIP CONNECTIONS","POP_AT_RISK":233556,"BUSINESS_TYPE":"Home Occupation","LEGAL_NAME":"KRYSTYNA A. KWAK","LONGITUDE":-87.66556977738593},
{"STATE":"IL","ZIP":60628,"LATTITUDE":41.71664274750548,"ADDRESS":"9740 S UNION AVE  ","YEAR":2005,"DOING_BUSINESS_AS_NAME":"B & H BOWLING SUPPLIES","POP_AT_RISK":25334,"BUSINESS_TYPE":"Home Occupation","LEGAL_NAME":"PEARLITA O BROWN","LONGITUDE":-87.6408005073676},
{"STATE":"IL","ZIP":60636,"LATTITUDE":41.77199385697801,"ADDRESS":"1903 W MARQUETTE RD  ","YEAR":2005,"DOING_BUSINESS_AS_NAME":"ROSETTA BUCHANAN OFFICE SUPPLIES","POP_AT_RISK":132880,"BUSINESS_TYPE":"Home Occupation","LEGAL_NAME":"ROSETTA BUCHANAN","LONGITUDE":-87.67143909051079},
{"STATE":"IL","ZIP":60629,"LATTITUDE":41.79155997328838,"ADDRESS":"3836 W 56TH ST  ","YEAR":2005,"DOING_BUSINESS_AS_NAME":"CORONA LANDSCAPING","POP_AT_RISK":51166,"BUSINESS_TYPE":"Home Occupation","LEGAL_NAME":"MANUEL C. ALVAREZ","LONGITUDE":-87.7197035792253},
{"STATE":"IL","ZIP":60623,"LATTITUDE":41.850851275555,"ADDRESS":"2849 W 22ND PL  ","YEAR":2005,"DOING_BUSINESS_AS_NAME":"FLORES INCOME TAX","POP_AT_RISK":308930,"BUSINESS_TYPE":"Home Occupation","LEGAL_NAME":"ROSA MARIA FLORES","LONGITUDE":-87.69724984535254},
{"STATE":"IL","ZIP":60651,"LATTITUDE":41.89745895008094,"ADDRESS":"906 N PULASKI RD  ","YEAR":2005,"DOING_BUSINESS_AS_NAME":"CAPTAIN CONSTRUCTION","POP_AT_RISK":42723,"BUSINESS_TYPE":"Home Occupation","LEGAL_NAME":"HECTOR M HERNANDEZ","LONGITUDE":-87.72629569909596},
{"STATE":"IL","ZIP":60617,"LATTITUDE":41.717952274289125,"ADDRESS":"9737 S MARQUETTE AVE  ","YEAR":2005,"DOING_BUSINESS_AS_NAME":"MAYA WINDOWS INC","POP_AT_RISK":20395,"BUSINESS_TYPE":"Home Occupation","LEGAL_NAME":"MAYA WINDOWS, INC.","LONGITUDE":-87.55779869054919},
{"STATE":"IL","ZIP":60637,"LATTITUDE":41.778806443721464,"ADDRESS":"6351 S RHODES AVE # 1ST","YEAR":2005,"DOING_BUSINESS_AS_NAME":"FUNCEE'S V-DESIGN","POP_AT_RISK":37028,"BUSINESS_TYPE":"Home Occupation","LEGAL_NAME":"FLORENCE V STREETER","LONGITUDE":-87.61184171391689},
{"STATE":"IL","ZIP":60634,"LATTITUDE":41.952176585446296,"ADDRESS":"6110 W DAKIN ST  ","YEAR":2005,"DOING_BUSINESS_AS_NAME":"SANTIAGO CONTRACTORS","POP_AT_RISK":44070,"BUSINESS_TYPE":"Home Occupation","LEGAL_NAME":"ISMAEL SANTIAGO, JR","LONGITUDE":-87.77968617174702},
{"STATE":"IL","ZIP":60632,"LATTITUDE":41.81324881736896,"ADDRESS":"4419 S CAMPBELL AVE  ","YEAR":2005,"DOING_BUSINESS_AS_NAME":"PATRICIA J. ROCHA","POP_AT_RISK":97152,"BUSINESS_TYPE":"Home Occupation","LEGAL_NAME":"PATRICIA J. SAUCEDO","LONGITUDE":-87.68690022822754},
{"STATE":"IL","ZIP":60633,"LATTITUDE":41.65101815637948,"ADDRESS":"13427 S GREEN BAY AVE  ","YEAR":2005,"DOING_BUSINESS_AS_NAME":"ROCHA TRUCKING INC.","POP_AT_RISK":21668,"BUSINESS_TYPE":"Home Occupation","LEGAL_NAME":"ROCHA TRUCKING INC.","LONGITUDE":-87.54095444301278},
{"STATE":"IL","ZIP":60624,"LATTITUDE":41.86728931604929,"ADDRESS":"3642 W GRENSHAW ST  ","YEAR":2005,"DOING_BUSINESS_AS_NAME":"CONCERN PEST CONTROL","POP_AT_RISK":274314,"BUSINESS_TYPE":"Home Occupation","LEGAL_NAME":"CONCERN PEST CONTROL","LONGITUDE":-87.71711638426036},
{"STATE":"IL","ZIP":60617,"LATTITUDE":41.7483768471487,"ADDRESS":"8053 S KINGSTON AVE  ","YEAR":2005,"DOING_BUSINESS_AS_NAME":"LAKEFRONT MANAGEMENT","POP_AT_RISK":72872,"BUSINESS_TYPE":"Home Occupation","LEGAL_NAME":"LAKEFRONT MANAGEMENT","LONGITUDE":-87.5623913705248},
{"STATE":"IL","ZIP":60616,"LATTITUDE":41.83521243565351,"ADDRESS":"3239 S PRINCETON AVE  ","YEAR":2005,"DOING_BUSINESS_AS_NAME":"M & M  MECHANICAL INC.","POP_AT_RISK":165440,"BUSINESS_TYPE":"Home Occupation","LEGAL_NAME":"M & M MECHANICAL INC","LONGITUDE":-87.63388277918231},
{"STATE":"IL","ZIP":60634,"LATTITUDE":41.938705448080775,"ADDRESS":"3229 N OVERHILL AVE  ","YEAR":2005,"DOING_BUSINESS_AS_NAME":"WHISKER WALKERS","POP_AT_RISK":33920,"BUSINESS_TYPE":"Home Occupation","LEGAL_NAME":"PATTI ANNE SCHRAEDER","LONGITUDE":-87.81884879280864},
{"STATE":"IL","ZIP":60638,"LATTITUDE":41.77545538502277,"ADDRESS":"5540 W 64TH PL 1ST ","YEAR":2005,"DOING_BUSINESS_AS_NAME":"HEATING SERVICE","POP_AT_RISK":40593,"BUSINESS_TYPE":"Home Occupation","LEGAL_NAME":"STANISLAW STACHOWICZ","LONGITUDE":-87.76082185591034},
{"STATE":"IL","ZIP":60613,"LATTITUDE":41.95023887814168,"ADDRESS":"3750 N WOLCOTT AVE  ","YEAR":2005,"DOING_BUSINESS_AS_NAME":"DABBLER & ASSOC. INC","POP_AT_RISK":61233,"BUSINESS_TYPE":"Home Occupation","LEGAL_NAME":"DABBLER & ASSOC. INC.","LONGITUDE":-87.6763763379832},
{"STATE":"IL","ZIP":60645,"LATTITUDE":42.01739839013277,"ADDRESS":"7450 N ARTESIAN AVE  ","YEAR":2005,"DOING_BUSINESS_AS_NAME":"DISCOVERY TOURS INTERNATIONAL","POP_AT_RISK":249175,"BUSINESS_TYPE":"Home Occupation","LEGAL_NAME":"MARY CHARLENE VINCENZO","LONGITUDE":-87.69152304507413},
{"STATE":"IL","ZIP":60647,"LATTITUDE":41.921709848358866,"ADDRESS":"3717 W LYNDALE ST  ","YEAR":2005,"DOING_BUSINESS_AS_NAME":"ANABELS CLEANING SERVICE","POP_AT_RISK":159530,"BUSINESS_TYPE":"Home Occupation","LEGAL_NAME":"ANABELS CLEANING SERVICE","LONGITUDE":-87.7200838751394},
{"STATE":"IL","ZIP":60607,"LATTITUDE":41.872470893315594,"ADDRESS":"720 S CARPENTER ST 1ST 100","YEAR":2005,"DOING_BUSINESS_AS_NAME":"ALL HOME WIRING SOLUTIONS","POP_AT_RISK":127668,"BUSINESS_TYPE":"Home Occupation","LEGAL_NAME":"ALL HOME WIRING SOLUTIONS","LONGITUDE":-87.65342318553776},
{"STATE":"IL","ZIP":60646,"LATTITUDE":42.00775189644119,"ADDRESS":"6920 N MCALPIN AVE  ","YEAR":2005,"DOING_BUSINESS_AS_NAME":"TOP BUILDERS INC","POP_AT_RISK":14878,"BUSINESS_TYPE":"Home Occupation","LEGAL_NAME":"TOP BUILDERS INCORPORATED","LONGITUDE":-87.78392887634494},
{"STATE":"IL","ZIP":60620,"LATTITUDE":41.72367806142227,"ADDRESS":"9329 S CLAREMONT AVE  ","YEAR":2005,"DOING_BUSINESS_AS_NAME":"DIRTY WORK MAID & CLEANING SERV","POP_AT_RISK":35217,"BUSINESS_TYPE":"Home Occupation","LEGAL_NAME":"DIRTY WORK MAID & CLEANING","LONGITUDE":-87.68077095427068},
{"STATE":"IL","ZIP":60643,"LATTITUDE":41.70541836492036,"ADDRESS":"10335 S HAMILTON AVE  ","YEAR":2005,"DOING_BUSINESS_AS_NAME":"ENGLISH COMMUNICATIONS","POP_AT_RISK":22491,"BUSINESS_TYPE":"Home Occupation","LEGAL_NAME":"ENGLISH COMMUNICATIONS INC.","LONGITUDE":-87.67538675572042},
{"STATE":"IL","ZIP":60629,"LATTITUDE":41.77186951571698,"ADDRESS":"6640 S KOLIN AVE  ","YEAR":2005,"DOING_BUSINESS_AS_NAME":"STANDARD CONSTRUCTION","POP_AT_RISK":125864,"BUSINESS_TYPE":"Home Occupation","LEGAL_NAME":"STANDARD CONSTRUCTION, INC.","LONGITUDE":-87.73126654194924},
{"STATE":"IL","ZIP":60634,"LATTITUDE":41.93873300232051,"ADDRESS":"3232 N PAGE AVE  ","YEAR":2005,"DOING_BUSINESS_AS_NAME":"DRAKE PACKAGING SOLUTION INC","POP_AT_RISK":32652,"BUSINESS_TYPE":"Home Occupation","LEGAL_NAME":"DRAKE PACKAGING SOLUTION INC","LONGITUDE":-87.82771956117652},
{"STATE":"IL","ZIP":60620,"LATTITUDE":41.74952019529215,"ADDRESS":"7932 S SANGAMON ST  ","YEAR":2005,"DOING_BUSINESS_AS_NAME":"HOUSE DOCTOR CONSTRUCTION","POP_AT_RISK":149828,"BUSINESS_TYPE":"Home Occupation","LEGAL_NAME":"HOUSE DOCTOR CONSTRUCTION INC","LONGITUDE":-87.64779495799824},
{"STATE":"IL","ZIP":60616,"LATTITUDE":41.83597610218231,"ADDRESS":"601 E 32ND ST  206","YEAR":2005,"DOING_BUSINESS_AS_NAME":"CREATIVE EVENT SOLUTIONS, INC.","POP_AT_RISK":21771,"BUSINESS_TYPE":"Home Occupation","LEGAL_NAME":"CREATIVE EVENT SOLUTIONS, INC.","LONGITUDE":-87.61154076113363},
{"STATE":"IL","ZIP":60618,"LATTITUDE":41.95905601148334,"ADDRESS":"4245 N BELL AVE 1ST ","YEAR":2005,"DOING_BUSINESS_AS_NAME":"OLD CHICAGO CONSTRUCTION INC","POP_AT_RISK":63516,"BUSINESS_TYPE":"Home Occupation","LEGAL_NAME":"OLD CHICAGO CONSTRUCTION, INC.","LONGITUDE":-87.68482600360272},
{"STATE":"IL","ZIP":60615,"LATTITUDE":41.807468730424795,"ADDRESS":"417 E 48TH ST  ","YEAR":2005,"DOING_BUSINESS_AS_NAME":"VISUAL INVESTMENT   PROPERTIES","POP_AT_RISK":37097,"BUSINESS_TYPE":"Home Occupation","LEGAL_NAME":"VISUAL INVESTMANT  PROPERTIE INC","LONGITUDE":-87.61555293087714},
}