{
{"STATE":"IL","ZIP":60639,"LATTITUDE":41.92148535721011,"ADDRESS":"2230 N LAPORTE AVE 2ND 2N","YEAR":2012,"DOING_BUSINESS_AS_NAME":"ARTEMIDA CONSTRUCTION","POP_AT_RISK":234304,"BUSINESS_TYPE":"Expediter - Class B","LEGAL_NAME":"ANNA KORNAS","LONGITUDE":-87.75006838034615},
{"STATE":"IL","ZIP":60645,"LATTITUDE":42.01028306275302,"ADDRESS":"2946 W ESTES AVE  ","YEAR":2012,"DOING_BUSINESS_AS_NAME":"CHES CONSULTANTS","POP_AT_RISK":39772,"BUSINESS_TYPE":"Expediter - Class B","LEGAL_NAME":"HARVEY LUPU","LONGITUDE":-87.70393397489583},
{"STATE":"IL","ZIP":60642,"LATTITUDE":41.90347916419187,"ADDRESS":"1504 W DIVISION ST 2ND 2F","YEAR":2012,"DOING_BUSINESS_AS_NAME":"SBI GLOBAL SOLUTIONS","POP_AT_RISK":110122,"BUSINESS_TYPE":"Expediter - Class B","LEGAL_NAME":"DIANA TORRES","LONGITUDE":-87.66528398492193},
{"STATE":"IL","ZIP":60631,"LATTITUDE":41.99381135999219,"ADDRESS":"6670 W RAVEN ST  ","YEAR":2012,"DOING_BUSINESS_AS_NAME":"EILEEN BOYLE","POP_AT_RISK":54717,"BUSINESS_TYPE":"Expediter - Class B","LEGAL_NAME":"EILEEN BOYLE","LONGITUDE":-87.79444620775332},
{"STATE":"IL","ZIP":60652,"LATTITUDE":41.75504427973339,"ADDRESS":"7600 S PULASKI RD 1ST 2N","YEAR":2012,"DOING_BUSINESS_AS_NAME":"JAWDAT SALEM","POP_AT_RISK":88272,"BUSINESS_TYPE":"Expediter - Class B","LEGAL_NAME":"JAWDAT SALEM","LONGITUDE":-87.72231551402173},
{"STATE":"IL","ZIP":60608,"LATTITUDE":41.85905810833332,"ADDRESS":"1623 S BLUE ISLAND AVE  ","YEAR":2012,"DOING_BUSINESS_AS_NAME":"ULISES M. VILLA","POP_AT_RISK":542052,"BUSINESS_TYPE":"Expediter - Class B","LEGAL_NAME":"ULISES VILLA","LONGITUDE":-87.6599568064921},
{"STATE":"IL","ZIP":60632,"LATTITUDE":41.793610473557656,"ADDRESS":"3218 W 55TH ST 1 ","YEAR":2012,"DOING_BUSINESS_AS_NAME":"ANSELMO GOMEZ","POP_AT_RISK":122994,"BUSINESS_TYPE":"Expediter - Class B","LEGAL_NAME":"ANSELMO GOMEZ","LONGITUDE":-87.70444634321306},
{"STATE":"IL","ZIP":60647,"LATTITUDE":41.921483071021285,"ADDRESS":"2026 W WEBSTER AVE 3RD ","YEAR":2012,"DOING_BUSINESS_AS_NAME":"ANTHONY ORTIZ","POP_AT_RISK":94664,"BUSINESS_TYPE":"Expediter - Class B","LEGAL_NAME":"ANTHONY ORTIZ","LONGITUDE":-87.6788476457194},
{"STATE":"IL","ZIP":60637,"LATTITUDE":41.78304879200861,"ADDRESS":"6139 S DORCHESTER AVE 1ST ","YEAR":2012,"DOING_BUSINESS_AS_NAME":"MARKO STAMBUK","POP_AT_RISK":390897,"BUSINESS_TYPE":"Expediter - Class B","LEGAL_NAME":"MARKO STAMBUK","LONGITUDE":-87.59125848739828},
{"STATE":"IL","ZIP":60659,"LATTITUDE":41.99792922712074,"ADDRESS":"2150 W DEVON AVE 1 1W","YEAR":2012,"DOING_BUSINESS_AS_NAME":"MINHAJ AKHTAR","POP_AT_RISK":214968,"BUSINESS_TYPE":"Expediter - Class B","LEGAL_NAME":"MINHAJ AKHTAR","LONGITUDE":-87.68461661009121},
{"STATE":"IL","ZIP":60640,"LATTITUDE":41.97348332585818,"ADDRESS":"5027 N BROADWAY   ","YEAR":2012,"DOING_BUSINESS_AS_NAME":"GIANG T NGUYEN","POP_AT_RISK":655281,"BUSINESS_TYPE":"Expediter - Class B","LEGAL_NAME":"GIANG T NGUYEN","LONGITUDE":-87.65964293319709},
{"STATE":"IL","ZIP":60618,"LATTITUDE":41.93252806254941,"ADDRESS":"2814 N ALBANY AVE 1ST ","YEAR":2012,"DOING_BUSINESS_AS_NAME":"JESUS GONZALEZ","POP_AT_RISK":917956,"BUSINESS_TYPE":"Expediter - Class B","LEGAL_NAME":"JESUS GONZALEZ","LONGITUDE":-87.70513964329243},
{"STATE":"IL","ZIP":60629,"LATTITUDE":41.781968095273925,"ADDRESS":"6128 S MAPLEWOOD AVE 1ST ","YEAR":2012,"DOING_BUSINESS_AS_NAME":"CHIICAGO CITY EXPEDITERS","POP_AT_RISK":235645,"BUSINESS_TYPE":"Expediter - Class B","LEGAL_NAME":"SHARON D BURCH","LONGITUDE":-87.68752911519721},
{"STATE":"IL","ZIP":60628,"LATTITUDE":41.68663985168138,"ADDRESS":"11416 S PRAIRIE AVE  ","YEAR":2012,"DOING_BUSINESS_AS_NAME":"ANTHONY DANIEL ROWE","POP_AT_RISK":56691,"BUSINESS_TYPE":"Expediter - Class B","LEGAL_NAME":"ANTHONY D. ROWE","LONGITUDE":-87.61699006178297},
{"STATE":"IL","ZIP":60639,"LATTITUDE":41.91921804753989,"ADDRESS":"2107 N PULASKI RD 2 ","YEAR":2012,"DOING_BUSINESS_AS_NAME":"BOGUSLAW J. BIL","POP_AT_RISK":74185,"BUSINESS_TYPE":"Expediter - Class B","LEGAL_NAME":"BOGUSLAW J. BIL","LONGITUDE":-87.72647396053416},
{"STATE":"IL","ZIP":60618,"LATTITUDE":41.94058303002447,"ADDRESS":"2022 W MELROSE ST 1ST ","YEAR":2012,"DOING_BUSINESS_AS_NAME":"GSJ DESIGN","POP_AT_RISK":1051099,"BUSINESS_TYPE":"Expediter - Class B","LEGAL_NAME":"JOANNA DRUZGALA","LONGITUDE":-87.67933140636097},
{"STATE":"IL","ZIP":60601,"LATTITUDE":41.885822047853026,"ADDRESS":"203 N LA SALLE ST 1 ","YEAR":2012,"DOING_BUSINESS_AS_NAME":"PAPA CTO CONSULTING","POP_AT_RISK":127944,"BUSINESS_TYPE":"Expediter - Class B","LEGAL_NAME":"JULIO A. GARCIA","LONGITUDE":-87.63230373508567},
{"STATE":"IL","ZIP":60015,"LATTITUDE":42.01742202676385,"ADDRESS":"2739  BIRCHWOOD LN  ","YEAR":2012,"DOING_BUSINESS_AS_NAME":"EXPEDITER","POP_AT_RISK":174600,"BUSINESS_TYPE":"Expediter - Class B","LEGAL_NAME":"KASIA KRASOWSKA","LONGITUDE":-87.6988139454781},
{"STATE":"IL","ZIP":60632,"LATTITUDE":41.794674163871,"ADDRESS":"5413 S ELSDON AVE 2N ","YEAR":2012,"DOING_BUSINESS_AS_NAME":"MARIA G. ORTEGA","POP_AT_RISK":58036,"BUSINESS_TYPE":"Expediter - Class B","LEGAL_NAME":"MARIA G. ORTEGA","LONGITUDE":-87.71381571801867},
{"STATE":"IL","ZIP":60660,"LATTITUDE":41.985181846694324,"ADDRESS":"1670-1672 W HOLLYWOOD AVE 2ND 2W","YEAR":2012,"DOING_BUSINESS_AS_NAME":"PANTER ASSOCIATES","POP_AT_RISK":201453,"BUSINESS_TYPE":"Expediter - Class B","LEGAL_NAME":"STEVEN W PANTER","LONGITUDE":-87.67260774999068},
{"STATE":"IL","ZIP":60641,"LATTITUDE":41.94807916723761,"ADDRESS":"4700 W WAVELAND AVE 3RD 3","YEAR":2012,"DOING_BUSINESS_AS_NAME":"PERMIT EXPRESS","POP_AT_RISK":62885,"BUSINESS_TYPE":"Expediter - Class B","LEGAL_NAME":"THOMAS  WASSMER","LONGITUDE":-87.74471700316647},
{"STATE":"IL","ZIP":60632,"LATTITUDE":41.82745366263485,"ADDRESS":"3622 S CALIFORNIA AVE 1ST ","YEAR":2012,"DOING_BUSINESS_AS_NAME":"CARMEN VELASQUEZ","POP_AT_RISK":479450,"BUSINESS_TYPE":"Expediter - Class B","LEGAL_NAME":"CARMEN VELASQUEZ","LONGITUDE":-87.69488944721468},
{"STATE":"IL","ZIP":60659,"LATTITUDE":41.98575737407811,"ADDRESS":"5724 N WESTERN AVE 1 1","YEAR":2012,"DOING_BUSINESS_AS_NAME":"GREGORY ALTMAN","POP_AT_RISK":149787,"BUSINESS_TYPE":"Expediter - Class B","LEGAL_NAME":"GREGORY B ALTMAN","LONGITUDE":-87.68966263003519},
{"STATE":"IL","ZIP":60643,"LATTITUDE":41.70213265269745,"ADDRESS":"10534 S VINCENNES AVE 1ST ","YEAR":2012,"DOING_BUSINESS_AS_NAME":"JOEY T.  RICHMOND","POP_AT_RISK":51842,"BUSINESS_TYPE":"Expediter - Class B","LEGAL_NAME":"JOEY T. RICHMOND","LONGITUDE":-87.65789970617794},
{"STATE":"IL","ZIP":60630,"LATTITUDE":41.970600171274654,"ADDRESS":"4921 N KILPATRICK AVE 1 ","YEAR":2012,"DOING_BUSINESS_AS_NAME":"O.G CONSULTING","POP_AT_RISK":117672,"BUSINESS_TYPE":"Expediter - Class B","LEGAL_NAME":"ORLANDO GONZALEZ","LONGITUDE":-87.74280875926763},
{"STATE":"IL","ZIP":60707,"LATTITUDE":41.91513575400795,"ADDRESS":"1925 N HARLEM AVE 1 ","YEAR":2012,"DOING_BUSINESS_AS_NAME":"REGINALD SANDERS","POP_AT_RISK":166965,"BUSINESS_TYPE":"Expediter - Class B","LEGAL_NAME":"REGINALD SANDERS","LONGITUDE":-87.80582621181154},
{"STATE":"IL","ZIP":60632,"LATTITUDE":41.81003268687499,"ADDRESS":"4542 S KNOX AVE 1ST ","YEAR":2012,"DOING_BUSINESS_AS_NAME":"JESUS ELIZONDO JR","POP_AT_RISK":122868,"BUSINESS_TYPE":"Expediter - Class B","LEGAL_NAME":"JESUS ELIZONDO JR","LONGITUDE":-87.7397143711772},
{"STATE":"IL","ZIP":60638,"LATTITUDE":41.777007321473675,"ADDRESS":"5649 W 63RD PL 2 ","YEAR":2012,"DOING_BUSINESS_AS_NAME":"DCPS","POP_AT_RISK":18938,"BUSINESS_TYPE":"Expediter - Class B","LEGAL_NAME":"KARRIE ANN MCEVOY","LONGITUDE":-87.76363040725518},
{"STATE":"IL","ZIP":60646,"LATTITUDE":41.99573557505261,"ADDRESS":"6319 N SPOKANE AVE 1 ","YEAR":2012,"DOING_BUSINESS_AS_NAME":"ROONEY CONSULTING","POP_AT_RISK":71824,"BUSINESS_TYPE":"Expediter - Class B","LEGAL_NAME":"WILLIAM J. ROONEY","LONGITUDE":-87.76190814207617},
{"STATE":"IL","ZIP":60612,"LATTITUDE":41.893271864900484,"ADDRESS":"641 N WESTERN AVE  ","YEAR":2012,"DOING_BUSINESS_AS_NAME":"Windy City Contracting\/Consulting","POP_AT_RISK":49875,"BUSINESS_TYPE":"Expediter - Class B","LEGAL_NAME":"Joseph M. Glorioso","LONGITUDE":-87.68662305904685},
{"STATE":"IL","ZIP":60625,"LATTITUDE":41.966190225563025,"ADDRESS":"4650 N ST LOUIS AVE 3-C 3RD","YEAR":2012,"DOING_BUSINESS_AS_NAME":"AC DESIGN AND CONSTRUCTION","POP_AT_RISK":212520,"BUSINESS_TYPE":"Expediter - Class B","LEGAL_NAME":"MARTHA-RUTH GARCIA","LONGITUDE":-87.715889483878},
{"STATE":"IL","ZIP":60659,"LATTITUDE":41.99206408807547,"ADDRESS":"6056 N WASHTENAW AVE 3 3N","YEAR":2012,"DOING_BUSINESS_AS_NAME":"MIHAELA SPRINCEANA","POP_AT_RISK":128062,"BUSINESS_TYPE":"Expediter - Class B","LEGAL_NAME":"MIHAELA SPRINCEANA","LONGITUDE":-87.6971659243691},
{"STATE":"IL","ZIP":60641,"LATTITUDE":41.95421269741754,"ADDRESS":"4921 W CUYLER AVE  2","YEAR":2012,"DOING_BUSINESS_AS_NAME":"EXPEDITING SERVICE","POP_AT_RISK":44806,"BUSINESS_TYPE":"Expediter - Class B","LEGAL_NAME":"MIROSLAW E. OGIDEL","LONGITUDE":-87.75001158696419},
{"STATE":"IL","ZIP":60641,"LATTITUDE":41.936004575344256,"ADDRESS":"3024 N KNOX AVE 1 ","YEAR":2012,"DOING_BUSINESS_AS_NAME":"PERMITEX","POP_AT_RISK":108252,"BUSINESS_TYPE":"Expediter - Class B","LEGAL_NAME":"PATRICIA E POLLARD","LONGITUDE":-87.74327754453236},
{"STATE":"IL","ZIP":60614,"LATTITUDE":41.92751309450429,"ADDRESS":"2503 N BURLING ST 1 ","YEAR":2012,"DOING_BUSINESS_AS_NAME":"VIOLETA CONSTANTIN","POP_AT_RISK":1517220,"BUSINESS_TYPE":"Expediter - Class B","LEGAL_NAME":"VIOLETA CONSTANTIN","LONGITUDE":-87.64746133707013},
{"STATE":"IL","ZIP":60656,"LATTITUDE":41.974329657993984,"ADDRESS":"7700 W FOSTER AVE BSMT ","YEAR":2012,"DOING_BUSINESS_AS_NAME":"ED ZIELINSKI CONSTRUCTION CONSULTANT","POP_AT_RISK":28468,"BUSINESS_TYPE":"Expediter - Class B","LEGAL_NAME":"EDWARD A. ZIELINSKI","LONGITUDE":-87.81952493201254},
{"STATE":"IL","ZIP":60634,"LATTITUDE":41.94586223309432,"ADDRESS":"3618 N OVERHILL AVE 1 ","YEAR":2012,"DOING_BUSINESS_AS_NAME":"UNIQUE EXPEDITING","POP_AT_RISK":125430,"BUSINESS_TYPE":"Expediter - Class B","LEGAL_NAME":"SUSAN THERESA BIVINS","LONGITUDE":-87.81977096516052},
{"STATE":"IL","ZIP":60601,"LATTITUDE":41.88463624920333,"ADDRESS":"155 N MICHIGAN AVE  730","YEAR":2012,"DOING_BUSINESS_AS_NAME":"ADVANTAGE PERMIT EXPEDITING SERVICES","POP_AT_RISK":116230,"BUSINESS_TYPE":"Expediter - Class B","LEGAL_NAME":"RENESE JOSEPH-JOHNSON","LONGITUDE":-87.62431388722874},
{"STATE":"IL","ZIP":60656,"LATTITUDE":41.97734070250861,"ADDRESS":"8503 W CATHERINE AVE 2ND 204","YEAR":2012,"DOING_BUSINESS_AS_NAME":"BIVRIC PERMIT EXPEDITING","POP_AT_RISK":19154,"BUSINESS_TYPE":"Expediter - Class B","LEGAL_NAME":"RICHARD D. BIVINS JR.","LONGITUDE":-87.83926767247684},
}