{
{"STATE":"IL","ZIP":60634,"LATTITUDE":41.93562185883937,"ADDRESS":"3022 N PARKSIDE AVE  ","YEAR":2010,"DOING_BUSINESS_AS_NAME":"TOMAS GOMEZ","POP_AT_RISK":59681,"BUSINESS_TYPE":"Junk Peddler","LEGAL_NAME":"TOMAS GOMEZ","LONGITUDE":-87.76775901135596},
{"STATE":"IL","ZIP":60651,"LATTITUDE":41.89829414018907,"ADDRESS":"935 N HAMLIN AVE 2ND ","YEAR":2010,"DOING_BUSINESS_AS_NAME":"JAMES BRYANT","POP_AT_RISK":151605,"BUSINESS_TYPE":"Junk Peddler","LEGAL_NAME":"JAMES BRYANT","LONGITUDE":-87.72113839631236},
{"STATE":"IL","ZIP":60638,"LATTITUDE":41.79599837440535,"ADDRESS":"5310 S MASSASOIT AVE  ","YEAR":2010,"DOING_BUSINESS_AS_NAME":"ANNA DZIEDZIC","POP_AT_RISK":71712,"BUSINESS_TYPE":"Junk Peddler","LEGAL_NAME":"ANNA DZIEDZIC","LONGITUDE":-87.76620864797918},
{"STATE":"IL","ZIP":60651,"LATTITUDE":41.903961135415635,"ADDRESS":"5143 W POTOMAC AVE 1 ","YEAR":2010,"DOING_BUSINESS_AS_NAME":"MARCELINO ROA","POP_AT_RISK":268290,"BUSINESS_TYPE":"Junk Peddler","LEGAL_NAME":"MARCELINO ROA","LONGITUDE":-87.75508276822472},
{"STATE":"IL","ZIP":60608,"LATTITUDE":41.85954545901588,"ADDRESS":"1449 W 16TH ST 1 1","YEAR":2010,"DOING_BUSINESS_AS_NAME":"TIMOTEO ROJAS","POP_AT_RISK":77920,"BUSINESS_TYPE":"Junk Peddler","LEGAL_NAME":"TIMOTEO ROJAS","LONGITUDE":-87.66330501552738},
{"STATE":"IL","ZIP":60659,"LATTITUDE":41.99451036080161,"ADDRESS":"6211 N OAKLEY AVE  ","YEAR":2010,"DOING_BUSINESS_AS_NAME":"AGUSTIN CORREA","POP_AT_RISK":936558,"BUSINESS_TYPE":"Junk Peddler","LEGAL_NAME":"AGUSTIN CORREA","LONGITUDE":-87.68717842971802},
{"STATE":"IL","ZIP":60630,"LATTITUDE":41.9661009922159,"ADDRESS":"4713 N KEYSTONE AVE  ","YEAR":2010,"DOING_BUSINESS_AS_NAME":"JOSE RODRIGUEZ","POP_AT_RISK":178971,"BUSINESS_TYPE":"Junk Peddler","LEGAL_NAME":"JOSE RODRIGUEZ","LONGITUDE":-87.72903623712708},
{"STATE":"IL","ZIP":60608,"LATTITUDE":41.85877508052758,"ADDRESS":"1131 W 17TH ST  ","YEAR":2010,"DOING_BUSINESS_AS_NAME":"LUIS A AGUILAR","POP_AT_RISK":76920,"BUSINESS_TYPE":"Junk Peddler","LEGAL_NAME":"LUIS A AGUILAR","LONGITUDE":-87.6546407075975},
{"STATE":"IL","ZIP":60639,"LATTITUDE":41.92179423150353,"ADDRESS":"2267 N MONITOR AVE  ","YEAR":2010,"DOING_BUSINESS_AS_NAME":"RANULFO AVILES","POP_AT_RISK":52318,"BUSINESS_TYPE":"Junk Peddler","LEGAL_NAME":"RANULFO AVILES","LONGITUDE":-87.77184740638603},
{"STATE":"IL","ZIP":60612,"LATTITUDE":41.89488650610689,"ADDRESS":"2556 W SUPERIOR ST 2ND ","YEAR":2010,"DOING_BUSINESS_AS_NAME":"ARTURO ASCENCIO","POP_AT_RISK":635921,"BUSINESS_TYPE":"Junk Peddler","LEGAL_NAME":"ARTURO ASCENCIO","LONGITUDE":-87.6915470414869},
{"STATE":"IL","ZIP":60617,"LATTITUDE":41.72036463387103,"ADDRESS":"9617 S ESCANABA AVE  ","YEAR":2010,"DOING_BUSINESS_AS_NAME":"MACRINO DE LEON","POP_AT_RISK":17749,"BUSINESS_TYPE":"Junk Peddler","LEGAL_NAME":"MACRINO DE LEON","LONGITUDE":-87.55366029763196},
{"STATE":"IL","ZIP":60707,"LATTITUDE":41.92771744983967,"ADDRESS":"2615 N NEWCASTLE AVE 1ST ","YEAR":2010,"DOING_BUSINESS_AS_NAME":"MARIA ZACATENCO","POP_AT_RISK":106316,"BUSINESS_TYPE":"Junk Peddler","LEGAL_NAME":"MARIA ZACATENCO","LONGITUDE":-87.79644644789033},
{"STATE":"IL","ZIP":60617,"LATTITUDE":41.70528590158281,"ADDRESS":"10437 S AVENUE M   ","YEAR":2010,"DOING_BUSINESS_AS_NAME":"SALVADOR FLORES","POP_AT_RISK":65859,"BUSINESS_TYPE":"Junk Peddler","LEGAL_NAME":"SALVADOR FLORES","LONGITUDE":-87.53755946272092},
{"STATE":"IL","ZIP":60618,"LATTITUDE":41.94266410545965,"ADDRESS":"2907 W ROSCOE ST BSMT B","YEAR":2010,"DOING_BUSINESS_AS_NAME":"ALFREDO GONZALEZ","POP_AT_RISK":99954,"BUSINESS_TYPE":"Junk Peddler","LEGAL_NAME":"ALFREDO GONZALEZ","LONGITUDE":-87.70085757222925},
{"STATE":"IL","ZIP":60609,"LATTITUDE":41.80405921137489,"ADDRESS":"1221 W 49TH PL 1 ","YEAR":2010,"DOING_BUSINESS_AS_NAME":"GILBERTO R. RUIZ","POP_AT_RISK":292216,"BUSINESS_TYPE":"Junk Peddler","LEGAL_NAME":"GILBERTO R. RUIZ","LONGITUDE":-87.65600313002997},
{"STATE":"IL","ZIP":60617,"LATTITUDE":41.74980155803406,"ADDRESS":"8010 S BRANDON AVE  ","YEAR":2010,"DOING_BUSINESS_AS_NAME":"IGNACIO GONZALEZ","POP_AT_RISK":59958,"BUSINESS_TYPE":"Junk Peddler","LEGAL_NAME":"IGNACIO GONZALEZ","LONGITUDE":-87.54694540203373},
{"STATE":"IL","ZIP":60632,"LATTITUDE":41.82200751195603,"ADDRESS":"2802 W 39TH PL  ","YEAR":2010,"DOING_BUSINESS_AS_NAME":"ROSALINA MENDOZA","POP_AT_RISK":173968,"BUSINESS_TYPE":"Junk Peddler","LEGAL_NAME":"ROSALINA MENDOZA","LONGITUDE":-87.69482536959555},
{"STATE":"IL","ZIP":60608,"LATTITUDE":41.85020041499793,"ADDRESS":"2742 W 23RD ST 1 1","YEAR":2010,"DOING_BUSINESS_AS_NAME":"MACARIO ARREDONDO","POP_AT_RISK":858975,"BUSINESS_TYPE":"Junk Peddler","LEGAL_NAME":"MACARIO ARREDONDO","LONGITUDE":-87.69466940618771},
{"STATE":"IL","ZIP":60707,"LATTITUDE":41.92121164504666,"ADDRESS":"7108 W BELDEN AVE  ","YEAR":2010,"DOING_BUSINESS_AS_NAME":"MARCELINO CASTREJON","POP_AT_RISK":133806,"BUSINESS_TYPE":"Junk Peddler","LEGAL_NAME":"MARCELINO CASTREJON","LONGITUDE":-87.80291778669316},
{"STATE":"IL","ZIP":60641,"LATTITUDE":41.94710364393668,"ADDRESS":"4926 W PATTERSON AVE 1ST ","YEAR":2010,"DOING_BUSINESS_AS_NAME":"MARIO CESAR FLORIAN","POP_AT_RISK":227395,"BUSINESS_TYPE":"Junk Peddler","LEGAL_NAME":"MARIO CESAR FLORIAN","LONGITUDE":-87.75075925343924},
{"STATE":"IL","ZIP":60609,"LATTITUDE":41.82765151170781,"ADDRESS":"3628 S HOYNE AVE  ","YEAR":2010,"DOING_BUSINESS_AS_NAME":"WE COLLECT SCRAP METAL","POP_AT_RISK":91188,"BUSINESS_TYPE":"Junk Peddler","LEGAL_NAME":"ARISTEO NAVARRETE SR.","LONGITUDE":-87.67779563231754},
{"STATE":"IL","ZIP":60609,"LATTITUDE":41.80348257418681,"ADDRESS":"4947 S WINCHESTER AVE 2 ","YEAR":2010,"DOING_BUSINESS_AS_NAME":"CRISTOBAL B. GONZALEZ","POP_AT_RISK":91152,"BUSINESS_TYPE":"Junk Peddler","LEGAL_NAME":"CRISTOBAL B. GONZALEZ","LONGITUDE":-87.67320350469062},
{"STATE":"IL","ZIP":60618,"LATTITUDE":41.95970161693364,"ADDRESS":"4309 N ALBANY AVE 1 1","YEAR":2010,"DOING_BUSINESS_AS_NAME":"JOSE JAVIER VILCHIS - RUIZ","POP_AT_RISK":68664,"BUSINESS_TYPE":"Junk Peddler","LEGAL_NAME":"JOSE JAVIER VILCHIS - RUIZ","LONGITUDE":-87.70560889967273},
}