{
{"STATE":"IL","ZIP":60620,"LATTITUDE":41.75365331576172,"ADDRESS":"7712 S HAMILTON AVE  ","YEAR":2004,"DOING_BUSINESS_AS_NAME":"LOUIS LACY","POP_AT_RISK":355878,"BUSINESS_TYPE":"Home Repair","LEGAL_NAME":"LOUIS LACY","LONGITUDE":-87.67694139441177},
{"STATE":"IL","ZIP":60656,"LATTITUDE":41.97704476534113,"ADDRESS":"5329 N OLCOTT AVE  ","YEAR":2004,"DOING_BUSINESS_AS_NAME":"DECHANT INC","POP_AT_RISK":59228,"BUSINESS_TYPE":"Home Repair","LEGAL_NAME":"DECHANT INC","LONGITUDE":-87.81427390862059},
{"STATE":"IL","ZIP":60622,"LATTITUDE":41.903327164313254,"ADDRESS":"1920 W DIVISION ST  ","YEAR":2004,"DOING_BUSINESS_AS_NAME":"ZENO CONSTRUCTIONS","POP_AT_RISK":139396,"BUSINESS_TYPE":"Home Repair","LEGAL_NAME":"JOSEPH ZENO","LONGITUDE":-87.67566894260618},
{"STATE":"IL","ZIP":60651,"LATTITUDE":41.89632523358648,"ADDRESS":"837 N KOLIN AVE  ","YEAR":2004,"DOING_BUSINESS_AS_NAME":"DART CONSTRUCTION","POP_AT_RISK":143775,"BUSINESS_TYPE":"Home Repair","LEGAL_NAME":"DERRYL BAKER","LONGITUDE":-87.73459604501919},
{"STATE":"IL","ZIP":60611,"LATTITUDE":41.898227095018186,"ADDRESS":"21 E CHESTNUT ST  1","YEAR":2004,"DOING_BUSINESS_AS_NAME":"EDDIE GORDON","POP_AT_RISK":1685851,"BUSINESS_TYPE":"Home Repair","LEGAL_NAME":"EDDIE GORDON","LONGITUDE":-87.62731078276174},
{"STATE":"IL","ZIP":60628,"LATTITUDE":41.69231673199835,"ADDRESS":"535 W 111TH ST 1ST ","YEAR":2004,"DOING_BUSINESS_AS_NAME":"RMR HEATING & BOILER CO","POP_AT_RISK":28071,"BUSINESS_TYPE":"Home Repair","LEGAL_NAME":"JAMES ROWLAND","LONGITUDE":-87.63647678396478},
{"STATE":"IL","ZIP":60629,"LATTITUDE":41.780624640316006,"ADDRESS":"3345 W 62ND ST  ","YEAR":2004,"DOING_BUSINESS_AS_NAME":"INNOVATIVE CONSTRUCTION","POP_AT_RISK":289160,"BUSINESS_TYPE":"Home Repair","LEGAL_NAME":"MARIO COMPEAN","LONGITUDE":-87.70738997623329},
{"STATE":"IL","ZIP":60645,"LATTITUDE":41.999245414614,"ADDRESS":"2843 W ARTHUR AVE  ","YEAR":2004,"DOING_BUSINESS_AS_NAME":"M & R CONCRETE","POP_AT_RISK":422776,"BUSINESS_TYPE":"Home Repair","LEGAL_NAME":"ROMEO P. GOZO","LONGITUDE":-87.70139654796532},
{"STATE":"IL","ZIP":60624,"LATTITUDE":41.89217639277793,"ADDRESS":"612 N AVERS AVE  ","YEAR":2004,"DOING_BUSINESS_AS_NAME":"LINDA & COMPANY CONTRACTING","POP_AT_RISK":37342,"BUSINESS_TYPE":"Home Repair","LEGAL_NAME":"LINDA WILLIAMS","LONGITUDE":-87.72246480899616},
{"STATE":"IL","ZIP":60625,"LATTITUDE":41.971438005809595,"ADDRESS":"4940 N CHRISTIANA AVE  ","YEAR":2004,"DOING_BUSINESS_AS_NAME":"NICK CONSTRUCTION","POP_AT_RISK":337340,"BUSINESS_TYPE":"Home Repair","LEGAL_NAME":"NICOLAE DORLEA","LONGITUDE":-87.7123717862133},
{"STATE":"IL","ZIP":60642,"LATTITUDE":41.89089731102531,"ADDRESS":"1459 W GRAND AVE 1ST ","YEAR":2004,"DOING_BUSINESS_AS_NAME":"CASA PROPIA INC","POP_AT_RISK":85450,"BUSINESS_TYPE":"Home Repair","LEGAL_NAME":"CASA PROPIA INC","LONGITUDE":-87.66458342051303},
{"STATE":"IL","ZIP":60619,"LATTITUDE":41.75721391812998,"ADDRESS":"7539 S CALUMET AVE  ","YEAR":2004,"DOING_BUSINESS_AS_NAME":"RAINBOW PAINTING & DECORATING CO","POP_AT_RISK":312144,"BUSINESS_TYPE":"Home Repair","LEGAL_NAME":"JOANN CARMICKLE","LONGITUDE":-87.6165327830405},
{"STATE":"IL","ZIP":60617,"LATTITUDE":41.73822788745873,"ADDRESS":"8629 S MARQUETTE AVE  ","YEAR":2004,"DOING_BUSINESS_AS_NAME":"BIG BOY CONSTRUCTION","POP_AT_RISK":363352,"BUSINESS_TYPE":"Home Repair","LEGAL_NAME":"ROY JEROD CURRY","LONGITUDE":-87.55859054474936},
{"STATE":"IL","ZIP":60647,"LATTITUDE":41.91481549082041,"ADDRESS":"1834 N WHIPPLE ST  ","YEAR":2004,"DOING_BUSINESS_AS_NAME":"BOULEVARD CARPENTRY CO","POP_AT_RISK":465157,"BUSINESS_TYPE":"Home Repair","LEGAL_NAME":"SHAWN E. GRIDER","LONGITUDE":-87.70401210608678},
{"STATE":"IL","ZIP":60629,"LATTITUDE":41.79068888267709,"ADDRESS":"5634 S ALBANY AVE  ","YEAR":2004,"DOING_BUSINESS_AS_NAME":"JH CARDENAS PAINTING","POP_AT_RISK":188958,"BUSINESS_TYPE":"Home Repair","LEGAL_NAME":"JUAN H. CARDENAS","LONGITUDE":-87.70118123645084},
{"STATE":"IL","ZIP":60651,"LATTITUDE":41.902611768419604,"ADDRESS":"3737 W DIVISION ST 1 FRONT ","YEAR":2004,"DOING_BUSINESS_AS_NAME":"J. L. CONSTRUCTION","POP_AT_RISK":54621,"BUSINESS_TYPE":"Home Repair","LEGAL_NAME":"JUNIOR M. LUCIANO","LONGITUDE":-87.72036557537714},
{"STATE":"IL","ZIP":60634,"LATTITUDE":41.93943106382529,"ADDRESS":"3300 N PARIS AVE  ","YEAR":2004,"DOING_BUSINESS_AS_NAME":"R & C TUCKPOINTING","POP_AT_RISK":55472,"BUSINESS_TYPE":"Home Repair","LEGAL_NAME":"RYSZARD MALINOWSKI","LONGITUDE":-87.83022174874291},
{"STATE":"IL","ZIP":60653,"LATTITUDE":41.82145019364007,"ADDRESS":"4000 S COTTAGE GROVE AVE  1","YEAR":2004,"DOING_BUSINESS_AS_NAME":"BOYLE EXTERIORS CO","POP_AT_RISK":478680,"BUSINESS_TYPE":"Home Repair","LEGAL_NAME":"BOYLE EXTERIORS CO.","LONGITUDE":-87.60697851693637},
{"STATE":"IL","ZIP":60624,"LATTITUDE":41.87139900900485,"ADDRESS":"4535 W LEXINGTON ST  ","YEAR":2004,"DOING_BUSINESS_AS_NAME":"GEOKAT","POP_AT_RISK":210485,"BUSINESS_TYPE":"Home Repair","LEGAL_NAME":"GEOKAT INCORPORATED","LONGITUDE":-87.73913170449727},
{"STATE":"IL","ZIP":60622,"LATTITUDE":41.916381427045756,"ADDRESS":"1859 N ELSTON AVE  ","YEAR":2004,"DOING_BUSINESS_AS_NAME":"PNG SERVICES","POP_AT_RISK":104354,"BUSINESS_TYPE":"Home Repair","LEGAL_NAME":"PATTY NAVILIO GROUP","LONGITUDE":-87.66618973002115},
{"STATE":"IL","ZIP":60646,"LATTITUDE":41.991662836788514,"ADDRESS":"6050 N KEYSTONE AVE 2ND ","YEAR":2004,"DOING_BUSINESS_AS_NAME":"KEYSTONE BUILDERS & REMODELING","POP_AT_RISK":71896,"BUSINESS_TYPE":"Home Repair","LEGAL_NAME":"WILLIAM JOHN DINKHA","LONGITUDE":-87.73022707209735},
{"STATE":"IL","ZIP":60618,"LATTITUDE":41.96134381609006,"ADDRESS":"2860 W MONTROSE AVE  ","YEAR":2004,"DOING_BUSINESS_AS_NAME":"E & M PLUMBING","POP_AT_RISK":591504,"BUSINESS_TYPE":"Home Repair","LEGAL_NAME":"E & M PLUMBING, INC.","LONGITUDE":-87.70085058896258},
{"STATE":"IL","ZIP":60631,"LATTITUDE":41.98285701710554,"ADDRESS":"5646 N OTTAWA AVE 1ST ","YEAR":2004,"DOING_BUSINESS_AS_NAME":"HIPORT BUILDERS INC","POP_AT_RISK":25306,"BUSINESS_TYPE":"Home Repair","LEGAL_NAME":"HIPORT BUILDER'S INC","LONGITUDE":-87.8182157965593},
{"STATE":"IL","ZIP":60628,"LATTITUDE":41.68663005092809,"ADDRESS":"11409 S LOWE AVE  ","YEAR":2004,"DOING_BUSINESS_AS_NAME":"CASTLE HOME BUILDERS","POP_AT_RISK":32499,"BUSINESS_TYPE":"Home Repair","LEGAL_NAME":"STEVEN ANTHONY SNEED","LONGITUDE":-87.63842169868839},
{"STATE":"IL","ZIP":60641,"LATTITUDE":41.95171388974234,"ADDRESS":"3901 N KILBOURN AVE  ","YEAR":2004,"DOING_BUSINESS_AS_NAME":"ABILITY HEATING","POP_AT_RISK":225070,"BUSINESS_TYPE":"Home Repair","LEGAL_NAME":"JOHN LOUIS ANASTASIOU","LONGITUDE":-87.7407663414482},
{"STATE":"IL","ZIP":60630,"LATTITUDE":41.96400282630928,"ADDRESS":"5637 W WILSON AVE  ","YEAR":2004,"DOING_BUSINESS_AS_NAME":"CALLAGHAN CONSTRUCTION","POP_AT_RISK":217375,"BUSINESS_TYPE":"Home Repair","LEGAL_NAME":"CALLAGHAN CONSTRUCTION","LONGITUDE":-87.76884640758642},
{"STATE":"IL","ZIP":60409,"LATTITUDE":41.93452641566724,"ADDRESS":"1070  GEORGE ST  ","YEAR":2004,"DOING_BUSINESS_AS_NAME":"J & S SERVICES","POP_AT_RISK":1704460,"BUSINESS_TYPE":"Home Repair","LEGAL_NAME":"KENNETH CHARLES SLATER","LONGITUDE":-87.65622988628483},
{"STATE":"IL","ZIP":60641,"LATTITUDE":41.94431680874413,"ADDRESS":"5062 W CORNELIA AVE  ","YEAR":2004,"DOING_BUSINESS_AS_NAME":"DMORENO  CONSTRUCTION INC","POP_AT_RISK":103560,"BUSINESS_TYPE":"Home Repair","LEGAL_NAME":"DMORENO CONSTRUCTION INC","LONGITUDE":-87.75435623743573},
{"STATE":"IL","ZIP":60643,"LATTITUDE":41.70515144283417,"ADDRESS":"10340 S WESTERN AVE  2D","YEAR":2004,"DOING_BUSINESS_AS_NAME":"JIM ANDERSON & ASSOC INC","POP_AT_RISK":138620,"BUSINESS_TYPE":"Home Repair","LEGAL_NAME":"JIM ANDERSON & ASSOC INC","LONGITUDE":-87.68172917412151},
{"STATE":"IL","ZIP":60612,"LATTITUDE":41.889842055599416,"ADDRESS":"446 N WESTERN AVE  ","YEAR":2004,"DOING_BUSINESS_AS_NAME":"OK HEATING & COOLING INC","POP_AT_RISK":346000,"BUSINESS_TYPE":"Home Repair","LEGAL_NAME":"OK HEATING & COOLING INC","LONGITUDE":-87.68681471908673},
{"STATE":"IL","ZIP":60614,"LATTITUDE":41.91824569146792,"ADDRESS":"910 W ARMITAGE AVE  ","YEAR":2004,"DOING_BUSINESS_AS_NAME":"SANITARY HEATING & COOLING","POP_AT_RISK":268420,"BUSINESS_TYPE":"Home Repair","LEGAL_NAME":"SANITARY HEATING & COOLING","LONGITUDE":-87.65142288644077},
{"STATE":"IL","ZIP":60628,"LATTITUDE":41.66687924280139,"ADDRESS":"12500 S WALLACE ST  ","YEAR":2004,"DOING_BUSINESS_AS_NAME":"UNITED MATRIX CONSTRUCTION","POP_AT_RISK":107155,"BUSINESS_TYPE":"Home Repair","LEGAL_NAME":"UNITED MATRIX CONSTRUCTION","LONGITUDE":-87.63686628419903},
{"STATE":"IL","ZIP":60647,"LATTITUDE":41.923606378943084,"ADDRESS":"3525 W MEDILL AVE  ","YEAR":2004,"DOING_BUSINESS_AS_NAME":"WEISFELD CONSTRUCTION LTD.","POP_AT_RISK":665982,"BUSINESS_TYPE":"Home Repair","LEGAL_NAME":"WEISFELD CONSTRUCTION LTD.","LONGITUDE":-87.71477506470005},
{"STATE":"IL","ZIP":60625,"LATTITUDE":41.97941082039021,"ADDRESS":"2437 W BALMORAL AVE  ","YEAR":2004,"DOING_BUSINESS_AS_NAME":"INFINITY REFRIGERATION INC.","POP_AT_RISK":142671,"BUSINESS_TYPE":"Home Repair","LEGAL_NAME":"INFINITY REFRIGERATION INC.","LONGITUDE":-87.6907732941756},
{"STATE":"IL","ZIP":60624,"LATTITUDE":41.87175590003832,"ADDRESS":"3926 W LEXINGTON ST  ","YEAR":2004,"DOING_BUSINESS_AS_NAME":"C & L CONSTRUCTION ENTERPRISE","POP_AT_RISK":269521,"BUSINESS_TYPE":"Home Repair","LEGAL_NAME":"C & L CONSTRUCTION ENTERPRISE","LONGITUDE":-87.72403414334022},
{"STATE":"IL","ZIP":60636,"LATTITUDE":41.78798819420961,"ADDRESS":"5812 S HOYNE AVE  ","YEAR":2004,"DOING_BUSINESS_AS_NAME":"TEAMWORK GENERAL CONTRACTORS","POP_AT_RISK":501449,"BUSINESS_TYPE":"Home Repair","LEGAL_NAME":"TEAMWORK GENERAL CONTRACTORS INC","LONGITUDE":-87.67672064561202},
{"STATE":"IL","ZIP":60143,"LATTITUDE":41.987986359309176,"ADDRESS":"1325 W ARDMORE AVE  ","YEAR":2004,"DOING_BUSINESS_AS_NAME":"Plan-It Granite & Marble","POP_AT_RISK":1207476,"BUSINESS_TYPE":"Home Repair","LEGAL_NAME":"PLAN-IT CNSTRUCTION MANAGEMENT LLC","LONGITUDE":-87.66429856599716},
{"STATE":"IL","ZIP":60620,"LATTITUDE":41.75636252722522,"ADDRESS":"400 W 76TH ST  ","YEAR":2004,"DOING_BUSINESS_AS_NAME":"PREMIERE REMODELING IN CONSTRUCTION","POP_AT_RISK":296872,"BUSINESS_TYPE":"Home Repair","LEGAL_NAME":"PREMIERE REMODELING IN CONSTRUCTION","LONGITUDE":-87.63450381551364},
{"STATE":"IL","ZIP":60634,"LATTITUDE":41.93184667535938,"ADDRESS":"2820 N MONITOR AVE 2 ","YEAR":2004,"DOING_BUSINESS_AS_NAME":"ZAMBRANO'S ROOFING & HOME REPAIR INC.","POP_AT_RISK":245424,"BUSINESS_TYPE":"Home Repair","LEGAL_NAME":"ZAMBRANO'S ROOFING & HOME REPAIR INC.","LONGITUDE":-87.77248984177002},
}