{
{"STATE":"IL","ZIP":60621,"LATTITUDE":41.77885417721719,"ADDRESS":"6331 S LOWE AVE  ","YEAR":2008,"DOING_BUSINESS_AS_NAME":"TASTE DISCO & STEAK HOUSE","POP_AT_RISK":261840,"BUSINESS_TYPE":"Public Place of Amusement","LEGAL_NAME":"TASTE INC","LONGITUDE":-87.64069495645147},
{"STATE":"IL","ZIP":60619,"LATTITUDE":41.7259581808161,"ADDRESS":"1200 E 93RD ST 1ST ","YEAR":2008,"DOING_BUSINESS_AS_NAME":"WOODLAWN GARDENS","POP_AT_RISK":32542,"BUSINESS_TYPE":"Public Place of Amusement","LEGAL_NAME":"HARRIET WATT","LONGITUDE":-87.59481759727105},
{"STATE":"IL","ZIP":60659,"LATTITUDE":41.997133350542754,"ADDRESS":"3939 W DEVON AVE 1ST ","YEAR":2008,"DOING_BUSINESS_AS_NAME":"MONASTERO'S RISTORANTE","POP_AT_RISK":40028,"BUSINESS_TYPE":"Public Place of Amusement","LEGAL_NAME":"LA CANOPY INC","LONGITUDE":-87.72785031804918},
{"STATE":"IL","ZIP":60617,"LATTITUDE":41.71488533977168,"ADDRESS":"9915 S TORRENCE AVE 1ST ","YEAR":2008,"DOING_BUSINESS_AS_NAME":"SKYWAY LANES","POP_AT_RISK":60328,"BUSINESS_TYPE":"Public Place of Amusement","LEGAL_NAME":"SNEKCID, INC.","LONGITUDE":-87.55962172308115},
{"STATE":"IL","ZIP":60707,"LATTITUDE":41.923648647963255,"ADDRESS":"7110 W GRAND AVE 1ST ","YEAR":2008,"DOING_BUSINESS_AS_NAME":"LAILA'S GRAND GAME ROOM INC","POP_AT_RISK":42019,"BUSINESS_TYPE":"Public Place of Amusement","LEGAL_NAME":"ANWAR HADDADIN","LONGITUDE":-87.80308394347287},
{"STATE":"IL","ZIP":60623,"LATTITUDE":41.844319676878946,"ADDRESS":"4078 W 26TH ST  ","YEAR":2008,"DOING_BUSINESS_AS_NAME":"LUCKY GREEN POOL HALL","POP_AT_RISK":49934,"BUSINESS_TYPE":"Public Place of Amusement","LEGAL_NAME":"RITA JO GARCIA","LONGITUDE":-87.72775492142739},
{"STATE":"IL","ZIP":60626,"LATTITUDE":42.01087832493074,"ADDRESS":"7064 N CLARK ST  ","YEAR":2008,"DOING_BUSINESS_AS_NAME":"PARTY PALACE","POP_AT_RISK":79973,"BUSINESS_TYPE":"Public Place of Amusement","LEGAL_NAME":"BALVINDER SINGH","LONGITUDE":-87.67449714754115},
{"STATE":"IL","ZIP":60609,"LATTITUDE":41.81432611672509,"ADDRESS":"4403 S WALLACE ST 1ST ","YEAR":2008,"DOING_BUSINESS_AS_NAME":"KELLY'S TAVERN","POP_AT_RISK":18829,"BUSINESS_TYPE":"Public Place of Amusement","LEGAL_NAME":"BILL BABS, INC.","LONGITUDE":-87.64066843784394},
{"STATE":"IL","ZIP":60633,"LATTITUDE":41.655209102868895,"ADDRESS":"13191 S BRAINARD AVE  ","YEAR":2008,"DOING_BUSINESS_AS_NAME":"JUST JIM'S","POP_AT_RISK":2798,"BUSINESS_TYPE":"Public Place of Amusement","LEGAL_NAME":"GADDINI'S, INC.","LONGITUDE":-87.55444660744494},
{"STATE":"IL","ZIP":60655,"LATTITUDE":41.69179966454041,"ADDRESS":"2760 W 111TH ST  ","YEAR":2008,"DOING_BUSINESS_AS_NAME":"JUNGLE GYM","POP_AT_RISK":16680,"BUSINESS_TYPE":"Public Place of Amusement","LEGAL_NAME":"JUNGLE GYM INC.","LONGITUDE":-87.69069825582854},
{"STATE":"IL","ZIP":60655,"LATTITUDE":41.691406189233774,"ADDRESS":"3908 W 111TH ST  1","YEAR":2008,"DOING_BUSINESS_AS_NAME":"T R'S PUB","POP_AT_RISK":39322,"BUSINESS_TYPE":"Public Place of Amusement","LEGAL_NAME":"LEANN-CAOL CORP","LONGITUDE":-87.71830607808162},
{"STATE":"IL","ZIP":60609,"LATTITUDE":41.81135198728592,"ADDRESS":"4529-4531 S ASHLAND AVE  1ST","YEAR":2008,"DOING_BUSINESS_AS_NAME":"MEXICO POOL HALL","POP_AT_RISK":239820,"BUSINESS_TYPE":"Public Place of Amusement","LEGAL_NAME":"ANTONIO RODIGUEZ","LONGITUDE":-87.66489602696268},
{"STATE":"IL","ZIP":60634,"LATTITUDE":41.95248836107066,"ADDRESS":"7455 W IRVING PARK RD  ","YEAR":2008,"DOING_BUSINESS_AS_NAME":"BIJE'S","POP_AT_RISK":61786,"BUSINESS_TYPE":"Public Place of Amusement","LEGAL_NAME":"BIJE'S, LIMITED.","LONGITUDE":-87.81440271000294},
{"STATE":"IL","ZIP":60638,"LATTITUDE":41.77784067500845,"ADDRESS":"6250 W 63RD ST 1ST ","YEAR":2008,"DOING_BUSINESS_AS_NAME":"NEW WARSAW RESTAURANT","POP_AT_RISK":110496,"BUSINESS_TYPE":"Public Place of Amusement","LEGAL_NAME":"CHEF'S INN, LTD.","LONGITUDE":-87.77842839051569},
{"STATE":"IL","ZIP":60636,"LATTITUDE":41.76181563290822,"ADDRESS":"7247-7251 S RACINE AVE 1ST ","YEAR":2008,"DOING_BUSINESS_AS_NAME":"E T RESTAURANT AND LOUNGE","POP_AT_RISK":69354,"BUSINESS_TYPE":"Public Place of Amusement","LEGAL_NAME":"LEVERNE  BURNETT","LONGITUDE":-87.65388431693869},
{"STATE":"IL","ZIP":60651,"LATTITUDE":41.898367071372185,"ADDRESS":"939-941 N PULASKI RD  ","YEAR":2008,"DOING_BUSINESS_AS_NAME":"BROTHER'S PALACE -939","POP_AT_RISK":147501,"BUSINESS_TYPE":"Public Place of Amusement","LEGAL_NAME":"R & G MILLER INC.","LONGITUDE":-87.72602784401688},
{"STATE":"IL","ZIP":60637,"LATTITUDE":41.77891251190159,"ADDRESS":"6351-6359 S COTTAGE GROVE AVE  ","YEAR":2008,"DOING_BUSINESS_AS_NAME":"THE BALLROOM","POP_AT_RISK":216618,"BUSINESS_TYPE":"Public Place of Amusement","LEGAL_NAME":"THE BALLROOM, LLC","LONGITUDE":-87.60575071895529},
{"STATE":"IL","ZIP":60623,"LATTITUDE":41.836913225394206,"ADDRESS":"4254 W 31ST ST  ","YEAR":2008,"DOING_BUSINESS_AS_NAME":"HOME RUN INN","POP_AT_RISK":38049,"BUSINESS_TYPE":"Public Place of Amusement","LEGAL_NAME":"HOME RUN INN, INC.","LONGITUDE":-87.73141129560165},
{"STATE":"IL","ZIP":60652,"LATTITUDE":41.74383395185021,"ADDRESS":"8214 S KEDZIE AVE 1ST ","YEAR":2008,"DOING_BUSINESS_AS_NAME":"THE OLD LAMPLIGHTER","POP_AT_RISK":111272,"BUSINESS_TYPE":"Public Place of Amusement","LEGAL_NAME":"LA DAR CORPORATION","LONGITUDE":-87.70237413999774},
{"STATE":"IL","ZIP":60629,"LATTITUDE":41.76982954323323,"ADDRESS":"6750 S PULASKI RD  ","YEAR":2008,"DOING_BUSINESS_AS_NAME":"LAWN BOWLING","POP_AT_RISK":284235,"BUSINESS_TYPE":"Public Place of Amusement","LEGAL_NAME":"LAWN BOWLING, INC.","LONGITUDE":-87.72268098507774},
{"STATE":"IL","ZIP":60643,"LATTITUDE":41.683532137968754,"ADDRESS":"11532 S WESTERN AVE 1ST ","YEAR":2008,"DOING_BUSINESS_AS_NAME":"BEVERLY WOODS RESTAURANT","POP_AT_RISK":29404,"BUSINESS_TYPE":"Public Place of Amusement","LEGAL_NAME":"BOWLER-MCGANN CORP.","LONGITUDE":-87.68104527469114},
{"STATE":"IL","ZIP":60630,"LATTITUDE":41.97566222712531,"ADDRESS":"5242 -5250 N NORTHWEST HWY 1ST ","YEAR":2008,"DOING_BUSINESS_AS_NAME":"HABETLER BOWL INC","POP_AT_RISK":101268,"BUSINESS_TYPE":"Public Place of Amusement","LEGAL_NAME":"HABETLER BOWL, INC.","LONGITUDE":-87.76952928845782},
{"STATE":"IL","ZIP":60628,"LATTITUDE":41.66920524810207,"ADDRESS":"12345 S HALSTED ST  ","YEAR":2008,"DOING_BUSINESS_AS_NAME":"HALSTED BOWL","POP_AT_RISK":247896,"BUSINESS_TYPE":"Public Place of Amusement","LEGAL_NAME":"THE SIX GRANDS, CO.","LONGITUDE":-87.6414739367472},
{"STATE":"IL","ZIP":60652,"LATTITUDE":41.737561016836565,"ADDRESS":"3900 W COLUMBUS AVE  ","YEAR":2008,"DOING_BUSINESS_AS_NAME":"BLUE BIRD BOWL","POP_AT_RISK":50466,"BUSINESS_TYPE":"Public Place of Amusement","LEGAL_NAME":"BLUE BIRD BOWL, INC.","LONGITUDE":-87.71916759274954},
{"STATE":"IL","ZIP":60616,"LATTITUDE":41.831172304342935,"ADDRESS":"206 E 35TH ST 2ND ","YEAR":2008,"DOING_BUSINESS_AS_NAME":"NEW GRAND TERRACE","POP_AT_RISK":34354,"BUSINESS_TYPE":"Public Place of Amusement","LEGAL_NAME":"JAMES H. LEATHERWOOD","LONGITUDE":-87.62145299065104},
{"STATE":"IL","ZIP":60615,"LATTITUDE":41.80106220163419,"ADDRESS":"5201 S HARPER AVE  ","YEAR":2008,"DOING_BUSINESS_AS_NAME":"CHECKER BOARD LOUNGE","POP_AT_RISK":37470,"BUSINESS_TYPE":"Public Place of Amusement","LEGAL_NAME":"CHECKERBOARD ONE, INC.","LONGITUDE":-87.58899288411371},
{"STATE":"IL","ZIP":60620,"LATTITUDE":41.735691078577986,"ADDRESS":"1543 W 87TH ST  ","YEAR":2008,"DOING_BUSINESS_AS_NAME":"MR G SUPPER CLUB","POP_AT_RISK":38801,"BUSINESS_TYPE":"Public Place of Amusement","LEGAL_NAME":"M. V. ONE INCORPORATED","LONGITUDE":-87.66232767688463},
{"STATE":"IL","ZIP":60620,"LATTITUDE":41.73622612155934,"ADDRESS":"208-210 W 87TH ST  ","YEAR":2008,"DOING_BUSINESS_AS_NAME":"ICE CHATHAM THEATERS","POP_AT_RISK":160769,"BUSINESS_TYPE":"Public Place of Amusement","LEGAL_NAME":"ICE DEVELOPMENT, L.L.C.","LONGITUDE":-87.62926031189662},
{"STATE":"IL","ZIP":60619,"LATTITUDE":41.75840352958431,"ADDRESS":"100 E 75TH ST  ","YEAR":2008,"DOING_BUSINESS_AS_NAME":"THE NEW PARK MANOR INC","POP_AT_RISK":101136,"BUSINESS_TYPE":"Public Place of Amusement","LEGAL_NAME":"THE NEW PARK MANOR INC.","LONGITUDE":-87.62145859398333},
{"STATE":"IL","ZIP":60619,"LATTITUDE":41.736972872974235,"ADDRESS":"1420 E 87TH ST  1ST","YEAR":2008,"DOING_BUSINESS_AS_NAME":"MIDWEST BRIDGE UNIT, INC","POP_AT_RISK":57268,"BUSINESS_TYPE":"Public Place of Amusement","LEGAL_NAME":"MIDWEST BRIDGE UNIT INC.","LONGITUDE":-87.58939464020219},
{"STATE":"IL","ZIP":60620,"LATTITUDE":41.75594978114761,"ADDRESS":"1219 W 76TH ST  ","YEAR":2008,"DOING_BUSINESS_AS_NAME":"DR. MLK, JR. PARK AND FAMILY ENTERTAINMENT CENTER","POP_AT_RISK":80766,"BUSINESS_TYPE":"Public Place of Amusement","LEGAL_NAME":"CHICAGO CITY SKATING, LLC","LONGITUDE":-87.65466615567901},
{"STATE":"IL","ZIP":60623,"LATTITUDE":41.859528939715666,"ADDRESS":"1539 S PULASKI RD  ","YEAR":2008,"DOING_BUSINESS_AS_NAME":"Livin' Clean Entertainment","POP_AT_RISK":242442,"BUSINESS_TYPE":"Public Place of Amusement","LEGAL_NAME":"CLEAN CUT BARBERSHOP P.C.","LONGITUDE":-87.72482717905926},
{"STATE":"IL","ZIP":60649,"LATTITUDE":41.75139741955388,"ADDRESS":"1645 E 79TH ST  ","YEAR":2008,"DOING_BUSINESS_AS_NAME":"THE REGAL THEATER","POP_AT_RISK":198725,"BUSINESS_TYPE":"Public Place of Amusement","LEGAL_NAME":"THE REGAL THEATER, L.L.C.","LONGITUDE":-87.58385483567909},
{"STATE":"IL","ZIP":60628,"LATTITUDE":41.69074200662608,"ADDRESS":"11203 S CORLISS AVE 1ST #","YEAR":2008,"DOING_BUSINESS_AS_NAME":"111TH STREET OTB","POP_AT_RISK":42012,"BUSINESS_TYPE":"Public Place of Amusement","LEGAL_NAME":"INTER-TRACK PARTNERS L.L.C.","LONGITUDE":-87.60067790215122},
{"STATE":"IL","ZIP":60632,"LATTITUDE":41.796369658416275,"ADDRESS":"5315-17 S PULASKI RD  ","YEAR":2008,"DOING_BUSINESS_AS_NAME":"HACIENDA DEL SOL","POP_AT_RISK":39186,"BUSINESS_TYPE":"Public Place of Amusement","LEGAL_NAME":"OCHOA INVESTMENT GROUP INC.","LONGITUDE":-87.7231036884829},
{"STATE":"IL","ZIP":60612,"LATTITUDE":41.881241456803345,"ADDRESS":"1901 W MADISON ST  ENTIR","YEAR":2008,"DOING_BUSINESS_AS_NAME":"UNITED CENTER","POP_AT_RISK":38652,"BUSINESS_TYPE":"Public Place of Amusement","LEGAL_NAME":"UNITED CENTER JOINT VENTURE","LONGITUDE":-87.67428253395332},
{"STATE":"IL","ZIP":60622,"LATTITUDE":41.89938196589096,"ADDRESS":"1002 N CALIFORNIA AVE 1ST ","YEAR":2008,"DOING_BUSINESS_AS_NAME":"THE CLIPPER","POP_AT_RISK":50952,"BUSINESS_TYPE":"Public Place of Amusement","LEGAL_NAME":"THE CALIFORNIA CLIPPER CORP.","LONGITUDE":-87.69694004377007},
{"STATE":"IL","ZIP":60608,"LATTITUDE":41.83361886880686,"ADDRESS":"3322 S MORGAN ST  ","YEAR":2008,"DOING_BUSINESS_AS_NAME":"POLO CAFE AND CATERING BRIDGEPORT U.S.A.","POP_AT_RISK":119841,"BUSINESS_TYPE":"Public Place of Amusement","LEGAL_NAME":"BRIDGEPORT U.S.A. CORPORATION","LONGITUDE":-87.65118268844637},
{"STATE":"IL","ZIP":60637,"LATTITUDE":41.79253620872735,"ADDRESS":"1701 E 57TH DR  ","YEAR":2008,"DOING_BUSINESS_AS_NAME":"MUSEUM OF SCIENCE AND INDUSTRY","POP_AT_RISK":102375,"BUSINESS_TYPE":"Public Place of Amusement","LEGAL_NAME":"MUSEUM OF SCIENCE AND INDUSTRY","LONGITUDE":-87.58379120622547},
{"STATE":"IL","ZIP":60666,"LATTITUDE":42.008058189255244,"ADDRESS":"12521 W TOUHY AVE ADULTWORLD ","YEAR":2008,"DOING_BUSINESS_AS_NAME":"TOUHY AVENUE VIDEO STORE","POP_AT_RISK":15272,"BUSINESS_TYPE":"Public Place of Amusement","LEGAL_NAME":"TOUHY AVENUE OPERATING COMPANY","LONGITUDE":-87.93397650361851},
{"STATE":"IL","ZIP":60632,"LATTITUDE":41.807649252190316,"ADDRESS":"4335 W 47TH ST  ","YEAR":2008,"DOING_BUSINESS_AS_NAME":"CHICAGO SPORTS BAR & GRILL, INC.","POP_AT_RISK":55604,"BUSINESS_TYPE":"Public Place of Amusement","LEGAL_NAME":"CHICAGO SPORTS BAR & GRILL, INC.","LONGITUDE":-87.73242906054888},
{"STATE":"IL","ZIP":60639,"LATTITUDE":41.91093116886587,"ADDRESS":"1643-1647 N CICERO AVE 1 & 2 BANQU","YEAR":2008,"DOING_BUSINESS_AS_NAME":"EL MEXICO MODERN BALLROOM INC","POP_AT_RISK":51728,"BUSINESS_TYPE":"Public Place of Amusement","LEGAL_NAME":"EL MEXICO MODERNO BALLROOM, INC.","LONGITUDE":-87.74575021004954},
{"STATE":"IL","ZIP":60632,"LATTITUDE":41.80030387187546,"ADDRESS":"5147 S ARCHER AVE  ","YEAR":2008,"DOING_BUSINESS_AS_NAME":"STUDIO 31","POP_AT_RISK":31810,"BUSINESS_TYPE":"Public Place of Amusement","LEGAL_NAME":"TONY O'S STUDIO 31 LOUNGE PART II, INC.","LONGITUDE":-87.731742412929},
}