{
{"STATE":"IL","ZIP":60639,"LATTITUDE":41.92148535721011,"ADDRESS":"2230 N LAPORTE AVE 2ND 2N","YEAR":2009,"DOING_BUSINESS_AS_NAME":"ARTEMIDA CONSTRUCTION","POP_AT_RISK":292880,"BUSINESS_TYPE":"Expediter - Class B","LEGAL_NAME":"ANNA KORNAS","LONGITUDE":-87.75006838034615},
{"STATE":"IL","ZIP":60645,"LATTITUDE":42.01028306275302,"ADDRESS":"2946 W ESTES AVE  ","YEAR":2009,"DOING_BUSINESS_AS_NAME":"CHES CONSULTANTS","POP_AT_RISK":159088,"BUSINESS_TYPE":"Expediter - Class B","LEGAL_NAME":"HARVEY LUPU","LONGITUDE":-87.70393397489583},
{"STATE":"IL","ZIP":60617,"LATTITUDE":41.746224324022755,"ADDRESS":"8205 S MUSKEGON AVE 2 ","YEAR":2009,"DOING_BUSINESS_AS_NAME":"DY- KEMI  EXPEDITING","POP_AT_RISK":287819,"BUSINESS_TYPE":"Expediter - Class B","LEGAL_NAME":"PARIS BROWN","LONGITUDE":-87.55507232111424},
{"STATE":"IL","ZIP":60619,"LATTITUDE":41.7257741006334,"ADDRESS":"1301 E 93RD ST 2ND ","YEAR":2009,"DOING_BUSINESS_AS_NAME":"RAY'S PERMITS & EXPEDITORS","POP_AT_RISK":103010,"BUSINESS_TYPE":"Expediter - Class B","LEGAL_NAME":"RAY WINTERS","LONGITUDE":-87.5924177517481},
{"STATE":"IL","ZIP":60631,"LATTITUDE":41.99381135999219,"ADDRESS":"6670 W RAVEN ST  ","YEAR":2009,"DOING_BUSINESS_AS_NAME":"EILEEN BOYLE","POP_AT_RISK":54717,"BUSINESS_TYPE":"Expediter - Class B","LEGAL_NAME":"EILEEN BOYLE","LONGITUDE":-87.79444620775332},
{"STATE":"IL","ZIP":60641,"LATTITUDE":41.95534171859606,"ADDRESS":"4115 W BELLE PLAINE AVE 1 1E","YEAR":2009,"DOING_BUSINESS_AS_NAME":"RAFAL MAJ SERVICES COMPANY","POP_AT_RISK":54324,"BUSINESS_TYPE":"Expediter - Class B","LEGAL_NAME":"RAFAL A. MAJ","LONGITUDE":-87.72995174095995},
{"STATE":"IL","ZIP":60608,"LATTITUDE":41.85905810833332,"ADDRESS":"1623 S BLUE ISLAND AVE  ","YEAR":2009,"DOING_BUSINESS_AS_NAME":"ULISES M. VILLA","POP_AT_RISK":542052,"BUSINESS_TYPE":"Expediter - Class B","LEGAL_NAME":"ULISES VILLA","LONGITUDE":-87.6599568064921},
{"STATE":"IL","ZIP":60639,"LATTITUDE":41.91691633850277,"ADDRESS":"4443 W ARMITAGE AVE 1 ","YEAR":2009,"DOING_BUSINESS_AS_NAME":"V-NUNEZ TAX SERVICE Y RENTAS","POP_AT_RISK":346368,"BUSINESS_TYPE":"Expediter - Class B","LEGAL_NAME":"VICTOR NUNEZ","LONGITUDE":-87.73808694861812},
{"STATE":"IL","ZIP":60632,"LATTITUDE":41.793610473557656,"ADDRESS":"3218 W 55TH ST 1 ","YEAR":2009,"DOING_BUSINESS_AS_NAME":"ANSELMO GOMEZ","POP_AT_RISK":430479,"BUSINESS_TYPE":"Expediter - Class B","LEGAL_NAME":"ANSELMO GOMEZ","LONGITUDE":-87.70444634321306},
{"STATE":"IL","ZIP":60655,"LATTITUDE":41.69620784736722,"ADDRESS":"3242 W 108TH PL  ","YEAR":2009,"DOING_BUSINESS_AS_NAME":"LAURENE M EUL","POP_AT_RISK":95020,"BUSINESS_TYPE":"Expediter - Class B","LEGAL_NAME":"LAURENE M EUL","LONGITUDE":-87.70252958693534},
{"STATE":"IL","ZIP":60637,"LATTITUDE":41.78304879200861,"ADDRESS":"6139 S DORCHESTER AVE 1ST ","YEAR":2009,"DOING_BUSINESS_AS_NAME":"MARKO STAMBUK","POP_AT_RISK":300690,"BUSINESS_TYPE":"Expediter - Class B","LEGAL_NAME":"MARKO STAMBUK","LONGITUDE":-87.59125848739828},
{"STATE":"IL","ZIP":60636,"LATTITUDE":41.760003187007506,"ADDRESS":"7338 S WINCHESTER AVE 1 ","YEAR":2009,"DOING_BUSINESS_AS_NAME":"GERALD JACKSON","POP_AT_RISK":372955,"BUSINESS_TYPE":"Expediter - Class B","LEGAL_NAME":"GERALD JACKSON","LONGITUDE":-87.67233844508425},
{"STATE":"IL","ZIP":60659,"LATTITUDE":41.99794432341834,"ADDRESS":"2124 W DEVON AVE  ","YEAR":2009,"DOING_BUSINESS_AS_NAME":"MOHAMMAD A ZEB","POP_AT_RISK":77025,"BUSINESS_TYPE":"Expediter - Class B","LEGAL_NAME":"MOHAMMAD A ZEB","LONGITUDE":-87.68365332448832},
{"STATE":"IL","ZIP":60628,"LATTITUDE":41.68663985168138,"ADDRESS":"11416 S PRAIRIE AVE  ","YEAR":2009,"DOING_BUSINESS_AS_NAME":"ANTHONY DANIEL ROWE","POP_AT_RISK":56691,"BUSINESS_TYPE":"Expediter - Class B","LEGAL_NAME":"ANTHONY D. ROWE","LONGITUDE":-87.61699006178297},
{"STATE":"IL","ZIP":60629,"LATTITUDE":41.78148284279124,"ADDRESS":"6124 S KEDVALE AVE  ","YEAR":2009,"DOING_BUSINESS_AS_NAME":"EZEQUIEL FLORES","POP_AT_RISK":44898,"BUSINESS_TYPE":"Expediter - Class B","LEGAL_NAME":"EZEQUIEL FLORES","LONGITUDE":-87.72665004803716},
{"STATE":"IL","ZIP":60618,"LATTITUDE":41.94058303002447,"ADDRESS":"2022 W MELROSE ST 1ST ","YEAR":2009,"DOING_BUSINESS_AS_NAME":"GSJ DESIGN","POP_AT_RISK":1327704,"BUSINESS_TYPE":"Expediter - Class B","LEGAL_NAME":"JOANNA DRUZGALA","LONGITUDE":-87.67933140636097},
{"STATE":"IL","ZIP":60629,"LATTITUDE":41.773393566522145,"ADDRESS":"3736 W 66TH ST 1ST ","YEAR":2009,"DOING_BUSINESS_AS_NAME":"LOUIS M. SWEISS","POP_AT_RISK":133980,"BUSINESS_TYPE":"Expediter - Class B","LEGAL_NAME":"LOUIS M. SWEISS","LONGITUDE":-87.71676331153341},
{"STATE":"IL","ZIP":60625,"LATTITUDE":41.966524543804326,"ADDRESS":"4701 N HARDING AVE 1 ","YEAR":2009,"DOING_BUSINESS_AS_NAME":"PERIC","POP_AT_RISK":131958,"BUSINESS_TYPE":"Expediter - Class B","LEGAL_NAME":"ALEKSANDAR PERIC","LONGITUDE":-87.72661303401586},
{"STATE":"IL","ZIP":60632,"LATTITUDE":41.82745366263485,"ADDRESS":"3622 S CALIFORNIA AVE 1ST ","YEAR":2009,"DOING_BUSINESS_AS_NAME":"CARMEN VELASQUEZ","POP_AT_RISK":479450,"BUSINESS_TYPE":"Expediter - Class B","LEGAL_NAME":"CARMEN VELASQUEZ","LONGITUDE":-87.69488944721468},
{"STATE":"IL","ZIP":60656,"LATTITUDE":41.973275696705464,"ADDRESS":"5147 N EAST RIVER RD  ","YEAR":2009,"DOING_BUSINESS_AS_NAME":"CJ EXPRESS","POP_AT_RISK":27608,"BUSINESS_TYPE":"Expediter - Class B","LEGAL_NAME":"CVETKO JOSIFOVIC","LONGITUDE":-87.8463628816234},
{"STATE":"IL","ZIP":60643,"LATTITUDE":41.70213265269745,"ADDRESS":"10534 S VINCENNES AVE 1ST ","YEAR":2009,"DOING_BUSINESS_AS_NAME":"JOEY T.  RICHMOND","POP_AT_RISK":207368,"BUSINESS_TYPE":"Expediter - Class B","LEGAL_NAME":"JOEY T. RICHMOND","LONGITUDE":-87.65789970617794},
{"STATE":"IL","ZIP":60609,"LATTITUDE":41.798809991243985,"ADDRESS":"2055 W 52ND ST 1ST ","YEAR":2009,"DOING_BUSINESS_AS_NAME":"J' S EXPEDITING","POP_AT_RISK":187988,"BUSINESS_TYPE":"Expediter - Class B","LEGAL_NAME":"JOLIVET L RUFFIN","LONGITUDE":-87.67659184527024},
{"STATE":"IL","ZIP":60642,"LATTITUDE":41.91193925669855,"ADDRESS":"1642 N BOSWORTH AVE 1 1C","YEAR":2009,"DOING_BUSINESS_AS_NAME":"NICOLAE GARNEATA","POP_AT_RISK":717587,"BUSINESS_TYPE":"Expediter - Class B","LEGAL_NAME":"NICOLAE GARNEATA","LONGITUDE":-87.66672362410895},
{"STATE":"IL","ZIP":60707,"LATTITUDE":41.91513575400795,"ADDRESS":"1925 N HARLEM AVE 1 ","YEAR":2009,"DOING_BUSINESS_AS_NAME":"REGINALD SANDERS","POP_AT_RISK":166965,"BUSINESS_TYPE":"Expediter - Class B","LEGAL_NAME":"REGINALD SANDERS","LONGITUDE":-87.80582621181154},
{"STATE":"IL","ZIP":60617,"LATTITUDE":41.73700258549102,"ADDRESS":"2137 E 87TH ST 1ST FL ","YEAR":2009,"DOING_BUSINESS_AS_NAME":"GOING GREEN","POP_AT_RISK":94524,"BUSINESS_TYPE":"Expediter - Class B","LEGAL_NAME":"VANESSA SCHUMERT","LONGITUDE":-87.57185367512872},
{"STATE":"IL","ZIP":60638,"LATTITUDE":41.777007321473675,"ADDRESS":"5649 W 63RD PL 2 ","YEAR":2009,"DOING_BUSINESS_AS_NAME":"DCPS","POP_AT_RISK":18938,"BUSINESS_TYPE":"Expediter - Class B","LEGAL_NAME":"KARRIE ANN MCEVOY","LONGITUDE":-87.76363040725518},
{"STATE":"IL","ZIP":60615,"LATTITUDE":41.79983589909504,"ADDRESS":"5220 S DREXEL AVE 2 211","YEAR":2009,"DOING_BUSINESS_AS_NAME":"UNSTOPPABLE EXPEDITING","POP_AT_RISK":580342,"BUSINESS_TYPE":"Expediter - Class B","LEGAL_NAME":"STEVEN P. MONDISA","LONGITUDE":-87.60407530365929},
{"STATE":"IL","ZIP":60641,"LATTITUDE":41.94419899230355,"ADDRESS":"3458 N CICERO AVE 1ST ","YEAR":2009,"DOING_BUSINESS_AS_NAME":"Reliable Expediting Services","POP_AT_RISK":161733,"BUSINESS_TYPE":"Expediter - Class B","LEGAL_NAME":"Slavica Kovacevic","LONGITUDE":-87.74715728156374},
{"STATE":"IL","ZIP":60612,"LATTITUDE":41.893271864900484,"ADDRESS":"641 N WESTERN AVE  ","YEAR":2009,"DOING_BUSINESS_AS_NAME":"Windy City Contracting\/Consulting","POP_AT_RISK":598500,"BUSINESS_TYPE":"Expediter - Class B","LEGAL_NAME":"Joseph M. Glorioso","LONGITUDE":-87.68662305904685},
{"STATE":"IL","ZIP":60610,"LATTITUDE":41.90424750275757,"ADDRESS":"1211 N LA SALLE DR 1ST ","YEAR":2009,"DOING_BUSINESS_AS_NAME":"CONSTRUCTION PERMIT CONSULTANT","POP_AT_RISK":573027,"BUSINESS_TYPE":"Expediter - Class B","LEGAL_NAME":"MARICELA A. ANSANI","LONGITUDE":-87.63278644738897},
{"STATE":"IL","ZIP":60659,"LATTITUDE":41.99206408807547,"ADDRESS":"6056 N WASHTENAW AVE 3 3N","YEAR":2009,"DOING_BUSINESS_AS_NAME":"MIHAELA SPRINCEANA","POP_AT_RISK":256124,"BUSINESS_TYPE":"Expediter - Class B","LEGAL_NAME":"MIHAELA SPRINCEANA","LONGITUDE":-87.6971659243691},
{"STATE":"IL","ZIP":60641,"LATTITUDE":41.95421269741754,"ADDRESS":"4921 W CUYLER AVE  2","YEAR":2009,"DOING_BUSINESS_AS_NAME":"EXPEDITING SERVICE","POP_AT_RISK":89612,"BUSINESS_TYPE":"Expediter - Class B","LEGAL_NAME":"MIROSLAW E. OGIDEL","LONGITUDE":-87.75001158696419},
{"STATE":"IL","ZIP":60642,"LATTITUDE":41.89924951057586,"ADDRESS":"908 N HALSTED ST 1ST ","YEAR":2009,"DOING_BUSINESS_AS_NAME":"DARIN M. GLADFELTER","POP_AT_RISK":164112,"BUSINESS_TYPE":"Expediter - Class B","LEGAL_NAME":"DARIN M. GLADFELTER","LONGITUDE":-87.6480329174841},
{"STATE":"IL","ZIP":60656,"LATTITUDE":41.974329657993984,"ADDRESS":"7700 W FOSTER AVE BSMT ","YEAR":2009,"DOING_BUSINESS_AS_NAME":"ED ZIELINSKI CONSTRUCTION CONSULTANT","POP_AT_RISK":28468,"BUSINESS_TYPE":"Expediter - Class B","LEGAL_NAME":"EDWARD A. ZIELINSKI","LONGITUDE":-87.81952493201254},
{"STATE":"IL","ZIP":60638,"LATTITUDE":41.79787705073045,"ADDRESS":"5208 S MAJOR AVE 1ST ","YEAR":2009,"DOING_BUSINESS_AS_NAME":"MATTHES EXPEDITING","POP_AT_RISK":21115,"BUSINESS_TYPE":"Expediter - Class B","LEGAL_NAME":"JAMES ROBERT MATTHES","LONGITUDE":-87.76504312446075},
{"STATE":"IL","ZIP":60634,"LATTITUDE":41.94586223309432,"ADDRESS":"3618 N OVERHILL AVE 1 ","YEAR":2009,"DOING_BUSINESS_AS_NAME":"UNIQUE EXPEDITING","POP_AT_RISK":175602,"BUSINESS_TYPE":"Expediter - Class B","LEGAL_NAME":"SUSAN THERESA BIVINS","LONGITUDE":-87.81977096516052},
{"STATE":"IL","ZIP":60621,"LATTITUDE":41.79291623987395,"ADDRESS":"5545 S LA SALLE ST 2ND ","YEAR":2009,"DOING_BUSINESS_AS_NAME":"N & K PERMIT SERVICES","POP_AT_RISK":154490,"BUSINESS_TYPE":"Expediter - Class B","LEGAL_NAME":"CRYSTAL NICOLE BABERS","LONGITUDE":-87.6291198876144},
{"STATE":"IL","ZIP":60609,"LATTITUDE":41.80923010909086,"ADDRESS":"4639 S HERMITAGE AVE 1 ","YEAR":2009,"DOING_BUSINESS_AS_NAME":"PERMIT PROCESS GUIDANCE","POP_AT_RISK":119934,"BUSINESS_TYPE":"Expediter - Class B","LEGAL_NAME":"MIRIAM FLORES HERNANDEZ","LONGITUDE":-87.66848615692437},
{"STATE":"IL","ZIP":60653,"LATTITUDE":41.827620367509084,"ADDRESS":"3654 1\/2 S PRAIRIE AVE  ","YEAR":2009,"DOING_BUSINESS_AS_NAME":"VASHON CAPITAL INVESTMENTS","POP_AT_RISK":591138,"BUSINESS_TYPE":"Expediter - Class B","LEGAL_NAME":"DERRICK DAVID STINSON SR.","LONGITUDE":-87.62062124996847},
{"STATE":"IL","ZIP":60634,"LATTITUDE":41.93517539820908,"ADDRESS":"3017 N NATCHEZ AVE 2ND ","YEAR":2009,"DOING_BUSINESS_AS_NAME":"PUBLIC WAY CONSULTING","POP_AT_RISK":376368,"BUSINESS_TYPE":"Expediter - Class B","LEGAL_NAME":"MATTHEW THOMAS WESTFALLEN","LONGITUDE":-87.78812406555335},
}