{
{"STATE":"IL","ZIP":60634,"LATTITUDE":41.95162709836396,"ADDRESS":"3927 N NORA AVE  ","YEAR":2009,"DOING_BUSINESS_AS_NAME":"SANTINO BELL","POP_AT_RISK":31640,"BUSINESS_TYPE":"Peddler, non-food","LEGAL_NAME":"SANTINO BELLA","LONGITUDE":-87.80218169281032},
{"STATE":"IL","ZIP":60707,"LATTITUDE":41.9171319323781,"ADDRESS":"2030 N HARLEM AVE 1ST A-3","YEAR":2009,"DOING_BUSINESS_AS_NAME":"NICOLO RADOSTA","POP_AT_RISK":34367,"BUSINESS_TYPE":"Peddler, non-food","LEGAL_NAME":"NICOLO RADOSTA","LONGITUDE":-87.80618410223347},
{"STATE":"IL","ZIP":60616,"LATTITUDE":41.85750200460959,"ADDRESS":"1812 S STATE ST  12","YEAR":2009,"DOING_BUSINESS_AS_NAME":"DARRELL HORWITZ","POP_AT_RISK":36442,"BUSINESS_TYPE":"Peddler, non-food","LEGAL_NAME":"DARRELL HORWITZ","LONGITUDE":-87.62733461796783},
{"STATE":"IL","ZIP":60644,"LATTITUDE":41.89091016932336,"ADDRESS":"5919 W OHIO ST HSE ","YEAR":2009,"DOING_BUSINESS_AS_NAME":"DEBRA D. TAYLOR","POP_AT_RISK":95364,"BUSINESS_TYPE":"Peddler, non-food","LEGAL_NAME":"DEBRA D. TAYLOR","LONGITUDE":-87.7729787447001},
{"STATE":"IL","ZIP":60646,"LATTITUDE":41.99691044531468,"ADDRESS":"6333 N LEONA AVE  ","YEAR":2009,"DOING_BUSINESS_AS_NAME":"HOWARD K. KADET","POP_AT_RISK":29738,"BUSINESS_TYPE":"Peddler, non-food","LEGAL_NAME":"HOWARD K. KADET","LONGITUDE":-87.75384375298215},
{"STATE":"IL","ZIP":60655,"LATTITUDE":41.68556100263544,"ADDRESS":"11431 S ST LOUIS AVE  ","YEAR":2009,"DOING_BUSINESS_AS_NAME":"JOSHUA JAMES SOICH","POP_AT_RISK":36946,"BUSINESS_TYPE":"Peddler, non-food","LEGAL_NAME":"JOSHUA J. SOICH","LONGITUDE":-87.70778792327808},
{"STATE":"IL","ZIP":60638,"LATTITUDE":41.79105802412348,"ADDRESS":"5548 S MCVICKER AVE  ","YEAR":2009,"DOING_BUSINESS_AS_NAME":"BENJAMIN","POP_AT_RISK":31019,"BUSINESS_TYPE":"Peddler, non-food","LEGAL_NAME":"BENJAMIN G GALLO","LONGITUDE":-87.77337547404142},
{"STATE":"IL","ZIP":60630,"LATTITUDE":41.97962064235783,"ADDRESS":"5411 N MELVINA AVE  ","YEAR":2009,"DOING_BUSINESS_AS_NAME":"CATHY H. BELLINI","POP_AT_RISK":162830,"BUSINESS_TYPE":"Peddler, non-food","LEGAL_NAME":"CATHY H. BELLINI","LONGITUDE":-87.78341104679562},
{"STATE":"IL","ZIP":60644,"LATTITUDE":41.86904530351909,"ADDRESS":"5855 W ARTHINGTON ST  ","YEAR":2009,"DOING_BUSINESS_AS_NAME":"RAPHAEL T BARNES","POP_AT_RISK":118353,"BUSINESS_TYPE":"Peddler, non-food","LEGAL_NAME":"RAPHAEL T BARNES","LONGITUDE":-87.77155746785579},
{"STATE":"IL","ZIP":60643,"LATTITUDE":41.704757817354164,"ADDRESS":"10359 S HOYNE AVE 1 1","YEAR":2009,"DOING_BUSINESS_AS_NAME":"SULAIMAN SHABAZZ","POP_AT_RISK":22491,"BUSINESS_TYPE":"Peddler, non-food","LEGAL_NAME":"SULAIMAN SHABAZZ","LONGITUDE":-87.67417059684543},
{"STATE":"IL","ZIP":60652,"LATTITUDE":41.73571339120002,"ADDRESS":"8629 S KENNETH AVE 1 ","YEAR":2009,"DOING_BUSINESS_AS_NAME":"LAURA NICOLE ZARO","POP_AT_RISK":19810,"BUSINESS_TYPE":"Peddler, non-food","LEGAL_NAME":"LAURA NICOLE ZARO","LONGITUDE":-87.73224099889644},
{"STATE":"IL","ZIP":60605,"LATTITUDE":41.87216695780119,"ADDRESS":"47 W POLK ST  ","YEAR":2009,"DOING_BUSINESS_AS_NAME":"WILLIAM WALLS III","POP_AT_RISK":42798,"BUSINESS_TYPE":"Peddler, non-food","LEGAL_NAME":"WILLIAM WALLS III","LONGITUDE":-87.62957679729978},
{"STATE":"IL","ZIP":60634,"LATTITUDE":41.94851545018277,"ADDRESS":"3768 N OLEANDER AVE  ","YEAR":2009,"DOING_BUSINESS_AS_NAME":"NICHOLAS F. LAMONICA","POP_AT_RISK":35104,"BUSINESS_TYPE":"Peddler, non-food","LEGAL_NAME":"NICHOLAS F. LAMONICA","LONGITUDE":-87.8158249260561},
{"STATE":"IL","ZIP":60652,"LATTITUDE":41.74359685254919,"ADDRESS":"4634 W 82ND ST  ","YEAR":2009,"DOING_BUSINESS_AS_NAME":"SHAWN RICHARD HARPER","POP_AT_RISK":26052,"BUSINESS_TYPE":"Peddler, non-food","LEGAL_NAME":"SHAWN RICHARD HARPER","LONGITUDE":-87.73653721697808},
{"STATE":"IL","ZIP":60458,"LATTITUDE":41.674052619031144,"ADDRESS":"12056 S JUSTINE ST 1 ","YEAR":2009,"DOING_BUSINESS_AS_NAME":"ROBERT L. JOHNSON JR.","POP_AT_RISK":25360,"BUSINESS_TYPE":"Peddler, non-food","LEGAL_NAME":"ROBERT L. JOHNSON, JR","LONGITUDE":-87.66020570250922},
{"STATE":"IL","ZIP":60631,"LATTITUDE":42.01219322871207,"ADDRESS":"7715 W JARLATH ST  ","YEAR":2009,"DOING_BUSINESS_AS_NAME":"JOSE M TORRES SR.","POP_AT_RISK":98700,"BUSINESS_TYPE":"Peddler, non-food","LEGAL_NAME":"JOSE MANUEL TORRES SR.","LONGITUDE":-87.81948791220417},
{"STATE":"IL","ZIP":60638,"LATTITUDE":41.77502533729492,"ADDRESS":"6456 W 64TH PL 3S ","YEAR":2009,"DOING_BUSINESS_AS_NAME":"RICHARD  G.  LADD, JR.","POP_AT_RISK":22742,"BUSINESS_TYPE":"Peddler, non-food","LEGAL_NAME":"RICHARD   G.  LADD, JR.","LONGITUDE":-87.78340774656445},
{"STATE":"IL","ZIP":60645,"LATTITUDE":42.01938098668099,"ADDRESS":"2451 W HOWARD ST  309","YEAR":2009,"DOING_BUSINESS_AS_NAME":"JOI SHERRYL BOLTON RODRIGUEZ","POP_AT_RISK":99670,"BUSINESS_TYPE":"Peddler, non-food","LEGAL_NAME":"JOI SHERRYL BOLTON RODRIGUEZ","LONGITUDE":-87.69207353162442},
}