{
{"STATE":"IL","ZIP":60660,"LATTITUDE":41.98900565310205,"ADDRESS":"5858 N SHERIDAN RD  307","YEAR":2008,"DOING_BUSINESS_AS_NAME":"FRED JONES","POP_AT_RISK":223132,"BUSINESS_TYPE":"Peddler, non-food, special","LEGAL_NAME":"FRED JONES","LONGITUDE":-87.65549999168219},
{"STATE":"IL","ZIP":60625,"LATTITUDE":41.97270631072203,"ADDRESS":"5016 N MOZART ST 1ST 1","YEAR":2008,"DOING_BUSINESS_AS_NAME":"JASON BRAZ","POP_AT_RISK":127708,"BUSINESS_TYPE":"Peddler, non-food, special","LEGAL_NAME":"JASON BRAZ","LONGITUDE":-87.70019303325596},
{"STATE":"IL","ZIP":60643,"LATTITUDE":41.692446016824746,"ADDRESS":"842 W 111TH ST  ","YEAR":2008,"DOING_BUSINESS_AS_NAME":"MERCY HALL","POP_AT_RISK":34675,"BUSINESS_TYPE":"Peddler, non-food, special","LEGAL_NAME":"MERCY HALL","LONGITUDE":-87.64408133336032},
{"STATE":"IL","ZIP":60632,"LATTITUDE":41.79510430526137,"ADDRESS":"5412 S FAIRFIELD AVE  ","YEAR":2008,"DOING_BUSINESS_AS_NAME":"APRIL EVANS","POP_AT_RISK":241224,"BUSINESS_TYPE":"Peddler, non-food, special","LEGAL_NAME":"APRIL EVANS","LONGITUDE":-87.6927649511368},
{"STATE":"IL","ZIP":60609,"LATTITUDE":41.79622053738672,"ADDRESS":"5346 S WINCHESTER AVE  ","YEAR":2008,"DOING_BUSINESS_AS_NAME":"JAIME RUBIO","POP_AT_RISK":272694,"BUSINESS_TYPE":"Peddler, non-food, special","LEGAL_NAME":"JAIME RUBIO","LONGITUDE":-87.67329961027833},
{"STATE":"IL","ZIP":60618,"LATTITUDE":41.93567902030023,"ADDRESS":"2959 N TALMAN AVE  ","YEAR":2008,"DOING_BUSINESS_AS_NAME":"BETTY M WINN","POP_AT_RISK":45933,"BUSINESS_TYPE":"Peddler, non-food, special","LEGAL_NAME":"BETTY M WINN","LONGITUDE":-87.69390747366954},
{"STATE":"IL","ZIP":60630,"LATTITUDE":41.963183921265326,"ADDRESS":"4536 N ELSTON AVE  ","YEAR":2008,"DOING_BUSINESS_AS_NAME":"BYRON YABLON","POP_AT_RISK":230135,"BUSINESS_TYPE":"Peddler, non-food, special","LEGAL_NAME":"BYRON YABLON","LONGITUDE":-87.73318715325468},
{"STATE":"IL","ZIP":60624,"LATTITUDE":41.892236589104215,"ADDRESS":"614 N RIDGEWAY AVE 2ND ","YEAR":2008,"DOING_BUSINESS_AS_NAME":"DUANE WILSON","POP_AT_RISK":159128,"BUSINESS_TYPE":"Peddler, non-food, special","LEGAL_NAME":"DUANE WILSON","LONGITUDE":-87.72002690620984},
{"STATE":"IL","ZIP":60612,"LATTITUDE":41.8777381893736,"ADDRESS":"2122 W JACKSON BLVD  ","YEAR":2008,"DOING_BUSINESS_AS_NAME":"HOMER CARTER","POP_AT_RISK":22327,"BUSINESS_TYPE":"Peddler, non-food, special","LEGAL_NAME":"HOMER CARTER","LONGITUDE":-87.67999701360351},
{"STATE":"IL","ZIP":60046,"LATTITUDE":41.89158503337035,"ADDRESS":"49 E GRAND AVE 1 1","YEAR":2008,"DOING_BUSINESS_AS_NAME":"JOHN D. HALL","POP_AT_RISK":153042,"BUSINESS_TYPE":"Peddler, non-food, special","LEGAL_NAME":"JOHN D. HALL","LONGITUDE":-87.6261269319111},
{"STATE":"IL","ZIP":60621,"LATTITUDE":41.79226499746787,"ADDRESS":"416 W TREMONT ST  ","YEAR":2008,"DOING_BUSINESS_AS_NAME":"RENARD PORTE","POP_AT_RISK":21302,"BUSINESS_TYPE":"Peddler, non-food, special","LEGAL_NAME":"RENARD PORTE","LONGITUDE":-87.63626251951023},
{"STATE":"IL","ZIP":60630,"LATTITUDE":41.96972616993708,"ADDRESS":"4835 W AINSLIE ST  ","YEAR":2008,"DOING_BUSINESS_AS_NAME":"TIMOTEO DIAZ","POP_AT_RISK":85036,"BUSINESS_TYPE":"Peddler, non-food, special","LEGAL_NAME":"TIMOTEO DIAZ","LONGITUDE":-87.74925495165157},
{"STATE":"IL","ZIP":60619,"LATTITUDE":41.75619457777317,"ADDRESS":"7612 S EBERHART AVE  ","YEAR":2008,"DOING_BUSINESS_AS_NAME":"HOGAN","POP_AT_RISK":41523,"BUSINESS_TYPE":"Peddler, non-food, special","LEGAL_NAME":"EARNEST HOGAN","LONGITUDE":-87.61276996803532},
{"STATE":"IL","ZIP":60622,"LATTITUDE":41.90922982418396,"ADDRESS":"2043 W PIERCE AVE 1ST ","YEAR":2008,"DOING_BUSINESS_AS_NAME":"HERMAN MILTON","POP_AT_RISK":1397792,"BUSINESS_TYPE":"Peddler, non-food, special","LEGAL_NAME":"HERMAN MILTON","LONGITUDE":-87.67914391414072},
{"STATE":"IL","ZIP":60618,"LATTITUDE":41.95915546157186,"ADDRESS":"4249 N WESTERN AVE  ","YEAR":2008,"DOING_BUSINESS_AS_NAME":"JAMES WALLACE","POP_AT_RISK":323795,"BUSINESS_TYPE":"Peddler, non-food, special","LEGAL_NAME":"JAMES WALLACE","LONGITUDE":-87.68847231103277},
{"STATE":"IL","ZIP":60646,"LATTITUDE":41.996574176494114,"ADDRESS":"6340 N KARLOV AVE  ","YEAR":2008,"DOING_BUSINESS_AS_NAME":"JOHN P. BUCARO","POP_AT_RISK":20014,"BUSINESS_TYPE":"Peddler, non-food, special","LEGAL_NAME":"JOHN P BUCARO","LONGITUDE":-87.73148738408855},
{"STATE":"IL","ZIP":60623,"LATTITUDE":41.85889945383759,"ADDRESS":"4214 W 16TH ST  ","YEAR":2008,"DOING_BUSINESS_AS_NAME":"OLA MAE EVANS","POP_AT_RISK":47675,"BUSINESS_TYPE":"Peddler, non-food, special","LEGAL_NAME":"OLA MAE EVANS","LONGITUDE":-87.73054680280109},
{"STATE":"IL","ZIP":60647,"LATTITUDE":41.914872525125695,"ADDRESS":"1842 N SPRINGFIELD AVE  1","YEAR":2008,"DOING_BUSINESS_AS_NAME":"RAMON  CORONEL","POP_AT_RISK":206556,"BUSINESS_TYPE":"Peddler, non-food, special","LEGAL_NAME":"RAMON CORONEL","LONGITUDE":-87.72419022922423},
{"STATE":"IL","ZIP":60640,"LATTITUDE":41.965496028800594,"ADDRESS":"1124 W WILSON AVE  364","YEAR":2008,"DOING_BUSINESS_AS_NAME":"RUBEN LEDESMA","POP_AT_RISK":70869,"BUSINESS_TYPE":"Peddler, non-food, special","LEGAL_NAME":"RUBEN LEDESMA","LONGITUDE":-87.65848068015096},
{"STATE":"IL","ZIP":60625,"LATTITUDE":41.969701993691935,"ADDRESS":"4842 N SPAULDING AVE  ","YEAR":2008,"DOING_BUSINESS_AS_NAME":"SANTOS GUERRA","POP_AT_RISK":71018,"BUSINESS_TYPE":"Peddler, non-food, special","LEGAL_NAME":"SANTOS GUERRA","LONGITUDE":-87.71110172807315},
{"STATE":"IL","ZIP":60613,"LATTITUDE":41.94868367437477,"ADDRESS":"3600 N LAKE SHORE DR  1812","YEAR":2008,"DOING_BUSINESS_AS_NAME":"VERA GUTTMANN","POP_AT_RISK":74900,"BUSINESS_TYPE":"Peddler, non-food, special","LEGAL_NAME":"VERA GUTTMANN","LONGITUDE":-87.64364975850548},
{"STATE":"IL","ZIP":60632,"LATTITUDE":41.81423595167177,"ADDRESS":"4347 S ROCKWELL ST 1ST ","YEAR":2008,"DOING_BUSINESS_AS_NAME":"ARTURO ALMEIDA","POP_AT_RISK":379680,"BUSINESS_TYPE":"Peddler, non-food, special","LEGAL_NAME":"ARTURO ALMEIDA","LONGITUDE":-87.6893407679075},
{"STATE":"IL","ZIP":60620,"LATTITUDE":41.727384321321075,"ADDRESS":"9149 S WALLACE ST  ","YEAR":2008,"DOING_BUSINESS_AS_NAME":"GENEVA GLASPER","POP_AT_RISK":54606,"BUSINESS_TYPE":"Peddler, non-food, special","LEGAL_NAME":"GENEVA GLASPER","LONGITUDE":-87.63837083768685},
{"STATE":"IL","ZIP":60617,"LATTITUDE":41.730660725451614,"ADDRESS":"9029 S CHAPPEL AVE  ","YEAR":2008,"DOING_BUSINESS_AS_NAME":"JALAINE A. MAY","POP_AT_RISK":18610,"BUSINESS_TYPE":"Peddler, non-food, special","LEGAL_NAME":"JALAINE A. MAY","LONGITUDE":-87.57419748759814},
{"STATE":"IL","ZIP":60647,"LATTITUDE":41.92335491368301,"ADDRESS":"2316 N CALIFORNIA AVE 1ST FLOOR 1ST","YEAR":2008,"DOING_BUSINESS_AS_NAME":"JOSE ROMAN SR.","POP_AT_RISK":473956,"BUSINESS_TYPE":"Peddler, non-food, special","LEGAL_NAME":"JOSE ROMAN SR.","LONGITUDE":-87.69752270859344},
{"STATE":"IL","ZIP":60608,"LATTITUDE":41.84074813969724,"ADDRESS":"2953 S ARCHER AVE  ","YEAR":2008,"DOING_BUSINESS_AS_NAME":"RONALD SPOSATO","POP_AT_RISK":94419,"BUSINESS_TYPE":"Peddler, non-food, special","LEGAL_NAME":"RONALD SPOSATO","LONGITUDE":-87.65954690780782},
{"STATE":"IL","ZIP":60632,"LATTITUDE":41.81225102514512,"ADDRESS":"4429 S KILPATRICK AVE  ","YEAR":2008,"DOING_BUSINESS_AS_NAME":"TIMOTHY HOLMAN","POP_AT_RISK":95736,"BUSINESS_TYPE":"Peddler, non-food, special","LEGAL_NAME":"TIMOTHY HOLMAN","LONGITUDE":-87.7406908375451},
{"STATE":"IL","ZIP":60827,"LATTITUDE":41.65576175146191,"ADDRESS":"13156 S FORRESTVILLE AVE  ","YEAR":2008,"DOING_BUSINESS_AS_NAME":"ANNA F. JAMISON","POP_AT_RISK":12964,"BUSINESS_TYPE":"Peddler, non-food, special","LEGAL_NAME":"ANNA F. JAMISON","LONGITUDE":-87.60868577123667},
{"STATE":"IL","ZIP":60651,"LATTITUDE":41.906574497484414,"ADDRESS":"1430 N MASON AVE  ","YEAR":2008,"DOING_BUSINESS_AS_NAME":"CLARITA T. COOK","POP_AT_RISK":45240,"BUSINESS_TYPE":"Peddler, non-food, special","LEGAL_NAME":"CLARITA T. COOK","LONGITUDE":-87.7744464031899},
{"STATE":"IL","ZIP":60652,"LATTITUDE":41.74273665860294,"ADDRESS":"4137 W 82ND PL  ","YEAR":2008,"DOING_BUSINESS_AS_NAME":"YOUSEF MUHYEDDN","POP_AT_RISK":159210,"BUSINESS_TYPE":"Peddler, non-food, special","LEGAL_NAME":"YOUSEF MUHYEDDN","LONGITUDE":-87.7255517132813},
{"STATE":"IL","ZIP":60617,"LATTITUDE":41.72172487029897,"ADDRESS":"9534 S HOUSTON AVE  ","YEAR":2008,"DOING_BUSINESS_AS_NAME":"CRUS D. MARTINEZ","POP_AT_RISK":84252,"BUSINESS_TYPE":"Peddler, non-food, special","LEGAL_NAME":"Cruz D. Martinez","LONGITUDE":-87.54982740978666},
{"STATE":"IL","ZIP":60619,"LATTITUDE":41.743873821011626,"ADDRESS":"8300 S COTTAGE GROVE AVE 4TH 406","YEAR":2008,"DOING_BUSINESS_AS_NAME":"JUDITH S. HOWARD","POP_AT_RISK":72748,"BUSINESS_TYPE":"Peddler, non-food, special","LEGAL_NAME":"JUDITH S. HOWARD","LONGITUDE":-87.60517616055651},
{"STATE":"IL","ZIP":60652,"LATTITUDE":41.748213691450154,"ADDRESS":"7954 S RICHMOND ST  ","YEAR":2008,"DOING_BUSINESS_AS_NAME":"LADY K'S EXTRAORDINARY AROMATHERAPY SCENTS","POP_AT_RISK":26053,"BUSINESS_TYPE":"Peddler, non-food, special","LEGAL_NAME":"KEELA M. STUCKEY","LONGITUDE":-87.69639048309101},
{"STATE":"IL","ZIP":60639,"LATTITUDE":41.92883462788899,"ADDRESS":"2637 N LONG AVE  ","YEAR":2008,"DOING_BUSINESS_AS_NAME":"RADAMES SANTIAGO","POP_AT_RISK":264732,"BUSINESS_TYPE":"Peddler, non-food, special","LEGAL_NAME":"RADAMES SANTIAGO","LONGITUDE":-87.76109410316062},
{"STATE":"IL","ZIP":60620,"LATTITUDE":41.737875227554355,"ADDRESS":"8553 S ASHLAND AVE 2ND ","YEAR":2008,"DOING_BUSINESS_AS_NAME":"ROBERT LEE SMITH","POP_AT_RISK":35686,"BUSINESS_TYPE":"Peddler, non-food, special","LEGAL_NAME":"ROBERT LEE SMITH","LONGITUDE":-87.66297287561491},
{"STATE":"IL","ZIP":60624,"LATTITUDE":41.88213157023039,"ADDRESS":"4016 W WASHINGTON BLVD  ","YEAR":2008,"DOING_BUSINESS_AS_NAME":"BESSIE L. JOHNSON","POP_AT_RISK":207340,"BUSINESS_TYPE":"Peddler, non-food, special","LEGAL_NAME":"BESSIE L. JOHNSON","LONGITUDE":-87.72642144569609},
{"STATE":"IL","ZIP":60644,"LATTITUDE":41.87506427348345,"ADDRESS":"4842 W VAN BUREN ST 2 ","YEAR":2008,"DOING_BUSINESS_AS_NAME":"BEVERLY S. TURNER","POP_AT_RISK":46841,"BUSINESS_TYPE":"Peddler, non-food, special","LEGAL_NAME":"BEVERLY S. TURNER","LONGITUDE":-87.74672352251666},
{"STATE":"IL","ZIP":60653,"LATTITUDE":41.824373784732856,"ADDRESS":"3842 S DR MARTIN LUTHER KING JR DR 1 ","YEAR":2008,"DOING_BUSINESS_AS_NAME":"DANNETTE NORHTERN","POP_AT_RISK":62612,"BUSINESS_TYPE":"Peddler, non-food, special","LEGAL_NAME":"DANNETTE NORTHERN","LONGITUDE":-87.61715562851982},
{"STATE":"IL","ZIP":60615,"LATTITUDE":41.80078781134253,"ADDRESS":"5202 S WOODLAWN AVE 2ND ","YEAR":2008,"DOING_BUSINESS_AS_NAME":"LARRY MIGUEL WEBB","POP_AT_RISK":82954,"BUSINESS_TYPE":"Peddler, non-food, special","LEGAL_NAME":"LARRY MIGUEL WEBB","LONGITUDE":-87.59682045090932},
{"STATE":"IL","ZIP":60630,"LATTITUDE":41.96221794371823,"ADDRESS":"4455 N LINDER AVE 2ND ","YEAR":2008,"DOING_BUSINESS_AS_NAME":"LORETTA M MATHEIS","POP_AT_RISK":333249,"BUSINESS_TYPE":"Peddler, non-food, special","LEGAL_NAME":"LORETTA M MATHEIS","LONGITUDE":-87.76469069317187},
{"STATE":"IL","ZIP":60617,"LATTITUDE":41.71590186001373,"ADDRESS":"9816 S MERRION AVE # 1ST","YEAR":2008,"DOING_BUSINESS_AS_NAME":"ANTOINETTE JOHNSON","POP_AT_RISK":17428,"BUSINESS_TYPE":"Peddler, non-food, special","LEGAL_NAME":"ANTOINETTE JOHNSON","LONGITUDE":-87.5696927426852},
{"STATE":"IL","ZIP":60608,"LATTITUDE":41.864510624690006,"ADDRESS":"1334 S MORGAN ST  102","YEAR":2008,"DOING_BUSINESS_AS_NAME":"BEVERLY J. CALHOUN","POP_AT_RISK":248280,"BUSINESS_TYPE":"Peddler, non-food, special","LEGAL_NAME":"BEVERLY J. CALHOUN","LONGITUDE":-87.65111497620642},
{"STATE":"IL","ZIP":60647,"LATTITUDE":41.928751572665085,"ADDRESS":"2617 N HAMLIN AVE 3 ","YEAR":2008,"DOING_BUSINESS_AS_NAME":"CRISTINO MALDONADO","POP_AT_RISK":76980,"BUSINESS_TYPE":"Peddler, non-food, special","LEGAL_NAME":"CRISTINO MALDONADO","LONGITUDE":-87.72185726647798},
{"STATE":"IL","ZIP":60649,"LATTITUDE":41.75261229388339,"ADDRESS":"2911 E 78TH PL  ","YEAR":2008,"DOING_BUSINESS_AS_NAME":"ELIZABETH B. MOORE","POP_AT_RISK":36119,"BUSINESS_TYPE":"Peddler, non-food, special","LEGAL_NAME":"ELIZABETH B. MOORE","LONGITUDE":-87.5524471744431},
{"STATE":"IL","ZIP":60628,"LATTITUDE":41.671508045911416,"ADDRESS":"12232 S WENTWORTH AVE  ","YEAR":2008,"DOING_BUSINESS_AS_NAME":"TALMADGE SLAUGHTER","POP_AT_RISK":115720,"BUSINESS_TYPE":"Peddler, non-food, special","LEGAL_NAME":"TALMADGE SLAUGHTER","LONGITUDE":-87.62741776989765},
{"STATE":"IL","ZIP":60617,"LATTITUDE":41.70262075649605,"ADDRESS":"3649 E 106TH ST  ","YEAR":2008,"DOING_BUSINESS_AS_NAME":"BOBBY LOUIS HOLIDAY","POP_AT_RISK":83868,"BUSINESS_TYPE":"Peddler, non-food, special","LEGAL_NAME":"BOBBY LOUIS HOLIDAY","LONGITUDE":-87.53455855561775},
{"STATE":"IL","ZIP":60623,"LATTITUDE":41.853531583448536,"ADDRESS":"1953 S SPRINGFIELD AVE 1ST ","YEAR":2008,"DOING_BUSINESS_AS_NAME":"DOROTHY B GOLDSMITH","POP_AT_RISK":55753,"BUSINESS_TYPE":"Peddler, non-food, special","LEGAL_NAME":"DOROTHY B GOLDSMITH","LONGITUDE":-87.72215531227486},
{"STATE":"IL","ZIP":60659,"LATTITUDE":41.99360501680627,"ADDRESS":"3817 W GRANVILLE AVE  ","YEAR":2008,"DOING_BUSINESS_AS_NAME":"HERBERT HOFFMAN SR.","POP_AT_RISK":90114,"BUSINESS_TYPE":"Peddler, non-food, special","LEGAL_NAME":"HERBERT HOFFMAN SR.","LONGITUDE":-87.72467514813182},
{"STATE":"IL","ZIP":60607,"LATTITUDE":41.881596057291624,"ADDRESS":"1500 W MADISON ST  ","YEAR":2008,"DOING_BUSINESS_AS_NAME":"JAMES WALLACE PETERS","POP_AT_RISK":269318,"BUSINESS_TYPE":"Peddler, non-food, special","LEGAL_NAME":"JAMES WALLACE PETERS","LONGITUDE":-87.6645065747039},
{"STATE":"IL","ZIP":60609,"LATTITUDE":41.80979150908886,"ADDRESS":"513 W 46TH PL  ","YEAR":2008,"DOING_BUSINESS_AS_NAME":"ANTHONY JOSEPH DONATO","POP_AT_RISK":18112,"BUSINESS_TYPE":"Peddler, non-food, special","LEGAL_NAME":"ANTHONY JOSEPH DONATO","LONGITUDE":-87.63883363248407},
{"STATE":"IL","ZIP":60628,"LATTITUDE":41.69985981596738,"ADDRESS":"247 E 107TH ST  ","YEAR":2008,"DOING_BUSINESS_AS_NAME":"GEORGE EDWARD ANDERSON","POP_AT_RISK":61628,"BUSINESS_TYPE":"Peddler, non-food, special","LEGAL_NAME":"GEORGE EDWARD ANDERSON","LONGITUDE":-87.61656898484372},
{"STATE":"IL","ZIP":60616,"LATTITUDE":41.83725186643035,"ADDRESS":"3127 S UNION AVE  ","YEAR":2008,"DOING_BUSINESS_AS_NAME":"MARSHALL ANTHONY GREEN","POP_AT_RISK":41247,"BUSINESS_TYPE":"Peddler, non-food, special","LEGAL_NAME":"MARSHALL ANTHONY GREEN","LONGITUDE":-87.64367442229945},
{"STATE":"IL","ZIP":60637,"LATTITUDE":41.78408897263871,"ADDRESS":"6100 S KIMBARK AVE  ","YEAR":2008,"DOING_BUSINESS_AS_NAME":"THEODORE ALTON REESE","POP_AT_RISK":38390,"BUSINESS_TYPE":"Peddler, non-food, special","LEGAL_NAME":"THEODORE ALTON REESE SR.","LONGITUDE":-87.59487642826379},
{"STATE":"IL","ZIP":60623,"LATTITUDE":41.85766327587455,"ADDRESS":"1642 S LAWNDALE AVE  ","YEAR":2008,"DOING_BUSINESS_AS_NAME":"LESHAN NICHOLAS ANDERSON","POP_AT_RISK":51226,"BUSINESS_TYPE":"Peddler, non-food, special","LEGAL_NAME":"LESHAWN NICHOLAS ANDERSON","LONGITUDE":-87.7177879117798},
}