{
{"STATE":"IL","ZIP":60630,"LATTITUDE":41.97045008951256,"ADDRESS":"4939-4943 N ELSTON AVE 1ST ","YEAR":2013,"DOING_BUSINESS_AS_NAME":"OK AUTO REPAIR AND BODY","POP_AT_RISK":32093,"BUSINESS_TYPE":"Motor Vehicle Repair: Engine\/Body(Class III)","LEGAL_NAME":"BONG HI YIM","LONGITUDE":-87.7437341198014},
{"STATE":"IL","ZIP":60616,"LATTITUDE":41.85695105384458,"ADDRESS":"1846 S CANALPORT AVE  1","YEAR":2013,"DOING_BUSINESS_AS_NAME":"ELAR AUTO REBUILDERS","POP_AT_RISK":101652,"BUSINESS_TYPE":"Motor Vehicle Repair: Engine\/Body(Class III)","LEGAL_NAME":"ALBERT STEIN","LONGITUDE":-87.64171115316609},
{"STATE":"IL","ZIP":60624,"LATTITUDE":41.88610646811529,"ADDRESS":"4519 W LAKE ST  ","YEAR":2013,"DOING_BUSINESS_AS_NAME":"FLIPSIDE CUSTOM BODY & FENDER SHOP","POP_AT_RISK":186965,"BUSINESS_TYPE":"Motor Vehicle Repair: Engine\/Body(Class III)","LEGAL_NAME":"LYSTRA BEARD","LONGITUDE":-87.73893275953849},
{"STATE":"IL","ZIP":60613,"LATTITUDE":41.94711410923347,"ADDRESS":"1031  -00035 W ADDISON ST 1ST ","YEAR":2013,"DOING_BUSINESS_AS_NAME":"LUIS AUTO REPAIR","POP_AT_RISK":497442,"BUSINESS_TYPE":"Motor Vehicle Repair: Engine\/Body(Class III)","LEGAL_NAME":"LUIS RESENDIZ","LONGITUDE":-87.65561729120712},
{"STATE":"IL","ZIP":60645,"LATTITUDE":41.999632438278006,"ADDRESS":"6500-6574 N WESTERN AVE  ","YEAR":2013,"DOING_BUSINESS_AS_NAME":"TAXI TOWN INC.","POP_AT_RISK":215364,"BUSINESS_TYPE":"Motor Vehicle Repair: Engine\/Body(Class III)","LEGAL_NAME":"TAXI TOWN INC.","LONGITUDE":-87.690080925006},
{"STATE":"IL","ZIP":60621,"LATTITUDE":41.76017212380373,"ADDRESS":"7346 S HALSTED ST  ","YEAR":2013,"DOING_BUSINESS_AS_NAME":"ADAM'S AUTO REBUILDER","POP_AT_RISK":109788,"BUSINESS_TYPE":"Motor Vehicle Repair: Engine\/Body(Class III)","LEGAL_NAME":"ADAM STALLWORTH","LONGITUDE":-87.64443182702918},
{"STATE":"IL","ZIP":60620,"LATTITUDE":41.73046148998573,"ADDRESS":"9010-9018 S HALSTED ST 1 ","YEAR":2013,"DOING_BUSINESS_AS_NAME":"BEN'S TIRE SERVICE","POP_AT_RISK":32327,"BUSINESS_TYPE":"Motor Vehicle Repair: Engine\/Body(Class III)","LEGAL_NAME":"BENNIE BROWNLEE","LONGITUDE":-87.64360593172941},
{"STATE":"IL","ZIP":60615,"LATTITUDE":41.80209465985241,"ADDRESS":"60 E 51ST ST  ","YEAR":2013,"DOING_BUSINESS_AS_NAME":"ERIE VEHICLE CO","POP_AT_RISK":278304,"BUSINESS_TYPE":"Motor Vehicle Repair: Engine\/Body(Class III)","LEGAL_NAME":"ERIE VEHICLE CO","LONGITUDE":-87.62355599411882},
{"STATE":"IL","ZIP":60620,"LATTITUDE":41.756929760507354,"ADDRESS":"7520 S ASHLAND AVE 1ST ","YEAR":2013,"DOING_BUSINESS_AS_NAME":"JOHN & SON'S AUTO","POP_AT_RISK":84988,"BUSINESS_TYPE":"Motor Vehicle Repair: Engine\/Body(Class III)","LEGAL_NAME":"JOHN L. THURMAN","LONGITUDE":-87.66374564311552},
{"STATE":"IL","ZIP":60651,"LATTITUDE":41.89828555218698,"ADDRESS":"931 N KEDZIE AVE  ","YEAR":2013,"DOING_BUSINESS_AS_NAME":"INTERNATIONAL AUTO CENTER","POP_AT_RISK":106706,"BUSINESS_TYPE":"Motor Vehicle Repair: Engine\/Body(Class III)","LEGAL_NAME":"RAMON CARABALLO","LONGITUDE":-87.70649867470547},
{"STATE":"IL","ZIP":60617,"LATTITUDE":41.71365420268293,"ADDRESS":"10005 S AVENUE N  1ST ","YEAR":2013,"DOING_BUSINESS_AS_NAME":"EAST SIDE BODY SHOP","POP_AT_RISK":19727,"BUSINESS_TYPE":"Motor Vehicle Repair: Engine\/Body(Class III)","LEGAL_NAME":"GEORGE S. WINSKY","LONGITUDE":-87.53873751915407},
{"STATE":"IL","ZIP":60649,"LATTITUDE":41.751657709148745,"ADDRESS":"2507 E 79TH ST  ","YEAR":2013,"DOING_BUSINESS_AS_NAME":"PICCADILLY GARAGE","POP_AT_RISK":99384,"BUSINESS_TYPE":"Motor Vehicle Repair: Engine\/Body(Class III)","LEGAL_NAME":"TOM & MAS MIYATA","LONGITUDE":-87.56349279748575},
{"STATE":"IL","ZIP":60622,"LATTITUDE":41.9089786212899,"ADDRESS":"1514-1516 N WESTERN AVE 1 1","YEAR":2013,"DOING_BUSINESS_AS_NAME":"OLVERA FENDER BENDERS","POP_AT_RISK":560376,"BUSINESS_TYPE":"Motor Vehicle Repair: Engine\/Body(Class III)","LEGAL_NAME":"WILLIAM M OLVERA","LONGITUDE":-87.68733277286908},
{"STATE":"IL","ZIP":60636,"LATTITUDE":41.78665018189544,"ADDRESS":"2300 W 59TH ST 1ST ","YEAR":2013,"DOING_BUSINESS_AS_NAME":"MO'S AUTO REPAIR","POP_AT_RISK":386995,"BUSINESS_TYPE":"Motor Vehicle Repair: Engine\/Body(Class III)","LEGAL_NAME":"MOISES A MARTINEZ","LONGITUDE":-87.68117725561852},
{"STATE":"IL","ZIP":60630,"LATTITUDE":41.97054138094041,"ADDRESS":"5358 W GALE ST # 1","YEAR":2013,"DOING_BUSINESS_AS_NAME":"A AUTO REPAIR","POP_AT_RISK":76158,"BUSINESS_TYPE":"Motor Vehicle Repair: Engine\/Body(Class III)","LEGAL_NAME":"ANDRZEJ KLUCZEWSKI","LONGITUDE":-87.762810939146},
{"STATE":"IL","ZIP":60612,"LATTITUDE":41.870106751227496,"ADDRESS":"900-908 S CALIFORNIA AVE  ","YEAR":2013,"DOING_BUSINESS_AS_NAME":"MAGIOROS AUTO","POP_AT_RISK":119616,"BUSINESS_TYPE":"Motor Vehicle Repair: Engine\/Body(Class III)","LEGAL_NAME":"KONSTADINO TSINGOS","LONGITUDE":-87.6961483594601},
{"STATE":"IL","ZIP":60646,"LATTITUDE":41.98383010686806,"ADDRESS":"5644 N NORTHWEST HWY 1ST ","YEAR":2013,"DOING_BUSINESS_AS_NAME":"TOM AND JERRY'S AUTO","POP_AT_RISK":68978,"BUSINESS_TYPE":"Motor Vehicle Repair: Engine\/Body(Class III)","LEGAL_NAME":"TOM & JERRY'S AUTO","LONGITUDE":-87.78413729648359},
{"STATE":"IL","ZIP":60639,"LATTITUDE":41.91482042670598,"ADDRESS":"1900 N AUSTIN AVE  1ST","YEAR":2013,"DOING_BUSINESS_AS_NAME":"TOMAR SERVICE INC.","POP_AT_RISK":50037,"BUSINESS_TYPE":"Motor Vehicle Repair: Engine\/Body(Class III)","LEGAL_NAME":"TOMAR SERVICE INC.","LONGITUDE":-87.77555966968384},
{"STATE":"IL","ZIP":60652,"LATTITUDE":41.74746759270499,"ADDRESS":"3363 W COLUMBUS AVE  ","YEAR":2013,"DOING_BUSINESS_AS_NAME":"WEST LOOP AUTO SOUTH","POP_AT_RISK":134160,"BUSINESS_TYPE":"Motor Vehicle Repair: Engine\/Body(Class III)","LEGAL_NAME":"WEST LOOP AUTO INC","LONGITUDE":-87.7062722396631},
{"STATE":"IL","ZIP":60626,"LATTITUDE":42.018609810846804,"ADDRESS":"7523  -07525 N WOLCOTT AVE 1ST ","YEAR":2013,"DOING_BUSINESS_AS_NAME":"AMBER AUTOMOTIVE INC","POP_AT_RISK":62574,"BUSINESS_TYPE":"Motor Vehicle Repair: Engine\/Body(Class III)","LEGAL_NAME":"AMBER AUTOMOTIVE INC","LONGITUDE":-87.67749309655181},
{"STATE":"IL","ZIP":60646,"LATTITUDE":41.98462472721878,"ADDRESS":"5675 N ELSTON AVE 1 2","YEAR":2013,"DOING_BUSINESS_AS_NAME":"ROYAL AUTO BODY SHOP","POP_AT_RISK":30331,"BUSINESS_TYPE":"Motor Vehicle Repair: Engine\/Body(Class III)","LEGAL_NAME":"ROYAL AUTOMOTIVE LLC","LONGITUDE":-87.76731999443267},
{"STATE":"IL","ZIP":60609,"LATTITUDE":41.824597610199284,"ADDRESS":"920 W 38TH PL 1ST ","YEAR":2013,"DOING_BUSINESS_AS_NAME":"GARY & SHAWN INC","POP_AT_RISK":57480,"BUSINESS_TYPE":"Motor Vehicle Repair: Engine\/Body(Class III)","LEGAL_NAME":"GARY & SHAWN AUTO INC","LONGITUDE":-87.64849021209851},
{"STATE":"IL","ZIP":60613,"LATTITUDE":41.95454442422538,"ADDRESS":"4008 N RAVENSWOOD AVE 1ST ","YEAR":2013,"DOING_BUSINESS_AS_NAME":"EUROTECH CARS","POP_AT_RISK":68011,"BUSINESS_TYPE":"Motor Vehicle Repair: Engine\/Body(Class III)","LEGAL_NAME":"HECTOR HUGO GUTIERREZ","LONGITUDE":-87.67437010676882},
{"STATE":"IL","ZIP":60660,"LATTITUDE":41.997300917329426,"ADDRESS":"6330 N CLARK ST 1ST ","YEAR":2013,"DOING_BUSINESS_AS_NAME":"GLENLAKE AUTO SHOP, LLC","POP_AT_RISK":339368,"BUSINESS_TYPE":"Motor Vehicle Repair: Engine\/Body(Class III)","LEGAL_NAME":"GLENLAKE AUTO SHOP, LLC","LONGITUDE":-87.67053100566281},
{"STATE":"IL","ZIP":60651,"LATTITUDE":41.894766099084464,"ADDRESS":"5449 - 5453 W CHICAGO AVE 1ST ","YEAR":2013,"DOING_BUSINESS_AS_NAME":"SUPERIOR AUTO GROUP","POP_AT_RISK":281720,"BUSINESS_TYPE":"Motor Vehicle Repair: Engine\/Body(Class III)","LEGAL_NAME":"SUPERIOR AUTO GROUP LLC","LONGITUDE":-87.76254919179325},
{"STATE":"IL","ZIP":60639,"LATTITUDE":41.92411012183083,"ADDRESS":"5524 W FULLERTON AVE 1ST ","YEAR":2013,"DOING_BUSINESS_AS_NAME":"AMERICA AUTO SERVICE INC","POP_AT_RISK":68079,"BUSINESS_TYPE":"Motor Vehicle Repair: Engine\/Body(Class III)","LEGAL_NAME":"AMERICA AUTO SERVICE INC","LONGITUDE":-87.76454409396317},
{"STATE":"IL","ZIP":60638,"LATTITUDE":41.80770265969864,"ADDRESS":"4814 W 47TH ST  ","YEAR":2013,"DOING_BUSINESS_AS_NAME":"TERMINAL AUTO REPAIR INC","POP_AT_RISK":20478,"BUSINESS_TYPE":"Motor Vehicle Repair: Engine\/Body(Class III)","LEGAL_NAME":"TERMINAL AUTO REPAIR INC","LONGITUDE":-87.74385073796304},
{"STATE":"IL","ZIP":60622,"LATTITUDE":41.90371277563602,"ADDRESS":"900 W DIVISION ST  ","YEAR":2013,"DOING_BUSINESS_AS_NAME":"GOLD COAST AUTO BODY INC.","POP_AT_RISK":184136,"BUSINESS_TYPE":"Motor Vehicle Repair: Engine\/Body(Class III)","LEGAL_NAME":"GOLD COAST AUTO BODY INC.","LONGITUDE":-87.65106989305352},
{"STATE":"IL","ZIP":60619,"LATTITUDE":41.72227645939994,"ADDRESS":"1110 E 95TH ST  ","YEAR":2013,"DOING_BUSINESS_AS_NAME":"A & R AUTO REBUILDERS, INC","POP_AT_RISK":16968,"BUSINESS_TYPE":"Motor Vehicle Repair: Engine\/Body(Class III)","LEGAL_NAME":"A & R AUTO REBUILDERS, INC","LONGITUDE":-87.59676917353497},
{"STATE":"IL","ZIP":60634,"LATTITUDE":41.944103760261996,"ADDRESS":"3521-3527 N HARLEM AVE 1ST ","YEAR":2013,"DOING_BUSINESS_AS_NAME":"A & ZEE AUTO REPAIR, INC.","POP_AT_RISK":214632,"BUSINESS_TYPE":"Motor Vehicle Repair: Engine\/Body(Class III)","LEGAL_NAME":"CAROLINA REPAIR SHOP, INC.","LONGITUDE":-87.80681840529779},
{"STATE":"IL","ZIP":60622,"LATTITUDE":41.91682603027183,"ADDRESS":"1924 N PAULINA ST  ","YEAR":2013,"DOING_BUSINESS_AS_NAME":"HOWARD ORLOFF JAGUAR VOLVO INC","POP_AT_RISK":270295,"BUSINESS_TYPE":"Motor Vehicle Repair: Engine\/Body(Class III)","LEGAL_NAME":"HOWARD ORLOFF IMPORTS, INC","LONGITUDE":-87.67045088452277},
{"STATE":"IL","ZIP":60617,"LATTITUDE":41.74282734377744,"ADDRESS":"8383 S SOUTH CHICAGO AVE  ","YEAR":2013,"DOING_BUSINESS_AS_NAME":"MAACO AUTO PAINTING & BODY WORKS","POP_AT_RISK":33180,"BUSINESS_TYPE":"Motor Vehicle Repair: Engine\/Body(Class III)","LEGAL_NAME":"PRAMUKH AUTO SERVICES INC.","LONGITUDE":-87.57331261204502},
{"STATE":"IL","ZIP":60649,"LATTITUDE":41.760225608371194,"ADDRESS":"7410 S STONY ISLAND AVE  ","YEAR":2013,"DOING_BUSINESS_AS_NAME":"ROSECO AUTO REBUILDERS INC","POP_AT_RISK":314100,"BUSINESS_TYPE":"Motor Vehicle Repair: Engine\/Body(Class III)","LEGAL_NAME":"ROSECO AUTO REBUILDERS INC","LONGITUDE":-87.58632203456536},
{"STATE":"IL","ZIP":60620,"LATTITUDE":41.750230282980056,"ADDRESS":"2300 W 79TH ST  ","YEAR":2013,"DOING_BUSINESS_AS_NAME":"BENNETT AUTO REBUILDERS INC","POP_AT_RISK":37948,"BUSINESS_TYPE":"Motor Vehicle Repair: Engine\/Body(Class III)","LEGAL_NAME":"BENNETT AUTO REBUILDERS INC","LONGITUDE":-87.68052881337823},
{"STATE":"IL","ZIP":60610,"LATTITUDE":41.89411578493888,"ADDRESS":"146 W ERIE ST  ","YEAR":2013,"DOING_BUSINESS_AS_NAME":"ERIE LASALLE BODY SHOP","POP_AT_RISK":958500,"BUSINESS_TYPE":"Motor Vehicle Repair: Engine\/Body(Class III)","LEGAL_NAME":"ERIE LASALLE BODY SHOP INC.","LONGITUDE":-87.633002421549},
{"STATE":"IL","ZIP":60638,"LATTITUDE":41.782292609268296,"ADDRESS":"6843 W 60TH PL  ","YEAR":2013,"DOING_BUSINESS_AS_NAME":"DAYTON AUTO REBUILDERS, INC.","POP_AT_RISK":22288,"BUSINESS_TYPE":"Motor Vehicle Repair: Engine\/Body(Class III)","LEGAL_NAME":"DAYTON AUTO REBUILDERS, INC.","LONGITUDE":-87.79298770841025},
{"STATE":"IL","ZIP":60639,"LATTITUDE":41.92520520850439,"ADDRESS":"2423-2425 N PULASKI RD 1ST ","YEAR":2013,"DOING_BUSINESS_AS_NAME":"LOGAN SQUARE AUTO BODY, INC.","POP_AT_RISK":557403,"BUSINESS_TYPE":"Motor Vehicle Repair: Engine\/Body(Class III)","LEGAL_NAME":"LOGAN SQUARE AUTO BODY, INC.","LONGITUDE":-87.72664562418457},
{"STATE":"IL","ZIP":60609,"LATTITUDE":41.80161392847832,"ADDRESS":"5045 S WESTERN BLVD  ","YEAR":2013,"DOING_BUSINESS_AS_NAME":"METRO AUTO TECH UNITED INC","POP_AT_RISK":50384,"BUSINESS_TYPE":"Motor Vehicle Repair: Engine\/Body(Class III)","LEGAL_NAME":"METRO AUTO TECH UNITED, INC.","LONGITUDE":-87.68353353408123},
{"STATE":"IL","ZIP":60639,"LATTITUDE":41.92137942283322,"ADDRESS":"6134 W GRAND AVE 1ST ","YEAR":2013,"DOING_BUSINESS_AS_NAME":"BODY WORKS ON GRAND","POP_AT_RISK":45838,"BUSINESS_TYPE":"Motor Vehicle Repair: Engine\/Body(Class III)","LEGAL_NAME":"A & A BODY WORKS ON GRAND INC.","LONGITUDE":-87.77945586259649},
{"STATE":"IL","ZIP":60631,"LATTITUDE":41.99370350172563,"ADDRESS":"6166 N NORTHWEST HWY 1ST ","YEAR":2013,"DOING_BUSINESS_AS_NAME":"COSMETIC AUTO TRIM & GLASS INC","POP_AT_RISK":68031,"BUSINESS_TYPE":"Motor Vehicle Repair: Engine\/Body(Class III)","LEGAL_NAME":"COSMETIC AUTO TRIM & GLASS INC","LONGITUDE":-87.801548062054},
{"STATE":"IL","ZIP":60613,"LATTITUDE":41.95656420313895,"ADDRESS":"4080 N BROADWAY  1ST ","YEAR":2013,"DOING_BUSINESS_AS_NAME":"EUROPEAN & US CAR SERVICE","POP_AT_RISK":216336,"BUSINESS_TYPE":"Motor Vehicle Repair: Engine\/Body(Class III)","LEGAL_NAME":"HAWK MOTOR SERVICE & SALES INC","LONGITUDE":-87.65198725983909},
{"STATE":"IL","ZIP":60633,"LATTITUDE":41.669933560483834,"ADDRESS":"12359 S BURLEY AVE  ","YEAR":2013,"DOING_BUSINESS_AS_NAME":"TROY DESIGN & MANUFACTURING CO.","POP_AT_RISK":6628,"BUSINESS_TYPE":"Motor Vehicle Repair: Engine\/Body(Class III)","LEGAL_NAME":"TROY DESIGN & MANUFACTURING CO.","LONGITUDE":-87.54396951156461},
{"STATE":"IL","ZIP":60638,"LATTITUDE":41.77439300129713,"ADDRESS":"5826 W 65TH ST  ","YEAR":2013,"DOING_BUSINESS_AS_NAME":"CARCRAFT","POP_AT_RISK":19217,"BUSINESS_TYPE":"Motor Vehicle Repair: Engine\/Body(Class III)","LEGAL_NAME":"K & K AUTO BODY REBUILDERS, INC.","LONGITUDE":-87.76757729671353},
{"STATE":"IL","ZIP":60643,"LATTITUDE":41.720308387124184,"ADDRESS":"9540 - 9558 S VINCENNES AVE 1ST ","YEAR":2013,"DOING_BUSINESS_AS_NAME":"WINSTON' S AUTO REBUILDERS, INC.","POP_AT_RISK":61664,"BUSINESS_TYPE":"Motor Vehicle Repair: Engine\/Body(Class III)","LEGAL_NAME":"WINSTON' S AUTO REBUILDERS, INC.","LONGITUDE":-87.65116077246995},
{"STATE":"IL","ZIP":60655,"LATTITUDE":41.69136117650063,"ADDRESS":"3425 W 111TH ST 1ST ","YEAR":2013,"DOING_BUSINESS_AS_NAME":"KUREK BROS SERVICE CENTER INC","POP_AT_RISK":125100,"BUSINESS_TYPE":"Motor Vehicle Repair: Engine\/Body(Class III)","LEGAL_NAME":"KUREK BROTHERS SERVICE CENTER INC","LONGITUDE":-87.70687776705148},
{"STATE":"IL","ZIP":60609,"LATTITUDE":41.794736867065225,"ADDRESS":"5436 S ASHLAND AVE 1 ","YEAR":2013,"DOING_BUSINESS_AS_NAME":"WRECK AND ROLL AUTO BODY SOUTH, INC.","POP_AT_RISK":81106,"BUSINESS_TYPE":"Motor Vehicle Repair: Engine\/Body(Class III)","LEGAL_NAME":"WRECK AND ROLL AUTO BODY SOUTH, INC.","LONGITUDE":-87.66474956468585},
{"STATE":"IL","ZIP":60638,"LATTITUDE":41.79824284619154,"ADDRESS":"5500 S ARCHER AVE  ","YEAR":2013,"DOING_BUSINESS_AS_NAME":"KAY JAY AUTO REBUILDERS INC","POP_AT_RISK":22769,"BUSINESS_TYPE":"Motor Vehicle Repair: Engine\/Body(Class III)","LEGAL_NAME":"KAY JAY AUTO REBUILDERS, INCORPORATED","LONGITUDE":-87.74665694497358},
{"STATE":"IL","ZIP":60620,"LATTITUDE":41.750242905344045,"ADDRESS":"7917 S VINCENNES AVE  ","YEAR":2013,"DOING_BUSINESS_AS_NAME":"RIVERDALE BODY SHOP","POP_AT_RISK":66836,"BUSINESS_TYPE":"Motor Vehicle Repair: Engine\/Body(Class III)","LEGAL_NAME":"RIVERDALE BODY SHOP OF SCHERERVILLE, INC.","LONGITUDE":-87.63420697354114},
}