{
{"STATE":"IL","ZIP":60610,"LATTITUDE":41.911053246073564,"ADDRESS":"109 W NORTH AVE  ","YEAR":2013,"DOING_BUSINESS_AS_NAME":"PAWS-A-TIVELY","POP_AT_RISK":127672,"BUSINESS_TYPE":"Grooming Facility","LEGAL_NAME":"BARSHUVAL INC","LONGITUDE":-87.63207656730064},
{"STATE":"IL","ZIP":60631,"LATTITUDE":42.011790966822375,"ADDRESS":"7236 W TOUHY AVE 1ST ","YEAR":2013,"DOING_BUSINESS_AS_NAME":"PAW & CLAW CAT GROOMING","POP_AT_RISK":95800,"BUSINESS_TYPE":"Grooming Facility","LEGAL_NAME":"DIANA DEMPSEY","LONGITUDE":-87.8080824261318},
{"STATE":"IL","ZIP":60617,"LATTITUDE":41.725362607953755,"ADDRESS":"9335 S ESCANABA AVE 1ST ","YEAR":2013,"DOING_BUSINESS_AS_NAME":"PET GROOMERS","POP_AT_RISK":129003,"BUSINESS_TYPE":"Grooming Facility","LEGAL_NAME":"FLORENDO WAIR","LONGITUDE":-87.55375842875418},
{"STATE":"IL","ZIP":60657,"LATTITUDE":41.9429740069716,"ADDRESS":"3335 N BROADWAY  1ST ","YEAR":2013,"DOING_BUSINESS_AS_NAME":"HAPPY TAILS","POP_AT_RISK":1402164,"BUSINESS_TYPE":"Grooming Facility","LEGAL_NAME":"RAY LISKOWSKI","LONGITUDE":-87.64444482980407},
{"STATE":"IL","ZIP":60634,"LATTITUDE":41.945295393932916,"ADDRESS":"7340 W ADDISON ST 1ST ","YEAR":2013,"DOING_BUSINESS_AS_NAME":"THE DOG ROOM","POP_AT_RISK":367328,"BUSINESS_TYPE":"Grooming Facility","LEGAL_NAME":"YURI HENNELLY","LONGITUDE":-87.81104071776409},
{"STATE":"IL","ZIP":60611,"LATTITUDE":41.893341296312244,"ADDRESS":"401 E ONTARIO ST 1 ","YEAR":2013,"DOING_BUSINESS_AS_NAME":"STREETVILLE PET SPA & BOUTIQUE","POP_AT_RISK":173247,"BUSINESS_TYPE":"Grooming Facility","LEGAL_NAME":"HYDE PARK INC.","LONGITUDE":-87.61758915120579},
{"STATE":"IL","ZIP":60629,"LATTITUDE":41.77704369077446,"ADDRESS":"6352 S PULASKI RD N\/A ","YEAR":2013,"DOING_BUSINESS_AS_NAME":"Mr.'s Doggies Pet Grooming Salon","POP_AT_RISK":604472,"BUSINESS_TYPE":"Grooming Facility","LEGAL_NAME":"Hector M Valdez","LONGITUDE":-87.72286709745119},
{"STATE":"IL","ZIP":60610,"LATTITUDE":41.90687173761018,"ADDRESS":"1347 N SEDGWICK ST 1 1","YEAR":2013,"DOING_BUSINESS_AS_NAME":"THE KENNEL, LTD.","POP_AT_RISK":67399,"BUSINESS_TYPE":"Grooming Facility","LEGAL_NAME":"THE KENNEL, LTD.","LONGITUDE":-87.63831399714562},
{"STATE":"IL","ZIP":60647,"LATTITUDE":41.92474888261842,"ADDRESS":"2557 W FULLERTON AVE 1 ","YEAR":2013,"DOING_BUSINESS_AS_NAME":"Salon Dog","POP_AT_RISK":185718,"BUSINESS_TYPE":"Grooming Facility","LEGAL_NAME":"Christina Koehler","LONGITUDE":-87.6920536206317},
{"STATE":"IL","ZIP":60707,"LATTITUDE":41.90913139554721,"ADDRESS":"6804 W NORTH AVE  ","YEAR":2013,"DOING_BUSINESS_AS_NAME":"ONE LUCKY PUPPY, INC.","POP_AT_RISK":28778,"BUSINESS_TYPE":"Grooming Facility","LEGAL_NAME":"ONE LUCKY PUPPY, INC.","LONGITUDE":-87.79516676645979},
{"STATE":"IL","ZIP":60638,"LATTITUDE":41.792120050968975,"ADDRESS":"6621 W ARCHER AVE 1 ","YEAR":2013,"DOING_BUSINESS_AS_NAME":"BARKIN' BEAUTIES","POP_AT_RISK":177690,"BUSINESS_TYPE":"Grooming Facility","LEGAL_NAME":"BARKIN' BEAUTIES, INC.","LONGITUDE":-87.78766374908565},
{"STATE":"IL","ZIP":60613,"LATTITUDE":41.95424086566732,"ADDRESS":"1407 W IRVING PARK RD 1ST ","YEAR":2013,"DOING_BUSINESS_AS_NAME":"CITY GROOMERS","POP_AT_RISK":479150,"BUSINESS_TYPE":"Grooming Facility","LEGAL_NAME":"D STRAUSS & D M KREUTZ","LONGITUDE":-87.66453872962754},
{"STATE":"IL","ZIP":60607,"LATTITUDE":41.86541681298206,"ADDRESS":"1258 S HALSTED ST 1ST ","YEAR":2013,"DOING_BUSINESS_AS_NAME":"HOWLISTIC GROOMING","POP_AT_RISK":226520,"BUSINESS_TYPE":"Grooming Facility","LEGAL_NAME":"HOWLISTIC GROOMER, INC.","LONGITUDE":-87.64701273650405},
{"STATE":"IL","ZIP":60625,"LATTITUDE":41.96767420876509,"ADDRESS":"4725 N DAMEN AVE 1ST ","YEAR":2013,"DOING_BUSINESS_AS_NAME":"IT'S A PAWS WORLD","POP_AT_RISK":61142,"BUSINESS_TYPE":"Grooming Facility","LEGAL_NAME":"IT' S A PAWS WORLD, INC.","LONGITUDE":-87.67900741805406},
{"STATE":"IL","ZIP":60613,"LATTITUDE":41.961572967325566,"ADDRESS":"1964 W MONTROSE AVE 1ST ","YEAR":2013,"DOING_BUSINESS_AS_NAME":"IT' S A PAWS WORLD","POP_AT_RISK":64775,"BUSINESS_TYPE":"Grooming Facility","LEGAL_NAME":"IT' S A PAWS WORLD, INC.","LONGITUDE":-87.67862368352411},
{"STATE":"IL","ZIP":60707,"LATTITUDE":41.92394480190854,"ADDRESS":"2411 N NEWLAND AVE 1 ","YEAR":2013,"DOING_BUSINESS_AS_NAME":"PRETTY PAW'S","POP_AT_RISK":251240,"BUSINESS_TYPE":"Grooming Facility","LEGAL_NAME":"PRETTY PAW'S CORPORATION","LONGITUDE":-87.79877077387005},
{"STATE":"IL","ZIP":60640,"LATTITUDE":41.976475060831305,"ADDRESS":"5208 N CLARK ST 1 ","YEAR":2013,"DOING_BUSINESS_AS_NAME":"Jameson Loves Danger","POP_AT_RISK":664720,"BUSINESS_TYPE":"Grooming Facility","LEGAL_NAME":"Jameson Loves Danger, Inc.","LONGITUDE":-87.66856251042974},
{"STATE":"IL","ZIP":60647,"LATTITUDE":41.92372019907236,"ADDRESS":"2344 N MILWAUKEE AVE 1ST ","YEAR":2013,"DOING_BUSINESS_AS_NAME":"Temple of the Dog & Meow Lounge","POP_AT_RISK":418890,"BUSINESS_TYPE":"Grooming Facility","LEGAL_NAME":"Temple of the Dog & Meow Lounge","LONGITUDE":-87.69891657803828},
{"STATE":"IL","ZIP":60608,"LATTITUDE":41.84759721676912,"ADDRESS":"2424 S WESTERN AVE 1 ","YEAR":2013,"DOING_BUSINESS_AS_NAME":"PET PALACE GROOMING SALON, CORP.","POP_AT_RISK":388260,"BUSINESS_TYPE":"Grooming Facility","LEGAL_NAME":"PET PALACE GROOMING SALON, CORP.","LONGITUDE":-87.68566254739429},
{"STATE":"IL","ZIP":60607,"LATTITUDE":41.88035142248382,"ADDRESS":"843 W MONROE ST 1 1-A","YEAR":2013,"DOING_BUSINESS_AS_NAME":"MONROE ST GROOMING STUDIO","POP_AT_RISK":150740,"BUSINESS_TYPE":"Grooming Facility","LEGAL_NAME":"LOGAN SQUARE GROOMING STUDIO INC.","LONGITUDE":-87.64903114992849},
{"STATE":"IL","ZIP":60652,"LATTITUDE":41.744867655481485,"ADDRESS":"8142 S KEDZIE AVE 1 1","YEAR":2013,"DOING_BUSINESS_AS_NAME":"KENIN'S PET GROOMING SHOP","POP_AT_RISK":70275,"BUSINESS_TYPE":"Grooming Facility","LEGAL_NAME":"ANTONIA GARCIA & MARIA ANTONIA JAIME","LONGITUDE":-87.70240428748576},
{"STATE":"IL","ZIP":60652,"LATTITUDE":41.74974620119093,"ADDRESS":"3784 W 79TH ST 1ST ","YEAR":2013,"DOING_BUSINESS_AS_NAME":"DOGGONE RITE","POP_AT_RISK":44348,"BUSINESS_TYPE":"Grooming Facility","LEGAL_NAME":"DOGGONE RITE DOG GROOMING SALON INC.","LONGITUDE":-87.717635828303},
}