{
{"STATE":"IL","ZIP":60634,"LATTITUDE":41.93814813908292,"ADDRESS":"3213 N PACIFIC AVE  ","YEAR":2006,"DOING_BUSINESS_AS_NAME":"WINDY CITY WINDOWS AND REMODELING","POP_AT_RISK":32652,"BUSINESS_TYPE":"Home Repair","LEGAL_NAME":"ROBERT M ABBINANTI","LONGITUDE":-87.82618925190799},
{"STATE":"IL","ZIP":60707,"LATTITUDE":41.90893638688864,"ADDRESS":"1601 N HARLEM AVE  OFFIC","YEAR":2006,"DOING_BUSINESS_AS_NAME":"SEARS ROEBUCK & CO 1090","POP_AT_RISK":61522,"BUSINESS_TYPE":"Home Repair","LEGAL_NAME":"SEARS,ROEBUCK & CO.","LONGITUDE":-87.8056027454349},
{"STATE":"IL","ZIP":60652,"LATTITUDE":41.75466012439374,"ADDRESS":"7601 S CICERO AVE  1","YEAR":2006,"DOING_BUSINESS_AS_NAME":"SEARS ROEBUCK & CO 2980","POP_AT_RISK":51644,"BUSINESS_TYPE":"Home Repair","LEGAL_NAME":"SEARS,ROEBUCK & CO.","LONGITUDE":-87.74138475860521},
{"STATE":"IL","ZIP":60644,"LATTITUDE":41.86562678619083,"ADDRESS":"5818 W ROOSEVELT RD  ","YEAR":2006,"DOING_BUSINESS_AS_NAME":"VIP TECH CORP","POP_AT_RISK":262090,"BUSINESS_TYPE":"Home Repair","LEGAL_NAME":"VIP TECH CORPORATION","LONGITUDE":-87.770106792239},
{"STATE":"IL","ZIP":60827,"LATTITUDE":41.64471662321941,"ADDRESS":"638 W 138 TH ST  1ST","YEAR":2006,"DOING_BUSINESS_AS_NAME":"WINDY CITY MUD SLINGERS, INC","POP_AT_RISK":7445,"BUSINESS_TYPE":"Home Repair","LEGAL_NAME":"WINDY CITY MUD SLINGERS INC","LONGITUDE":-87.60585024325569},
{"STATE":"IL","ZIP":60656,"LATTITUDE":41.973360026362016,"ADDRESS":"5202 N WESLEY TER 1 ","YEAR":2006,"DOING_BUSINESS_AS_NAME":"GRANITE & MARBLE DESIGNS INC","POP_AT_RISK":16526,"BUSINESS_TYPE":"Home Repair","LEGAL_NAME":"GRANITE & MARBLE DESIGNS INC","LONGITUDE":-87.86421787628339},
{"STATE":"IL","ZIP":60655,"LATTITUDE":41.704138271482805,"ADDRESS":"10359 S PULASKI RD  ","YEAR":2006,"DOING_BUSINESS_AS_NAME":"MURPHY'S WINDOWS & SUNROOMS","POP_AT_RISK":22802,"BUSINESS_TYPE":"Home Repair","LEGAL_NAME":"MURPHY'S WINDOW & SIDING SYS","LONGITUDE":-87.72068680605787},
{"STATE":"IL","ZIP":60655,"LATTITUDE":41.706401044147185,"ADDRESS":"2850 W 103RD ST  ","YEAR":2006,"DOING_BUSINESS_AS_NAME":"TNT HEATING AND AIR CONDITIONING","POP_AT_RISK":32264,"BUSINESS_TYPE":"Home Repair","LEGAL_NAME":"TNT HEATING & AIR CONDITIONING","LONGITUDE":-87.69352850569015},
{"STATE":"IL","ZIP":60631,"LATTITUDE":41.98109378013414,"ADDRESS":"8700 W BRYN MAWR AVE  800","YEAR":2006,"DOING_BUSINESS_AS_NAME":"M.B.P. CONSTRUCTION ENTERPRISES INCORPORATED","POP_AT_RISK":21169,"BUSINESS_TYPE":"Home Repair","LEGAL_NAME":"M.B.P. CONSTRUCTION ENTERPRISES INCORPORATED","LONGITUDE":-87.844075627491},
}