{
{"STATE":"IL","ZIP":60616,"LATTITUDE":41.85783824203235,"ADDRESS":"1801 S INDIANA AVE  ","YEAR":2008,"DOING_BUSINESS_AS_NAME":"CAFE SOCIETY INC","POP_AT_RISK":98700,"BUSINESS_TYPE":"Retail Food Est.-Supplemental License for Dog-Friendly Areas","LEGAL_NAME":"CAFE SOCIETY INC","LONGITUDE":-87.62218405329706},
{"STATE":"IL","ZIP":60615,"LATTITUDE":41.79492106897254,"ADDRESS":"1055 E 55TH ST  ","YEAR":2008,"DOING_BUSINESS_AS_NAME":"SEVEN TEN","POP_AT_RISK":798360,"BUSINESS_TYPE":"Retail Food Est.-Supplemental License for Dog-Friendly Areas","LEGAL_NAME":"STRIKE TWO CORP.","LONGITUDE":-87.59985203106729},
{"STATE":"IL","ZIP":60626,"LATTITUDE":42.01615704190619,"ADDRESS":"1500 W JARVIS AVE  ","YEAR":2008,"DOING_BUSINESS_AS_NAME":"CHARMERS CAFE\/THE DAGEL AND BELI SHOP","POP_AT_RISK":809848,"BUSINESS_TYPE":"Retail Food Est.-Supplemental License for Dog-Friendly Areas","LEGAL_NAME":"CHARMERS DAGEL LLC","LONGITUDE":-87.66825247379121},
{"STATE":"IL","ZIP":60640,"LATTITUDE":41.97332527471334,"ADDRESS":"5025 N CLARK ST  ","YEAR":2008,"DOING_BUSINESS_AS_NAME":"T's","POP_AT_RISK":65405,"BUSINESS_TYPE":"Retail Food Est.-Supplemental License for Dog-Friendly Areas","LEGAL_NAME":"T-Rex-  5025, LTD.","LONGITUDE":-87.66792167114302},
{"STATE":"IL","ZIP":60605,"LATTITUDE":41.872361365803386,"ADDRESS":"755 S CLARK ST  ","YEAR":2008,"DOING_BUSINESS_AS_NAME":"BLACKIE'S","POP_AT_RISK":63900,"BUSINESS_TYPE":"Retail Food Est.-Supplemental License for Dog-Friendly Areas","LEGAL_NAME":"THOMAS LIQUORS INC","LONGITUDE":-87.63046720465887},
{"STATE":"IL","ZIP":60618,"LATTITUDE":41.944311953934424,"ADDRESS":"3471 N ELSTON AVE 1ST ","YEAR":2008,"DOING_BUSINESS_AS_NAME":"CHIEF O'NEILL'S PUB & RESTAURANT","POP_AT_RISK":326658,"BUSINESS_TYPE":"Retail Food Est.-Supplemental License for Dog-Friendly Areas","LEGAL_NAME":"MCKINNEY'S PUB, LTD.","LONGITUDE":-87.7052548221551},
{"STATE":"IL","ZIP":60613,"LATTITUDE":41.951064053085005,"ADDRESS":"3800 N CLARK ST  ","YEAR":2008,"DOING_BUSINESS_AS_NAME":"UNCOMMON GROUND","POP_AT_RISK":155238,"BUSINESS_TYPE":"Retail Food Est.-Supplemental License for Dog-Friendly Areas","LEGAL_NAME":"UNCOMMON GROUND, INC.","LONGITUDE":-87.65979512802838},
{"STATE":"IL","ZIP":60607,"LATTITUDE":41.88166707708318,"ADDRESS":"1326-1328 W MADISON ST 1 ","YEAR":2008,"DOING_BUSINESS_AS_NAME":"WESTEND BAR & GRILL","POP_AT_RISK":209045,"BUSINESS_TYPE":"Retail Food Est.-Supplemental License for Dog-Friendly Areas","LEGAL_NAME":"WEST LOOP TAP, L.L.C.","LONGITUDE":-87.66070751628168},
{"STATE":"IL","ZIP":60647,"LATTITUDE":41.93196806631448,"ADDRESS":"2753 N WESTERN AVE  ","YEAR":2008,"DOING_BUSINESS_AS_NAME":"CORNERSTONE CAFE","POP_AT_RISK":160476,"BUSINESS_TYPE":"Retail Food Est.-Supplemental License for Dog-Friendly Areas","LEGAL_NAME":"CORNERSTONE CAFE', INC.","LONGITUDE":-87.6877412495},
{"STATE":"IL","ZIP":60640,"LATTITUDE":41.978342059241015,"ADDRESS":"5308-5310 N CLARK ST  ","YEAR":2008,"DOING_BUSINESS_AS_NAME":"ACRE\/ OMBRA","POP_AT_RISK":123322,"BUSINESS_TYPE":"Retail Food Est.-Supplemental License for Dog-Friendly Areas","LEGAL_NAME":"OLD TOWN CHARLIES, INC.","LONGITUDE":-87.66848426596569},
{"STATE":"IL","ZIP":60625,"LATTITUDE":41.96580612741261,"ADDRESS":"4632 N ROCKWELL ST  1","YEAR":2008,"DOING_BUSINESS_AS_NAME":"ROCKWELL'S NEIGHBORHOOD GRILL","POP_AT_RISK":253104,"BUSINESS_TYPE":"Retail Food Est.-Supplemental License for Dog-Friendly Areas","LEGAL_NAME":"NEIGHBORHOOD RESTAURANTS, INC.","LONGITUDE":-87.6938674921247},
}