{
{"STATE":"IL","ZIP":60636,"LATTITUDE":41.783965842276345,"ADDRESS":"6025 S WESTERN AVE  1ST","YEAR":2015,"DOING_BUSINESS_AS_NAME":"ALDI INC.#94","POP_AT_RISK":59083,"BUSINESS_TYPE":"Package Goods","LEGAL_NAME":"ALDI INC.","LONGITUDE":-87.68362337775844},
{"STATE":"IL","ZIP":60631,"LATTITUDE":42.00318739128336,"ADDRESS":"6715 N NORTHWEST HWY 1ST ","YEAR":2015,"DOING_BUSINESS_AS_NAME":"WORLD WIDE LIQUORS","POP_AT_RISK":75672,"BUSINESS_TYPE":"Package Goods","LEGAL_NAME":"MHP, INC.","LONGITUDE":-87.8165718280094},
{"STATE":"IL","ZIP":60624,"LATTITUDE":41.87421105485793,"ADDRESS":"500 S KOSTNER AVE  ","YEAR":2015,"DOING_BUSINESS_AS_NAME":"WEST SIDE FOOD & LIQUOR","POP_AT_RISK":43206,"BUSINESS_TYPE":"Package Goods","LEGAL_NAME":"AYYASH, INC.","LONGITUDE":-87.73538708916487},
{"STATE":"IL","ZIP":60645,"LATTITUDE":42.018017439434125,"ADDRESS":"7510 N WESTERN AVE 1ST ","YEAR":2015,"DOING_BUSINESS_AS_NAME":"WALGREENS #252","POP_AT_RISK":149505,"BUSINESS_TYPE":"Package Goods","LEGAL_NAME":"WALGREEN CO.","LONGITUDE":-87.69033736821223},
{"STATE":"IL","ZIP":60632,"LATTITUDE":41.81369495092067,"ADDRESS":"4385 S ARCHER AVE 1ST ","YEAR":2015,"DOING_BUSINESS_AS_NAME":"Walgreens #5926","POP_AT_RISK":47182,"BUSINESS_TYPE":"Package Goods","LEGAL_NAME":"WALGREEN CO.","LONGITUDE":-87.70465801543592},
{"STATE":"IL","ZIP":60649,"LATTITUDE":41.76581641580279,"ADDRESS":"7109 S JEFFERY BLVD  ","YEAR":2015,"DOING_BUSINESS_AS_NAME":"WALGREENS #10350","POP_AT_RISK":43337,"BUSINESS_TYPE":"Package Goods","LEGAL_NAME":"WALGREEN CO.","LONGITUDE":-87.57614547516636},
{"STATE":"IL","ZIP":60643,"LATTITUDE":41.68495485680182,"ADDRESS":"833 W 115TH ST 1 ","YEAR":2015,"DOING_BUSINESS_AS_NAME":"WALGREENS # 09357","POP_AT_RISK":151040,"BUSINESS_TYPE":"Package Goods","LEGAL_NAME":"WALGREEN CO.","LONGITUDE":-87.64347112488747},
{"STATE":"IL","ZIP":60707,"LATTITUDE":41.909134570904456,"ADDRESS":"6800 W NORTH AVE 1ST 1","YEAR":2015,"DOING_BUSINESS_AS_NAME":"7-ELEVEN #33921B","POP_AT_RISK":57556,"BUSINESS_TYPE":"Package Goods","LEGAL_NAME":"PATELCO, INC.","LONGITUDE":-87.79492813078483},
{"STATE":"IL","ZIP":60655,"LATTITUDE":41.706267847376395,"ADDRESS":"2421 W 103RD ST 1ST ","YEAR":2015,"DOING_BUSINESS_AS_NAME":"7 ELEVEN #33758H","POP_AT_RISK":83172,"BUSINESS_TYPE":"Package Goods","LEGAL_NAME":"7-ELEVEN, INC.","LONGITUDE":-87.68256823964518},
{"STATE":"IL","ZIP":60666,"LATTITUDE":42.008536400868735,"ADDRESS":"11601 W TOUHY AVE  ","YEAR":2015,"DOING_BUSINESS_AS_NAME":"CAFFE MERCATO","POP_AT_RISK":4956,"BUSINESS_TYPE":"Package Goods","LEGAL_NAME":"HLT O'HARE LLC","LONGITUDE":-87.91442843927047},
{"STATE":"IL","ZIP":60616,"LATTITUDE":41.852075574499366,"ADDRESS":"2233 S DR MARTIN LUTHER KING JR DR  ","YEAR":2015,"DOING_BUSINESS_AS_NAME":"HYATT REGENCY MCCORMICK PLACE HOTEL","POP_AT_RISK":35622,"BUSINESS_TYPE":"Package Goods","LEGAL_NAME":"HYATT CORPORATION","LONGITUDE":-87.61885080391755},
{"STATE":"IL","ZIP":60638,"LATTITUDE":41.7772686733972,"ADDRESS":"6323 S CENTRAL AVE  ","YEAR":2015,"DOING_BUSINESS_AS_NAME":"FRIENDLY FOOD & LIQUOR","POP_AT_RISK":18938,"BUSINESS_TYPE":"Package Goods","LEGAL_NAME":"WILLIAM HADDAD INC","LONGITUDE":-87.76154275748819},
{"STATE":"IL","ZIP":60659,"LATTITUDE":41.997131785245806,"ADDRESS":"3947-3949 W DEVON AVE 1 ","YEAR":2015,"DOING_BUSINESS_AS_NAME":"EDEN'S FOOD & LIQUOR","POP_AT_RISK":40028,"BUSINESS_TYPE":"Package Goods","LEGAL_NAME":"BINU RICH SOFT INC.","LONGITUDE":-87.7282236873304},
{"STATE":"IL","ZIP":60628,"LATTITUDE":41.72178628789281,"ADDRESS":"124 W 95TH ST  ","YEAR":2015,"DOING_BUSINESS_AS_NAME":"SAM FOOD & LIQUOR","POP_AT_RISK":116204,"BUSINESS_TYPE":"Package Goods","LEGAL_NAME":"SAMI BROTHERS, INC.","LONGITUDE":-87.6273919100881},
{"STATE":"IL","ZIP":60624,"LATTITUDE":41.88053919924157,"ADDRESS":"4241 W MADISON ST  ","YEAR":2015,"DOING_BUSINESS_AS_NAME":"PERSONAL LIQUORS INC","POP_AT_RISK":37472,"BUSINESS_TYPE":"Package Goods","LEGAL_NAME":"PERSONAL LIQUORS INC","LONGITUDE":-87.73221603726317},
{"STATE":"IL","ZIP":60629,"LATTITUDE":41.77793576167579,"ADDRESS":"3201 W 63RD PL  ","YEAR":2015,"DOING_BUSINESS_AS_NAME":"NELSON FOOD & LIQUOR","POP_AT_RISK":62644,"BUSINESS_TYPE":"Package Goods","LEGAL_NAME":"KEDZIE BEVERAGES INC.","LONGITUDE":-87.70322438611822},
{"STATE":"IL","ZIP":60827,"LATTITUDE":41.65197281855635,"ADDRESS":"13355 S INDIANA AVE  ","YEAR":2015,"DOING_BUSINESS_AS_NAME":"KEY FOOD LIQUOR","POP_AT_RISK":5714,"BUSINESS_TYPE":"Package Goods","LEGAL_NAME":"KEY FOOD & LIQUOR, INC.","LONGITUDE":-87.61708373629855},
{"STATE":"IL","ZIP":60827,"LATTITUDE":41.65675265668745,"ADDRESS":"13118 S ELLIS AVE 1ST ","YEAR":2015,"DOING_BUSINESS_AS_NAME":"ALTGELD GARDEN LIQUOR INC","POP_AT_RISK":6482,"BUSINESS_TYPE":"Package Goods","LEGAL_NAME":"ALTGELD GARDEN LIQUOR INC","LONGITUDE":-87.59759858587499},
{"STATE":"IL","ZIP":60623,"LATTITUDE":41.85132422344611,"ADDRESS":"4265 W CERMAK RD  ","YEAR":2015,"DOING_BUSINESS_AS_NAME":"FERAS FOOD & LIQUOR, INC.","POP_AT_RISK":56213,"BUSINESS_TYPE":"Package Goods","LEGAL_NAME":"FERAS FOOD & LIQUOR, INC.","LONGITUDE":-87.73219217780218},
{"STATE":"IL","ZIP":60655,"LATTITUDE":41.70576966137161,"ADDRESS":"3951 W 103RD ST  ","YEAR":2015,"DOING_BUSINESS_AS_NAME":"CVS\/PHARMACY #2798","POP_AT_RISK":68406,"BUSINESS_TYPE":"Package Goods","LEGAL_NAME":"HIGHLAND PARK CVS, L.L.C.","LONGITUDE":-87.72053293739903},
{"STATE":"IL","ZIP":60652,"LATTITUDE":41.73524227693795,"ADDRESS":"8639 S CICERO AVE  ","YEAR":2015,"DOING_BUSINESS_AS_NAME":"CVS\/PHARMACY #2846","POP_AT_RISK":23923,"BUSINESS_TYPE":"Package Goods","LEGAL_NAME":"HIGHLAND PARK CVS, L.L.C.","LONGITUDE":-87.74084401681829},
{"STATE":"IL","ZIP":60620,"LATTITUDE":41.75031089078853,"ADDRESS":"7855 S WESTERN AVE  ","YEAR":2015,"DOING_BUSINESS_AS_NAME":"CVS\/PHARMACY #4979","POP_AT_RISK":75896,"BUSINESS_TYPE":"Package Goods","LEGAL_NAME":"HIGHLAND PARK CVS, L.L.C.","LONGITUDE":-87.68270740154647},
{"STATE":"IL","ZIP":60629,"LATTITUDE":41.77815103520148,"ADDRESS":"6315 S PULASKI RD 1 ","YEAR":2015,"DOING_BUSINESS_AS_NAME":"CVS\/PHARMACY #8502","POP_AT_RISK":54952,"BUSINESS_TYPE":"Package Goods","LEGAL_NAME":"HIGHLAND PARK CVS, L.L.C.","LONGITUDE":-87.72260013631238},
{"STATE":"IL","ZIP":60652,"LATTITUDE":41.73897146484839,"ADDRESS":"8444 S PULASKI RD  ","YEAR":2015,"DOING_BUSINESS_AS_NAME":"CVS\/PHARMACY #8504","POP_AT_RISK":31842,"BUSINESS_TYPE":"Package Goods","LEGAL_NAME":"HIGHLAND PARK CVS, L.L.C.","LONGITUDE":-87.72172127747284},
{"STATE":"IL","ZIP":60655,"LATTITUDE":41.69166492445589,"ADDRESS":"3220 W 111TH ST 1ST ","YEAR":2015,"DOING_BUSINESS_AS_NAME":"WALGREENS #7360","POP_AT_RISK":24012,"BUSINESS_TYPE":"Package Goods","LEGAL_NAME":"BOND DRUG COMPANY OF ILLINOIS, LLC","LONGITUDE":-87.70175366578924},
{"STATE":"IL","ZIP":60631,"LATTITUDE":41.984666143815446,"ADDRESS":"5753 N CANFIELD AVE 1ST ","YEAR":2015,"DOING_BUSINESS_AS_NAME":"WALGREENS #04937","POP_AT_RISK":14195,"BUSINESS_TYPE":"Package Goods","LEGAL_NAME":"BOND DRUG COMPANY OF ILLINOIS, LLC","LONGITUDE":-87.82315864715578},
{"STATE":"IL","ZIP":60632,"LATTITUDE":41.79438342285343,"ADDRESS":"5435 S KEDZIE AVE  FIRST","YEAR":2015,"DOING_BUSINESS_AS_NAME":"WALGREENS #05234","POP_AT_RISK":67210,"BUSINESS_TYPE":"Package Goods","LEGAL_NAME":"BOND DRUG COMPANY OF ILLINOIS, LLC","LONGITUDE":-87.70343740377959},
}