{
{"STATE":"IL","ZIP":60617,"LATTITUDE":41.7176287308732,"ADDRESS":"9800 S AVENUE L  1ST ","YEAR":2014,"DOING_BUSINESS_AS_NAME":"SUPER LEON","POP_AT_RISK":10918,"BUSINESS_TYPE":"Tobacco Retail Over Counter","LEGAL_NAME":"JULIA MONTES","LONGITUDE":-87.53663822715004},
{"STATE":"IL","ZIP":60643,"LATTITUDE":41.67798852250068,"ADDRESS":"11833 S WESTERN AVE 1 ","YEAR":2014,"DOING_BUSINESS_AS_NAME":"WALGREENS #06762","POP_AT_RISK":19493,"BUSINESS_TYPE":"Tobacco Retail Over Counter","LEGAL_NAME":"WALGREEN CO.","LONGITUDE":-87.68057983898257},
{"STATE":"IL","ZIP":60707,"LATTITUDE":41.909134570904456,"ADDRESS":"6800 W NORTH AVE 1ST 1","YEAR":2014,"DOING_BUSINESS_AS_NAME":"7-ELEVEN #33921B","POP_AT_RISK":28778,"BUSINESS_TYPE":"Tobacco Retail Over Counter","LEGAL_NAME":"PATELCO, INC.","LONGITUDE":-87.79492813078483},
{"STATE":"IL","ZIP":60655,"LATTITUDE":41.69867524086993,"ADDRESS":"10657 S PULASKI RD 1ST ","YEAR":2014,"DOING_BUSINESS_AS_NAME":"OPEN PANTRY","POP_AT_RISK":26751,"BUSINESS_TYPE":"Tobacco Retail Over Counter","LEGAL_NAME":"FAMILY PANTRY INC","LONGITUDE":-87.72049485543255},
{"STATE":"IL","ZIP":60659,"LATTITUDE":41.997131785245806,"ADDRESS":"3947-3949 W DEVON AVE 1 ","YEAR":2014,"DOING_BUSINESS_AS_NAME":"EDEN'S FOOD & LIQUOR","POP_AT_RISK":20014,"BUSINESS_TYPE":"Tobacco Retail Over Counter","LEGAL_NAME":"BINU RICH SOFT INC.","LONGITUDE":-87.7282236873304},
{"STATE":"IL","ZIP":60644,"LATTITUDE":41.865674118765014,"ADDRESS":"5660 W ROOSEVELT RD  ","YEAR":2014,"DOING_BUSINESS_AS_NAME":"FAMILY DOLLAR  STORE # 6538","POP_AT_RISK":48194,"BUSINESS_TYPE":"Tobacco Retail Over Counter","LEGAL_NAME":"FAMILY DOLLAR, INC.","LONGITUDE":-87.76669937716034},
{"STATE":"IL","ZIP":60638,"LATTITUDE":41.77415695093783,"ADDRESS":"6316-6318 W 65TH ST 1ST ","YEAR":2014,"DOING_BUSINESS_AS_NAME":"LAST CALL LOUNGE","POP_AT_RISK":22742,"BUSINESS_TYPE":"Tobacco Retail Over Counter","LEGAL_NAME":"LAST CALL LOUNGE INC","LONGITUDE":-87.77940788571328},
{"STATE":"IL","ZIP":60628,"LATTITUDE":41.67039442848964,"ADDRESS":"12303 S HALSTED ST 1ST ","YEAR":2014,"DOING_BUSINESS_AS_NAME":"TASTE OF CHICAGO","POP_AT_RISK":61974,"BUSINESS_TYPE":"Tobacco Retail Over Counter","LEGAL_NAME":"TASTE OF CHICAGO INC","LONGITUDE":-87.6415137299169},
{"STATE":"IL","ZIP":60631,"LATTITUDE":42.011109822202236,"ADDRESS":"7140 N HARLEM AVE  ","YEAR":2014,"DOING_BUSINESS_AS_NAME":"SPARTAN BROS.INC.","POP_AT_RISK":19160,"BUSINESS_TYPE":"Tobacco Retail Over Counter","LEGAL_NAME":"SPARTAN BROTHERS.INC.","LONGITUDE":-87.80678967268501},
{"STATE":"IL","ZIP":60645,"LATTITUDE":42.01197715588615,"ADDRESS":"3150 W TOUHY AVE  ","YEAR":2014,"DOING_BUSINESS_AS_NAME":"NEW YORK PANTRY","POP_AT_RISK":37841,"BUSINESS_TYPE":"Tobacco Retail Over Counter","LEGAL_NAME":"RADHESHYAM FOODS, INC.","LONGITUDE":-87.70867163416553},
{"STATE":"IL","ZIP":60655,"LATTITUDE":41.70576966137161,"ADDRESS":"3951 W 103RD ST  ","YEAR":2014,"DOING_BUSINESS_AS_NAME":"CVS\/PHARMACY #2798","POP_AT_RISK":22802,"BUSINESS_TYPE":"Tobacco Retail Over Counter","LEGAL_NAME":"HIGHLAND PARK CVS, L.L.C.","LONGITUDE":-87.72053293739903},
{"STATE":"IL","ZIP":60652,"LATTITUDE":41.73524227693795,"ADDRESS":"8639 S CICERO AVE  ","YEAR":2014,"DOING_BUSINESS_AS_NAME":"CVS\/PHARMACY #2846","POP_AT_RISK":23923,"BUSINESS_TYPE":"Tobacco Retail Over Counter","LEGAL_NAME":"HIGHLAND PARK CVS, L.L.C.","LONGITUDE":-87.74084401681829},
{"STATE":"IL","ZIP":60827,"LATTITUDE":41.6486883798811,"ADDRESS":"13547 S INDIANA AVE  ","YEAR":2014,"DOING_BUSINESS_AS_NAME":"GAS SHOP AND MINI MART","POP_AT_RISK":11254,"BUSINESS_TYPE":"Tobacco Retail Over Counter","LEGAL_NAME":"GAS SHOP AND MINI MART, INC.","LONGITUDE":-87.61707897789567},
}