{
{"STATE":"IL","ZIP":60625,"LATTITUDE":41.97270631072203,"ADDRESS":"5016 N MOZART ST 1ST 1","YEAR":2007,"DOING_BUSINESS_AS_NAME":"JASON BRAZ","POP_AT_RISK":957810,"BUSINESS_TYPE":"Peddler, non-food, special","LEGAL_NAME":"JASON BRAZ","LONGITUDE":-87.70019303325596},
{"STATE":"IL","ZIP":60643,"LATTITUDE":41.692446016824746,"ADDRESS":"842 W 111TH ST  ","YEAR":2007,"DOING_BUSINESS_AS_NAME":"MERCY HALL","POP_AT_RISK":104025,"BUSINESS_TYPE":"Peddler, non-food, special","LEGAL_NAME":"MERCY HALL","LONGITUDE":-87.64408133336032},
{"STATE":"IL","ZIP":60649,"LATTITUDE":41.77331214761176,"ADDRESS":"6702 S CHAPPEL AVE 3 ","YEAR":2007,"DOING_BUSINESS_AS_NAME":"CAROL","POP_AT_RISK":29698,"BUSINESS_TYPE":"Peddler, non-food, special","LEGAL_NAME":"CAROL JAMES","LONGITUDE":-87.57541450624673},
{"STATE":"IL","ZIP":60643,"LATTITUDE":41.706914113362814,"ADDRESS":"1256 W 103RD ST  ","YEAR":2007,"DOING_BUSINESS_AS_NAME":"EZRA ALCORN","POP_AT_RISK":50318,"BUSINESS_TYPE":"Peddler, non-food, special","LEGAL_NAME":"EZRA ALCORN","LONGITUDE":-87.65469354147858},
{"STATE":"IL","ZIP":60609,"LATTITUDE":41.79622053738672,"ADDRESS":"5346 S WINCHESTER AVE  ","YEAR":2007,"DOING_BUSINESS_AS_NAME":"JAIME RUBIO","POP_AT_RISK":454490,"BUSINESS_TYPE":"Peddler, non-food, special","LEGAL_NAME":"JAIME RUBIO","LONGITUDE":-87.67329961027833},
{"STATE":"IL","ZIP":60618,"LATTITUDE":41.93567902030023,"ADDRESS":"2959 N TALMAN AVE  ","YEAR":2007,"DOING_BUSINESS_AS_NAME":"BETTY M WINN","POP_AT_RISK":91866,"BUSINESS_TYPE":"Peddler, non-food, special","LEGAL_NAME":"BETTY M WINN","LONGITUDE":-87.69390747366954},
{"STATE":"IL","ZIP":60630,"LATTITUDE":41.963183921265326,"ADDRESS":"4536 N ELSTON AVE  ","YEAR":2007,"DOING_BUSINESS_AS_NAME":"BYRON YABLON","POP_AT_RISK":414243,"BUSINESS_TYPE":"Peddler, non-food, special","LEGAL_NAME":"BYRON YABLON","LONGITUDE":-87.73318715325468},
{"STATE":"IL","ZIP":60628,"LATTITUDE":41.706102750536985,"ADDRESS":"117 W 103RD PL  BSMT","YEAR":2007,"DOING_BUSINESS_AS_NAME":"CARRIE SYKES","POP_AT_RISK":95340,"BUSINESS_TYPE":"Peddler, non-food, special","LEGAL_NAME":"CARRIE SYKES","LONGITUDE":-87.62659934062582},
{"STATE":"IL","ZIP":60624,"LATTITUDE":41.892236589104215,"ADDRESS":"614 N RIDGEWAY AVE 2ND ","YEAR":2007,"DOING_BUSINESS_AS_NAME":"DUANE WILSON","POP_AT_RISK":159128,"BUSINESS_TYPE":"Peddler, non-food, special","LEGAL_NAME":"DUANE WILSON","LONGITUDE":-87.72002690620984},
{"STATE":"IL","ZIP":60612,"LATTITUDE":41.8777381893736,"ADDRESS":"2122 W JACKSON BLVD  ","YEAR":2007,"DOING_BUSINESS_AS_NAME":"HOMER CARTER","POP_AT_RISK":22327,"BUSINESS_TYPE":"Peddler, non-food, special","LEGAL_NAME":"HOMER CARTER","LONGITUDE":-87.67999701360351},
{"STATE":"IL","ZIP":60046,"LATTITUDE":41.89158503337035,"ADDRESS":"49 E GRAND AVE 1 1","YEAR":2007,"DOING_BUSINESS_AS_NAME":"JOHN D. HALL","POP_AT_RISK":382605,"BUSINESS_TYPE":"Peddler, non-food, special","LEGAL_NAME":"JOHN D. HALL","LONGITUDE":-87.6261269319111},
{"STATE":"IL","ZIP":60621,"LATTITUDE":41.79226499746787,"ADDRESS":"416 W TREMONT ST  ","YEAR":2007,"DOING_BUSINESS_AS_NAME":"RENARD PORTE","POP_AT_RISK":63906,"BUSINESS_TYPE":"Peddler, non-food, special","LEGAL_NAME":"RENARD PORTE","LONGITUDE":-87.63626251951023},
{"STATE":"IL","ZIP":60630,"LATTITUDE":41.96972616993708,"ADDRESS":"4835 W AINSLIE ST  ","YEAR":2007,"DOING_BUSINESS_AS_NAME":"TIMOTEO DIAZ","POP_AT_RISK":85036,"BUSINESS_TYPE":"Peddler, non-food, special","LEGAL_NAME":"TIMOTEO DIAZ","LONGITUDE":-87.74925495165157},
{"STATE":"IL","ZIP":60619,"LATTITUDE":41.75619457777317,"ADDRESS":"7612 S EBERHART AVE  ","YEAR":2007,"DOING_BUSINESS_AS_NAME":"HOGAN","POP_AT_RISK":83046,"BUSINESS_TYPE":"Peddler, non-food, special","LEGAL_NAME":"EARNEST HOGAN","LONGITUDE":-87.61276996803532},
{"STATE":"IL","ZIP":60622,"LATTITUDE":41.90922982418396,"ADDRESS":"2043 W PIERCE AVE 1ST ","YEAR":2007,"DOING_BUSINESS_AS_NAME":"HERMAN MILTON","POP_AT_RISK":1397792,"BUSINESS_TYPE":"Peddler, non-food, special","LEGAL_NAME":"HERMAN MILTON","LONGITUDE":-87.67914391414072},
{"STATE":"IL","ZIP":60613,"LATTITUDE":41.95359383593699,"ADDRESS":"3940 N CLARK ST 5 502","YEAR":2007,"DOING_BUSINESS_AS_NAME":"MARIE GOODLOW","POP_AT_RISK":220872,"BUSINESS_TYPE":"Peddler, non-food, special","LEGAL_NAME":"MARIE GOODLOW","LONGITUDE":-87.66180342794729},
{"STATE":"IL","ZIP":60614,"LATTITUDE":41.93264872511651,"ADDRESS":"2757 N PINE GROVE AVE  907","YEAR":2007,"DOING_BUSINESS_AS_NAME":"MARILYN ADLER","POP_AT_RISK":351325,"BUSINESS_TYPE":"Peddler, non-food, special","LEGAL_NAME":"MARILYN ADLER","LONGITUDE":-87.64115056825374},
{"STATE":"IL","ZIP":60623,"LATTITUDE":41.85889945383759,"ADDRESS":"4214 W 16TH ST  ","YEAR":2007,"DOING_BUSINESS_AS_NAME":"OLA MAE EVANS","POP_AT_RISK":95350,"BUSINESS_TYPE":"Peddler, non-food, special","LEGAL_NAME":"OLA MAE EVANS","LONGITUDE":-87.73054680280109},
{"STATE":"IL","ZIP":60647,"LATTITUDE":41.914872525125695,"ADDRESS":"1842 N SPRINGFIELD AVE  1","YEAR":2007,"DOING_BUSINESS_AS_NAME":"RAMON  CORONEL","POP_AT_RISK":206556,"BUSINESS_TYPE":"Peddler, non-food, special","LEGAL_NAME":"RAMON CORONEL","LONGITUDE":-87.72419022922423},
{"STATE":"IL","ZIP":60657,"LATTITUDE":41.935863313428065,"ADDRESS":"1823 W WELLINGTON AVE  ","YEAR":2007,"DOING_BUSINESS_AS_NAME":"RUBEN ALLEMAN","POP_AT_RISK":50055,"BUSINESS_TYPE":"Peddler, non-food, special","LEGAL_NAME":"RUBEN ALLEMAN","LONGITUDE":-87.67455775266669},
{"STATE":"IL","ZIP":60640,"LATTITUDE":41.965496028800594,"ADDRESS":"1124 W WILSON AVE  364","YEAR":2007,"DOING_BUSINESS_AS_NAME":"RUBEN LEDESMA","POP_AT_RISK":212607,"BUSINESS_TYPE":"Peddler, non-food, special","LEGAL_NAME":"RUBEN LEDESMA","LONGITUDE":-87.65848068015096},
{"STATE":"IL","ZIP":60613,"LATTITUDE":41.94868367437477,"ADDRESS":"3600 N LAKE SHORE DR  1812","YEAR":2007,"DOING_BUSINESS_AS_NAME":"VERA GUTTMANN","POP_AT_RISK":74900,"BUSINESS_TYPE":"Peddler, non-food, special","LEGAL_NAME":"VERA GUTTMANN","LONGITUDE":-87.64364975850548},
{"STATE":"IL","ZIP":60632,"LATTITUDE":41.81423595167177,"ADDRESS":"4347 S ROCKWELL ST 1ST ","YEAR":2007,"DOING_BUSINESS_AS_NAME":"ARTURO ALMEIDA","POP_AT_RISK":474600,"BUSINESS_TYPE":"Peddler, non-food, special","LEGAL_NAME":"ARTURO ALMEIDA","LONGITUDE":-87.6893407679075},
{"STATE":"IL","ZIP":60619,"LATTITUDE":41.75862115957446,"ADDRESS":"7500 S KENWOOD AVE  ","YEAR":2007,"DOING_BUSINESS_AS_NAME":"BESSIE L. HEAD","POP_AT_RISK":43152,"BUSINESS_TYPE":"Peddler, non-food, special","LEGAL_NAME":"BESSIE L. HEAD","LONGITUDE":-87.59215623757014},
{"STATE":"IL","ZIP":60615,"LATTITUDE":41.806795675604384,"ADDRESS":"4825 S DR MARTIN LUTHER KING JR DR  ","YEAR":2007,"DOING_BUSINESS_AS_NAME":"JOHN M DANIELS","POP_AT_RISK":37097,"BUSINESS_TYPE":"Peddler, non-food, special","LEGAL_NAME":"JOHN M DANIELS","LONGITUDE":-87.61637461077716},
{"STATE":"IL","ZIP":60647,"LATTITUDE":41.92335491368301,"ADDRESS":"2316 N CALIFORNIA AVE 1ST FLOOR 1ST","YEAR":2007,"DOING_BUSINESS_AS_NAME":"JOSE ROMAN SR.","POP_AT_RISK":473956,"BUSINESS_TYPE":"Peddler, non-food, special","LEGAL_NAME":"JOSE ROMAN SR.","LONGITUDE":-87.69752270859344},
{"STATE":"IL","ZIP":60610,"LATTITUDE":41.90323617508756,"ADDRESS":"116 W ELM ST  ","YEAR":2007,"DOING_BUSINESS_AS_NAME":"LEE E. BLOSSOM","POP_AT_RISK":77432,"BUSINESS_TYPE":"Peddler, non-food, special","LEGAL_NAME":"LEE E. BLOSSOM","LONGITUDE":-87.63220582395009},
{"STATE":"IL","ZIP":60653,"LATTITUDE":41.81274025001924,"ADDRESS":"4514 S ELLIS AVE  ","YEAR":2007,"DOING_BUSINESS_AS_NAME":"OLLIE M SMITH","POP_AT_RISK":66162,"BUSINESS_TYPE":"Peddler, non-food, special","LEGAL_NAME":"OLLIE M. SMITH","LONGITUDE":-87.60191343674175},
{"STATE":"IL","ZIP":60608,"LATTITUDE":41.84074813969724,"ADDRESS":"2953 S ARCHER AVE  ","YEAR":2007,"DOING_BUSINESS_AS_NAME":"RONALD SPOSATO","POP_AT_RISK":314730,"BUSINESS_TYPE":"Peddler, non-food, special","LEGAL_NAME":"RONALD SPOSATO","LONGITUDE":-87.65954690780782},
{"STATE":"IL","ZIP":60632,"LATTITUDE":41.81225102514512,"ADDRESS":"4429 S KILPATRICK AVE  ","YEAR":2007,"DOING_BUSINESS_AS_NAME":"TIMOTHY HOLMAN","POP_AT_RISK":95736,"BUSINESS_TYPE":"Peddler, non-food, special","LEGAL_NAME":"TIMOTHY HOLMAN","LONGITUDE":-87.7406908375451},
{"STATE":"IL","ZIP":60651,"LATTITUDE":41.906574497484414,"ADDRESS":"1430 N MASON AVE  ","YEAR":2007,"DOING_BUSINESS_AS_NAME":"CLARITA T. COOK","POP_AT_RISK":90480,"BUSINESS_TYPE":"Peddler, non-food, special","LEGAL_NAME":"CLARITA T. COOK","LONGITUDE":-87.7744464031899},
{"STATE":"IL","ZIP":60639,"LATTITUDE":41.923172564205224,"ADDRESS":"4959 W MEDILL AVE 1 ","YEAR":2007,"DOING_BUSINESS_AS_NAME":"MICHAEL HOPKINS","POP_AT_RISK":441630,"BUSINESS_TYPE":"Peddler, non-food, special","LEGAL_NAME":"MICHAEL HOPKINS","LONGITUDE":-87.7510766527435},
{"STATE":"IL","ZIP":60652,"LATTITUDE":41.74273665860294,"ADDRESS":"4137 W 82ND PL  ","YEAR":2007,"DOING_BUSINESS_AS_NAME":"YOUSEF MUHYEDDN","POP_AT_RISK":159210,"BUSINESS_TYPE":"Peddler, non-food, special","LEGAL_NAME":"YOUSEF MUHYEDDN","LONGITUDE":-87.7255517132813},
{"STATE":"IL","ZIP":60617,"LATTITUDE":41.72172487029897,"ADDRESS":"9534 S HOUSTON AVE  ","YEAR":2007,"DOING_BUSINESS_AS_NAME":"CRUS D. MARTINEZ","POP_AT_RISK":84252,"BUSINESS_TYPE":"Peddler, non-food, special","LEGAL_NAME":"Cruz D. Martinez","LONGITUDE":-87.54982740978666},
{"STATE":"IL","ZIP":60614,"LATTITUDE":41.926267839197614,"ADDRESS":"2435 N SOUTHPORT AVE  203","YEAR":2007,"DOING_BUSINESS_AS_NAME":"JAMES E. SEARLES","POP_AT_RISK":177492,"BUSINESS_TYPE":"Peddler, non-food, special","LEGAL_NAME":"JAMES E. SEARLES","LONGITUDE":-87.66321481762346},
{"STATE":"IL","ZIP":60652,"LATTITUDE":41.748213691450154,"ADDRESS":"7954 S RICHMOND ST  ","YEAR":2007,"DOING_BUSINESS_AS_NAME":"LADY K'S EXTRAORDINARY AROMATHERAPY SCENTS","POP_AT_RISK":26053,"BUSINESS_TYPE":"Peddler, non-food, special","LEGAL_NAME":"KEELA M. STUCKEY","LONGITUDE":-87.69639048309101},
{"STATE":"IL","ZIP":60624,"LATTITUDE":41.88213157023039,"ADDRESS":"4016 W WASHINGTON BLVD  ","YEAR":2007,"DOING_BUSINESS_AS_NAME":"BESSIE L. JOHNSON","POP_AT_RISK":207340,"BUSINESS_TYPE":"Peddler, non-food, special","LEGAL_NAME":"BESSIE L. JOHNSON","LONGITUDE":-87.72642144569609},
{"STATE":"IL","ZIP":60644,"LATTITUDE":41.87506427348345,"ADDRESS":"4842 W VAN BUREN ST 2 ","YEAR":2007,"DOING_BUSINESS_AS_NAME":"BEVERLY S. TURNER","POP_AT_RISK":46841,"BUSINESS_TYPE":"Peddler, non-food, special","LEGAL_NAME":"BEVERLY S. TURNER","LONGITUDE":-87.74672352251666},
{"STATE":"IL","ZIP":60653,"LATTITUDE":41.824373784732856,"ADDRESS":"3842 S DR MARTIN LUTHER KING JR DR 1 ","YEAR":2007,"DOING_BUSINESS_AS_NAME":"DANNETTE NORHTERN","POP_AT_RISK":93918,"BUSINESS_TYPE":"Peddler, non-food, special","LEGAL_NAME":"DANNETTE NORTHERN","LONGITUDE":-87.61715562851982},
{"STATE":"IL","ZIP":60630,"LATTITUDE":41.96221794371823,"ADDRESS":"4455 N LINDER AVE 2ND ","YEAR":2007,"DOING_BUSINESS_AS_NAME":"LORETTA M MATHEIS","POP_AT_RISK":333249,"BUSINESS_TYPE":"Peddler, non-food, special","LEGAL_NAME":"LORETTA M MATHEIS","LONGITUDE":-87.76469069317187},
{"STATE":"IL","ZIP":60617,"LATTITUDE":41.71590186001373,"ADDRESS":"9816 S MERRION AVE # 1ST","YEAR":2007,"DOING_BUSINESS_AS_NAME":"ANTOINETTE JOHNSON","POP_AT_RISK":34856,"BUSINESS_TYPE":"Peddler, non-food, special","LEGAL_NAME":"ANTOINETTE JOHNSON","LONGITUDE":-87.5696927426852},
{"STATE":"IL","ZIP":60608,"LATTITUDE":41.864510624690006,"ADDRESS":"1334 S MORGAN ST  102","YEAR":2007,"DOING_BUSINESS_AS_NAME":"BEVERLY J. CALHOUN","POP_AT_RISK":248280,"BUSINESS_TYPE":"Peddler, non-food, special","LEGAL_NAME":"BEVERLY J. CALHOUN","LONGITUDE":-87.65111497620642},
{"STATE":"IL","ZIP":60647,"LATTITUDE":41.928751572665085,"ADDRESS":"2617 N HAMLIN AVE 3 ","YEAR":2007,"DOING_BUSINESS_AS_NAME":"CRISTINO MALDONADO","POP_AT_RISK":461880,"BUSINESS_TYPE":"Peddler, non-food, special","LEGAL_NAME":"CRISTINO MALDONADO","LONGITUDE":-87.72185726647798},
{"STATE":"IL","ZIP":60649,"LATTITUDE":41.75261229388339,"ADDRESS":"2911 E 78TH PL  ","YEAR":2007,"DOING_BUSINESS_AS_NAME":"ELIZABETH B. MOORE","POP_AT_RISK":108357,"BUSINESS_TYPE":"Peddler, non-food, special","LEGAL_NAME":"ELIZABETH B. MOORE","LONGITUDE":-87.5524471744431},
{"STATE":"IL","ZIP":60617,"LATTITUDE":41.70262075649605,"ADDRESS":"3649 E 106TH ST  ","YEAR":2007,"DOING_BUSINESS_AS_NAME":"BOBBY LOUIS HOLIDAY","POP_AT_RISK":83868,"BUSINESS_TYPE":"Peddler, non-food, special","LEGAL_NAME":"BOBBY LOUIS HOLIDAY","LONGITUDE":-87.53455855561775},
{"STATE":"IL","ZIP":60623,"LATTITUDE":41.853531583448536,"ADDRESS":"1953 S SPRINGFIELD AVE 1ST ","YEAR":2007,"DOING_BUSINESS_AS_NAME":"DOROTHY B GOLDSMITH","POP_AT_RISK":390271,"BUSINESS_TYPE":"Peddler, non-food, special","LEGAL_NAME":"DOROTHY B GOLDSMITH","LONGITUDE":-87.72215531227486},
{"STATE":"IL","ZIP":60659,"LATTITUDE":41.99360501680627,"ADDRESS":"3817 W GRANVILLE AVE  ","YEAR":2007,"DOING_BUSINESS_AS_NAME":"HERBERT HOFFMAN SR.","POP_AT_RISK":180228,"BUSINESS_TYPE":"Peddler, non-food, special","LEGAL_NAME":"HERBERT HOFFMAN SR.","LONGITUDE":-87.72467514813182},
{"STATE":"IL","ZIP":60607,"LATTITUDE":41.881596057291624,"ADDRESS":"1500 W MADISON ST  ","YEAR":2007,"DOING_BUSINESS_AS_NAME":"JAMES WALLACE PETERS","POP_AT_RISK":269318,"BUSINESS_TYPE":"Peddler, non-food, special","LEGAL_NAME":"JAMES WALLACE PETERS","LONGITUDE":-87.6645065747039},
{"STATE":"IL","ZIP":60609,"LATTITUDE":41.81806376444931,"ADDRESS":"327 W 42ND ST  ","YEAR":2007,"DOING_BUSINESS_AS_NAME":"MACK  C  ROGERS, JR","POP_AT_RISK":75804,"BUSINESS_TYPE":"Peddler, non-food, special","LEGAL_NAME":"MACK  C  ROGERS, JR.","LONGITUDE":-87.63464962030916},
{"STATE":"IL","ZIP":60620,"LATTITUDE":41.74705221439465,"ADDRESS":"8045 S DAMEN AVE  ","YEAR":2007,"DOING_BUSINESS_AS_NAME":"EMMETT M RUCKER","POP_AT_RISK":120333,"BUSINESS_TYPE":"Peddler, non-food, special","LEGAL_NAME":"EMMETT MANSFIELD RUCKER","LONGITUDE":-87.67290930869628},
}