{
{"STATE":"IL","ZIP":60628,"LATTITUDE":41.68663985168138,"ADDRESS":"11416 S PRAIRIE AVE 3RD ","YEAR":2012,"DOING_BUSINESS_AS_NAME":"CANDACE COOPWOOD","POP_AT_RISK":113382,"BUSINESS_TYPE":"Expediter - Class B Employee","LEGAL_NAME":"ANTHONY D. ROWE","LONGITUDE":-87.61699006178297},
{"STATE":"IL","ZIP":60641,"LATTITUDE":41.960704654894684,"ADDRESS":"4425 W MONTROSE AVE 1 8","YEAR":2012,"DOING_BUSINESS_AS_NAME":"PEDRO L. ESPITIA","POP_AT_RISK":670943,"BUSINESS_TYPE":"Expediter - Class B Employee","LEGAL_NAME":"PRIMO PROS INC.","LONGITUDE":-87.73956935358164},
{"STATE":"IL","ZIP":60631,"LATTITUDE":41.98113454543051,"ADDRESS":"8600 W BRYN MAWR AVE 6 600NORTH","YEAR":2012,"DOING_BUSINESS_AS_NAME":"DENA MARIE RANIERI","POP_AT_RISK":105845,"BUSINESS_TYPE":"Expediter - Class B Employee","LEGAL_NAME":"FMHC CORPORATION","LONGITUDE":-87.84163842292439},
{"STATE":"IL","ZIP":60616,"LATTITUDE":41.84611420178927,"ADDRESS":"2536 S LOWE AVE  ","YEAR":2012,"DOING_BUSINESS_AS_NAME":"MAREK JANUSZ WISNIEWSKI","POP_AT_RISK":637024,"BUSINESS_TYPE":"Expediter - Class B Employee","LEGAL_NAME":"IPSA CORPORATION","LONGITUDE":-87.64369647608687},
{"STATE":"IL","ZIP":60612,"LATTITUDE":41.893271864900484,"ADDRESS":"641 N WESTERN AVE 1ST ","YEAR":2012,"DOING_BUSINESS_AS_NAME":"HECTOR SILVA","POP_AT_RISK":548625,"BUSINESS_TYPE":"Expediter - Class B Employee","LEGAL_NAME":"Joseph M. Glorioso","LONGITUDE":-87.68662305904685},
{"STATE":"IL","ZIP":60654,"LATTITUDE":41.892273812713306,"ADDRESS":"209 W OHIO ST 3RD ","YEAR":2012,"DOING_BUSINESS_AS_NAME":"SARAH JOY VALENTINO","POP_AT_RISK":222999,"BUSINESS_TYPE":"Expediter - Class B Employee","LEGAL_NAME":"BUILDING PERMITS, INC.","LONGITUDE":-87.63450063355145},
{"STATE":"IL","ZIP":60614,"LATTITUDE":41.925115774743546,"ADDRESS":"1357 W FULLERTON AVE 1 1","YEAR":2012,"DOING_BUSINESS_AS_NAME":"LAVINIA GABRIELA MURESAN","POP_AT_RISK":1100727,"BUSINESS_TYPE":"Expediter - Class B Employee","LEGAL_NAME":"DARA CONSTRUCTION CO., INC.","LONGITUDE":-87.66279183527743},
{"STATE":"IL","ZIP":60652,"LATTITUDE":41.74908882943119,"ADDRESS":"4651 W 79TH ST  105","YEAR":2012,"DOING_BUSINESS_AS_NAME":"NADEEM BASTE","POP_AT_RISK":186846,"BUSINESS_TYPE":"Expediter - Class B Employee","LEGAL_NAME":"BASTE FINANCIAL SERVICES, INC.","LONGITUDE":-87.73842284749492},
{"STATE":"IL","ZIP":60642,"LATTITUDE":41.89326015449359,"ADDRESS":"1481 W ERIE ST 2 2F","YEAR":2012,"DOING_BUSINESS_AS_NAME":"MANUEL L. GALVEZ","POP_AT_RISK":39264,"BUSINESS_TYPE":"Expediter - Class B Employee","LEGAL_NAME":"CHICAGO EXPEDITING SERVICES INC","LONGITUDE":-87.66549419490126},
{"STATE":"IL","ZIP":60623,"LATTITUDE":41.85191341020999,"ADDRESS":"3052 W CERMAK RD 1ST ","YEAR":2012,"DOING_BUSINESS_AS_NAME":"ERICA VIOLET MARTINEZ","POP_AT_RISK":1237432,"BUSINESS_TYPE":"Expediter - Class B Employee","LEGAL_NAME":"VIOLETAS PERMIT & BUSINESS LICENSE L.L.C.","LONGITUDE":-87.70245782917193},
}