{
{"STATE":"IL","ZIP":60625,"LATTITUDE":41.96526219559948,"ADDRESS":"4616 N ST LOUIS AVE  ","YEAR":2013,"DOING_BUSINESS_AS_NAME":"MAURA DIAZ","POP_AT_RISK":991760,"BUSINESS_TYPE":"Peddler, non-food, special","LEGAL_NAME":"MAURA DIAZ","LONGITUDE":-87.7158615734193},
{"STATE":"IL","ZIP":60629,"LATTITUDE":41.78577186492004,"ADDRESS":"5914 S KEDZIE AVE  ","YEAR":2013,"DOING_BUSINESS_AS_NAME":"MODA URBANA","POP_AT_RISK":617912,"BUSINESS_TYPE":"Peddler, non-food, special","LEGAL_NAME":"RAMON MORA","LONGITUDE":-87.70348304106838},
{"STATE":"IL","ZIP":60613,"LATTITUDE":41.955406767031675,"ADDRESS":"4036 1\/2 N ASHLAND AVE BSMT B. N.","YEAR":2013,"DOING_BUSINESS_AS_NAME":"RATKO IKIC","POP_AT_RISK":1523403,"BUSINESS_TYPE":"Peddler, non-food, special","LEGAL_NAME":"RATKO IKIC","LONGITUDE":-87.6692268091664},
{"STATE":"IL","ZIP":60620,"LATTITUDE":41.73480256758355,"ADDRESS":"8736 S MAY ST  ","YEAR":2013,"DOING_BUSINESS_AS_NAME":"DAVID FARUQ","POP_AT_RISK":87754,"BUSINESS_TYPE":"Peddler, non-food, special","LEGAL_NAME":"DAVID FARUQ","LONGITUDE":-87.65224181031262},
{"STATE":"IL","ZIP":60629,"LATTITUDE":41.76169396007773,"ADDRESS":"7230 S SACRAMENTO AVE  ","YEAR":2013,"DOING_BUSINESS_AS_NAME":"EDWARD REID","POP_AT_RISK":103088,"BUSINESS_TYPE":"Peddler, non-food, special","LEGAL_NAME":"EDWARD REID","LONGITUDE":-87.69799053020193},
{"STATE":"IL","ZIP":60624,"LATTITUDE":41.89103101986063,"ADDRESS":"523 N SAWYER AVE  ","YEAR":2013,"DOING_BUSINESS_AS_NAME":"KEVIN ONEAL","POP_AT_RISK":164228,"BUSINESS_TYPE":"Peddler, non-food, special","LEGAL_NAME":"KEVIN ONEAL","LONGITUDE":-87.70749328882148},
{"STATE":"IL","ZIP":60628,"LATTITUDE":41.71108878876443,"ADDRESS":"10055 S INDIANA AVE  ","YEAR":2013,"DOING_BUSINESS_AS_NAME":"LEROY SMITH","POP_AT_RISK":48642,"BUSINESS_TYPE":"Peddler, non-food, special","LEGAL_NAME":"LEROY SMITH","LONGITUDE":-87.61858551883846},
{"STATE":"IL","ZIP":60612,"LATTITUDE":41.87833478034854,"ADDRESS":"2449 W ADAMS ST  ","YEAR":2013,"DOING_BUSINESS_AS_NAME":"MARY CARTER","POP_AT_RISK":90660,"BUSINESS_TYPE":"Peddler, non-food, special","LEGAL_NAME":"MARY CARTER","LONGITUDE":-87.68827717878166},
{"STATE":"IL","ZIP":60628,"LATTITUDE":41.69148521579373,"ADDRESS":"11128 S EMERALD AVE  ","YEAR":2013,"DOING_BUSINESS_AS_NAME":"ROSA ROGERS","POP_AT_RISK":138700,"BUSINESS_TYPE":"Peddler, non-food, special","LEGAL_NAME":"ROSA ROGERS","LONGITUDE":-87.64128735881496},
{"STATE":"IL","ZIP":60621,"LATTITUDE":41.78424769359543,"ADDRESS":"6024 S UNION AVE  ","YEAR":2013,"DOING_BUSINESS_AS_NAME":"KELLY CARTER","POP_AT_RISK":205480,"BUSINESS_TYPE":"Peddler, non-food, special","LEGAL_NAME":"KELLY CARTER","LONGITUDE":-87.64261768206843},
{"STATE":"IL","ZIP":60640,"LATTITUDE":41.96875258991914,"ADDRESS":"4750 N SHERIDAN RD  ","YEAR":2013,"DOING_BUSINESS_AS_NAME":"NAOMI G DIAZ","POP_AT_RISK":874380,"BUSINESS_TYPE":"Peddler, non-food, special","LEGAL_NAME":"NAOMI G DIAZ","LONGITUDE":-87.65496326268006},
{"STATE":"IL","ZIP":60654,"LATTITUDE":41.88755787281287,"ADDRESS":"300 N STATE ST  ","YEAR":2013,"DOING_BUSINESS_AS_NAME":"TROY J LOSKE","POP_AT_RISK":475542,"BUSINESS_TYPE":"Peddler, non-food, special","LEGAL_NAME":"TROY J LOSKE","LONGITUDE":-87.62815306467208},
{"STATE":"IL","ZIP":60628,"LATTITUDE":41.69253838919618,"ADDRESS":"161 E 111TH ST  ","YEAR":2013,"DOING_BUSINESS_AS_NAME":"ELAINE SUTTON","POP_AT_RISK":48156,"BUSINESS_TYPE":"Peddler, non-food, special","LEGAL_NAME":"ELAINE SUTTON","LONGITUDE":-87.61855290940034},
{"STATE":"IL","ZIP":60632,"LATTITUDE":41.79967404576427,"ADDRESS":"5145 S FAIRFIELD AVE  ","YEAR":2013,"DOING_BUSINESS_AS_NAME":"FELIPE M CRUZ","POP_AT_RISK":147798,"BUSINESS_TYPE":"Peddler, non-food, special","LEGAL_NAME":"FELIPE M CRUZ","LONGITUDE":-87.6925956961213},
{"STATE":"IL","ZIP":60617,"LATTITUDE":41.73846615691178,"ADDRESS":"8620 S MANISTEE AVE 1 1","YEAR":2013,"DOING_BUSINESS_AS_NAME":"BOBBIE STEPHEN","POP_AT_RISK":33032,"BUSINESS_TYPE":"Peddler, non-food, special","LEGAL_NAME":"BOBBIE STEPHEN","LONGITUDE":-87.5576724376035},
{"STATE":"IL","ZIP":60615,"LATTITUDE":41.80674333037428,"ADDRESS":"4832 S DREXEL BLVD  ","YEAR":2013,"DOING_BUSINESS_AS_NAME":"DON E SHEPARD","POP_AT_RISK":222015,"BUSINESS_TYPE":"Peddler, non-food, special","LEGAL_NAME":"DON E. SHEPARD","LONGITUDE":-87.60446147983288},
{"STATE":"IL","ZIP":60620,"LATTITUDE":41.727384321321075,"ADDRESS":"9149 S WALLACE ST  ","YEAR":2013,"DOING_BUSINESS_AS_NAME":"GENEVA GLASPER","POP_AT_RISK":54606,"BUSINESS_TYPE":"Peddler, non-food, special","LEGAL_NAME":"GENEVA GLASPER","LONGITUDE":-87.63837083768685},
{"STATE":"IL","ZIP":60623,"LATTITUDE":41.85744589061316,"ADDRESS":"1648 S SPRINGFIELD AVE  ","YEAR":2013,"DOING_BUSINESS_AS_NAME":"WILLIAM DANIEL","POP_AT_RISK":627146,"BUSINESS_TYPE":"Peddler, non-food, special","LEGAL_NAME":"WILLIAM DANIEL","LONGITUDE":-87.72256695642014},
{"STATE":"IL","ZIP":60609,"LATTITUDE":41.79491123617567,"ADDRESS":"5427 S SEELEY AVE  ","YEAR":2013,"DOING_BUSINESS_AS_NAME":"DAVID CARPENTER","POP_AT_RISK":614724,"BUSINESS_TYPE":"Peddler, non-food, special","LEGAL_NAME":"DAVID CARPENTER","LONGITUDE":-87.67540019549078},
{"STATE":"IL","ZIP":60649,"LATTITUDE":41.76078639942506,"ADDRESS":"7439 S COLES AVE  A","YEAR":2013,"DOING_BUSINESS_AS_NAME":"EDGAR LEE MASON","POP_AT_RISK":66600,"BUSINESS_TYPE":"Peddler, non-food, special","LEGAL_NAME":"EDGAR LEE MASON","LONGITUDE":-87.55931660179219},
{"STATE":"IL","ZIP":60659,"LATTITUDE":41.98504059844381,"ADDRESS":"2840 W HOLLYWOOD AVE 3RD 3 E","YEAR":2013,"DOING_BUSINESS_AS_NAME":"RAYMOND BARANDA","POP_AT_RISK":512595,"BUSINESS_TYPE":"Peddler, non-food, special","LEGAL_NAME":"RAYMOND BARANDA","LONGITUDE":-87.70082780521618},
{"STATE":"IL","ZIP":60612,"LATTITUDE":41.87759353176685,"ADDRESS":"2010 W JACKSON BLVD  ","YEAR":2013,"DOING_BUSINESS_AS_NAME":"WADGENE I BROWN","POP_AT_RISK":45890,"BUSINESS_TYPE":"Peddler, non-food, special","LEGAL_NAME":"WADGENE I BROWN","LONGITUDE":-87.6770318849938},
{"STATE":"IL","ZIP":60652,"LATTITUDE":41.73769637208855,"ADDRESS":"2627 W SEIPP ST  ","YEAR":2013,"DOING_BUSINESS_AS_NAME":"ARTHUR L. PARKER","POP_AT_RISK":59097,"BUSINESS_TYPE":"Peddler, non-food, special","LEGAL_NAME":"ARTHUR L. PARKER","LONGITUDE":-87.68869172147846},
{"STATE":"IL","ZIP":60610,"LATTITUDE":41.90323617508756,"ADDRESS":"116 W ELM ST  ","YEAR":2013,"DOING_BUSINESS_AS_NAME":"BOBBY LEE JESTER","POP_AT_RISK":774320,"BUSINESS_TYPE":"Peddler, non-food, special","LEGAL_NAME":"BOBBY LEE JESTER","LONGITUDE":-87.63220582395009},
{"STATE":"IL","ZIP":60616,"LATTITUDE":41.84181933864029,"ADDRESS":"2910 S DEARBORN ST  702","YEAR":2013,"DOING_BUSINESS_AS_NAME":"FRANK L. JOHNSON","POP_AT_RISK":63916,"BUSINESS_TYPE":"Peddler, non-food, special","LEGAL_NAME":"FRANK L. JOHNSON","LONGITUDE":-87.6280925685405},
{"STATE":"IL","ZIP":60651,"LATTITUDE":41.90571895396158,"ADDRESS":"5331 W HIRSCH ST 1 2W","YEAR":2013,"DOING_BUSINESS_AS_NAME":"ISAIAH MCCLELLAN","POP_AT_RISK":552264,"BUSINESS_TYPE":"Peddler, non-food, special","LEGAL_NAME":"ISAIAH MCCLELLAN","LONGITUDE":-87.75966897241673},
{"STATE":"IL","ZIP":60605,"LATTITUDE":41.86655820981653,"ADDRESS":"1231 S STATE ST  ","YEAR":2013,"DOING_BUSINESS_AS_NAME":"LAVAUGHN R. HART","POP_AT_RISK":197455,"BUSINESS_TYPE":"Peddler, non-food, special","LEGAL_NAME":"LAVAUGHN R. HART","LONGITUDE":-87.62724748973362},
{"STATE":"IL","ZIP":60643,"LATTITUDE":41.68036167011816,"ADDRESS":"11718 S HALE AVE  ","YEAR":2013,"DOING_BUSINESS_AS_NAME":"MARVIN R. COLLINS","POP_AT_RISK":44844,"BUSINESS_TYPE":"Peddler, non-food, special","LEGAL_NAME":"MARVIN R. COLLINS","LONGITUDE":-87.67301227525277},
{"STATE":"IL","ZIP":60617,"LATTITUDE":41.750266609859416,"ADDRESS":"7947 S MERRILL AVE 2ND ","YEAR":2013,"DOING_BUSINESS_AS_NAME":"ANNIE B MCWILLIAMS","POP_AT_RISK":37887,"BUSINESS_TYPE":"Peddler, non-food, special","LEGAL_NAME":"ANNIE B MCWILLIAMS","LONGITUDE":-87.57215242135776},
{"STATE":"IL","ZIP":60647,"LATTITUDE":41.90994333506405,"ADDRESS":"3401 W NORTH AVE  ","YEAR":2013,"DOING_BUSINESS_AS_NAME":"SHANNONE CLAIBORNE","POP_AT_RISK":372522,"BUSINESS_TYPE":"Peddler, non-food, special","LEGAL_NAME":"SHANNONE CLAIBORNE","LONGITUDE":-87.71194978316811},
{"STATE":"IL","ZIP":60620,"LATTITUDE":41.74131166439664,"ADDRESS":"8359 S PAULINA ST  ","YEAR":2013,"DOING_BUSINESS_AS_NAME":"ALVIN LOUIS SPARROW","POP_AT_RISK":116544,"BUSINESS_TYPE":"Peddler, non-food, special","LEGAL_NAME":"ALVIN LOUIS SPARROW","LONGITUDE":-87.66549134762434},
{"STATE":"IL","ZIP":60619,"LATTITUDE":41.76338999652916,"ADDRESS":"1344 E 72ND PL 1 1","YEAR":2013,"DOING_BUSINESS_AS_NAME":"GREGORY EARL BROOKS","POP_AT_RISK":98991,"BUSINESS_TYPE":"Peddler, non-food, special","LEGAL_NAME":"GREGORY EARL BROOKS","LONGITUDE":-87.5915657584615},
{"STATE":"IL","ZIP":60637,"LATTITUDE":41.78115409693265,"ADDRESS":"6224 S MICHIGAN AVE  ","YEAR":2013,"DOING_BUSINESS_AS_NAME":"HENSE D WITHERSPOON","POP_AT_RISK":35292,"BUSINESS_TYPE":"Peddler, non-food, special","LEGAL_NAME":"HENSE D WITHERSPOON","LONGITUDE":-87.622372153394},
{"STATE":"IL","ZIP":60637,"LATTITUDE":41.77657805928936,"ADDRESS":"6500 S RHODES AVE  ","YEAR":2013,"DOING_BUSINESS_AS_NAME":"ALEXANDRA D MCMULLAN","POP_AT_RISK":137304,"BUSINESS_TYPE":"Peddler, non-food, special","LEGAL_NAME":"ALEXANDRA D MCMULLAN","LONGITUDE":-87.61208319319107},
{"STATE":"IL","ZIP":60615,"LATTITUDE":41.804923176685726,"ADDRESS":"4940 S EAST END AVE 8 8F","YEAR":2013,"DOING_BUSINESS_AS_NAME":"CARLOTA NERA GOODSON","POP_AT_RISK":88836,"BUSINESS_TYPE":"Peddler, non-food, special","LEGAL_NAME":"CARLOTA NERA GOODSON","LONGITUDE":-87.58562455528525},
{"STATE":"IL","ZIP":60615,"LATTITUDE":41.7975825430084,"ADDRESS":"5328 S DR MARTIN LUTHER KING JR DR  ","YEAR":2013,"DOING_BUSINESS_AS_NAME":"LARRY EMANUELL DIXON","POP_AT_RISK":30156,"BUSINESS_TYPE":"Peddler, non-food, special","LEGAL_NAME":"LARRY EMANUELL DIXON","LONGITUDE":-87.6161989439364},
{"STATE":"IL","ZIP":60618,"LATTITUDE":41.93261150992943,"ADDRESS":"2825 N AVERS AVE  ","YEAR":2013,"DOING_BUSINESS_AS_NAME":"JAMES TYREE SLACK III","POP_AT_RISK":1256453,"BUSINESS_TYPE":"Peddler, non-food, special","LEGAL_NAME":"JAMES TYREE SLACK III","LONGITUDE":-87.7231612290702},
{"STATE":"IL","ZIP":60619,"LATTITUDE":41.753599836062,"ADDRESS":"7739 S DR MARTIN LUTHER KING JR DR  ","YEAR":2013,"DOING_BUSINESS_AS_NAME":"CAROLYN ANN SELF-EDWARDS","POP_AT_RISK":339084,"BUSINESS_TYPE":"Peddler, non-food, special","LEGAL_NAME":"CAROLYN ANN SELF-EDWARDS","LONGITUDE":-87.61486705465192},
{"STATE":"IL","ZIP":60616,"LATTITUDE":41.844007892267705,"ADDRESS":"2710 S STATE ST 6TH 601","YEAR":2013,"DOING_BUSINESS_AS_NAME":"KENYATTA PHAJJA CHILEMBWE","POP_AT_RISK":27382,"BUSINESS_TYPE":"Peddler, non-food, special","LEGAL_NAME":"KENYATTA PHAJJA CHILEMBWE","LONGITUDE":-87.62707043218947},
{"STATE":"IL","ZIP":60617,"LATTITUDE":41.74033410200703,"ADDRESS":"8521 S ESCANABA AVE 1 1","YEAR":2013,"DOING_BUSINESS_AS_NAME":"ROBERT FRANKLIN ROBINSON SR","POP_AT_RISK":32160,"BUSINESS_TYPE":"Peddler, non-food, special","LEGAL_NAME":"ROBERT FRANKLIN ROBINSON SR","LONGITUDE":-87.55376782617394},
}