{
{"STATE":"IL","ZIP":60608,"LATTITUDE":41.85680283036125,"ADDRESS":"922 W 19TH ST  ","YEAR":2006,"DOING_BUSINESS_AS_NAME":"PILSEN SNACK X-PRESS","POP_AT_RISK":138200,"BUSINESS_TYPE":"Mobile Frozen Desserts Dispenser - Non-Motorized","LEGAL_NAME":"RAQUEL DELEON","LONGITUDE":-87.64915445747872},
{"STATE":"IL","ZIP":60608,"LATTITUDE":41.835438715140704,"ADDRESS":"3233 S MORGAN ST 1 ","YEAR":2006,"DOING_BUSINESS_AS_NAME":"LUZ M. ESCOBAR","POP_AT_RISK":542529,"BUSINESS_TYPE":"Mobile Frozen Desserts Dispenser - Non-Motorized","LEGAL_NAME":"LUZ M. ESCOBAR","LONGITUDE":-87.65093135241526},
{"STATE":"IL","ZIP":60601,"LATTITUDE":41.885862105115756,"ADDRESS":"30 E LAKE ST BSMT ","YEAR":2006,"DOING_BUSINESS_AS_NAME":"M.H.R.,L.L.C.","POP_AT_RISK":1059870,"BUSINESS_TYPE":"Mobile Frozen Desserts Dispenser - Non-Motorized","LEGAL_NAME":"M.H.R., L.L.C.","LONGITUDE":-87.62685864521356},
{"STATE":"IL","ZIP":60653,"LATTITUDE":41.81824200689323,"ADDRESS":"4202 S PRAIRIE AVE  4","YEAR":2006,"DOING_BUSINESS_AS_NAME":"STEPHEN MCCRAY","POP_AT_RISK":660160,"BUSINESS_TYPE":"Mobile Frozen Desserts Dispenser - Non-Motorized","LEGAL_NAME":"STEPHEN MCCRAY","LONGITUDE":-87.61998324225797},
{"STATE":"IL","ZIP":60644,"LATTITUDE":41.88309038605689,"ADDRESS":"126 N PINE AVE  ","YEAR":2006,"DOING_BUSINESS_AS_NAME":"MARISOL RODRIGUEZ","POP_AT_RISK":434450,"BUSINESS_TYPE":"Mobile Frozen Desserts Dispenser - Non-Motorized","LEGAL_NAME":"MARISOL RODRIGUEZ","LONGITUDE":-87.76343384090329},
{"STATE":"IL","ZIP":60621,"LATTITUDE":41.77044370290532,"ADDRESS":"6807 S UNION AVE 1ST ","YEAR":2006,"DOING_BUSINESS_AS_NAME":"BEN BUCKLEY","POP_AT_RISK":341407,"BUSINESS_TYPE":"Mobile Frozen Desserts Dispenser - Non-Motorized","LEGAL_NAME":"BENGAALEYAH BUCKLEY","LONGITUDE":-87.64157426239933},
{"STATE":"IL","ZIP":60618,"LATTITUDE":41.96139894903115,"ADDRESS":"2528 W MONTROSE AVE  ","YEAR":2006,"DOING_BUSINESS_AS_NAME":"CRISTINA GARCIA-DIAZ","POP_AT_RISK":233976,"BUSINESS_TYPE":"Mobile Frozen Desserts Dispenser - Non-Motorized","LEGAL_NAME":"CRISTINA GARCIA-DIAZ","LONGITUDE":-87.6923267695536},
{"STATE":"IL","ZIP":60618,"LATTITUDE":41.961208104753815,"ADDRESS":"3500 W MONTROSE AVE 1 ","YEAR":2006,"DOING_BUSINESS_AS_NAME":"LA AUTORIDAD DE LA SIERRA","POP_AT_RISK":680940,"BUSINESS_TYPE":"Mobile Frozen Desserts Dispenser - Non-Motorized","LEGAL_NAME":"JUAN C GARIBAY & ALICIA ROMERO","LONGITUDE":-87.71565027290319},
}