{
{"STATE":"IL","ZIP":60618,"LATTITUDE":41.93246887196687,"ADDRESS":"2822 N MILWAUKEE AVE  1","YEAR":1996,"DOING_BUSINESS_AS_NAME":"MARIAS NOVIAS BRIDES","POP_AT_RISK":1435360,"BUSINESS_TYPE":"Limited Business License","LEGAL_NAME":"MARIA GARDUNO","LONGITUDE":-87.71321250581559},
{"STATE":"IL","ZIP":60641,"LATTITUDE":41.953485015058135,"ADDRESS":"4908 W IRVING PARK RD 1ST ","YEAR":1996,"DOING_BUSINESS_AS_NAME":"F M RESALE","POP_AT_RISK":603168,"BUSINESS_TYPE":"Limited Business License","LEGAL_NAME":"GLADYS MIRANDA","LONGITUDE":-87.750248227467},
{"STATE":"IL","ZIP":60608,"LATTITUDE":41.85265428762811,"ADDRESS":"1100 W CERMAK RD  C201","YEAR":1996,"DOING_BUSINESS_AS_NAME":"J J HOBEAU INC","POP_AT_RISK":173500,"BUSINESS_TYPE":"Limited Business License","LEGAL_NAME":"J J HOBEAU INC","LONGITUDE":-87.65308817724464},
{"STATE":"IL","ZIP":60636,"LATTITUDE":41.77932584092054,"ADDRESS":"1625 W 63RD ST 1ST ","YEAR":1996,"DOING_BUSINESS_AS_NAME":"T.A PAGERS & COMMUNICATIONS","POP_AT_RISK":689035,"BUSINESS_TYPE":"Limited Business License","LEGAL_NAME":"JEROME TOWNSEL","LONGITUDE":-87.66539515484659},
{"STATE":"IL","ZIP":60620,"LATTITUDE":41.75243343507041,"ADDRESS":"1150 W 78TH ST 1ST ","YEAR":1996,"DOING_BUSINESS_AS_NAME":"GREEN'S JANITORIAL","POP_AT_RISK":609896,"BUSINESS_TYPE":"Limited Business License","LEGAL_NAME":"WILLIE J GREEN","LONGITUDE":-87.65339365201113},
{"STATE":"IL","ZIP":60622,"LATTITUDE":41.898232249228236,"ADDRESS":"911 N ASHLAND AVE 1ST ","YEAR":1996,"DOING_BUSINESS_AS_NAME":"LILY'S UNISEX","POP_AT_RISK":426240,"BUSINESS_TYPE":"Limited Business License","LEGAL_NAME":"LILIA RODRIQUEZ","LONGITUDE":-87.66720451617738},
{"STATE":"IL","ZIP":60644,"LATTITUDE":41.87305557552836,"ADDRESS":"5200 W HARRISON ST  1","YEAR":1996,"DOING_BUSINESS_AS_NAME":"FABRIQUARD CLEANERS","POP_AT_RISK":385470,"BUSINESS_TYPE":"Limited Business License","LEGAL_NAME":"WILLIE L HARRIS","LONGITUDE":-87.75484369034235},
{"STATE":"IL","ZIP":60622,"LATTITUDE":41.90808920819216,"ADDRESS":"1446 N MILWAUKEE AVE 1ST ","YEAR":1996,"DOING_BUSINESS_AS_NAME":"YOLANDA HAIR STYLING","POP_AT_RISK":580050,"BUSINESS_TYPE":"Limited Business License","LEGAL_NAME":"YOLANDA VASQUEZ","LONGITUDE":-87.6741153229358},
{"STATE":"IL","ZIP":60643,"LATTITUDE":41.705604325068855,"ADDRESS":"10324 S WESTERN AVE  1","YEAR":1996,"DOING_BUSINESS_AS_NAME":"BEVERLY HOT SPOT","POP_AT_RISK":83172,"BUSINESS_TYPE":"Limited Business License","LEGAL_NAME":"CHERRICH LIMITED","LONGITUDE":-87.68174256836247},
{"STATE":"IL","ZIP":60643,"LATTITUDE":41.70671351549478,"ADDRESS":"1818 W 103RD ST  1","YEAR":1996,"DOING_BUSINESS_AS_NAME":"NORTHERN SUPPLY INC","POP_AT_RISK":47480,"BUSINESS_TYPE":"Limited Business License","LEGAL_NAME":"NORTHERN SUPPLY INC","LONGITUDE":-87.66789691617564},
{"STATE":"IL","ZIP":60632,"LATTITUDE":41.81820057618476,"ADDRESS":"4127 S RICHMOND ST 1ST ","YEAR":1996,"DOING_BUSINESS_AS_NAME":"THE SATIN PLEAT INC","POP_AT_RISK":453680,"BUSINESS_TYPE":"Limited Business License","LEGAL_NAME":"THE SATIN PLEAT INC","LONGITUDE":-87.69792025384535},
{"STATE":"IL","ZIP":60632,"LATTITUDE":41.79359013332274,"ADDRESS":"3258 W 55TH ST 1ST ","YEAR":1996,"DOING_BUSINESS_AS_NAME":"HI LITE CLEANERS INC","POP_AT_RISK":650749,"BUSINESS_TYPE":"Limited Business License","LEGAL_NAME":"HI-LITE CLEANERS INC","LONGITUDE":-87.70586718939846},
{"STATE":"IL","ZIP":60603,"LATTITUDE":41.87946215923832,"ADDRESS":"190 S LA SALLE ST  2760","YEAR":1996,"DOING_BUSINESS_AS_NAME":"TRIDENT CAPITAL INC","POP_AT_RISK":57500,"BUSINESS_TYPE":"Limited Business License","LEGAL_NAME":"TRIDENT CAPITAL, INC","LONGITUDE":-87.63244033079255},
{"STATE":"IL","ZIP":60614,"LATTITUDE":41.92735616656,"ADDRESS":"2501 N LINCOLN AVE  144","YEAR":1996,"DOING_BUSINESS_AS_NAME":"J M D CONSULTANTS INC","POP_AT_RISK":1850375,"BUSINESS_TYPE":"Limited Business License","LEGAL_NAME":"J M D CONSULTANTS INC","LONGITUDE":-87.65121976854547},
{"STATE":"IL","ZIP":60639,"LATTITUDE":41.913624222889,"ADDRESS":"1823 N MONITOR AVE  1ST","YEAR":1996,"DOING_BUSINESS_AS_NAME":"SECURE ROLLING SHUTTERS","POP_AT_RISK":318444,"BUSINESS_TYPE":"Limited Business License","LEGAL_NAME":"SECURE ROLLING SHUTTERS","LONGITUDE":-87.77146503444874},
{"STATE":"IL","ZIP":60608,"LATTITUDE":41.859467225502954,"ADDRESS":"2412 W 16TH ST  ","YEAR":1996,"DOING_BUSINESS_AS_NAME":"HAROLD JOHNS CO WAREHOUSE","POP_AT_RISK":332046,"BUSINESS_TYPE":"Limited Business License","LEGAL_NAME":"HAROLD JOHNS CO WAREHOUSE","LONGITUDE":-87.68639046759603},
{"STATE":"IL","ZIP":60610,"LATTITUDE":41.89561445853238,"ADDRESS":"720 N DEARBORN ST 3RD ","YEAR":1996,"DOING_BUSINESS_AS_NAME":"PAIN & REHAB INSTITUTE INC","POP_AT_RISK":561606,"BUSINESS_TYPE":"Limited Business License","LEGAL_NAME":"PAIN & REHAB INSTITUTE INC","LONGITUDE":-87.62989978300865},
{"STATE":"IL","ZIP":60618,"LATTITUDE":41.949663930011035,"ADDRESS":"2124 W BRADLEY PL 1ST ","YEAR":1996,"DOING_BUSINESS_AS_NAME":"D A HEDLUND CONST CO INC","POP_AT_RISK":1006820,"BUSINESS_TYPE":"Limited Business License","LEGAL_NAME":"D A HEDLUND CONSTRUCTION CO","LONGITUDE":-87.68208270900686},
{"STATE":"IL","ZIP":60646,"LATTITUDE":41.98881553278768,"ADDRESS":"5901 N CICERO AVE 1ST ","YEAR":1996,"DOING_BUSINESS_AS_NAME":"STEER FINANCIAL SERVICE INC","POP_AT_RISK":62888,"BUSINESS_TYPE":"Limited Business License","LEGAL_NAME":"STEER FINANCIAL SERVICES INC","LONGITUDE":-87.74817539211976},
{"STATE":"IL","ZIP":60639,"LATTITUDE":41.91806311999503,"ADDRESS":"2036 N CICERO AVE  1","YEAR":1996,"DOING_BUSINESS_AS_NAME":"A & P AUTO SALES","POP_AT_RISK":878570,"BUSINESS_TYPE":"Limited Business License","LEGAL_NAME":"A & P AUTO SALES & SERVICE INC","LONGITUDE":-87.74629889097848},
}