{
{"STATE":"IL","ZIP":60647,"LATTITUDE":41.92643970143967,"ADDRESS":"2501 N WESTERN AVE 1ST ","YEAR":2005,"DOING_BUSINESS_AS_NAME":"A. FREEDOM AUTO","POP_AT_RISK":104826,"BUSINESS_TYPE":"Motor Vehicle Repair : Engine Only (Class II)","LEGAL_NAME":"J D R ENT","LONGITUDE":-87.68755279219107},
{"STATE":"IL","ZIP":60641,"LATTITUDE":41.95106799450511,"ADDRESS":"3840 N KILBOURN AVE  1ST","YEAR":2005,"DOING_BUSINESS_AS_NAME":"S & T AUTO","POP_AT_RISK":90028,"BUSINESS_TYPE":"Motor Vehicle Repair : Engine Only (Class II)","LEGAL_NAME":"SCOTT SIM","LONGITUDE":-87.74104244241273},
{"STATE":"IL","ZIP":60656,"LATTITUDE":41.97380160131165,"ADDRESS":"5103 N HARLEM AVE 1ST ","YEAR":2005,"DOING_BUSINESS_AS_NAME":"AUTOPOL INC","POP_AT_RISK":181512,"BUSINESS_TYPE":"Motor Vehicle Repair : Engine Only (Class II)","LEGAL_NAME":"AUTOPOL INC","LONGITUDE":-87.806920743958},
{"STATE":"IL","ZIP":60622,"LATTITUDE":41.91069514421833,"ADDRESS":"1049 W NORTH AVE  1","YEAR":2005,"DOING_BUSINESS_AS_NAME":"JIFFY LUBE #2565","POP_AT_RISK":271416,"BUSINESS_TYPE":"Motor Vehicle Repair : Engine Only (Class II)","LEGAL_NAME":"Q LUBE, INC.","LONGITUDE":-87.6552300572003},
{"STATE":"IL","ZIP":60628,"LATTITUDE":41.72145142281746,"ADDRESS":"501 W 95TH ST  ","YEAR":2005,"DOING_BUSINESS_AS_NAME":"D & W AUTOMATIC TRANSMISSION","POP_AT_RISK":52584,"BUSINESS_TYPE":"Motor Vehicle Repair : Engine Only (Class II)","LEGAL_NAME":"DESMOND WHYTE","LONGITUDE":-87.6359928173448},
{"STATE":"IL","ZIP":60613,"LATTITUDE":41.94846875658381,"ADDRESS":"3650 N CLARK ST  ","YEAR":2005,"DOING_BUSINESS_AS_NAME":"CUBS PARK SERVICE","POP_AT_RISK":1640213,"BUSINESS_TYPE":"Motor Vehicle Repair : Engine Only (Class II)","LEGAL_NAME":"VINCENT RIZZO","LONGITUDE":-87.65770620619979},
{"STATE":"IL","ZIP":60634,"LATTITUDE":41.945276876678776,"ADDRESS":"3555 N OAK PARK AVE  1ST","YEAR":2005,"DOING_BUSINESS_AS_NAME":"TANDIL AUTO REPAIR","POP_AT_RISK":107751,"BUSINESS_TYPE":"Motor Vehicle Repair : Engine Only (Class II)","LEGAL_NAME":"MIKE CALABRESE","LONGITUDE":-87.7958309382379},
{"STATE":"IL","ZIP":60629,"LATTITUDE":41.77868045722163,"ADDRESS":"4300 W 63RD ST 1ST ","YEAR":2005,"DOING_BUSINESS_AS_NAME":"ANDREW'S AUTO REPAIR","POP_AT_RISK":36715,"BUSINESS_TYPE":"Motor Vehicle Repair : Engine Only (Class II)","LEGAL_NAME":"ISIDORO RAMIREZ","LONGITUDE":-87.7301384343352},
{"STATE":"IL","ZIP":60643,"LATTITUDE":41.69855440511076,"ADDRESS":"10716 S WESTERN AVE  ","YEAR":2005,"DOING_BUSINESS_AS_NAME":"MEINEKE MUFFLER","POP_AT_RISK":104045,"BUSINESS_TYPE":"Motor Vehicle Repair : Engine Only (Class II)","LEGAL_NAME":"MEINEKE MUFFLER","LONGITUDE":-87.6815182176523},
{"STATE":"IL","ZIP":60660,"LATTITUDE":41.9925636737402,"ADDRESS":"6059 N CLARK ST 1ST ","YEAR":2005,"DOING_BUSINESS_AS_NAME":"MUFFLERS 4 LESS","POP_AT_RISK":423305,"BUSINESS_TYPE":"Motor Vehicle Repair : Engine Only (Class II)","LEGAL_NAME":"NEREIDA WILLIAMS","LONGITUDE":-87.66993535253351},
{"STATE":"IL","ZIP":60620,"LATTITUDE":41.75404790407191,"ADDRESS":"7701 S RACINE AVE  ","YEAR":2005,"DOING_BUSINESS_AS_NAME":"SCIENTIFIC AUTO SERVICE","POP_AT_RISK":447048,"BUSINESS_TYPE":"Motor Vehicle Repair : Engine Only (Class II)","LEGAL_NAME":"TONY L. WAKEFIELD","LONGITUDE":-87.65368521772726},
{"STATE":"IL","ZIP":60655,"LATTITUDE":41.6857048697285,"ADDRESS":"11400 S PULASKI RD  ","YEAR":2005,"DOING_BUSINESS_AS_NAME":"MCCARTHY FORD INC","POP_AT_RISK":23560,"BUSINESS_TYPE":"Motor Vehicle Repair : Engine Only (Class II)","LEGAL_NAME":"MCCARTHY FORD, INC","LONGITUDE":-87.72026357236545},
{"STATE":"IL","ZIP":60619,"LATTITUDE":41.743702317364495,"ADDRESS":"8259 S STATE ST 1ST ","YEAR":2005,"DOING_BUSINESS_AS_NAME":"SHELL","POP_AT_RISK":108952,"BUSINESS_TYPE":"Motor Vehicle Repair : Engine Only (Class II)","LEGAL_NAME":"M & M FOOD MART INC","LONGITUDE":-87.6241859290832},
{"STATE":"IL","ZIP":60644,"LATTITUDE":41.8870361616709,"ADDRESS":"5835 W CORCORAN PL  1","YEAR":2005,"DOING_BUSINESS_AS_NAME":"ABLE AUTO SERVICES","POP_AT_RISK":410496,"BUSINESS_TYPE":"Motor Vehicle Repair : Engine Only (Class II)","LEGAL_NAME":"GEORGE DIMITROPOULOS","LONGITUDE":-87.77144373090574},
{"STATE":"IL","ZIP":60633,"LATTITUDE":41.65194427975236,"ADDRESS":"13359 S BALTIMORE AVE 1ST ","YEAR":2005,"DOING_BUSINESS_AS_NAME":"BEACON 76","POP_AT_RISK":40896,"BUSINESS_TYPE":"Motor Vehicle Repair : Engine Only (Class II)","LEGAL_NAME":"PAUL RAYMOND CATTONI","LONGITUDE":-87.54701057671743},
{"STATE":"IL","ZIP":60647,"LATTITUDE":41.91672425657483,"ADDRESS":"1935 N CALIFORNIA AVE  ","YEAR":2005,"DOING_BUSINESS_AS_NAME":"VALENCIA SERVICE INC","POP_AT_RISK":69890,"BUSINESS_TYPE":"Motor Vehicle Repair : Engine Only (Class II)","LEGAL_NAME":"VALENCIA SERVICE INC","LONGITUDE":-87.69702976581183},
{"STATE":"IL","ZIP":60628,"LATTITUDE":41.71806333833202,"ADDRESS":"9644 S HALSTED ST # 1ST","YEAR":2005,"DOING_BUSINESS_AS_NAME":"PIPE R\/X MUFFLER","POP_AT_RISK":62550,"BUSINESS_TYPE":"Motor Vehicle Repair : Engine Only (Class II)","LEGAL_NAME":"IKUN TECHNOLOGIES INC","LONGITUDE":-87.64326610051688},
{"STATE":"IL","ZIP":60621,"LATTITUDE":41.779779080299285,"ADDRESS":"1014 W 63RD ST  ","YEAR":2005,"DOING_BUSINESS_AS_NAME":"J & M AUTO  REPAIR","POP_AT_RISK":352098,"BUSINESS_TYPE":"Motor Vehicle Repair : Engine Only (Class II)","LEGAL_NAME":"JOHNNY E MCDONALD SR.","LONGITUDE":-87.65034495752677},
{"STATE":"IL","ZIP":60628,"LATTITUDE":41.69300856959585,"ADDRESS":"11038 S HALSTED ST  ","YEAR":2005,"DOING_BUSINESS_AS_NAME":"MUFFLER & BRAKE MAN CAR CARE C","POP_AT_RISK":34675,"BUSINESS_TYPE":"Motor Vehicle Repair : Engine Only (Class II)","LEGAL_NAME":"K & P MUFFLER MAN INC","LONGITUDE":-87.64254358013343},
{"STATE":"IL","ZIP":60629,"LATTITUDE":41.78589389563516,"ADDRESS":"5901 S PULASKI RD  ","YEAR":2005,"DOING_BUSINESS_AS_NAME":"BP GAS","POP_AT_RISK":211336,"BUSINESS_TYPE":"Motor Vehicle Repair : Engine Only (Class II)","LEGAL_NAME":"R & S MINI MART, INC.","LONGITUDE":-87.72281335054123},
{"STATE":"IL","ZIP":60623,"LATTITUDE":41.83894101537985,"ADDRESS":"2859 S LAWNDALE AVE 1ST ","YEAR":2005,"DOING_BUSINESS_AS_NAME":"TAYAHUA AUTO REPAIR","POP_AT_RISK":389613,"BUSINESS_TYPE":"Motor Vehicle Repair : Engine Only (Class II)","LEGAL_NAME":"RODRIGO PUENTES GARCIA","LONGITUDE":-87.71693703845845},
{"STATE":"IL","ZIP":60639,"LATTITUDE":41.929710641181444,"ADDRESS":"2662 N CICERO AVE  ","YEAR":2005,"DOING_BUSINESS_AS_NAME":"PERFORMANCE MITSUBISHI","POP_AT_RISK":220203,"BUSINESS_TYPE":"Motor Vehicle Repair : Engine Only (Class II)","LEGAL_NAME":"RUDAS ENTERPRISES, INC","LONGITUDE":-87.74666589702903},
{"STATE":"IL","ZIP":60623,"LATTITUDE":41.833614800820854,"ADDRESS":"3245 S KOSTNER AVE 1ST ","YEAR":2005,"DOING_BUSINESS_AS_NAME":"EL PASO AUTO PARTS, INC","POP_AT_RISK":33341,"BUSINESS_TYPE":"Motor Vehicle Repair : Engine Only (Class II)","LEGAL_NAME":"EL PASO AUTO PARTS, INC","LONGITUDE":-87.73384269936778},
{"STATE":"IL","ZIP":60659,"LATTITUDE":41.98483945054394,"ADDRESS":"5656 N WESTERN AVE  ","YEAR":2005,"DOING_BUSINESS_AS_NAME":"HOLLYWOOD SERVICES, INC","POP_AT_RISK":211828,"BUSINESS_TYPE":"Motor Vehicle Repair : Engine Only (Class II)","LEGAL_NAME":"HOLLYWOOD SERVICES, INC","LONGITUDE":-87.6896327055355},
{"STATE":"IL","ZIP":60646,"LATTITUDE":41.98898844101697,"ADDRESS":"5914 N MILWAUKEE AVE 1ST ","YEAR":2005,"DOING_BUSINESS_AS_NAME":"Tramcar Transmission","POP_AT_RISK":177018,"BUSINESS_TYPE":"Motor Vehicle Repair : Engine Only (Class II)","LEGAL_NAME":"TRAMCO TRANSMISSION INC","LONGITUDE":-87.78011261277672},
{"STATE":"IL","ZIP":60647,"LATTITUDE":41.93143936970476,"ADDRESS":"2740 N KEDZIE AVE  REAR","YEAR":2005,"DOING_BUSINESS_AS_NAME":"UNITED AUTOMATIC TRANSM","POP_AT_RISK":468258,"BUSINESS_TYPE":"Motor Vehicle Repair : Engine Only (Class II)","LEGAL_NAME":"UNITED AUTOMATIC TRANSM","LONGITUDE":-87.70755743496407},
{"STATE":"IL","ZIP":60652,"LATTITUDE":41.74217811138224,"ADDRESS":"8259 S CICERO AVE  1ST","YEAR":2005,"DOING_BUSINESS_AS_NAME":"FAIR UNDERCAR CARE INC","POP_AT_RISK":19443,"BUSINESS_TYPE":"Motor Vehicle Repair : Engine Only (Class II)","LEGAL_NAME":"FAIR UNDERCAR CARE, INC.","LONGITUDE":-87.74096690910902},
{"STATE":"IL","ZIP":60628,"LATTITUDE":41.678015456193165,"ADDRESS":"432 W 119TH ST  FIRST","YEAR":2005,"DOING_BUSINESS_AS_NAME":"ROSELAND AUTO ELECTRIC","POP_AT_RISK":209820,"BUSINESS_TYPE":"Motor Vehicle Repair : Engine Only (Class II)","LEGAL_NAME":"ANTONIO ALMAZAN & E MERAZ","LONGITUDE":-87.63353725225271},
{"STATE":"IL","ZIP":60652,"LATTITUDE":41.749090188659466,"ADDRESS":"4649 W 79TH ST 1ST ","YEAR":2005,"DOING_BUSINESS_AS_NAME":"TIRETOWN","POP_AT_RISK":93423,"BUSINESS_TYPE":"Motor Vehicle Repair : Engine Only (Class II)","LEGAL_NAME":"UNITED TIRE CENTER CENTER","LONGITUDE":-87.73834979438641},
{"STATE":"IL","ZIP":60632,"LATTITUDE":41.823746392997336,"ADDRESS":"3818 S KEDZIE AVE 1ST ","YEAR":2005,"DOING_BUSINESS_AS_NAME":"ZACATECAS AUTO REPAIR","POP_AT_RISK":284712,"BUSINESS_TYPE":"Motor Vehicle Repair : Engine Only (Class II)","LEGAL_NAME":"ZACATECAS AUTO REPAIR INC","LONGITUDE":-87.70457702890714},
{"STATE":"IL","ZIP":60619,"LATTITUDE":41.73660607803214,"ADDRESS":"8701 S COTTAGE GROVE AVE 1ST ","YEAR":2005,"DOING_BUSINESS_AS_NAME":"D & J CAR CARE CORPORATION","POP_AT_RISK":315984,"BUSINESS_TYPE":"Motor Vehicle Repair : Engine Only (Class II)","LEGAL_NAME":"D & J CAR CARE CORPORATION","LONGITUDE":-87.6046750609248},
{"STATE":"IL","ZIP":60621,"LATTITUDE":41.78720130350801,"ADDRESS":"620 W 59TH ST 1ST ","YEAR":2005,"DOING_BUSINESS_AS_NAME":"ENGLEWOOD AUTO PARTS","POP_AT_RISK":149815,"BUSINESS_TYPE":"Motor Vehicle Repair : Engine Only (Class II)","LEGAL_NAME":"ENGLEWOOD AUTO PARTS, INC.","LONGITUDE":-87.64106869641053},
{"STATE":"IL","ZIP":60644,"LATTITUDE":41.88537852219392,"ADDRESS":"301 N CICERO AVE  1","YEAR":2005,"DOING_BUSINESS_AS_NAME":"THORTON AUTO REPAIR INC","POP_AT_RISK":276840,"BUSINESS_TYPE":"Motor Vehicle Repair : Engine Only (Class II)","LEGAL_NAME":"THORNTON AUTO REPAIR, INC.","LONGITUDE":-87.74530832271283},
{"STATE":"IL","ZIP":60645,"LATTITUDE":42.00680601930004,"ADDRESS":"6868 N WESTERN AVE 1ST ","YEAR":2005,"DOING_BUSINESS_AS_NAME":"CHICAGO HARLEY DAVIDSON INC","POP_AT_RISK":147524,"BUSINESS_TYPE":"Motor Vehicle Repair : Engine Only (Class II)","LEGAL_NAME":"CHICAGO HARLEY DAVIDSON INC","LONGITUDE":-87.69025895513255},
{"STATE":"IL","ZIP":60610,"LATTITUDE":41.90165910089289,"ADDRESS":"1035 N CLARK ST 1ST ","YEAR":2005,"DOING_BUSINESS_AS_NAME":"PERILLO  BMW INC","POP_AT_RISK":1006616,"BUSINESS_TYPE":"Motor Vehicle Repair : Engine Only (Class II)","LEGAL_NAME":"GOLD COAST MOTOR CARS, INC.","LONGITUDE":-87.63123588878835},
{"STATE":"IL","ZIP":60641,"LATTITUDE":41.960752224329475,"ADDRESS":"4269 W MONTROSE AVE 1ST ","YEAR":2005,"DOING_BUSINESS_AS_NAME":"KIM'S LAKE WEST AUTO SERVICE","POP_AT_RISK":309762,"BUSINESS_TYPE":"Motor Vehicle Repair : Engine Only (Class II)","LEGAL_NAME":"KIM'S LAKE WEST AUTO SERVICE","LONGITUDE":-87.73543166768378},
{"STATE":"IL","ZIP":60639,"LATTITUDE":41.922639410182185,"ADDRESS":"6358 W GRAND AVE  ","YEAR":2005,"DOING_BUSINESS_AS_NAME":"MJD AUTO SERVICE CENTER INC","POP_AT_RISK":297138,"BUSINESS_TYPE":"Motor Vehicle Repair : Engine Only (Class II)","LEGAL_NAME":"MJD  AUTO SERVICE CENTER INC","LONGITUDE":-87.78505742707532},
{"STATE":"IL","ZIP":60707,"LATTITUDE":41.92365396933332,"ADDRESS":"7034 W GRAND AVE  1","YEAR":2005,"DOING_BUSINESS_AS_NAME":"GRAND TIRE & AUTO SERV INC","POP_AT_RISK":84038,"BUSINESS_TYPE":"Motor Vehicle Repair : Engine Only (Class II)","LEGAL_NAME":"GRAND TIRE & AUTO SERVICE INC","LONGITUDE":-87.80223515670508},
{"STATE":"IL","ZIP":60659,"LATTITUDE":41.99497663051784,"ADDRESS":"6229 N WESTERN AVE  ","YEAR":2005,"DOING_BUSINESS_AS_NAME":"WHEEL OF CHICAGO","POP_AT_RISK":68863,"BUSINESS_TYPE":"Motor Vehicle Repair : Engine Only (Class II)","LEGAL_NAME":"WHEELS OF CHICAGO BODY SHOP, INC.","LONGITUDE":-87.68964583233159},
{"STATE":"IL","ZIP":60607,"LATTITUDE":41.88574516285116,"ADDRESS":"844 W LAKE ST  1","YEAR":2005,"DOING_BUSINESS_AS_NAME":"VAIA INC AUTO SPLS","POP_AT_RISK":43074,"BUSINESS_TYPE":"Motor Vehicle Repair : Engine Only (Class II)","LEGAL_NAME":"VAIA INCORPORATED, AUTO SPECIALIST","LONGITUDE":-87.64922742573174},
}