{
{"STATE":"IL","ZIP":60643,"LATTITUDE":41.67736823724156,"ADDRESS":"2236 W 119TH ST  ","YEAR":2014,"DOING_BUSINESS_AS_NAME":"CATERING AND SWEETS ON THE GO","POP_AT_RISK":77972,"BUSINESS_TYPE":"Food - Shared Kitchen Long-Term User","LEGAL_NAME":"DeANN WAFER","LONGITUDE":-87.67680970014642},
{"STATE":"IL","ZIP":60649,"LATTITUDE":41.75271431281425,"ADDRESS":"7823 S JEFFERY BLVD  ","YEAR":2014,"DOING_BUSINESS_AS_NAME":"SAFERA'S CABARET","POP_AT_RISK":94300,"BUSINESS_TYPE":"Food - Shared Kitchen Long-Term User","LEGAL_NAME":"NA HUT,INC.","LONGITUDE":-87.57586368361073},
{"STATE":"IL","ZIP":60641,"LATTITUDE":41.95321908629962,"ADDRESS":"3955 N LAMON AVE  212","YEAR":2014,"DOING_BUSINESS_AS_NAME":"SWEETLY DECORATED HANDCRAFTED COOKIES","POP_AT_RISK":50264,"BUSINESS_TYPE":"Food - Shared Kitchen Long-Term User","LEGAL_NAME":"IMELDA MOJICA","LONGITUDE":-87.74970934070282},
{"STATE":"IL","ZIP":60649,"LATTITUDE":41.76722600082363,"ADDRESS":"2210 E 70TH PL 3RD 306","YEAR":2014,"DOING_BUSINESS_AS_NAME":"DREAM CHEF LLC","POP_AT_RISK":142004,"BUSINESS_TYPE":"Food - Shared Kitchen Long-Term User","LEGAL_NAME":"DREAM CHEF LLC","LONGITUDE":-87.57096487751878},
{"STATE":"IL","ZIP":60609,"LATTITUDE":41.80652396643963,"ADDRESS":"4807 S ASHLAND AVE 1ST 102","YEAR":2014,"DOING_BUSINESS_AS_NAME":"SANDWICHES\/SAM D ROSENBERG","POP_AT_RISK":512252,"BUSINESS_TYPE":"Food - Shared Kitchen Long-Term User","LEGAL_NAME":"SANDWICHES LLC","LONGITUDE":-87.66476729194913},
{"STATE":"IL","ZIP":60634,"LATTITUDE":41.94847708713959,"ADDRESS":"3763 N OCTAVIA AVE  ","YEAR":2014,"DOING_BUSINESS_AS_NAME":"ANAGRA CAFE LLC","POP_AT_RISK":221312,"BUSINESS_TYPE":"Food - Shared Kitchen Long-Term User","LEGAL_NAME":"ANAGRA CAFE LLC","LONGITUDE":-87.8093906383394},
{"STATE":"IL","ZIP":60641,"LATTITUDE":41.94807035547954,"ADDRESS":"4718 W WAVELAND AVE  ","YEAR":2014,"DOING_BUSINESS_AS_NAME":"PETIT ORGANICS","POP_AT_RISK":188655,"BUSINESS_TYPE":"Food - Shared Kitchen Long-Term User","LEGAL_NAME":"FIRST BITES LLC","LONGITUDE":-87.74538467698021},
{"STATE":"IL","ZIP":60630,"LATTITUDE":41.96346344188719,"ADDRESS":"4540 N MONITOR AVE  ","YEAR":2014,"DOING_BUSINESS_AS_NAME":"FISCHMANS WAGYU WAGON","POP_AT_RISK":40620,"BUSINESS_TYPE":"Food - Shared Kitchen Long-Term User","LEGAL_NAME":"PNK CORPORATION","LONGITUDE":-87.77359855638773},
{"STATE":"IL","ZIP":60634,"LATTITUDE":41.95869962261786,"ADDRESS":"4305 N MEADE AVE  ","YEAR":2014,"DOING_BUSINESS_AS_NAME":"BLUE STREET MARKET","POP_AT_RISK":38254,"BUSINESS_TYPE":"Food - Shared Kitchen Long-Term User","LEGAL_NAME":"QUICKWICH, INC.","LONGITUDE":-87.77926635277254},
{"STATE":"IL","ZIP":60628,"LATTITUDE":41.69212723503875,"ADDRESS":"11127 S CHAMPLAIN AVE  ","YEAR":2014,"DOING_BUSINESS_AS_NAME":"NICOLE D. JORDAN","POP_AT_RISK":35920,"BUSINESS_TYPE":"Food - Shared Kitchen Long-Term User","LEGAL_NAME":"NICOLE D. JORDAN","LONGITUDE":-87.60704654558899},
{"STATE":"IL","ZIP":60649,"LATTITUDE":41.75423781207263,"ADDRESS":"7735 S MERRILL AVE 1 1","YEAR":2014,"DOING_BUSINESS_AS_NAME":"SOUL VEGAN","POP_AT_RISK":43701,"BUSINESS_TYPE":"Food - Shared Kitchen Long-Term User","LEGAL_NAME":"STABLE FOODS, INC.","LONGITUDE":-87.57223040473296},
{"STATE":"IL","ZIP":60637,"LATTITUDE":41.78191463770133,"ADDRESS":"6213 S WOODLAWN AVE  A","YEAR":2014,"DOING_BUSINESS_AS_NAME":"CUPCAKE GANGSTERS","POP_AT_RISK":181644,"BUSINESS_TYPE":"Food - Shared Kitchen Long-Term User","LEGAL_NAME":"24 KARAT CAKES, INC.","LONGITUDE":-87.59609020627626},
{"STATE":"IL","ZIP":60643,"LATTITUDE":41.71302179251355,"ADDRESS":"9932 S BEVERLY AVE  ","YEAR":2014,"DOING_BUSINESS_AS_NAME":"MRS. WRIGHT'S GOURMET POPCORN SHOP","POP_AT_RISK":26288,"BUSINESS_TYPE":"Food - Shared Kitchen Long-Term User","LEGAL_NAME":"CEDRIC ARTHUR WRIGHT","LONGITUDE":-87.65928358972509},
{"STATE":"IL","ZIP":60634,"LATTITUDE":41.94750376647939,"ADDRESS":"5913 W WAVELAND AVE 1ST ","YEAR":2014,"DOING_BUSINESS_AS_NAME":"SUGAR FIXATION","POP_AT_RISK":43921,"BUSINESS_TYPE":"Food - Shared Kitchen Long-Term User","LEGAL_NAME":"SUGAR FIXATION, INC.","LONGITUDE":-87.7747094693793},
{"STATE":"IL","ZIP":60641,"LATTITUDE":41.9333327976565,"ADDRESS":"2904 N LINDER AVE  ","YEAR":2014,"DOING_BUSINESS_AS_NAME":"FOOD FIRST CHICAGO","POP_AT_RISK":133854,"BUSINESS_TYPE":"Food - Shared Kitchen Long-Term User","LEGAL_NAME":"VALNAV. INCORPORATED","LONGITUDE":-87.76400745801763},
{"STATE":"IL","ZIP":60620,"LATTITUDE":41.73946813892258,"ADDRESS":"8501 S ELIZABETH ST  ","YEAR":2014,"DOING_BUSINESS_AS_NAME":"SIMPLY SWEET","POP_AT_RISK":207265,"BUSINESS_TYPE":"Food - Shared Kitchen Long-Term User","LEGAL_NAME":"DIONNE WILLIETTE BOYD","LONGITUDE":-87.6545046567059},
{"STATE":"IL","ZIP":60631,"LATTITUDE":41.99727682798901,"ADDRESS":"7280 W DEVON AVE  ","YEAR":2014,"DOING_BUSINESS_AS_NAME":"O'CONNOR'S MARKET","POP_AT_RISK":23928,"BUSINESS_TYPE":"Food - Shared Kitchen Long-Term User","LEGAL_NAME":"O'CONNOR'S MARKET INC","LONGITUDE":-87.80962433024467},
{"STATE":"IL","ZIP":60647,"LATTITUDE":41.92693682488171,"ADDRESS":"2510 N KEDZIE BLVD 1ST 1S","YEAR":2014,"DOING_BUSINESS_AS_NAME":"THE BAKED ESCAPE","POP_AT_RISK":75310,"BUSINESS_TYPE":"Food - Shared Kitchen Long-Term User","LEGAL_NAME":"THE BAKED ESCAPE, LLC","LONGITUDE":-87.70742975869817},
{"STATE":"IL","ZIP":60639,"LATTITUDE":41.92172229168538,"ADDRESS":"2248 N MENARD AVE  ","YEAR":2014,"DOING_BUSINESS_AS_NAME":"THE LETTUCE BOX, INC.","POP_AT_RISK":104636,"BUSINESS_TYPE":"Food - Shared Kitchen Long-Term User","LEGAL_NAME":"THE LETTUCE BOX, INC.","LONGITUDE":-87.7709220878784},
{"STATE":"IL","ZIP":60622,"LATTITUDE":41.89569686347515,"ADDRESS":"3036 W CHICAGO AVE 1 W","YEAR":2014,"DOING_BUSINESS_AS_NAME":"SEASONS SODA","POP_AT_RISK":310776,"BUSINESS_TYPE":"Food - Shared Kitchen Long-Term User","LEGAL_NAME":"SEASONS BEVERAGES, LLC","LONGITUDE":-87.70301214651256},
{"STATE":"IL","ZIP":60644,"LATTITUDE":41.88425992384877,"ADDRESS":"5031 W MAYPOLE AVE  ","YEAR":2014,"DOING_BUSINESS_AS_NAME":"TASTE OF CHOCOLATE LLC","POP_AT_RISK":594732,"BUSINESS_TYPE":"Food - Shared Kitchen Long-Term User","LEGAL_NAME":"TASTE OF CHOCOLATE LLC","LONGITUDE":-87.75157597788727},
{"STATE":"IL","ZIP":60659,"LATTITUDE":41.98567414461518,"ADDRESS":"5722 N ROCKWELL ST 1ST ","YEAR":2014,"DOING_BUSINESS_AS_NAME":"AMSALE CATERING SERVICE","POP_AT_RISK":260625,"BUSINESS_TYPE":"Food - Shared Kitchen Long-Term User","LEGAL_NAME":"AMSALE TEGEGEN FAKIBELU","LONGITUDE":-87.69452942079845},
{"STATE":"IL","ZIP":60615,"LATTITUDE":41.79753725058445,"ADDRESS":"5412 S KIMBARK AVE  ","YEAR":2014,"DOING_BUSINESS_AS_NAME":"BETTY'S BAKED GOODS","POP_AT_RISK":80918,"BUSINESS_TYPE":"Food - Shared Kitchen Long-Term User","LEGAL_NAME":"BETTY'S BAKED GOODS CO.","LONGITUDE":-87.59512890181897},
{"STATE":"IL","ZIP":60612,"LATTITUDE":41.87029552264062,"ADDRESS":"837 S WESTERN AVE  401","YEAR":2014,"DOING_BUSINESS_AS_NAME":"BAKERS MAN CHICAGO, INC.","POP_AT_RISK":23145,"BUSINESS_TYPE":"Food - Shared Kitchen Long-Term User","LEGAL_NAME":"BAKERS MAN CHICAGO, INC.","LONGITUDE":-87.68599425103251},
{"STATE":"IL","ZIP":60624,"LATTITUDE":41.86728850077515,"ADDRESS":"3644 W GRENSHAW ST 3RD ","YEAR":2014,"DOING_BUSINESS_AS_NAME":"JAZZY BONES CATERING","POP_AT_RISK":502909,"BUSINESS_TYPE":"Food - Shared Kitchen Long-Term User","LEGAL_NAME":"CHARMAINE BURTON-JOHNSON","LONGITUDE":-87.71718970587207},
{"STATE":"IL","ZIP":60637,"LATTITUDE":41.791946935907305,"ADDRESS":"5632 S PRAIRIE AVE 1ST 1N","YEAR":2014,"DOING_BUSINESS_AS_NAME":"MS PATTI SWEET CAKES LLC","POP_AT_RISK":140530,"BUSINESS_TYPE":"Food - Shared Kitchen Long-Term User","LEGAL_NAME":"MS PATTI SWEET CAKES LLC","LONGITUDE":-87.61929863127808},
{"STATE":"IL","ZIP":60643,"LATTITUDE":41.70105478559264,"ADDRESS":"10601 S PROSPECT AVE  ","YEAR":2014,"DOING_BUSINESS_AS_NAME":"A CHEF'S CHRONICLES, INC.","POP_AT_RISK":103684,"BUSINESS_TYPE":"Food - Shared Kitchen Long-Term User","LEGAL_NAME":"A CHEF'S CHRONICLES, INC.","LONGITUDE":-87.66169906293537},
{"STATE":"IL","ZIP":60628,"LATTITUDE":41.67751373127688,"ADDRESS":"11912 S PRINCETON AVE  ","YEAR":2014,"DOING_BUSINESS_AS_NAME":"CHEESECAKES BY SHAN","POP_AT_RISK":199318,"BUSINESS_TYPE":"Food - Shared Kitchen Long-Term User","LEGAL_NAME":"CHEESECAKES BY SHAN, INC.","LONGITUDE":-87.63000207068163},
{"STATE":"IL","ZIP":60639,"LATTITUDE":41.91139442516136,"ADDRESS":"1700 N LOCKWOOD AVE  ","YEAR":2014,"DOING_BUSINESS_AS_NAME":"YOLO'S FOOD & SNACKS","POP_AT_RISK":439416,"BUSINESS_TYPE":"Food - Shared Kitchen Long-Term User","LEGAL_NAME":"YOLO'S FOOD & SNACKS, INC.","LONGITUDE":-87.75832183030971},
{"STATE":"IL","ZIP":60653,"LATTITUDE":41.81525376681689,"ADDRESS":"4353 S COTTAGE GROVE AVE  ","YEAR":2014,"DOING_BUSINESS_AS_NAME":"CREATIVE MOBILE CUISINE","POP_AT_RISK":82808,"BUSINESS_TYPE":"Food - Shared Kitchen Long-Term User","LEGAL_NAME":"CREATIVE MOBILE CUISINE INC.","LONGITUDE":-87.60653032909327},
{"STATE":"IL","ZIP":60618,"LATTITUDE":41.9603950818129,"ADDRESS":"4341 N AVERS AVE  ","YEAR":2014,"DOING_BUSINESS_AS_NAME":"MARY'S CATERING SERVICE, INC.","POP_AT_RISK":379062,"BUSINESS_TYPE":"Food - Shared Kitchen Long-Term User","LEGAL_NAME":"MARY'S CATERING SERVICE, INC.","LONGITUDE":-87.72399475521425},
{"STATE":"IL","ZIP":60638,"LATTITUDE":41.79770707150579,"ADDRESS":"5559 S ARCHER AVE  3","YEAR":2014,"DOING_BUSINESS_AS_NAME":"PREMIER CATERING & EVENTS","POP_AT_RISK":86580,"BUSINESS_TYPE":"Food - Shared Kitchen Long-Term User","LEGAL_NAME":"PREMIER CATERING & EVENTS LLC","LONGITUDE":-87.74869426106613},
{"STATE":"IL","ZIP":60620,"LATTITUDE":41.748411232014085,"ADDRESS":"1621 W 80TH ST 3RD 3","YEAR":2014,"DOING_BUSINESS_AS_NAME":"SWEET SPOT BY C. BAKESHOP","POP_AT_RISK":83022,"BUSINESS_TYPE":"Food - Shared Kitchen Long-Term User","LEGAL_NAME":"SWEET SPOT BY C. BAKESHOP LLC","LONGITUDE":-87.66428957256923},
{"STATE":"IL","ZIP":60623,"LATTITUDE":41.83390793418924,"ADDRESS":"3240 S SPRINGFIELD AVE  ","YEAR":2014,"DOING_BUSINESS_AS_NAME":"SANCHEZ CATERING","POP_AT_RISK":160076,"BUSINESS_TYPE":"Food - Shared Kitchen Long-Term User","LEGAL_NAME":"AURORA VILLAGANA \/ JOSE SANCHEZ","LONGITUDE":-87.72199309611034},
{"STATE":"IL","ZIP":60629,"LATTITUDE":41.76256199328627,"ADDRESS":"3500 W 72ND ST 1ST ","YEAR":2014,"DOING_BUSINESS_AS_NAME":" SWEET SUGAH  CATERING BOUTIQUE","POP_AT_RISK":262017,"BUSINESS_TYPE":"Food - Shared Kitchen Long-Term User","LEGAL_NAME":" SWEET SUGAH  CATERING BOUTIQUE, INC.","LONGITUDE":-87.71020791068852},
{"STATE":"IL","ZIP":60636,"LATTITUDE":41.76362238100978,"ADDRESS":"7140 S HONORE ST  ","YEAR":2014,"DOING_BUSINESS_AS_NAME":"JUST DESSERTS 4 YOU - MS. TITTLE'S CUPCAKES CORP.","POP_AT_RISK":285376,"BUSINESS_TYPE":"Food - Shared Kitchen Long-Term User","LEGAL_NAME":"JUST DESSERTS 4 YOU - MS. TITTLE'S CUPCAKES CORP.","LONGITUDE":-87.66999948221357},
}