{
{"STATE":"IL","ZIP":60659,"LATTITUDE":41.99764567096092,"ADDRESS":"2321 W DEVON AVE 1ST ","YEAR":1998,"DOING_BUSINESS_AS_NAME":"EAST WEST BANGLA BAZAR","POP_AT_RISK":852276,"BUSINESS_TYPE":"Retail Food Establishment","LEGAL_NAME":"PANCHALI INC","LONGITUDE":-87.68834537862804},
{"STATE":"IL","ZIP":60629,"LATTITUDE":41.77902034331028,"ADDRESS":"2737 W 63RD ST 1ST ","YEAR":1998,"DOING_BUSINESS_AS_NAME":"LOS AMIGOS","POP_AT_RISK":770237,"BUSINESS_TYPE":"Retail Food Establishment","LEGAL_NAME":"ROSA G SILVA","LONGITUDE":-87.69240194364663},
{"STATE":"IL","ZIP":60638,"LATTITUDE":41.79529819964787,"ADDRESS":"5978 S ARCHER AVE  ","YEAR":1998,"DOING_BUSINESS_AS_NAME":"AJ'S SPORT BAR & GRILL","POP_AT_RISK":121955,"BUSINESS_TYPE":"Retail Food Establishment","LEGAL_NAME":"CD CAFE, INC.","LONGITUDE":-87.76581797997774},
{"STATE":"IL","ZIP":60608,"LATTITUDE":41.862199012552956,"ADDRESS":"116 S SOUTH WATER MARKET  1ST ","YEAR":1998,"DOING_BUSINESS_AS_NAME":"EL BUEN GUSTO","POP_AT_RISK":530488,"BUSINESS_TYPE":"Retail Food Establishment","LEGAL_NAME":"SARA AGUILERA","LONGITUDE":-87.654644455978},
{"STATE":"IL","ZIP":60621,"LATTITUDE":41.76006341690423,"ADDRESS":"7351 S HALSTED ST 1ST ","YEAR":1998,"DOING_BUSINESS_AS_NAME":"JANIE'S SOUL FOOD EXPRESS","POP_AT_RISK":475748,"BUSINESS_TYPE":"Retail Food Establishment","LEGAL_NAME":"JANIE V CANNON","LONGITUDE":-87.64413578959118},
{"STATE":"IL","ZIP":60618,"LATTITUDE":41.948021435682904,"ADDRESS":"3674 N ELSTON AVE 1ST ","YEAR":1998,"DOING_BUSINESS_AS_NAME":"TASTEE FREEZ","POP_AT_RISK":847112,"BUSINESS_TYPE":"Retail Food Establishment","LEGAL_NAME":"JEHAD W KHOURY","LONGITUDE":-87.71110193942935},
{"STATE":"IL","ZIP":60644,"LATTITUDE":41.880385804377944,"ADDRESS":"4803 W MADISON ST 1ST ","YEAR":1998,"DOING_BUSINESS_AS_NAME":"MADISON FOOD MARKET","POP_AT_RISK":593905,"BUSINESS_TYPE":"Retail Food Establishment","LEGAL_NAME":"JESSE LEE DAVIS","LONGITUDE":-87.74547074324096},
{"STATE":"IL","ZIP":60659,"LATTITUDE":41.98293113357383,"ADDRESS":"3257 W BRYN MAWR AVE  1ST","YEAR":1998,"DOING_BUSINESS_AS_NAME":"NEW OUTDOOR CAFE","POP_AT_RISK":497088,"BUSINESS_TYPE":"Retail Food Establishment","LEGAL_NAME":"NEW OUTDOOR CAFE","LONGITUDE":-87.71115251272501},
{"STATE":"IL","ZIP":60614,"LATTITUDE":41.921866539026375,"ADDRESS":"934 W WEBSTER AVE  ","YEAR":1998,"DOING_BUSINESS_AS_NAME":"ZINES & BEANS INC","POP_AT_RISK":1135360,"BUSINESS_TYPE":"Retail Food Establishment","LEGAL_NAME":"ZINES & BEANS INC","LONGITUDE":-87.65242305270903},
{"STATE":"IL","ZIP":60651,"LATTITUDE":41.9022123009897,"ADDRESS":"4909 W DIVISION ST  ","YEAR":1998,"DOING_BUSINESS_AS_NAME":"RISHI PHARMACY","POP_AT_RISK":554576,"BUSINESS_TYPE":"Retail Food Establishment","LEGAL_NAME":"RISHI PHARMACY INC","LONGITUDE":-87.74884541003385},
{"STATE":"IL","ZIP":60613,"LATTITUDE":41.961392151177236,"ADDRESS":"1825 W MONTROSE AVE  ","YEAR":1998,"DOING_BUSINESS_AS_NAME":"EL TORITO RESTAURANT Y TAQUERI","POP_AT_RISK":1481986,"BUSINESS_TYPE":"Retail Food Establishment","LEGAL_NAME":"JUVENTINO MONTES DE OCA","LONGITUDE":-87.67547611339896},
{"STATE":"IL","ZIP":60629,"LATTITUDE":41.778750679607214,"ADDRESS":"6255 S KEELER AVE 1ST ","YEAR":1998,"DOING_BUSINESS_AS_NAME":"BISHOLOS PIZZA","POP_AT_RISK":293720,"BUSINESS_TYPE":"Retail Food Establishment","LEGAL_NAME":"BRIAN BISHOP\/DAVID RUFFALO","LONGITUDE":-87.72750346266426},
}