{
{"STATE":"IL","ZIP":60626,"LATTITUDE":42.005871902451084,"ADDRESS":"6809-6813 N SHERIDAN RD 1ST ","YEAR":2009,"DOING_BUSINESS_AS_NAME":"OASIS, THE","POP_AT_RISK":795483,"BUSINESS_TYPE":"Tobacco Vending, Individual","LEGAL_NAME":"PRATTFALL INC","LONGITUDE":-87.66085202755195},
{"STATE":"IL","ZIP":60618,"LATTITUDE":41.95731096114492,"ADDRESS":"4156 N ST LOUIS AVE  ","YEAR":2009,"DOING_BUSINESS_AS_NAME":"T & A TOO INC","POP_AT_RISK":500549,"BUSINESS_TYPE":"Tobacco Vending, Individual","LEGAL_NAME":"T & A TOO INC","LONGITUDE":-87.7156179066361},
{"STATE":"IL","ZIP":60632,"LATTITUDE":41.79800597428108,"ADDRESS":"5221 S CICERO AVE  ","YEAR":2009,"DOING_BUSINESS_AS_NAME":"SUNSET INN,INC","POP_AT_RISK":262512,"BUSINESS_TYPE":"Tobacco Vending, Individual","LEGAL_NAME":"SUNSET INN,INC","LONGITUDE":-87.7427569288057},
{"STATE":"IL","ZIP":60623,"LATTITUDE":41.840922809543144,"ADDRESS":"2758 S SPAULDING AVE  ","YEAR":2009,"DOING_BUSINESS_AS_NAME":"CARMENS PLACE","POP_AT_RISK":301120,"BUSINESS_TYPE":"Tobacco Vending, Individual","LEGAL_NAME":"VILLAGRANA INC","LONGITUDE":-87.707517430604},
{"STATE":"IL","ZIP":60630,"LATTITUDE":41.97032186228699,"ADDRESS":"4906-4908 N PULASKI RD  ","YEAR":2009,"DOING_BUSINESS_AS_NAME":"GAMBLERS","POP_AT_RISK":126406,"BUSINESS_TYPE":"Tobacco Vending, Individual","LEGAL_NAME":"GAMBLERS I, INC.","LONGITUDE":-87.72823518111367},
{"STATE":"IL","ZIP":60608,"LATTITUDE":41.84458430031092,"ADDRESS":"2600 S CALIFORNIA AVE  FACIL","YEAR":2009,"DOING_BUSINESS_AS_NAME":"DEPT OF REHABILITATION SVC\/VFP","POP_AT_RISK":235196,"BUSINESS_TYPE":"Tobacco Vending, Individual","LEGAL_NAME":"STATE OF ILLINOIS","LONGITUDE":-87.69535984321492},
{"STATE":"IL","ZIP":60630,"LATTITUDE":41.96246973487343,"ADDRESS":"4500 N ELSTON AVE 1ST ","YEAR":2009,"DOING_BUSINESS_AS_NAME":"O'DONNELLS","POP_AT_RISK":109238,"BUSINESS_TYPE":"Tobacco Vending, Individual","LEGAL_NAME":"D. O'D CORPORATION","LONGITUDE":-87.73215028038183},
{"STATE":"IL","ZIP":60643,"LATTITUDE":41.70486871150318,"ADDRESS":"10350 S WESTERN AVE  ","YEAR":2009,"DOING_BUSINESS_AS_NAME":"BREWBAKERS","POP_AT_RISK":249516,"BUSINESS_TYPE":"Tobacco Vending, Individual","LEGAL_NAME":"GORDON LOUNGE, INC","LONGITUDE":-87.68171958749872},
{"STATE":"IL","ZIP":60649,"LATTITUDE":41.751863533921544,"ADDRESS":"2442 E 79TH ST 1ST ","YEAR":2009,"DOING_BUSINESS_AS_NAME":"LEISURE LIFE LOUNGE","POP_AT_RISK":298152,"BUSINESS_TYPE":"Tobacco Vending, Individual","LEGAL_NAME":"SHEILA D. THOMPSON","LONGITUDE":-87.56454224278873},
{"STATE":"IL","ZIP":60617,"LATTITUDE":41.72672309390813,"ADDRESS":"9273 S SOUTH CHICAGO AVE  ","YEAR":2009,"DOING_BUSINESS_AS_NAME":"ROMA'S REST","POP_AT_RISK":152831,"BUSINESS_TYPE":"Tobacco Vending, Individual","LEGAL_NAME":"PALIATSOS & SON CO.","LONGITUDE":-87.55094326211272},
{"STATE":"IL","ZIP":60629,"LATTITUDE":41.78654849218397,"ADDRESS":"2710 W 59TH ST 1 ","YEAR":2009,"DOING_BUSINESS_AS_NAME":"EL FOCO ROJO","POP_AT_RISK":766260,"BUSINESS_TYPE":"Tobacco Vending, Individual","LEGAL_NAME":"REGGIES LOUNGE LTD.","LONGITUDE":-87.69167741710028},
{"STATE":"IL","ZIP":60605,"LATTITUDE":41.87305557644521,"ADDRESS":"701 S STATE ST  ","YEAR":2009,"DOING_BUSINESS_AS_NAME":"SOUTH LOOP CLUB INC","POP_AT_RISK":128394,"BUSINESS_TYPE":"Tobacco Vending, Individual","LEGAL_NAME":"SOUTH LOOP CLUB INC","LONGITUDE":-87.62741781254495},
{"STATE":"IL","ZIP":60640,"LATTITUDE":41.978291592499495,"ADDRESS":"1064 W BERWYN AVE  ","YEAR":2009,"DOING_BUSINESS_AS_NAME":"OLLIES","POP_AT_RISK":1268136,"BUSINESS_TYPE":"Tobacco Vending, Individual","LEGAL_NAME":"BURTONS TAP & GRILL INC","LONGITUDE":-87.65764127563683},
{"STATE":"IL","ZIP":60654,"LATTITUDE":41.89335935419248,"ADDRESS":"632 N DEARBORN ST  ","YEAR":2009,"DOING_BUSINESS_AS_NAME":"CASTLE","POP_AT_RISK":258096,"BUSINESS_TYPE":"Tobacco Vending, Individual","LEGAL_NAME":"EXCALIBUR CHICAGO, INC.","LONGITUDE":-87.62984514678733},
{"STATE":"IL","ZIP":60647,"LATTITUDE":41.927250990177676,"ADDRESS":"2521 N MILWAUKEE AVE 1ST ","YEAR":2009,"DOING_BUSINESS_AS_NAME":"THE OWL BAR","POP_AT_RISK":1521289,"BUSINESS_TYPE":"Tobacco Vending, Individual","LEGAL_NAME":"COLON AND BRUNO CORPORATION","LONGITUDE":-87.7042033510881},
{"STATE":"IL","ZIP":60610,"LATTITUDE":41.892290858543895,"ADDRESS":"151 W OHIO ST LL ","YEAR":2009,"DOING_BUSINESS_AS_NAME":"RUBY","POP_AT_RISK":72484,"BUSINESS_TYPE":"Tobacco Vending, Individual","LEGAL_NAME":"MCDUFFY'S ENTERPRISES, INC.","LONGITUDE":-87.63312249045453},
{"STATE":"IL","ZIP":60639,"LATTITUDE":41.931374091845875,"ADDRESS":"5616 W DIVERSEY AVE # 1ST","YEAR":2009,"DOING_BUSINESS_AS_NAME":"JEDYNKA","POP_AT_RISK":833404,"BUSINESS_TYPE":"Tobacco Vending, Individual","LEGAL_NAME":"PETER'S ONE TWO THREE LOUNGE I","LONGITUDE":-87.76703855660186},
{"STATE":"IL","ZIP":60661,"LATTITUDE":41.878172571606136,"ADDRESS":"233 S HALSTED ST  ","YEAR":2009,"DOING_BUSINESS_AS_NAME":"SPECTRUM SPORTS BAR & GRILL","POP_AT_RISK":210295,"BUSINESS_TYPE":"Tobacco Vending, Individual","LEGAL_NAME":"SPECTRUM SPORTS BAR & GRILL, INC.","LONGITUDE":-87.64709973557522},
}