{
{"STATE":"IL","ZIP":60633,"LATTITUDE":41.652964611693584,"ADDRESS":"13322-13324 S BALTIMORE AVE  ","YEAR":2012,"DOING_BUSINESS_AS_NAME":"Baltimore Food & Liquor","POP_AT_RISK":40896,"BUSINESS_TYPE":"Package Goods","LEGAL_NAME":"QVAC, Inc.","LONGITUDE":-87.547298652826},
{"STATE":"IL","ZIP":60707,"LATTITUDE":41.909134570904456,"ADDRESS":"6800 W NORTH AVE 1ST 1","YEAR":2012,"DOING_BUSINESS_AS_NAME":"7-ELEVEN #33921B","POP_AT_RISK":28778,"BUSINESS_TYPE":"Package Goods","LEGAL_NAME":"PATELCO, INC.","LONGITUDE":-87.79492813078483},
{"STATE":"IL","ZIP":60666,"LATTITUDE":42.008536400868735,"ADDRESS":"11601 W TOUHY AVE  ","YEAR":2012,"DOING_BUSINESS_AS_NAME":"CAFFE MERCATO","POP_AT_RISK":4956,"BUSINESS_TYPE":"Package Goods","LEGAL_NAME":"HLT O'HARE LLC","LONGITUDE":-87.91442843927047},
{"STATE":"IL","ZIP":60644,"LATTITUDE":41.873094832519136,"ADDRESS":"600 S CICERO AVE 1ST ","YEAR":2012,"DOING_BUSINESS_AS_NAME":"BELMONTE LIQUORS","POP_AT_RISK":45640,"BUSINESS_TYPE":"Package Goods","LEGAL_NAME":"600 S CICERO INC","LONGITUDE":-87.74514386884542},
{"STATE":"IL","ZIP":60631,"LATTITUDE":42.0043992612229,"ADDRESS":"6783 N NORTHWEST HWY  ","YEAR":2012,"DOING_BUSINESS_AS_NAME":"HAPPY FOODS","POP_AT_RISK":19740,"BUSINESS_TYPE":"Package Goods","LEGAL_NAME":"HAPPY FOODS, INC.","LONGITUDE":-87.81848575539418},
{"STATE":"IL","ZIP":60616,"LATTITUDE":41.852075574499366,"ADDRESS":"2233 S DR MARTIN LUTHER KING JR DR  ","YEAR":2012,"DOING_BUSINESS_AS_NAME":"HYATT REGENCY MCCORMICK PLACE HOTEL","POP_AT_RISK":35622,"BUSINESS_TYPE":"Package Goods","LEGAL_NAME":"HYATT CORPORATION","LONGITUDE":-87.61885080391755},
{"STATE":"IL","ZIP":60628,"LATTITUDE":41.67080641359029,"ADDRESS":"12258 S MICHIGAN AVE 1ST #","YEAR":2012,"DOING_BUSINESS_AS_NAME":"J & B LIQUORS INC","POP_AT_RISK":26253,"BUSINESS_TYPE":"Package Goods","LEGAL_NAME":"J & B LIQUORS INC","LONGITUDE":-87.62043825491395},
{"STATE":"IL","ZIP":60617,"LATTITUDE":41.71572434969255,"ADDRESS":"9901-9903 S EWING AVE  ","YEAR":2012,"DOING_BUSINESS_AS_NAME":"LA NACIONAL LIQUORS","POP_AT_RISK":15008,"BUSINESS_TYPE":"Package Goods","LEGAL_NAME":"LA NACIONAL, INC.","LONGITUDE":-87.5351299420226},
{"STATE":"IL","ZIP":60632,"LATTITUDE":41.799877878563336,"ADDRESS":"5114 S KNOX AVE  ","YEAR":2012,"DOING_BUSINESS_AS_NAME":"LIQUOR DEPOT","POP_AT_RISK":29168,"BUSINESS_TYPE":"Package Goods","LEGAL_NAME":"LIQUOR DEPOT, INC.","LONGITUDE":-87.73942146302164},
{"STATE":"IL","ZIP":60643,"LATTITUDE":41.678120412663034,"ADDRESS":"11840 S MARSHFIELD AVE 1 ","YEAR":2012,"DOING_BUSINESS_AS_NAME":"TARGET STORE #T-2344","POP_AT_RISK":25454,"BUSINESS_TYPE":"Package Goods","LEGAL_NAME":"TARGET CORPORATION","LONGITUDE":-87.66263902716186},
{"STATE":"IL","ZIP":60645,"LATTITUDE":42.01197715588615,"ADDRESS":"3150 W TOUHY AVE  ","YEAR":2012,"DOING_BUSINESS_AS_NAME":"NEW YORK PANTRY","POP_AT_RISK":37841,"BUSINESS_TYPE":"Package Goods","LEGAL_NAME":"RADHESHYAM FOODS, INC.","LONGITUDE":-87.70867163416553},
{"STATE":"IL","ZIP":60827,"LATTITUDE":41.65197281855635,"ADDRESS":"13355 S INDIANA AVE  ","YEAR":2012,"DOING_BUSINESS_AS_NAME":"KEY FOOD LIQUOR","POP_AT_RISK":5714,"BUSINESS_TYPE":"Package Goods","LEGAL_NAME":"KEY FOOD & LIQUOR, INC.","LONGITUDE":-87.61708373629855},
{"STATE":"IL","ZIP":60644,"LATTITUDE":41.874620484855676,"ADDRESS":"5575 W VAN BUREN ST  ","YEAR":2012,"DOING_BUSINESS_AS_NAME":"VAN-CENTRAL FOOD & LIQUOR","POP_AT_RISK":134529,"BUSINESS_TYPE":"Package Goods","LEGAL_NAME":"DAR-RAF FOOD & LIQUOR INC","LONGITUDE":-87.76450473922907},
{"STATE":"IL","ZIP":60623,"LATTITUDE":41.85132422344611,"ADDRESS":"4265 W CERMAK RD  ","YEAR":2012,"DOING_BUSINESS_AS_NAME":"FERAS FOOD & LIQUOR, INC.","POP_AT_RISK":56213,"BUSINESS_TYPE":"Package Goods","LEGAL_NAME":"FERAS FOOD & LIQUOR, INC.","LONGITUDE":-87.73219217780218},
{"STATE":"IL","ZIP":60652,"LATTITUDE":41.73524227693795,"ADDRESS":"8639 S CICERO AVE  ","YEAR":2012,"DOING_BUSINESS_AS_NAME":"CVS\/PHARMACY #2846","POP_AT_RISK":23923,"BUSINESS_TYPE":"Package Goods","LEGAL_NAME":"HIGHLAND PARK CVS, L.L.C.","LONGITUDE":-87.74084401681829},
{"STATE":"IL","ZIP":60628,"LATTITUDE":41.69263068307841,"ADDRESS":"407-409 E 111TH ST 1 ","YEAR":2012,"DOING_BUSINESS_AS_NAME":"QUICK STOP FOOD & LIQUOR MART, INC.","POP_AT_RISK":26093,"BUSINESS_TYPE":"Package Goods","LEGAL_NAME":"QUICK STOP FOOD & LIQUOR MART, INC.","LONGITUDE":-87.61306073659428},
{"STATE":"IL","ZIP":60628,"LATTITUDE":41.6919240926713,"ADDRESS":"11112 S HALSTED ST 1ST ","YEAR":2012,"DOING_BUSINESS_AS_NAME":"SHELDON LIQUORS","POP_AT_RISK":34675,"BUSINESS_TYPE":"Package Goods","LEGAL_NAME":"11112 South Halsted Street Corporation","LONGITUDE":-87.64251437633585},
}