{
{"STATE":"IL","ZIP":60616,"LATTITUDE":41.85227141362745,"ADDRESS":"214 W 22ND PL  ","YEAR":2009,"DOING_BUSINESS_AS_NAME":"CHINATOWN SRO","POP_AT_RISK":220312,"BUSINESS_TYPE":"Single Room Occupancy Class II","LEGAL_NAME":"JINGYUAN MA","LONGITUDE":-87.63265458116392},
{"STATE":"IL","ZIP":60660,"LATTITUDE":41.99152375198838,"ADDRESS":"6019 N WINTHROP AVE  ","YEAR":2009,"DOING_BUSINESS_AS_NAME":"THE WINDALE HOTEL","POP_AT_RISK":1059912,"BUSINESS_TYPE":"Single Room Occupancy Class II","LEGAL_NAME":"WINDALE LLC","LONGITUDE":-87.6581138202043},
{"STATE":"IL","ZIP":60609,"LATTITUDE":41.80850909523564,"ADDRESS":"1535 W 47TH ST  ","YEAR":2009,"DOING_BUSINESS_AS_NAME":"ASHLAND HOTEL","POP_AT_RISK":302360,"BUSINESS_TYPE":"Single Room Occupancy Class II","LEGAL_NAME":"CHROMCOR CORP","LONGITUDE":-87.66387725815235},
{"STATE":"IL","ZIP":60612,"LATTITUDE":41.88276730057428,"ADDRESS":"2847 W WASHINGTON BLVD  ","YEAR":2009,"DOING_BUSINESS_AS_NAME":"NEW PARIE HOTEL","POP_AT_RISK":129548,"BUSINESS_TYPE":"Single Room Occupancy Class II","LEGAL_NAME":"YJS CORPORATION","LONGITUDE":-87.69825995386356},
{"STATE":"IL","ZIP":60657,"LATTITUDE":41.939787891996076,"ADDRESS":"1632 W BELMONT AVE  1","YEAR":2009,"DOING_BUSINESS_AS_NAME":"AMBERS HOTEL INC","POP_AT_RISK":66735,"BUSINESS_TYPE":"Single Room Occupancy Class II","LEGAL_NAME":"AMBERS HOTEL, INC","LONGITUDE":-87.66999382152108},
{"STATE":"IL","ZIP":60653,"LATTITUDE":41.80954522041086,"ADDRESS":"518-524 E 47TH ST  ","YEAR":2009,"DOING_BUSINESS_AS_NAME":"CENTRAL ARMS HOTEL","POP_AT_RISK":339876,"BUSINESS_TYPE":"Single Room Occupancy Class II","LEGAL_NAME":"S & M Corporation","LONGITUDE":-87.61311258190041},
{"STATE":"IL","ZIP":60633,"LATTITUDE":41.64880003361173,"ADDRESS":"13536 S BRANDON AVE  ","YEAR":2009,"DOING_BUSINESS_AS_NAME":"D & D PROPERTIES","POP_AT_RISK":4206,"BUSINESS_TYPE":"Single Room Occupancy Class II","LEGAL_NAME":"DAVID G. SCHONBACK","LONGITUDE":-87.5460785908958},
{"STATE":"IL","ZIP":60626,"LATTITUDE":42.02126473923971,"ADDRESS":"1600 W JONQUIL TER  1ST","YEAR":2009,"DOING_BUSINESS_AS_NAME":"JONQUIL HOTEL","POP_AT_RISK":575399,"BUSINESS_TYPE":"Single Room Occupancy Class II","LEGAL_NAME":"GOOD NEWS PARTNERS","LONGITUDE":-87.67077605650071},
{"STATE":"IL","ZIP":60615,"LATTITUDE":41.80316235690915,"ADDRESS":"5020 S MICHIGAN AVE  ","YEAR":2009,"DOING_BUSINESS_AS_NAME":"HELENA HOUSE CORP","POP_AT_RISK":53038,"BUSINESS_TYPE":"Single Room Occupancy Class II","LEGAL_NAME":"HELENA HOUSE CORP.","LONGITUDE":-87.62282420678241},
{"STATE":"IL","ZIP":60608,"LATTITUDE":41.85778641504873,"ADDRESS":"1327 W 18TH ST  ","YEAR":2009,"DOING_BUSINESS_AS_NAME":"LGS PROPERTIES INC","POP_AT_RISK":400840,"BUSINESS_TYPE":"Single Room Occupancy Class II","LEGAL_NAME":"LGS PROPERTIES INC","LONGITUDE":-87.66004318971963},
{"STATE":"IL","ZIP":60651,"LATTITUDE":41.90840198981698,"ADDRESS":"1508 N PULASKI RD  ","YEAR":2009,"DOING_BUSINESS_AS_NAME":"NORFORD HOTEL INC SRO","POP_AT_RISK":787416,"BUSINESS_TYPE":"Single Room Occupancy Class II","LEGAL_NAME":"NORFORD HOTEL, INC","LONGITUDE":-87.72661887512912},
{"STATE":"IL","ZIP":60647,"LATTITUDE":41.91091601997205,"ADDRESS":"1622 N CALIFORNIA AVE  ","YEAR":2009,"DOING_BUSINESS_AS_NAME":"AMBIT MANAGEMENT INC","POP_AT_RISK":1639279,"BUSINESS_TYPE":"Single Room Occupancy Class II","LEGAL_NAME":"AMBIT MANAGEMENT INC","LONGITUDE":-87.69715787142907},
{"STATE":"IL","ZIP":60613,"LATTITUDE":41.95237689006099,"ADDRESS":"3838 N BROADWAY   1","YEAR":2009,"DOING_BUSINESS_AS_NAME":"CHATEAU HOTEL","POP_AT_RISK":436908,"BUSINESS_TYPE":"Single Room Occupancy Class II","LEGAL_NAME":"ARBAS INVESTMENTS LP","LONGITUDE":-87.64978858011082},
{"STATE":"IL","ZIP":60612,"LATTITUDE":41.87726564921276,"ADDRESS":"3001 W JACKSON BLVD  ","YEAR":2009,"DOING_BUSINESS_AS_NAME":"J.R. PLAZA II, INC\/SRO","POP_AT_RISK":121196,"BUSINESS_TYPE":"Single Room Occupancy Class II","LEGAL_NAME":"J.R. PLAZA II, INC\/SRO","LONGITUDE":-87.70116563047536},
{"STATE":"IL","ZIP":60624,"LATTITUDE":41.88178632184437,"ADDRESS":"4507 W WASHINGTON BLVD 1ST ","YEAR":2009,"DOING_BUSINESS_AS_NAME":"J.R'S PLAZA HOTEL, INC","POP_AT_RISK":492840,"BUSINESS_TYPE":"Single Room Occupancy Class II","LEGAL_NAME":"J.R. S PLAZA HOTEL INC","LONGITUDE":-87.73831162413308},
{"STATE":"IL","ZIP":60641,"LATTITUDE":41.93933877328408,"ADDRESS":"3216 N CICERO AVE  1","YEAR":2009,"DOING_BUSINESS_AS_NAME":"ELINOR HOTEL","POP_AT_RISK":609165,"BUSINESS_TYPE":"Single Room Occupancy Class II","LEGAL_NAME":"ELINOR BUILDING CORPORATION","LONGITUDE":-87.74702542193674},
{"STATE":"IL","ZIP":60657,"LATTITUDE":41.939894423424015,"ADDRESS":"721 W BELMONT AVE  1","YEAR":2009,"DOING_BUSINESS_AS_NAME":"ABBOTT HOTEL","POP_AT_RISK":852660,"BUSINESS_TYPE":"Single Room Occupancy Class II","LEGAL_NAME":"ABBOTT HOTEL AN ILL LIM. PTR.","LONGITUDE":-87.64770839776645},
{"STATE":"IL","ZIP":60610,"LATTITUDE":41.91067843482093,"ADDRESS":"1552-1554 N LA SALLE ST  ","YEAR":2009,"DOING_BUSINESS_AS_NAME":"LA SALLE STREET APARTMENTS LLC","POP_AT_RISK":1168002,"BUSINESS_TYPE":"Single Room Occupancy Class II","LEGAL_NAME":"LA SALLE STREET APARTMENTS LLC","LONGITUDE":-87.63328092009478},
{"STATE":"IL","ZIP":60657,"LATTITUDE":41.94250189439251,"ADDRESS":"3333 N MARSHFIELD AVE  ","YEAR":2009,"DOING_BUSINESS_AS_NAME":"LAKEVIEW YMCA","POP_AT_RISK":66897,"BUSINESS_TYPE":"Single Room Occupancy Class II","LEGAL_NAME":"YOUNG MEN'S CHRISTIAN ASSOCIATION OF CHICAGO","LONGITUDE":-87.66981263650848},
{"STATE":"IL","ZIP":60644,"LATTITUDE":41.889383638320616,"ADDRESS":"501 N CENTRAL AVE  ","YEAR":2009,"DOING_BUSINESS_AS_NAME":"AUSTIN YMCA\/SRO","POP_AT_RISK":559160,"BUSINESS_TYPE":"Single Room Occupancy Class II","LEGAL_NAME":"YOUNG MEN'S CHRISTIAN ASSOCIATION OF CHICAGO","LONGITUDE":-87.76503865254902},
{"STATE":"IL","ZIP":60641,"LATTITUDE":41.95346159066912,"ADDRESS":"4251 W IRVING PARK RD  ","YEAR":2009,"DOING_BUSINESS_AS_NAME":"IRVING PARK YMCA SRO","POP_AT_RISK":183552,"BUSINESS_TYPE":"Single Room Occupancy Class II","LEGAL_NAME":"YOUNG MEN'S CHRISTIAN ASSOCIATION OF CHICAGO","LONGITUDE":-87.73450694481177},
{"STATE":"IL","ZIP":60609,"LATTITUDE":41.8107813033463,"ADDRESS":"4559 S HALSTED ST  ","YEAR":2009,"DOING_BUSINESS_AS_NAME":"4559 HALSTED ST BUILDING COMPANY","POP_AT_RISK":61113,"BUSINESS_TYPE":"Single Room Occupancy Class II","LEGAL_NAME":"4559 HALSTEAD STREET BUILDING COMPANY, L.L.C.","LONGITUDE":-87.64544030036262},
}