{
{"STATE":"IL","ZIP":60609,"LATTITUDE":41.81944142629576,"ADDRESS":"4100 S ASHLAND AVE  ","YEAR":2013,"DOING_BUSINESS_AS_NAME":"JUAN G. ALATRIZ","POP_AT_RISK":40680,"BUSINESS_TYPE":"Electronic Equipment Repair","LEGAL_NAME":"JUAN G ALATRIZ","LONGITUDE":-87.6653755449091},
{"STATE":"IL","ZIP":60707,"LATTITUDE":41.930925280034046,"ADDRESS":"7006 W DIVERSEY AVE  ","YEAR":2013,"DOING_BUSINESS_AS_NAME":"J & J SPEAKER REPAIR","POP_AT_RISK":195300,"BUSINESS_TYPE":"Electronic Equipment Repair","LEGAL_NAME":"SHARON MROWIEC","LONGITUDE":-87.80130968986973},
{"STATE":"IL","ZIP":60659,"LATTITUDE":41.99409854690068,"ADDRESS":"6165 N LINCOLN AVE 1ST ","YEAR":2013,"DOING_BUSINESS_AS_NAME":"OFFICE DEPOT #199","POP_AT_RISK":336248,"BUSINESS_TYPE":"Electronic Equipment Repair","LEGAL_NAME":"OFFICE DEPOT, INC.","LONGITUDE":-87.71318065832182},
{"STATE":"IL","ZIP":60615,"LATTITUDE":41.79741567956419,"ADDRESS":"5420 S LAKE PARK AVE  1","YEAR":2013,"DOING_BUSINESS_AS_NAME":"OFFICE DEPOT #489","POP_AT_RISK":521055,"BUSINESS_TYPE":"Electronic Equipment Repair","LEGAL_NAME":"OFFICE DEPOT, INC.","LONGITUDE":-87.58740344613095},
{"STATE":"IL","ZIP":60707,"LATTITUDE":41.92355775559155,"ADDRESS":"6431 W FULLERTON AVE # 1","YEAR":2013,"DOING_BUSINESS_AS_NAME":"OFFICE DEPOT #503","POP_AT_RISK":389753,"BUSINESS_TYPE":"Electronic Equipment Repair","LEGAL_NAME":"OFFICE DEPOT, INC.","LONGITUDE":-87.78659186377055},
{"STATE":"IL","ZIP":60657,"LATTITUDE":41.93508780119828,"ADDRESS":"2928 N ASHLAND AVE  ","YEAR":2013,"DOING_BUSINESS_AS_NAME":"OFFICE DEPOT INC  #225","POP_AT_RISK":1534900,"BUSINESS_TYPE":"Electronic Equipment Repair","LEGAL_NAME":"OFFICE DEPOT, INC.","LONGITUDE":-87.66863991970202},
{"STATE":"IL","ZIP":60610,"LATTITUDE":41.90393760463335,"ADDRESS":"238 W DIVISION ST 1 ","YEAR":2013,"DOING_BUSINESS_AS_NAME":"SAMMY'S RED HOTS","POP_AT_RISK":875402,"BUSINESS_TYPE":"Electronic Equipment Repair","LEGAL_NAME":"DOG'S UNLIMITED LLC","LONGITUDE":-87.63621470016516},
{"STATE":"IL","ZIP":60632,"LATTITUDE":41.8152490366567,"ADDRESS":"4310 S ARCHER AVE  ","YEAR":2013,"DOING_BUSINESS_AS_NAME":"MAVI ELECTRONICS","POP_AT_RISK":501237,"BUSINESS_TYPE":"Electronic Equipment Repair","LEGAL_NAME":"MARIA ARACELI VIEYRA","LONGITUDE":-87.70258925986315},
{"STATE":"IL","ZIP":60607,"LATTITUDE":41.887832951483276,"ADDRESS":"345 N LOOMIS ST  ","YEAR":2013,"DOING_BUSINESS_AS_NAME":"VIC'S DRUM SHOP, LLC","POP_AT_RISK":190535,"BUSINESS_TYPE":"Electronic Equipment Repair","LEGAL_NAME":"VIC'S DRUM SHOP, LLC","LONGITUDE":-87.66237096468782},
{"STATE":"IL","ZIP":60609,"LATTITUDE":41.82486921777881,"ADDRESS":"1735 W 38TH ST  ","YEAR":2013,"DOING_BUSINESS_AS_NAME":"ACCURATE SCALE COMPANY","POP_AT_RISK":42540,"BUSINESS_TYPE":"Electronic Equipment Repair","LEGAL_NAME":"ACCURATE SCALE COMPANY","LONGITUDE":-87.66917864120714},
{"STATE":"IL","ZIP":60607,"LATTITUDE":41.885680002630124,"ADDRESS":"1016 W LAKE ST 1 ","YEAR":2013,"DOING_BUSINESS_AS_NAME":"ReVamp Electronics","POP_AT_RISK":42595,"BUSINESS_TYPE":"Electronic Equipment Repair","LEGAL_NAME":"ReVamp Electronics LLC","LONGITUDE":-87.6529013513384},
{"STATE":"IL","ZIP":60641,"LATTITUDE":41.96039321032277,"ADDRESS":"5517 W MONTROSE AVE 1ST ","YEAR":2013,"DOING_BUSINESS_AS_NAME":"LIVE SOUND AND LIGHTS","POP_AT_RISK":476070,"BUSINESS_TYPE":"Electronic Equipment Repair","LEGAL_NAME":"D'D SMART ENTERPRISES CORP.","LONGITUDE":-87.76551113382031},
}