{
{"STATE":"IL","ZIP":60640,"LATTITUDE":41.98327949189041,"ADDRESS":"5553-5557 N CLARK ST 1 ","YEAR":2015,"DOING_BUSINESS_AS_NAME":"ADRIATIC","POP_AT_RISK":464142,"BUSINESS_TYPE":"Outdoor Patio","LEGAL_NAME":"IVEKO INC.","LONGITUDE":-87.66856310731372},
{"STATE":"IL","ZIP":60626,"LATTITUDE":42.01890350707934,"ADDRESS":"7541-7545 N CLARK ST 1ST ","YEAR":2015,"DOING_BUSINESS_AS_NAME":"HARD WATER BAR & GRILL","POP_AT_RISK":625740,"BUSINESS_TYPE":"Outdoor Patio","LEGAL_NAME":"KEFALOS, INC.","LONGITUDE":-87.67595814790334},
{"STATE":"IL","ZIP":60613,"LATTITUDE":41.95300691072745,"ADDRESS":"3906-3908 N BROADWAY   ","YEAR":2015,"DOING_BUSINESS_AS_NAME":"EL MARIACHI RESTAURANT","POP_AT_RISK":149456,"BUSINESS_TYPE":"Outdoor Patio","LEGAL_NAME":"A. ESTRADA INC.","LONGITUDE":-87.64981007663842},
{"STATE":"IL","ZIP":60646,"LATTITUDE":41.98498821695519,"ADDRESS":"5707 N CENTRAL AVE  ","YEAR":2015,"DOING_BUSINESS_AS_NAME":"COLLETTI'S RESTAURANT","POP_AT_RISK":151655,"BUSINESS_TYPE":"Outdoor Patio","LEGAL_NAME":"COLLETTIS, INC.","LONGITUDE":-87.76815296231939},
{"STATE":"IL","ZIP":60612,"LATTITUDE":41.86910773759604,"ADDRESS":"2322-2324 W TAYLOR ST  ","YEAR":2015,"DOING_BUSINESS_AS_NAME":"DAMENZO'S INC","POP_AT_RISK":255663,"BUSINESS_TYPE":"Outdoor Patio","LEGAL_NAME":"DAMENZO'S, INC.","LONGITUDE":-87.6845837581009},
{"STATE":"IL","ZIP":60655,"LATTITUDE":41.69150143605311,"ADDRESS":"3031 W 111TH ST 1 ","YEAR":2015,"DOING_BUSINESS_AS_NAME":"FAT TOMMY'S INC","POP_AT_RISK":42786,"BUSINESS_TYPE":"Outdoor Patio","LEGAL_NAME":"FAT TOMMY'S INC","LONGITUDE":-87.69723142718472},
{"STATE":"IL","ZIP":60615,"LATTITUDE":41.79492106897254,"ADDRESS":"1055 E 55TH ST  ","YEAR":2015,"DOING_BUSINESS_AS_NAME":"SEVEN TEN","POP_AT_RISK":319344,"BUSINESS_TYPE":"Outdoor Patio","LEGAL_NAME":"STRIKE TWO CORP.","LONGITUDE":-87.59985203106729},
{"STATE":"IL","ZIP":60616,"LATTITUDE":41.852075574499366,"ADDRESS":"2233 S DR MARTIN LUTHER KING JR DR  ","YEAR":2015,"DOING_BUSINESS_AS_NAME":"HYATT REGENCY MCCORMICK PLACE HOTEL","POP_AT_RISK":35622,"BUSINESS_TYPE":"Outdoor Patio","LEGAL_NAME":"HYATT CORPORATION","LONGITUDE":-87.61885080391755},
{"STATE":"IL","ZIP":60608,"LATTITUDE":41.8445312897657,"ADDRESS":"2701 S ELEANOR ST 1 ","YEAR":2015,"DOING_BUSINESS_AS_NAME":"THE DUCK INN","POP_AT_RISK":212240,"BUSINESS_TYPE":"Outdoor Patio","LEGAL_NAME":"THE DUCK INN, LLC","LONGITUDE":-87.66011645213311},
{"STATE":"IL","ZIP":60628,"LATTITUDE":41.69475452654066,"ADDRESS":"11001 S DOTY AVE  ","YEAR":2015,"DOING_BUSINESS_AS_NAME":"HARBORSIDE INTERNATIONAL GOLF CENTER & PIER 37 BAR & GRILLE","POP_AT_RISK":7362,"BUSINESS_TYPE":"Outdoor Patio","LEGAL_NAME":"KS HARBORSIDE, LLC","LONGITUDE":-87.5961860043188},
{"STATE":"IL","ZIP":60647,"LATTITUDE":41.92749257880225,"ADDRESS":"2535 N MILWAUKEE AVE  ","YEAR":2015,"DOING_BUSINESS_AS_NAME":"ROCKING HORSE","POP_AT_RISK":70629,"BUSINESS_TYPE":"Outdoor Patio","LEGAL_NAME":"WEB IN FRONT, INC.","LONGITUDE":-87.70459703958609},
{"STATE":"IL","ZIP":60622,"LATTITUDE":41.895543708081156,"ADDRESS":"2801 W CHICAGO AVE 1&2 ","YEAR":2015,"DOING_BUSINESS_AS_NAME":"THE CONTINENTAL LOUNGE","POP_AT_RISK":127392,"BUSINESS_TYPE":"Outdoor Patio","LEGAL_NAME":"WESTSIDE RAIL, INC.","LONGITUDE":-87.69676464023073},
{"STATE":"IL","ZIP":60616,"LATTITUDE":41.83832850207603,"ADDRESS":"234-236 W 31ST ST  ","YEAR":2015,"DOING_BUSINESS_AS_NAME":"ROCKY'S","POP_AT_RISK":184475,"BUSINESS_TYPE":"Outdoor Patio","LEGAL_NAME":"234 W. 31ST ST., INC.","LONGITUDE":-87.63303201861649},
{"STATE":"IL","ZIP":60646,"LATTITUDE":41.9935432170097,"ADDRESS":"6154 N MILWAUKEE AVE 1-2 ","YEAR":2015,"DOING_BUSINESS_AS_NAME":"THE GARAGE BAR & SANDWICHES","POP_AT_RISK":21514,"BUSINESS_TYPE":"Outdoor Patio","LEGAL_NAME":"6154 RESTAURANT, INC.","LONGITUDE":-87.78443474169619},
{"STATE":"IL","ZIP":60660,"LATTITUDE":41.99802474346836,"ADDRESS":"1401-1405 W DEVON AVE 1 ","YEAR":2015,"DOING_BUSINESS_AS_NAME":"UNCOMMON GROUND","POP_AT_RISK":544964,"BUSINESS_TYPE":"Outdoor Patio","LEGAL_NAME":"UNCOMMON GROUND, INC.","LONGITUDE":-87.66556345762727},
{"STATE":"IL","ZIP":60631,"LATTITUDE":41.99148225930689,"ADDRESS":"6064-6070 N NORTHWEST HWY 1 ","YEAR":2015,"DOING_BUSINESS_AS_NAME":"MO DAILEY'S PUB & GRILLE","POP_AT_RISK":46142,"BUSINESS_TYPE":"Outdoor Patio","LEGAL_NAME":"CREAMER & DAILEY, INC.","LONGITUDE":-87.7978116394828},
{"STATE":"IL","ZIP":60647,"LATTITUDE":41.921843480757985,"ADDRESS":"2204-2206 N CALIFORNIA AVE 1ST & LL ","YEAR":2015,"DOING_BUSINESS_AS_NAME":"MASADA","POP_AT_RISK":69804,"BUSINESS_TYPE":"Outdoor Patio","LEGAL_NAME":"MASADA OF CHICAGO INC.","LONGITUDE":-87.69747206860472},
{"STATE":"IL","ZIP":60655,"LATTITUDE":41.70582355306317,"ADDRESS":"3901 W 103RD ST  ","YEAR":2015,"DOING_BUSINESS_AS_NAME":"GILHOOLEY'S GRANDE SALOON","POP_AT_RISK":91208,"BUSINESS_TYPE":"Outdoor Patio","LEGAL_NAME":"COMPASS GROUP USA, INC.","LONGITUDE":-87.71853994620498},
{"STATE":"IL","ZIP":60618,"LATTITUDE":41.946639592877055,"ADDRESS":"3454 W ADDISON ST 1ST ","YEAR":2015,"DOING_BUSINESS_AS_NAME":"Mirabell Restaurant","POP_AT_RISK":134656,"BUSINESS_TYPE":"Outdoor Patio","LEGAL_NAME":"MIRABELL RESTAURANT, INC.","LONGITUDE":-87.71494918308186},
{"STATE":"IL","ZIP":60638,"LATTITUDE":41.79812662454975,"ADDRESS":"5518 S ARCHER AVE 1ST D","YEAR":2015,"DOING_BUSINESS_AS_NAME":"BOHICA BAR AND GRILL","POP_AT_RISK":182152,"BUSINESS_TYPE":"Outdoor Patio","LEGAL_NAME":"BOHICA BAR AND GRILL, INC.","LONGITUDE":-87.74741651396842},
{"STATE":"IL","ZIP":60638,"LATTITUDE":41.792013747165264,"ADDRESS":"6843 W ARCHER AVE  ","YEAR":2015,"DOING_BUSINESS_AS_NAME":"BOBBY G'S","POP_AT_RISK":75188,"BUSINESS_TYPE":"Outdoor Patio","LEGAL_NAME":"GRANAT'S FIRST COUNT, INC.","LONGITUDE":-87.79327642871685},
{"STATE":"IL","ZIP":60641,"LATTITUDE":41.95333499661926,"ADDRESS":"4657 W IRVING PARK RD 1 ","YEAR":2015,"DOING_BUSINESS_AS_NAME":"CHIPOTLE","POP_AT_RISK":474100,"BUSINESS_TYPE":"Outdoor Patio","LEGAL_NAME":"CHIPOTLE MEXICAN GRILL, INC.","LONGITUDE":-87.74486145809504},
{"STATE":"IL","ZIP":60637,"LATTITUDE":41.79518501605705,"ADDRESS":"5500 S SHORE DR 1ST ","YEAR":2015,"DOING_BUSINESS_AS_NAME":"BAR LOUIE","POP_AT_RISK":27340,"BUSINESS_TYPE":"Outdoor Patio","LEGAL_NAME":"BL RESTAURANT OPERATIONS, LLC","LONGITUDE":-87.58059777168157},
{"STATE":"IL","ZIP":60643,"LATTITUDE":41.70047177429385,"ADDRESS":"10612-10614 S WESTERN AVE 1 ","YEAR":2015,"DOING_BUSINESS_AS_NAME":"Cork And Kerry","POP_AT_RISK":107615,"BUSINESS_TYPE":"Outdoor Patio","LEGAL_NAME":"Chicago Pizza Department Corp.","LONGITUDE":-87.6815792920862},
{"STATE":"IL","ZIP":60631,"LATTITUDE":41.98740959681793,"ADDRESS":"8725 W HIGGINS RD  ","YEAR":2015,"DOING_BUSINESS_AS_NAME":"THE ORIGINAL GINO'S EAST","POP_AT_RISK":70592,"BUSINESS_TYPE":"Outdoor Patio","LEGAL_NAME":"PORT SILVER LIMITED PARTNERSHIP","LONGITUDE":-87.84438866503623},
}