{
{"STATE":"IL","ZIP":60614,"LATTITUDE":41.92489472540259,"ADDRESS":"2345 N SHEFFIELD AVE  GROUN","YEAR":2008,"DOING_BUSINESS_AS_NAME":"INTERPARK","POP_AT_RISK":66294,"BUSINESS_TYPE":"Accessory Garage","LEGAL_NAME":"INTERPARK LLC","LONGITUDE":-87.65344759280977},
{"STATE":"IL","ZIP":60616,"LATTITUDE":41.857792921043036,"ADDRESS":"1801 S WABASH AVE  ","YEAR":2008,"DOING_BUSINESS_AS_NAME":"THE STUDIOS","POP_AT_RISK":81396,"BUSINESS_TYPE":"Accessory Garage","LEGAL_NAME":"18TH & WABASH CORP","LONGITUDE":-87.62546236883539},
{"STATE":"IL","ZIP":60625,"LATTITUDE":41.96332407958265,"ADDRESS":"4501 N DAMEN AVE  ","YEAR":2008,"DOING_BUSINESS_AS_NAME":"STANDARD PARKING","POP_AT_RISK":675455,"BUSINESS_TYPE":"Accessory Garage","LEGAL_NAME":"SP PLUS CORPORATION","LONGITUDE":-87.67888358999184},
{"STATE":"IL","ZIP":60615,"LATTITUDE":41.808674171990155,"ADDRESS":"4800 S LAKE SHORE WEST DR  1","YEAR":2008,"DOING_BUSINESS_AS_NAME":"NEWPORT CONDOMINIUM GARAGE","POP_AT_RISK":176670,"BUSINESS_TYPE":"Accessory Garage","LEGAL_NAME":"SP PLUS CORPORATION","LONGITUDE":-87.58771708240786},
{"STATE":"IL","ZIP":60612,"LATTITUDE":41.86918399559772,"ADDRESS":"2108 W TAYLOR ST  ","YEAR":2008,"DOING_BUSINESS_AS_NAME":"MEDPARK MANAGEMENT INC","POP_AT_RISK":516015,"BUSINESS_TYPE":"Accessory Garage","LEGAL_NAME":"MEDPARK MANAGEMENT INC.","LONGITUDE":-87.67856708258655},
{"STATE":"IL","ZIP":60615,"LATTITUDE":41.803747257819744,"ADDRESS":"5020 S LAKE SHORE WEST DR 3RD ","YEAR":2008,"DOING_BUSINESS_AS_NAME":"REGENTS PARK PARKING, LLC","POP_AT_RISK":25682,"BUSINESS_TYPE":"Accessory Garage","LEGAL_NAME":"REGENTS PARK PARKING, LLC","LONGITUDE":-87.58220896761574},
{"STATE":"IL","ZIP":60626,"LATTITUDE":42.003676220369776,"ADDRESS":"6700 N GREENVIEW AVE  ","YEAR":2008,"DOING_BUSINESS_AS_NAME":"AMPCO SYSTEM PARKING, INC.","POP_AT_RISK":508585,"BUSINESS_TYPE":"Accessory Garage","LEGAL_NAME":"ABM PARKING SERVICES, INC.","LONGITUDE":-87.66826025653212},
{"STATE":"IL","ZIP":60622,"LATTITUDE":41.91095788287151,"ADDRESS":"938 W NORTH AVE  ","YEAR":2008,"DOING_BUSINESS_AS_NAME":"CPS PARKING","POP_AT_RISK":100260,"BUSINESS_TYPE":"Accessory Garage","LEGAL_NAME":"CENTRAL PARKING SYSTEM, INC.","LONGITUDE":-87.65263526491894},
{"STATE":"IL","ZIP":60613,"LATTITUDE":41.94909955903016,"ADDRESS":"3701-3709 N CLIFTON AVE 1 1","YEAR":2008,"DOING_BUSINESS_AS_NAME":"CHICAGO NATIONAL LEAGUE BALL CLUB, INC.","POP_AT_RISK":501618,"BUSINESS_TYPE":"Accessory Garage","LEGAL_NAME":"CHICAGO NATIONAL LEAGUE BALL CLUB, INC.","LONGITUDE":-87.65737052401707},
}