{
{"STATE":"IL","ZIP":60655,"LATTITUDE":41.69268209009699,"ADDRESS":"11023 S KEDZIE AVE 1ST ","YEAR":2012,"DOING_BUSINESS_AS_NAME":"49ER'S S.A.C.","POP_AT_RISK":64179,"BUSINESS_TYPE":"Not-For-Profit Club","LEGAL_NAME":"49ER'S S.A.C., INC.","LONGITUDE":-87.7007191247068},
{"STATE":"IL","ZIP":60638,"LATTITUDE":41.77724807588118,"ADDRESS":"5752 W 63RD PL  ","YEAR":2012,"DOING_BUSINESS_AS_NAME":"CLEARING MEN'S CLUB","POP_AT_RISK":56814,"BUSINESS_TYPE":"Not-For-Profit Club","LEGAL_NAME":"CLEARING MEN'S CLUB","LONGITUDE":-87.7662309969763},
{"STATE":"IL","ZIP":60652,"LATTITUDE":41.74048386093074,"ADDRESS":"8404 S KEDZIE AVE  ","YEAR":2012,"DOING_BUSINESS_AS_NAME":"GAELIC FIRE BRIGADE","POP_AT_RISK":83454,"BUSINESS_TYPE":"Not-For-Profit Club","LEGAL_NAME":"GAELIC FIRE BRIGADE","LONGITUDE":-87.70228691835008},
{"STATE":"IL","ZIP":60637,"LATTITUDE":41.79132500101073,"ADDRESS":"1155 E 57TH ST  ","YEAR":2012,"DOING_BUSINESS_AS_NAME":"THE QUADRANGLE CLUB","POP_AT_RISK":367994,"BUSINESS_TYPE":"Not-For-Profit Club","LEGAL_NAME":"THE QUADRANGLE CLUB","LONGITUDE":-87.5975876643505},
{"STATE":"IL","ZIP":60614,"LATTITUDE":41.93185531067448,"ADDRESS":"2732 N PINE GROVE AVE  1","YEAR":2012,"DOING_BUSINESS_AS_NAME":"LAKE VIEW MEN'S CLUB","POP_AT_RISK":140530,"BUSINESS_TYPE":"Not-For-Profit Club","LEGAL_NAME":"LAKE VIEW MEN'S CLUB","LONGITUDE":-87.64100632026567},
{"STATE":"IL","ZIP":60608,"LATTITUDE":41.84811678478677,"ADDRESS":"2408 S OAKLEY AVE  1","YEAR":2012,"DOING_BUSINESS_AS_NAME":"PO-PIEDMONT CLUB,INC","POP_AT_RISK":85212,"BUSINESS_TYPE":"Not-For-Profit Club","LEGAL_NAME":"PO-PIEDMONT CLUB,INC","LONGITUDE":-87.68323285389499},
{"STATE":"IL","ZIP":60639,"LATTITUDE":41.92949530063107,"ADDRESS":"2700 N CENTRAL AVE 1ST ","YEAR":2012,"DOING_BUSINESS_AS_NAME":"RAMALLAH AMERICAN CLUB","POP_AT_RISK":139010,"BUSINESS_TYPE":"Not-For-Profit Club","LEGAL_NAME":"RAMALLAH AMERICAN CLUB","LONGITUDE":-87.7663302984316},
{"STATE":"IL","ZIP":60638,"LATTITUDE":41.796040888991286,"ADDRESS":"5856 S ARCHER AVE 1ST ","YEAR":2012,"DOING_BUSINESS_AS_NAME":"MEMORIAL HALL CLUB","POP_AT_RISK":78196,"BUSINESS_TYPE":"Not-For-Profit Club","LEGAL_NAME":"RHINE POST #2729 V F W","LONGITUDE":-87.76097686915702},
{"STATE":"IL","ZIP":60641,"LATTITUDE":41.95343019934746,"ADDRESS":"5116 W IRVING PARK RD 1ST ","YEAR":2012,"DOING_BUSINESS_AS_NAME":"BILLY CALDWELL POST 806","POP_AT_RISK":158694,"BUSINESS_TYPE":"Not-For-Profit Club","LEGAL_NAME":"BILLY CALDWELL POST 806","LONGITUDE":-87.75538394063913},
{"STATE":"IL","ZIP":60605,"LATTITUDE":41.862306077461064,"ADDRESS":"1500 S LYNN WHITE DR 1ST ","YEAR":2012,"DOING_BUSINESS_AS_NAME":"BURNHAM PARK YACHT CLUB","POP_AT_RISK":20991,"BUSINESS_TYPE":"Not-For-Profit Club","LEGAL_NAME":"BURNHAM PARK YACHT CLUB","LONGITUDE":-87.60952224708733},
{"STATE":"IL","ZIP":60651,"LATTITUDE":41.89530190191307,"ADDRESS":"3803 W CHICAGO AVE  ","YEAR":2012,"DOING_BUSINESS_AS_NAME":"CHICAGO MIDNIGHT RIDERS","POP_AT_RISK":644826,"BUSINESS_TYPE":"Not-For-Profit Club","LEGAL_NAME":"CHICAGO MIDNIGHT RIDERS","LONGITUDE":-87.72134256022264},
{"STATE":"IL","ZIP":60618,"LATTITUDE":41.961152630145925,"ADDRESS":"4355 N WESTERN AVE 1ST ","YEAR":2012,"DOING_BUSINESS_AS_NAME":"TATTLER POST #973 AMER. LEGION","POP_AT_RISK":59826,"BUSINESS_TYPE":"Not-For-Profit Club","LEGAL_NAME":"TATTLER POST #973, INC.","LONGITUDE":-87.68853134020404},
{"STATE":"IL","ZIP":60622,"LATTITUDE":41.89591242187647,"ADDRESS":"2234 W CHICAGO AVE 1ST ","YEAR":2012,"DOING_BUSINESS_AS_NAME":"UKRAINIAN AMERICAN CLUB","POP_AT_RISK":286025,"BUSINESS_TYPE":"Not-For-Profit Club","LEGAL_NAME":"UKRAINIAN AMERICAN CLUB","LONGITUDE":-87.68336605865775},
{"STATE":"IL","ZIP":60617,"LATTITUDE":41.709478919734515,"ADDRESS":"4025 E 102ND ST 1ST ","YEAR":2012,"DOING_BUSINESS_AS_NAME":"CALUMET YACHT CLUB","POP_AT_RISK":16197,"BUSINESS_TYPE":"Not-For-Profit Club","LEGAL_NAME":"CALUMET YACHT CLUB, INC.","LONGITUDE":-87.52617357053239},
{"STATE":"IL","ZIP":60633,"LATTITUDE":41.653474248036915,"ADDRESS":"13304 S BALTIMORE AVE 1ST ","YEAR":2012,"DOING_BUSINESS_AS_NAME":"FRED SCHWEITZER POST 272","POP_AT_RISK":40896,"BUSINESS_TYPE":"Not-For-Profit Club","LEGAL_NAME":"FRED SCHWEITZER POST 272","LONGITUDE":-87.547296662549},
{"STATE":"IL","ZIP":60609,"LATTITUDE":41.815055029878444,"ADDRESS":"4325 S HONORE ST 1ST ","YEAR":2012,"DOING_BUSINESS_AS_NAME":"TOWN OF LAKE POST NO.5216","POP_AT_RISK":41379,"BUSINESS_TYPE":"Not-For-Profit Club","LEGAL_NAME":"TOWN OF LAKE POST #.5216","LONGITUDE":-87.6710668620222},
{"STATE":"IL","ZIP":60617,"LATTITUDE":41.720056611772875,"ADDRESS":"9629 S COMMERCIAL AVE 1ST ","YEAR":2012,"DOING_BUSINESS_AS_NAME":"THE CROATIAN CLUB","POP_AT_RISK":70996,"BUSINESS_TYPE":"Not-For-Profit Club","LEGAL_NAME":"BRANCH VITEZ RAFAEL BOBAN","LONGITUDE":-87.5508945422397},
{"STATE":"IL","ZIP":60618,"LATTITUDE":41.93596059560815,"ADDRESS":"3007 N KEDZIE AVE 1ST ","YEAR":2012,"DOING_BUSINESS_AS_NAME":"LOGAN-AVONDALE VFW #2978","POP_AT_RISK":57777,"BUSINESS_TYPE":"Not-For-Profit Club","LEGAL_NAME":"LOGAN-AVONDALE VFW # 2978","LONGITUDE":-87.70738908487385},
{"STATE":"IL","ZIP":60609,"LATTITUDE":41.8005474438464,"ADDRESS":"5118 S WESTERN AVE 1ST ","YEAR":2012,"DOING_BUSINESS_AS_NAME":"BLUE CONDORS PLEASURE CLUB","POP_AT_RISK":403072,"BUSINESS_TYPE":"Not-For-Profit Club","LEGAL_NAME":"BLUE CONDORS PLEASURE CLUB","LONGITUDE":-87.68435497673944},
{"STATE":"IL","ZIP":60707,"LATTITUDE":41.930943088114155,"ADDRESS":"6940 W DIVERSEY AVE POST #","YEAR":2012,"DOING_BUSINESS_AS_NAME":"MONT CLARE LEYDEN VETERANS","POP_AT_RISK":303219,"BUSINESS_TYPE":"Not-For-Profit Club","LEGAL_NAME":"MONT CLARE LETDEN VETERANS","LONGITUDE":-87.79959597372361},
{"STATE":"IL","ZIP":60610,"LATTITUDE":41.907636294514994,"ADDRESS":"1365 N DEARBORN ST  ","YEAR":2012,"DOING_BUSINESS_AS_NAME":"THE RACQUET CLUB OF CHICAGO","POP_AT_RISK":177261,"BUSINESS_TYPE":"Not-For-Profit Club","LEGAL_NAME":"THE RACQUET CLUB OF CHICAGO","LONGITUDE":-87.62995230434338},
{"STATE":"IL","ZIP":60638,"LATTITUDE":41.79212942932081,"ADDRESS":"7036 W ARCHER AVE  1","YEAR":2012,"DOING_BUSINESS_AS_NAME":"CROATION AMERICAN RADIO CLUB","POP_AT_RISK":75188,"BUSINESS_TYPE":"Not-For-Profit Club","LEGAL_NAME":"CROATION AMERICAN RADIO CLUB","LONGITUDE":-87.79797099475219},
{"STATE":"IL","ZIP":60613,"LATTITUDE":41.96192072373917,"ADDRESS":"601 W MONTROSE DR 1 ","YEAR":2012,"DOING_BUSINESS_AS_NAME":"CORINTHIAN YACHT CLUB","POP_AT_RISK":372822,"BUSINESS_TYPE":"Not-For-Profit Club","LEGAL_NAME":"CHICAGO CORINTHIAN YACHT CLUB","LONGITUDE":-87.6459095290921},
{"STATE":"IL","ZIP":60652,"LATTITUDE":41.75254293777205,"ADDRESS":"7733 S KEDZIE AVE  ","YEAR":2012,"DOING_BUSINESS_AS_NAME":"GARFIELD SOCIAL ATHLETIC CLUB","POP_AT_RISK":23017,"BUSINESS_TYPE":"Not-For-Profit Club","LEGAL_NAME":"GARFIELD SOCIAL ATHLETIC CLUB","LONGITUDE":-87.70232744145156},
{"STATE":"IL","ZIP":60618,"LATTITUDE":41.958649120186195,"ADDRESS":"4265 N ELSTON AVE  ","YEAR":2012,"DOING_BUSINESS_AS_NAME":"RHEINISCHER VEREIN, INC.","POP_AT_RISK":61558,"BUSINESS_TYPE":"Not-For-Profit Club","LEGAL_NAME":"RHEINISCHER VEREIN 1890, INC.","LONGITUDE":-87.72616954836586},
{"STATE":"IL","ZIP":60630,"LATTITUDE":41.963040740215355,"ADDRESS":"4526 N MILWAUKEE AVE  1ST","YEAR":2012,"DOING_BUSINESS_AS_NAME":"UNITED SERBS SPORT CLUB INC","POP_AT_RISK":44522,"BUSINESS_TYPE":"Not-For-Profit Club","LEGAL_NAME":"UNITED SERBS SPORT CLUB, INC.","LONGITUDE":-87.75673994572672},
{"STATE":"IL","ZIP":60609,"LATTITUDE":41.80906805837132,"ADDRESS":"552 W 47TH ST 1ST ","YEAR":2012,"DOING_BUSINESS_AS_NAME":"FLAGS SOCIAL & ATHLETIC CLUB","POP_AT_RISK":42782,"BUSINESS_TYPE":"Not-For-Profit Club","LEGAL_NAME":"'FLAGS' SOCIAL & ATHLETIC CLUB","LONGITUDE":-87.64033287979429},
{"STATE":"IL","ZIP":60655,"LATTITUDE":41.69158385086208,"ADDRESS":"3422 W 111TH ST 1ST ","YEAR":2012,"DOING_BUSINESS_AS_NAME":"FATHER PEREZ K OF C CLUB HOUSE","POP_AT_RISK":50040,"BUSINESS_TYPE":"Not-For-Profit Club","LEGAL_NAME":"FATHER PEREZ K OF C CLUB HOUSE","LONGITUDE":-87.70671869760828},
{"STATE":"IL","ZIP":60630,"LATTITUDE":41.965242580480265,"ADDRESS":"4626 N KNOX AVE  ","YEAR":2012,"DOING_BUSINESS_AS_NAME":"IRISH AMERICAN HERITAGE CENTER","POP_AT_RISK":93050,"BUSINESS_TYPE":"Not-For-Profit Club","LEGAL_NAME":"IRISH AMERICAN HERITAGE CENTER","LONGITUDE":-87.74411673243358},
{"STATE":"IL","ZIP":60614,"LATTITUDE":41.92969939473651,"ADDRESS":"2633 N MARSHFIELD AVE 1ST ","YEAR":2012,"DOING_BUSINESS_AS_NAME":"MCWHINNEY BENEVOLENT ASSN","POP_AT_RISK":177420,"BUSINESS_TYPE":"Not-For-Profit Club","LEGAL_NAME":"MCWHINNEY BENEVOLENT ASSOCIATION","LONGITUDE":-87.66937304284063},
{"STATE":"IL","ZIP":60643,"LATTITUDE":41.68496429743599,"ADDRESS":"1462 W 115TH ST  ","YEAR":2012,"DOING_BUSINESS_AS_NAME":"CHICAGO EXECUTIVE GOLF CLUB","POP_AT_RISK":140922,"BUSINESS_TYPE":"Not-For-Profit Club","LEGAL_NAME":"CHICAGO EXECUTIVE GOLF CLUB, INC.","LONGITUDE":-87.65913315155088},
{"STATE":"IL","ZIP":60621,"LATTITUDE":41.766803676079526,"ADDRESS":"7011-7019 S VINCENNES AVE 1 ","YEAR":2012,"DOING_BUSINESS_AS_NAME":"MONTFORD POINT MARINE ASSOCIATION","POP_AT_RISK":249249,"BUSINESS_TYPE":"Not-For-Profit Club","LEGAL_NAME":"MONTFORD POINT MARINE ASSOCIATION","LONGITUDE":-87.62713084194895},
{"STATE":"IL","ZIP":60629,"LATTITUDE":41.7786358443092,"ADDRESS":"3743-3745 W 63RD ST  ","YEAR":2012,"DOING_BUSINESS_AS_NAME":"CONNOLLY VICTORY POST 3940","POP_AT_RISK":158322,"BUSINESS_TYPE":"Not-For-Profit Club","LEGAL_NAME":"JOHN E. CONNOLLY VICTORY POST 3940","LONGITUDE":-87.71711994134817},
{"STATE":"IL","ZIP":60657,"LATTITUDE":41.93781762099503,"ADDRESS":"448 W BARRY AVE  ","YEAR":2012,"DOING_BUSINESS_AS_NAME":"SERBIAN-AMERICAN MUSEUM - ST. SAVA","POP_AT_RISK":143252,"BUSINESS_TYPE":"Not-For-Profit Club","LEGAL_NAME":"SERBIAN-AMERICAN MUSEUM - ST. SAVA","LONGITUDE":-87.64127427161051},
{"STATE":"IL","ZIP":60622,"LATTITUDE":41.89560945124529,"ADDRESS":"2455 W CHICAGO AVE  1ST","YEAR":2012,"DOING_BUSINESS_AS_NAME":"AMERICAN UKRAINIAN YOUTH ASSOCIATION","POP_AT_RISK":183680,"BUSINESS_TYPE":"Not-For-Profit Club","LEGAL_NAME":"AMERICAN UKRAINIAN YOUTH ASSOCIATION","LONGITUDE":-87.68902909242446},
{"STATE":"IL","ZIP":60647,"LATTITUDE":41.924971739368274,"ADDRESS":"2538 W FULLERTON AVE  ","YEAR":2012,"DOING_BUSINESS_AS_NAME":"THE NORTH SIDE CONCOURSE ASSOCIATION","POP_AT_RISK":185718,"BUSINESS_TYPE":"Not-For-Profit Club","LEGAL_NAME":"THE NORTH SIDE CONCOURSE ASSOCIATION","LONGITUDE":-87.69170629891669},
{"STATE":"IL","ZIP":60629,"LATTITUDE":41.7749649984353,"ADDRESS":"6500 S PULASKI RD 1 ","YEAR":2012,"DOING_BUSINESS_AS_NAME":"BALZEKAS MUSEUM OF LITHUANIAN","POP_AT_RISK":93130,"BUSINESS_TYPE":"Not-For-Profit Club","LEGAL_NAME":"BALZEKAS MUSEUM OF LITHUANIAN CULTURE","LONGITUDE":-87.72281222681525},
{"STATE":"IL","ZIP":60608,"LATTITUDE":41.852009133719456,"ADDRESS":"2129 W CERMAK RD  2","YEAR":2012,"DOING_BUSINESS_AS_NAME":"DORMAN-DUNN POST #547 AMERICAN LEGION","POP_AT_RISK":70986,"BUSINESS_TYPE":"Not-For-Profit Club","LEGAL_NAME":"DORMAN-DUNN POST #547 AMERICAN LEGION","LONGITUDE":-87.67947655907231},
{"STATE":"IL","ZIP":60647,"LATTITUDE":41.92452430429734,"ADDRESS":"3517-3519 W FULLERTON AVE 1ST ","YEAR":2012,"DOING_BUSINESS_AS_NAME":"LATIN AMERICAN MOTORCYCLE ASSOCIATION","POP_AT_RISK":783750,"BUSINESS_TYPE":"Not-For-Profit Club","LEGAL_NAME":"LATIN AMERICAN MOTORCYCLE ASSOCIATION","LONGITUDE":-87.7145086554189},
{"STATE":"IL","ZIP":60623,"LATTITUDE":41.842572203498484,"ADDRESS":"2658 S HAMLIN AVE 1ST ","YEAR":2012,"DOING_BUSINESS_AS_NAME":"MANUEL PEREZ JR POST 1017","POP_AT_RISK":447286,"BUSINESS_TYPE":"Not-For-Profit Club","LEGAL_NAME":"AMERICAN LEGION MANUEL PEREZ POST 1017","LONGITUDE":-87.71977292662096},
{"STATE":"IL","ZIP":60608,"LATTITUDE":41.836070809424726,"ADDRESS":"3200 S MAY ST  5079","YEAR":2012,"DOING_BUSINESS_AS_NAME":"CHICAGO BRIDGEPORT VFW POST","POP_AT_RISK":41183,"BUSINESS_TYPE":"Not-For-Profit Club","LEGAL_NAME":"CHICAGO-BRIDGEPORT CANTEEN - VFW #5079","LONGITUDE":-87.65489661235947},
{"STATE":"IL","ZIP":60619,"LATTITUDE":41.75916817600598,"ADDRESS":"7443 S INGLESIDE AVE  BANQU","YEAR":2012,"DOING_BUSINESS_AS_NAME":"MOST WORSHIPFUL ST. JOHN'S  GRAND LODGE","POP_AT_RISK":77482,"BUSINESS_TYPE":"Not-For-Profit Club","LEGAL_NAME":"MOST WORSHIPFUL ST. JOHN'S GRAND LODGE","LONGITUDE":-87.60159143984758},
{"STATE":"IL","ZIP":60616,"LATTITUDE":41.83654376132184,"ADDRESS":"3152 S WALLACE ST 1ST ","YEAR":2012,"DOING_BUSINESS_AS_NAME":"MARK WHITE SQUARE POST 6870","POP_AT_RISK":272699,"BUSINESS_TYPE":"Not-For-Profit Club","LEGAL_NAME":"MARK WHITE SQUARE POST #6870 V.F.W. INC.","LONGITUDE":-87.64152154553862},
{"STATE":"IL","ZIP":60659,"LATTITUDE":41.99741971500812,"ADDRESS":"2845 W DEVON AVE 1ST ","YEAR":2012,"DOING_BUSINESS_AS_NAME":"CROATIAN CULTURAL CENTER OF CHICAGO","POP_AT_RISK":521199,"BUSINESS_TYPE":"Not-For-Profit Club","LEGAL_NAME":"CROATIAN CULTURAL CENTER OF CHICAGO, INC.","LONGITUDE":-87.70142268157917},
{"STATE":"IL","ZIP":60631,"LATTITUDE":42.00036552780774,"ADDRESS":"6540 N MILWAUKEE AVE  ","YEAR":2012,"DOING_BUSINESS_AS_NAME":"AMERICAN AID SOCIETY","POP_AT_RISK":80764,"BUSINESS_TYPE":"Not-For-Profit Club","LEGAL_NAME":"AMERICAN AID SOCIETY OF GERMAN DESCENDANTS","LONGITUDE":-87.79079496182301},
{"STATE":"IL","ZIP":60660,"LATTITUDE":41.99817263576234,"ADDRESS":"1618 W DEVON AVE 1 ","YEAR":2012,"DOING_BUSINESS_AS_NAME":"ASSYRIAN AMERICAN ASSOCIATION","POP_AT_RISK":1293280,"BUSINESS_TYPE":"Not-For-Profit Club","LEGAL_NAME":"ASSYRIAN AMERICAN ASSOCIATION OF CHICAGO, INC.","LONGITUDE":-87.6714211436461},
{"STATE":"IL","ZIP":60609,"LATTITUDE":41.830502048736825,"ADDRESS":"1954-1956 W 35TH ST 1ST ","YEAR":2012,"DOING_BUSINESS_AS_NAME":"The American Legion William McKinley Post No. 231","POP_AT_RISK":24259,"BUSINESS_TYPE":"Not-For-Profit Club","LEGAL_NAME":"The American Legion William McKinley Post No. 231","LONGITUDE":-87.67505256395896},
{"STATE":"IL","ZIP":60617,"LATTITUDE":41.70430239111159,"ADDRESS":"10506 S EWING AVE 1ST ","YEAR":2012,"DOING_BUSINESS_AS_NAME":"ILLIANA POST#220 AMERICA LEGN","POP_AT_RISK":21953,"BUSINESS_TYPE":"Not-For-Profit Club","LEGAL_NAME":"ILLIANA POST#220 AMERICAN LEGION OF ILLINOIS, INC.","LONGITUDE":-87.53543089409116},
{"STATE":"IL","ZIP":60632,"LATTITUDE":41.81557446590892,"ADDRESS":"2417 W POPE JOHN PAUL II DR 1ST ","YEAR":2012,"DOING_BUSINESS_AS_NAME":"NAT'L GUARD OF LITHUANIA","POP_AT_RISK":149019,"BUSINESS_TYPE":"Not-For-Profit Club","LEGAL_NAME":"The National Guard of Lithuania in Exile, Incorporated","LONGITUDE":-87.68545482225427},
{"STATE":"IL","ZIP":60639,"LATTITUDE":41.93107933281035,"ADDRESS":"5835 W DIVERSEY AVE 1ST ","YEAR":2012,"DOING_BUSINESS_AS_NAME":"ALLIANCE OF POLISH CLUBS IN THE UNITED STATES OFAMERICA","POP_AT_RISK":65209,"BUSINESS_TYPE":"Not-For-Profit Club","LEGAL_NAME":"ALLIANCE OF POLISH CLUBS IN THE UNITED STATES OF AMERICA","LONGITUDE":-87.7725354748207},
{"STATE":"IL","ZIP":60622,"LATTITUDE":41.91611821313358,"ADDRESS":"1824 W CORTLAND ST BASEM ","YEAR":2012,"DOING_BUSINESS_AS_NAME":"FRANKLIN D ROOSEVELT POST 923","POP_AT_RISK":339402,"BUSINESS_TYPE":"Not-For-Profit Club","LEGAL_NAME":"FRANKLIN DELANO ROOSEVELT POST, INC.,NO. 923, AMERICAN LEGION","LONGITUDE":-87.6737900661716},
{"STATE":"IL","ZIP":60621,"LATTITUDE":41.78965273234417,"ADDRESS":"5745 S STATE ST 1ST ","YEAR":2012,"DOING_BUSINESS_AS_NAME":"GEORGE L GILES POST #87","POP_AT_RISK":71964,"BUSINESS_TYPE":"Not-For-Profit Club","LEGAL_NAME":"GEORGE L. GILES POST NO. 87 THE AMERICAN LEGION, DEPARTMENT OF ILLINOIS","LONGITUDE":-87.62542654330346},
{"STATE":"IL","ZIP":60615,"LATTITUDE":41.80173412227812,"ADDRESS":"5108 S PRAIRIE AVE 2ND ","YEAR":2012,"DOING_BUSINESS_AS_NAME":"GREAT LAKES LDG #43","POP_AT_RISK":208747,"BUSINESS_TYPE":"Not-For-Profit Club","LEGAL_NAME":"GREAT LAKES LODGE NUMBER 43, IMPROVED BENEVOLENT AND PROTECTIVEORDER OF ELKS OF THE WORLD","LONGITUDE":-87.61954398138839},
}