{
{"STATE":"IL","ZIP":60652,"LATTITUDE":41.74299303153854,"ADDRESS":"8233-8237 S PULASKI RD 1ST ","YEAR":2011,"DOING_BUSINESS_AS_NAME":"THE LEARNING TREE II","POP_AT_RISK":63684,"BUSINESS_TYPE":"Day Care Center Under 2 and 2 - 6 Years","LEGAL_NAME":"GIA GROUP INC.","LONGITUDE":-87.72155821260196},
{"STATE":"IL","ZIP":60642,"LATTITUDE":41.89606693774048,"ADDRESS":"1333 W CHICAGO AVE 1ST ","YEAR":2011,"DOING_BUSINESS_AS_NAME":"NOBLE DAY CARE","POP_AT_RISK":88252,"BUSINESS_TYPE":"Day Care Center Under 2 and 2 - 6 Years","LEGAL_NAME":"NOBLE DAY CARE","LONGITUDE":-87.66071012810819},
{"STATE":"IL","ZIP":60645,"LATTITUDE":42.017637330007524,"ADDRESS":"7463 N RIDGE BLVD 1 ","YEAR":2011,"DOING_BUSINESS_AS_NAME":"EL RUISENOR - DAYCARE CENTER","POP_AT_RISK":334810,"BUSINESS_TYPE":"Day Care Center Under 2 and 2 - 6 Years","LEGAL_NAME":"MARIA D. CALVILLO","LONGITUDE":-87.6842790144969},
{"STATE":"IL","ZIP":60660,"LATTITUDE":41.998008500459655,"ADDRESS":"1443-1445 W DEVON AVE 1ST ","YEAR":2011,"DOING_BUSINESS_AS_NAME":"GREAT FOUNDATION CHILDCARE","POP_AT_RISK":1307456,"BUSINESS_TYPE":"Day Care Center Under 2 and 2 - 6 Years","LEGAL_NAME":"LITTLE KIDDIES INC.","LONGITUDE":-87.66712565512053},
{"STATE":"IL","ZIP":60641,"LATTITUDE":41.959526803588645,"ADDRESS":"4328-4332 N MILWAUKEE AVE  ","YEAR":2011,"DOING_BUSINESS_AS_NAME":"KIDS IN HARMONY DAYSCHOOL","POP_AT_RISK":158916,"BUSINESS_TYPE":"Day Care Center Under 2 and 2 - 6 Years","LEGAL_NAME":"KIDS IN HARMONY, INC.","LONGITUDE":-87.75369469746808},
{"STATE":"IL","ZIP":60659,"LATTITUDE":41.98705013244154,"ADDRESS":"5807 N LINCOLN AVE 1ST ","YEAR":2011,"DOING_BUSINESS_AS_NAME":"CHILDREN'S WORLD INC.","POP_AT_RISK":58582,"BUSINESS_TYPE":"Day Care Center Under 2 and 2 - 6 Years","LEGAL_NAME":"CHILDREN'S WORLD, INC.","LONGITUDE":-87.70153205076969},
{"STATE":"IL","ZIP":60608,"LATTITUDE":41.85632095198309,"ADDRESS":"1854 S RACINE AVE 1 ","YEAR":2011,"DOING_BUSINESS_AS_NAME":"LIL EINSTEIN'S INSTITUTE FOR SCHOLARS","POP_AT_RISK":166064,"BUSINESS_TYPE":"Day Care Center Under 2 and 2 - 6 Years","LEGAL_NAME":"Infantile 2 Juvenile Inc","LONGITUDE":-87.65652360934358},
{"STATE":"IL","ZIP":60629,"LATTITUDE":41.77643961364602,"ADDRESS":"6411 S PULASKI RD 1ST ","YEAR":2011,"DOING_BUSINESS_AS_NAME":"LITTLE BEAR DAY CARE","POP_AT_RISK":54952,"BUSINESS_TYPE":"Day Care Center Under 2 and 2 - 6 Years","LEGAL_NAME":"LITTLE BEAR DAY CARE LLC","LONGITUDE":-87.72255635327761},
{"STATE":"IL","ZIP":60615,"LATTITUDE":41.79572579687519,"ADDRESS":"5480 S KENWOOD AVE 1ST ","YEAR":2011,"DOING_BUSINESS_AS_NAME":"LITTLE INSPIRATIONS, INC.","POP_AT_RISK":460702,"BUSINESS_TYPE":"Day Care Center Under 2 and 2 - 6 Years","LEGAL_NAME":"LITTLE INSPIRATIONS,INC.","LONGITUDE":-87.59355220004798},
{"STATE":"IL","ZIP":60639,"LATTITUDE":41.92411853337897,"ADDRESS":"5504 W FULLERTON AVE 1ST ","YEAR":2011,"DOING_BUSINESS_AS_NAME":"AKARRASEL CHILD CARE CENTERS","POP_AT_RISK":221796,"BUSINESS_TYPE":"Day Care Center Under 2 and 2 - 6 Years","LEGAL_NAME":"GALEWOOD ENTERPRISES, LTD","LONGITUDE":-87.76375122297641},
{"STATE":"IL","ZIP":60618,"LATTITUDE":41.961124962789185,"ADDRESS":"3748 W MONTROSE AVE 1 ","YEAR":2011,"DOING_BUSINESS_AS_NAME":"GATEWAY MONTESSORI SCHOOL, INC","POP_AT_RISK":126354,"BUSINESS_TYPE":"Day Care Center Under 2 and 2 - 6 Years","LEGAL_NAME":"GATEWAY MONTESSORI SCHOOL","LONGITUDE":-87.72247677282148},
{"STATE":"IL","ZIP":60621,"LATTITUDE":41.763068264471286,"ADDRESS":"7209-7211 S HALSTED ST 1 1","YEAR":2011,"DOING_BUSINESS_AS_NAME":"LEZ ENFANTS ACADEMY, INC.","POP_AT_RISK":39281,"BUSINESS_TYPE":"Day Care Center Under 2 and 2 - 6 Years","LEGAL_NAME":"LEZ ENFANTS ACADEMY, INC.","LONGITUDE":-87.64421210267354},
{"STATE":"IL","ZIP":60631,"LATTITUDE":41.98703322680841,"ADDRESS":"5801 N NORTHWEST HWY 1 1","YEAR":2011,"DOING_BUSINESS_AS_NAME":"HELEN LUCY CHILD CARE INC.","POP_AT_RISK":62120,"BUSINESS_TYPE":"Day Care Center Under 2 and 2 - 6 Years","LEGAL_NAME":"HELEN LUCY CHILD CARE INC.","LONGITUDE":-87.78938143174634},
{"STATE":"IL","ZIP":60632,"LATTITUDE":41.81349085436627,"ADDRESS":"4401 S KEDZIE AVE 1 1","YEAR":2011,"DOING_BUSINESS_AS_NAME":"KIDDY KARE PRE SCHOOL INC.","POP_AT_RISK":330274,"BUSINESS_TYPE":"Day Care Center Under 2 and 2 - 6 Years","LEGAL_NAME":"KIDDY KARE PRE SCHOOL INC.","LONGITUDE":-87.70403979329342},
{"STATE":"IL","ZIP":60640,"LATTITUDE":41.96915695630021,"ADDRESS":"1108 W LAWRENCE AVE 1ST ","YEAR":2011,"DOING_BUSINESS_AS_NAME":"ABC & ME TODDLER CENTER,INC","POP_AT_RISK":280424,"BUSINESS_TYPE":"Day Care Center Under 2 and 2 - 6 Years","LEGAL_NAME":"ABC & ME TODDLER CENTER,INC","LONGITUDE":-87.65802546439097},
{"STATE":"IL","ZIP":60619,"LATTITUDE":41.76584841802471,"ADDRESS":"440 - 442 E 71ST ST 1ST ","YEAR":2011,"DOING_BUSINESS_AS_NAME":"ALLISON' S INFANT & TODDLER CENTER","POP_AT_RISK":104037,"BUSINESS_TYPE":"Day Care Center Under 2 and 2 - 6 Years","LEGAL_NAME":"ALLISON  R PERKINS-CALDWELL","LONGITUDE":-87.61366342821663},
{"STATE":"IL","ZIP":60609,"LATTITUDE":41.81511207847913,"ADDRESS":"4344 S WENTWORTH AVE  ","YEAR":2011,"DOING_BUSINESS_AS_NAME":"JONES ACADEMY, INCORPORATED","POP_AT_RISK":73708,"BUSINESS_TYPE":"Day Care Center Under 2 and 2 - 6 Years","LEGAL_NAME":"JONES ACADEMY, INCORPORATED","LONGITUDE":-87.63130757563485},
{"STATE":"IL","ZIP":60633,"LATTITUDE":41.652511409051534,"ADDRESS":"13338-40 S BRANDON AVE BASEMENT & 1ST FLOOR ","YEAR":2011,"DOING_BUSINESS_AS_NAME":"EAST SIDE CHILD DEVELOPMENT CENTER","POP_AT_RISK":27264,"BUSINESS_TYPE":"Day Care Center Under 2 and 2 - 6 Years","LEGAL_NAME":"THE MARTIN GROUP 13338, LLC","LONGITUDE":-87.54606578976836},
{"STATE":"IL","ZIP":60634,"LATTITUDE":41.94024127761025,"ADDRESS":"3255 N CENTRAL AVE 1 1","YEAR":2011,"DOING_BUSINESS_AS_NAME":"METROPOLITAN FAMILY SERVICES","POP_AT_RISK":320235,"BUSINESS_TYPE":"Day Care Center Under 2 and 2 - 6 Years","LEGAL_NAME":"METROPOLITAN FAMILY SERVICES","LONGITUDE":-87.76641116844013},
{"STATE":"IL","ZIP":60628,"LATTITUDE":41.677862591235005,"ADDRESS":"157 W 119TH ST  ","YEAR":2011,"DOING_BUSINESS_AS_NAME":"GRANNY'S DAYCARE CENTER","POP_AT_RISK":26060,"BUSINESS_TYPE":"Day Care Center Under 2 and 2 - 6 Years","LEGAL_NAME":"GRANNY'S DAYCARE CENTER, INC.","LONGITUDE":-87.6274010069214},
{"STATE":"IL","ZIP":60651,"LATTITUDE":41.89469048714729,"ADDRESS":"5725 W CHICAGO AVE 1ST ","YEAR":2011,"DOING_BUSINESS_AS_NAME":"BETTY'S DAY CARE ACADEMY, INC.","POP_AT_RISK":59446,"BUSINESS_TYPE":"Day Care Center Under 2 and 2 - 6 Years","LEGAL_NAME":"BETTY'S DAY CARE ACADEMY, INC.","LONGITUDE":-87.76898695672315},
{"STATE":"IL","ZIP":60640,"LATTITUDE":41.961950302699556,"ADDRESS":"4405-4407 N SHERIDAN RD 1 ","YEAR":2011,"DOING_BUSINESS_AS_NAME":"KIDSMART CHILDCARE CENTER INC.","POP_AT_RISK":245943,"BUSINESS_TYPE":"Day Care Center Under 2 and 2 - 6 Years","LEGAL_NAME":"KIDSMART CHILDCARE CENTER INC.","LONGITUDE":-87.65460337596932},
{"STATE":"IL","ZIP":60623,"LATTITUDE":41.846537489047876,"ADDRESS":"2446-2452 S PULASKI RD 1ST ","YEAR":2011,"DOING_BUSINESS_AS_NAME":"LITTLE VILLAGE KIDS TOWN, INC.","POP_AT_RISK":244884,"BUSINESS_TYPE":"Day Care Center Under 2 and 2 - 6 Years","LEGAL_NAME":"LITTLE VILLAGE KIDS TOWN, INC.","LONGITUDE":-87.72477243544083},
{"STATE":"IL","ZIP":60616,"LATTITUDE":41.835954885922824,"ADDRESS":"501 E 32ND ST  1ST","YEAR":2011,"DOING_BUSINESS_AS_NAME":"THE CHILDREN'S HOUSE-LK MEADOW","POP_AT_RISK":176208,"BUSINESS_TYPE":"Day Care Center Under 2 and 2 - 6 Years","LEGAL_NAME":"THE CHILDREN'S HOUSE LAKE MEAD","LONGITUDE":-87.61335015397036},
{"STATE":"IL","ZIP":60617,"LATTITUDE":41.71321088719611,"ADDRESS":"10009 S YATES AVE  ","YEAR":2011,"DOING_BUSINESS_AS_NAME":"A-ILLINOIS INSTITUTE FOR CHILDREN","POP_AT_RISK":35628,"BUSINESS_TYPE":"Day Care Center Under 2 and 2 - 6 Years","LEGAL_NAME":"A-ILLINOIS INSTITUTE FOR CHILDREN","LONGITUDE":-87.56443615534658},
{"STATE":"IL","ZIP":60656,"LATTITUDE":41.977374595498965,"ADDRESS":"6514-6516 W HIGGINS AVE  ","YEAR":2011,"DOING_BUSINESS_AS_NAME":"MT ARARAT DAYCARE CENTER","POP_AT_RISK":96087,"BUSINESS_TYPE":"Day Care Center Under 2 and 2 - 6 Years","LEGAL_NAME":"MT. ARARAT DAYCARE CENTER, L.L.C.","LONGITUDE":-87.79085428202548},
{"STATE":"IL","ZIP":60617,"LATTITUDE":41.74462004665804,"ADDRESS":"2534-38 E 83RD ST 1ST ","YEAR":2011,"DOING_BUSINESS_AS_NAME":"QODESH EDUCATIONAL INSTITUTE, INC.","POP_AT_RISK":120060,"BUSINESS_TYPE":"Day Care Center Under 2 and 2 - 6 Years","LEGAL_NAME":"QODESH EDUCATIONAL INSTITUTE INC.","LONGITUDE":-87.56233480378744},
{"STATE":"IL","ZIP":60644,"LATTITUDE":41.865605626722484,"ADDRESS":"5858 W ROOSEVELT RD 1 ","YEAR":2011,"DOING_BUSINESS_AS_NAME":"CHILDREN INTERNATIONAL ACADEMY","POP_AT_RISK":419344,"BUSINESS_TYPE":"Day Care Center Under 2 and 2 - 6 Years","LEGAL_NAME":"CHILDREN INTERNATIONAL ACADEMY,LLC","LONGITUDE":-87.77161387921645},
{"STATE":"IL","ZIP":60632,"LATTITUDE":41.80943923636859,"ADDRESS":"4606-4610 S PULASKI RD 1ST ","YEAR":2011,"DOING_BUSINESS_AS_NAME":"LIZ-NEY-LAND LEARNING CENTER, INC.","POP_AT_RISK":71979,"BUSINESS_TYPE":"Day Care Center Under 2 and 2 - 6 Years","LEGAL_NAME":"LIZ-NEY-LAND LEARNING CENTER, INC.","LONGITUDE":-87.723789019846},
{"STATE":"IL","ZIP":60625,"LATTITUDE":41.970888597492355,"ADDRESS":"4908 N DAMEN AVE  ","YEAR":2011,"DOING_BUSINESS_AS_NAME":"RAVENSWOOD COMMUNITY DAYCARE, INC.","POP_AT_RISK":67783,"BUSINESS_TYPE":"Day Care Center Under 2 and 2 - 6 Years","LEGAL_NAME":"RAVENSWOOD COMMUNITY DAYCARE, INC.","LONGITUDE":-87.67939623289391},
{"STATE":"IL","ZIP":60619,"LATTITUDE":41.76219616956896,"ADDRESS":"1049 E 73RD ST BASEMENT ","YEAR":2011,"DOING_BUSINESS_AS_NAME":"PREMIER SCHOLASTIC PRESCHOOLS","POP_AT_RISK":34159,"BUSINESS_TYPE":"Day Care Center Under 2 and 2 - 6 Years","LEGAL_NAME":"PREMIER SCHOLASTIC PRESCHOOLS, INC.","LONGITUDE":-87.59865828437849},
{"STATE":"IL","ZIP":60623,"LATTITUDE":41.853475323255154,"ADDRESS":"3701 W OGDEN AVE  ","YEAR":2011,"DOING_BUSINESS_AS_NAME":"Carole Robertson Center for Learning","POP_AT_RISK":129942,"BUSINESS_TYPE":"Day Care Center Under 2 and 2 - 6 Years","LEGAL_NAME":"CAROLE ROBERTSON CENTER FOR LEARNING","LONGITUDE":-87.71749061210578},
{"STATE":"IL","ZIP":60707,"LATTITUDE":41.915192484218764,"ADDRESS":"1927-1929 N HARLEM AVE  ","YEAR":2011,"DOING_BUSINESS_AS_NAME":"LOVING TOUCH DAYCARE PROVIDERS INC","POP_AT_RISK":66786,"BUSINESS_TYPE":"Day Care Center Under 2 and 2 - 6 Years","LEGAL_NAME":"LOVING TOUCH DAYCARE PROVIDERS, INC.","LONGITUDE":-87.80582794273202},
{"STATE":"IL","ZIP":60623,"LATTITUDE":41.862305336370426,"ADDRESS":"1400 S KOLIN AVE 1ST ","YEAR":2011,"DOING_BUSINESS_AS_NAME":"VILLAGE OF HOPE LEARNING CENTER","POP_AT_RISK":68280,"BUSINESS_TYPE":"Day Care Center Under 2 and 2 - 6 Years","LEGAL_NAME":"VILLAGE OF HOPE LEARNING CENTER, INC.","LONGITUDE":-87.73376910044355},
{"STATE":"IL","ZIP":60647,"LATTITUDE":41.9103377455724,"ADDRESS":"2734 W NORTH AVE 1ST ","YEAR":2011,"DOING_BUSINESS_AS_NAME":"ALL THINGS ARE POSSIBLE KIDS 702, INC","POP_AT_RISK":133558,"BUSINESS_TYPE":"Day Care Center Under 2 and 2 - 6 Years","LEGAL_NAME":"ALL THINGS ARE POSSIBLE KIDS 702, INC.","LONGITUDE":-87.69598949064988},
{"STATE":"IL","ZIP":60609,"LATTITUDE":41.82898408178605,"ADDRESS":"3575 S ARCHER AVE  ","YEAR":2011,"DOING_BUSINESS_AS_NAME":"ARCHER AVENUE LEARNING STATION, INC","POP_AT_RISK":60792,"BUSINESS_TYPE":"Day Care Center Under 2 and 2 - 6 Years","LEGAL_NAME":"MONTESSORI FOUNDATIONS OF CHICAGO, INC.","LONGITUDE":-87.67971508964543},
{"STATE":"IL","ZIP":60614,"LATTITUDE":41.9175377631419,"ADDRESS":"1932-1934 N CLARK ST BSMT&1ST ","YEAR":2011,"DOING_BUSINESS_AS_NAME":"AMERICAN KIDZ ACADEMY, LLC - LINCOLN PARK","POP_AT_RISK":185271,"BUSINESS_TYPE":"Day Care Center Under 2 and 2 - 6 Years","LEGAL_NAME":"AMERICAN KIDZ ACADEMY, LLC - LINCOLN PARK","LONGITUDE":-87.63569933981495},
{"STATE":"IL","ZIP":60643,"LATTITUDE":41.70921709772374,"ADDRESS":"10126 S WESTERN AVE 1ST ","YEAR":2011,"DOING_BUSINESS_AS_NAME":"LITTLE HANDS LEARNING CENTER ACADEMY, INC.","POP_AT_RISK":97988,"BUSINESS_TYPE":"Day Care Center Under 2 and 2 - 6 Years","LEGAL_NAME":"LITTLE HANDS LEARNING CENTER ACADEMY, INC.","LONGITUDE":-87.68185356852545},
{"STATE":"IL","ZIP":60609,"LATTITUDE":41.80113414357615,"ADDRESS":"1935 W 51ST ST 1ST & LOWER LEVEL ","YEAR":2011,"DOING_BUSINESS_AS_NAME":"VIREVA NURSERY SCHOOL","POP_AT_RISK":123894,"BUSINESS_TYPE":"Day Care Center Under 2 and 2 - 6 Years","LEGAL_NAME":"VIREVA NURSERY SCHOOL & KINDERGARTEN, INC.","LONGITUDE":-87.6734440144631},
{"STATE":"IL","ZIP":60649,"LATTITUDE":41.76603412696048,"ADDRESS":"2253-2257 E 71ST ST 1 ","YEAR":2011,"DOING_BUSINESS_AS_NAME":"Colors For Tots Daycare Center","POP_AT_RISK":183550,"BUSINESS_TYPE":"Day Care Center Under 2 and 2 - 6 Years","LEGAL_NAME":"COLORS FOR TOTS DAYCARE CENTER INCORPORATED","LONGITUDE":-87.56927085397123},
{"STATE":"IL","ZIP":60653,"LATTITUDE":41.809588233119534,"ADDRESS":"624-626 E 47TH ST 1ST ","YEAR":2011,"DOING_BUSINESS_AS_NAME":"PRECIOUS LITTLE ONE'S LEARNING CENTER, INC.","POP_AT_RISK":124602,"BUSINESS_TYPE":"Day Care Center Under 2 and 2 - 6 Years","LEGAL_NAME":"PRECIOUS LITTLE ONE'S LEARNING CENTER, INC.","LONGITUDE":-87.61036179915281},
{"STATE":"IL","ZIP":60619,"LATTITUDE":41.73185210877984,"ADDRESS":"8938-8948 S COTTAGE GROVE AVE 1 ","YEAR":2011,"DOING_BUSINESS_AS_NAME":"NEW AGE CHILDREN'S PREPARATORY ACADEMY, INC.","POP_AT_RISK":22866,"BUSINESS_TYPE":"Day Care Center Under 2 and 2 - 6 Years","LEGAL_NAME":"NEW AGE CHILDREN'S PREPARATORY ACADEMY, INC.","LONGITUDE":-87.60485274319225},
{"STATE":"IL","ZIP":60643,"LATTITUDE":41.680771129428095,"ADDRESS":"11702-11708 S WESTERN AVE 1ST ","YEAR":2011,"DOING_BUSINESS_AS_NAME":"HAPPY KAMPERS DAYCARE AND LEARNING CENTER INC.","POP_AT_RISK":29896,"BUSINESS_TYPE":"Day Care Center Under 2 and 2 - 6 Years","LEGAL_NAME":"HAPPY KAMPERS DAYCARE AND LEARNING CENTER INC.","LONGITUDE":-87.68095739119869},
{"STATE":"IL","ZIP":60628,"LATTITUDE":41.70556659418179,"ADDRESS":"901 E 104TH ST 1 1","YEAR":2011,"DOING_BUSINESS_AS_NAME":"TEENCHY WEENCHY DAYCARE & LEARNING CENTER INC.,","POP_AT_RISK":14752,"BUSINESS_TYPE":"Day Care Center Under 2 and 2 - 6 Years","LEGAL_NAME":"TEENCHY WEENCHY DAYCARE & LEARNING CENTER INC.","LONGITUDE":-87.60107403032647},
{"STATE":"IL","ZIP":60657,"LATTITUDE":41.93842674063546,"ADDRESS":"3110 N SHEFFIELD AVE 1ST & BSMT ","YEAR":2011,"DOING_BUSINESS_AS_NAME":"KC'S ACADEMY OF EARLY CHILDHOOD EDUCATION, INC.","POP_AT_RISK":998424,"BUSINESS_TYPE":"Day Care Center Under 2 and 2 - 6 Years","LEGAL_NAME":"KC'S ACADEMY OF EARLY CHILDHOOD EDUCATION, INC.","LONGITUDE":-87.65420203147254},
{"STATE":"IL","ZIP":60612,"LATTITUDE":41.866894192891046,"ADDRESS":"1146-1148 S CALIFORNIA AVE 1ST ","YEAR":2011,"DOING_BUSINESS_AS_NAME":"GREAT EXPECTATIONS LEARNING ACADEMY INCORPORATED","POP_AT_RISK":33556,"BUSINESS_TYPE":"Day Care Center Under 2 and 2 - 6 Years","LEGAL_NAME":"GREAT EXPECTATIONS LEARNING ACADEMY INCORPORATED","LONGITUDE":-87.69605988203479},
{"STATE":"IL","ZIP":60641,"LATTITUDE":41.95004851376016,"ADDRESS":"3809 N CICERO AVE 1ST ","YEAR":2011,"DOING_BUSINESS_AS_NAME":"KIDDIELAND EDUCATIONAL CENTER OF EXCELLENCE, INC.","POP_AT_RISK":150570,"BUSINESS_TYPE":"Day Care Center Under 2 and 2 - 6 Years","LEGAL_NAME":"KIDDIELAND EDUCATIONAL CENTER OF EXCELLENCE, INC.","LONGITUDE":-87.74707559226898},
{"STATE":"IL","ZIP":60659,"LATTITUDE":41.98293980381127,"ADDRESS":"3243 W BRYN MAWR AVE  ","YEAR":2011,"DOING_BUSINESS_AS_NAME":"CHILDREN'S PALACE DAYCARE","POP_AT_RISK":55232,"BUSINESS_TYPE":"Day Care Center Under 2 and 2 - 6 Years","LEGAL_NAME":"CHILDREN'S PALACE DAY CARE CENTER, SU GUARDERIA INFANTIL, INC","LONGITUDE":-87.71055623755964},
}