{
{"STATE":"IL","ZIP":60630,"LATTITUDE":41.963183921265326,"ADDRESS":"4536 N ELSTON AVE  ","YEAR":2010,"DOING_BUSINESS_AS_NAME":"BYRON YABLON","POP_AT_RISK":230135,"BUSINESS_TYPE":"Peddler,food - (fruits and vegetables only) - special","LEGAL_NAME":"BYRON YABLON","LONGITUDE":-87.73318715325468},
{"STATE":"IL","ZIP":60637,"LATTITUDE":41.782624103246185,"ADDRESS":"6141 S MICHIGAN AVE 6 601","YEAR":2010,"DOING_BUSINESS_AS_NAME":"JOHN BARNETT","POP_AT_RISK":33101,"BUSINESS_TYPE":"Peddler,food - (fruits and vegetables only) - special","LEGAL_NAME":"JOHN BARNETT","LONGITUDE":-87.62200814263228},
{"STATE":"IL","ZIP":60619,"LATTITUDE":41.75619457777317,"ADDRESS":"7612 S EBERHART AVE  ","YEAR":2010,"DOING_BUSINESS_AS_NAME":"HOGAN","POP_AT_RISK":41523,"BUSINESS_TYPE":"Peddler,food - (fruits and vegetables only) - special","LEGAL_NAME":"EARNEST HOGAN","LONGITUDE":-87.61276996803532},
{"STATE":"IL","ZIP":60623,"LATTITUDE":41.860668595413884,"ADDRESS":"3705 W 15TH ST  ","YEAR":2010,"DOING_BUSINESS_AS_NAME":"GEORGIA BRADY","POP_AT_RISK":98090,"BUSINESS_TYPE":"Peddler,food - (fruits and vegetables only) - special","LEGAL_NAME":"GEORGIA BRADY","LONGITUDE":-87.71793763422453},
{"STATE":"IL","ZIP":60628,"LATTITUDE":41.667145379963394,"ADDRESS":"12456 S EGGLESTON AVE 1 ","YEAR":2010,"DOING_BUSINESS_AS_NAME":"LOUISE THOMAS","POP_AT_RISK":103865,"BUSINESS_TYPE":"Peddler,food - (fruits and vegetables only) - special","LEGAL_NAME":"LOUISE THOMAS","LONGITUDE":-87.63326830376171},
{"STATE":"IL","ZIP":60649,"LATTITUDE":41.755313468484346,"ADDRESS":"2603 E 77TH ST  ","YEAR":2010,"DOING_BUSINESS_AS_NAME":"RONALD HOLLIS","POP_AT_RISK":65374,"BUSINESS_TYPE":"Peddler,food - (fruits and vegetables only) - special","LEGAL_NAME":"RONALD HOLLIS","LONGITUDE":-87.56130065591925},
{"STATE":"IL","ZIP":60623,"LATTITUDE":41.84017289140799,"ADDRESS":"2809 S TRIPP AVE  ","YEAR":2010,"DOING_BUSINESS_AS_NAME":"BALTAZAR PEREZ","POP_AT_RISK":97616,"BUSINESS_TYPE":"Peddler,food - (fruits and vegetables only) - special","LEGAL_NAME":"BALTAZAR PEREZ","LONGITUDE":-87.73037481802437},
{"STATE":"IL","ZIP":60626,"LATTITUDE":42.0140411322766,"ADDRESS":"7301 N SHERIDAN RD 3 302","YEAR":2010,"DOING_BUSINESS_AS_NAME":"GALE MCDANIELS","POP_AT_RISK":59887,"BUSINESS_TYPE":"Peddler,food - (fruits and vegetables only) - special","LEGAL_NAME":"GALE MCDANIELS","LONGITUDE":-87.6639709089456},
{"STATE":"IL","ZIP":60632,"LATTITUDE":41.81941714811052,"ADDRESS":"4052 S MONTGOMERY AVE  ","YEAR":2010,"DOING_BUSINESS_AS_NAME":"NEUSA C BRASIL","POP_AT_RISK":210792,"BUSINESS_TYPE":"Peddler,food - (fruits and vegetables only) - special","LEGAL_NAME":"NEUSA C BRASIL","LONGITUDE":-87.69226996121246},
{"STATE":"IL","ZIP":60620,"LATTITUDE":41.751452001297906,"ADDRESS":"7831 S RACINE AVE 1 1","YEAR":2010,"DOING_BUSINESS_AS_NAME":"SANDERS MARTIN","POP_AT_RISK":457620,"BUSINESS_TYPE":"Peddler,food - (fruits and vegetables only) - special","LEGAL_NAME":"SANDERS MARTIN","LONGITUDE":-87.65361521912222},
{"STATE":"IL","ZIP":60653,"LATTITUDE":41.81243031011323,"ADDRESS":"4524 S DREXEL BLVD 1 ","YEAR":2010,"DOING_BUSINESS_AS_NAME":"SHEILA HOLIDAY","POP_AT_RISK":470249,"BUSINESS_TYPE":"Peddler,food - (fruits and vegetables only) - special","LEGAL_NAME":"SHEILA HOLIDAY","LONGITUDE":-87.60458011755118},
{"STATE":"IL","ZIP":60644,"LATTITUDE":41.89302579273671,"ADDRESS":"4909 W HURON ST 1 1","YEAR":2010,"DOING_BUSINESS_AS_NAME":"DARRIN ROBINSON","POP_AT_RISK":255024,"BUSINESS_TYPE":"Peddler,food - (fruits and vegetables only) - special","LEGAL_NAME":"DARRIN ROBINSON","LONGITUDE":-87.7486177936501},
{"STATE":"IL","ZIP":60608,"LATTITUDE":41.8588811255851,"ADDRESS":"1412 W 17TH ST  ","YEAR":2010,"DOING_BUSINESS_AS_NAME":"EPIFANIO LOZANO","POP_AT_RISK":309744,"BUSINESS_TYPE":"Peddler,food - (fruits and vegetables only) - special","LEGAL_NAME":"EPIFANIO LOZANO","LONGITUDE":-87.66192236162263},
{"STATE":"IL","ZIP":60610,"LATTITUDE":41.901935877547665,"ADDRESS":"150 W MAPLE ST  2010","YEAR":2010,"DOING_BUSINESS_AS_NAME":"JAMES K. NELSEN","POP_AT_RISK":77432,"BUSINESS_TYPE":"Peddler,food - (fruits and vegetables only) - special","LEGAL_NAME":"JAMES K. NELSEN","LONGITUDE":-87.63341001535879},
{"STATE":"IL","ZIP":60618,"LATTITUDE":41.94114480941955,"ADDRESS":"3604 W SCHOOL ST BSMT ","YEAR":2010,"DOING_BUSINESS_AS_NAME":"JOSE D. RAMIREZ","POP_AT_RISK":57499,"BUSINESS_TYPE":"Peddler,food - (fruits and vegetables only) - special","LEGAL_NAME":"JOSE D. RAMIREZ","LONGITUDE":-87.71770339196766},
{"STATE":"IL","ZIP":60632,"LATTITUDE":41.808625875492034,"ADDRESS":"4644 S TROY ST  ","YEAR":2010,"DOING_BUSINESS_AS_NAME":"MARIA CONTRERAS","POP_AT_RISK":47708,"BUSINESS_TYPE":"Peddler,food - (fruits and vegetables only) - special","LEGAL_NAME":"MARIA CONTRERAS","LONGITUDE":-87.70292445353302},
{"STATE":"IL","ZIP":60618,"LATTITUDE":41.96077984306484,"ADDRESS":"4350 N ST LOUIS AVE 1 ","YEAR":2010,"DOING_BUSINESS_AS_NAME":"PEDRO MEJIA","POP_AT_RISK":75660,"BUSINESS_TYPE":"Peddler,food - (fruits and vegetables only) - special","LEGAL_NAME":"PEDRO MEJIA SR.","LONGITUDE":-87.71572411783474},
{"STATE":"IL","ZIP":60632,"LATTITUDE":41.79519551927019,"ADDRESS":"5355 S TRIPP AVE  ","YEAR":2010,"DOING_BUSINESS_AS_NAME":"REMBERTO FLORES","POP_AT_RISK":274386,"BUSINESS_TYPE":"Peddler,food - (fruits and vegetables only) - special","LEGAL_NAME":"REMBERTO FLORES","LONGITUDE":-87.72919729095125},
{"STATE":"IL","ZIP":60620,"LATTITUDE":41.73343751070247,"ADDRESS":"8820 S THROOP ST  ","YEAR":2010,"DOING_BUSINESS_AS_NAME":"THOMAS E TAYLOR","POP_AT_RISK":32079,"BUSINESS_TYPE":"Peddler,food - (fruits and vegetables only) - special","LEGAL_NAME":"THOMAS E TAYLOR","LONGITUDE":-87.65584506880892},
{"STATE":"IL","ZIP":60617,"LATTITUDE":41.7422940163043,"ADDRESS":"1633 E 84TH ST 1 ","YEAR":2010,"DOING_BUSINESS_AS_NAME":"TOMMIE H. COSBY","POP_AT_RISK":130084,"BUSINESS_TYPE":"Peddler,food - (fruits and vegetables only) - special","LEGAL_NAME":"TOMMIE H. COSBY","LONGITUDE":-87.58398026219766},
{"STATE":"IL","ZIP":60626,"LATTITUDE":42.007578791408434,"ADDRESS":"6930 N GREENVIEW AVE 4TH 401","YEAR":2010,"DOING_BUSINESS_AS_NAME":"WALTER L. WELCH","POP_AT_RISK":155490,"BUSINESS_TYPE":"Peddler,food - (fruits and vegetables only) - special","LEGAL_NAME":"WALTER L. WELCH","LONGITUDE":-87.66799873215723},
{"STATE":"IL","ZIP":60637,"LATTITUDE":41.771409093435935,"ADDRESS":"6750 S PRAIRIE AVE 1 1","YEAR":2010,"DOING_BUSINESS_AS_NAME":"ERNESTINE CONNOR","POP_AT_RISK":100977,"BUSINESS_TYPE":"Peddler,food - (fruits and vegetables only) - special","LEGAL_NAME":"ERNESTINE CONNOR","LONGITUDE":-87.6187785953207},
{"STATE":"IL","ZIP":60619,"LATTITUDE":41.72754546251406,"ADDRESS":"536 E 92ND ST  ","YEAR":2010,"DOING_BUSINESS_AS_NAME":"ERNESTINE MARTIN","POP_AT_RISK":22916,"BUSINESS_TYPE":"Peddler,food - (fruits and vegetables only) - special","LEGAL_NAME":"ERNESTINE MARTIN","LONGITUDE":-87.6103938277523},
{"STATE":"IL","ZIP":60619,"LATTITUDE":41.7489350021581,"ADDRESS":"8010 S VERNON AVE  1","YEAR":2010,"DOING_BUSINESS_AS_NAME":"HERBERT L TURNER","POP_AT_RISK":40841,"BUSINESS_TYPE":"Peddler,food - (fruits and vegetables only) - special","LEGAL_NAME":"HERBERT L TURNER","LONGITUDE":-87.61380136018731},
{"STATE":"IL","ZIP":60651,"LATTITUDE":41.908807506369094,"ADDRESS":"1537 N LEAMINGTON AVE  ","YEAR":2010,"DOING_BUSINESS_AS_NAME":"JAMES K. SAFFOLD","POP_AT_RISK":135561,"BUSINESS_TYPE":"Peddler,food - (fruits and vegetables only) - special","LEGAL_NAME":"JAMES K. SAFFOLD","LONGITUDE":-87.75455599812878},
{"STATE":"IL","ZIP":60636,"LATTITUDE":41.78358307039043,"ADDRESS":"6048 S THROOP ST 1 1","YEAR":2010,"DOING_BUSINESS_AS_NAME":"NATHAN C. ARNOLD","POP_AT_RISK":491955,"BUSINESS_TYPE":"Peddler,food - (fruits and vegetables only) - special","LEGAL_NAME":"NATHAN C. ARNOLD","LONGITUDE":-87.65717944267008},
{"STATE":"IL","ZIP":60707,"LATTITUDE":41.92888119882479,"ADDRESS":"2659 N MONT CLARE AVE  ","YEAR":2010,"DOING_BUSINESS_AS_NAME":"PAUL A. STAGNOLI","POP_AT_RISK":508130,"BUSINESS_TYPE":"Peddler,food - (fruits and vegetables only) - special","LEGAL_NAME":"PAUL A. STAGNOLI","LONGITUDE":-87.80383897234732},
{"STATE":"IL","ZIP":60620,"LATTITUDE":41.73403894416261,"ADDRESS":"8803 S MORGAN ST  ","YEAR":2010,"DOING_BUSINESS_AS_NAME":"BARBARA A. WRIGHT","POP_AT_RISK":33311,"BUSINESS_TYPE":"Peddler,food - (fruits and vegetables only) - special","LEGAL_NAME":"BARBARA A. WRIGHT","LONGITUDE":-87.64829508959815},
{"STATE":"IL","ZIP":60639,"LATTITUDE":41.9224178590441,"ADDRESS":"5108 W BELDEN AVE 1ST 1","YEAR":2010,"DOING_BUSINESS_AS_NAME":"DOMINGO HERNANDEZ","POP_AT_RISK":508128,"BUSINESS_TYPE":"Peddler,food - (fruits and vegetables only) - special","LEGAL_NAME":"DOMINGO HERNANDEZ","LONGITUDE":-87.75401287967503},
{"STATE":"IL","ZIP":60629,"LATTITUDE":41.77851334839378,"ADDRESS":"6319 S WASHTENAW AVE 1 ","YEAR":2010,"DOING_BUSINESS_AS_NAME":"LUIS SOTO-DURAN","POP_AT_RISK":296245,"BUSINESS_TYPE":"Peddler,food - (fruits and vegetables only) - special","LEGAL_NAME":"LUIS SOTO - DURAN","LONGITUDE":-87.69079325777614},
{"STATE":"IL","ZIP":60649,"LATTITUDE":41.75177320331363,"ADDRESS":"2150 E 79TH ST  1W","YEAR":2010,"DOING_BUSINESS_AS_NAME":"STONEWALL JACKSON","POP_AT_RISK":37887,"BUSINESS_TYPE":"Peddler,food - (fruits and vegetables only) - special","LEGAL_NAME":"STONEWALL JACKSON","LONGITUDE":-87.5715070347143},
{"STATE":"IL","ZIP":60641,"LATTITUDE":41.93527582414574,"ADDRESS":"4149 W WELLINGTON AVE BSMT ","YEAR":2010,"DOING_BUSINESS_AS_NAME":"ZEFERINO GONZALEZ","POP_AT_RISK":375342,"BUSINESS_TYPE":"Peddler,food - (fruits and vegetables only) - special","LEGAL_NAME":"ZEFERINO GONZALEZ","LONGITUDE":-87.73144273961461},
{"STATE":"IL","ZIP":60617,"LATTITUDE":41.71590186001373,"ADDRESS":"9816 S MERRION AVE # 1ST","YEAR":2010,"DOING_BUSINESS_AS_NAME":"ANTOINETTE JOHNSON","POP_AT_RISK":69712,"BUSINESS_TYPE":"Peddler,food - (fruits and vegetables only) - special","LEGAL_NAME":"ANTOINETTE JOHNSON","LONGITUDE":-87.5696927426852},
{"STATE":"IL","ZIP":60609,"LATTITUDE":41.80808139072039,"ADDRESS":"4734 S SHIELDS AVE  ","YEAR":2010,"DOING_BUSINESS_AS_NAME":"CYNTHIA J. SPENCER","POP_AT_RISK":108885,"BUSINESS_TYPE":"Peddler,food - (fruits and vegetables only) - special","LEGAL_NAME":"CYNTHIA J. SPENCER","LONGITUDE":-87.63470237042348},
{"STATE":"IL","ZIP":60624,"LATTITUDE":41.87719440582637,"ADDRESS":"4002 W JACKSON BLVD  ","YEAR":2010,"DOING_BUSINESS_AS_NAME":"LESLA VERN HOPKINS","POP_AT_RISK":166535,"BUSINESS_TYPE":"Peddler,food - (fruits and vegetables only) - special","LEGAL_NAME":"LESLA VERN HOPKINS","LONGITUDE":-87.72574741719643},
{"STATE":"IL","ZIP":60647,"LATTITUDE":41.91503473944297,"ADDRESS":"1845 N KIMBALL AVE 1 ","YEAR":2010,"DOING_BUSINESS_AS_NAME":"NICOLASA FERNANDEZ","POP_AT_RISK":1761408,"BUSINESS_TYPE":"Peddler,food - (fruits and vegetables only) - special","LEGAL_NAME":"NICOLASA FERNANDEZ","LONGITUDE":-87.71169597853321},
{"STATE":"IL","ZIP":60612,"LATTITUDE":41.87940092817677,"ADDRESS":"2628 W WILCOX ST  ","YEAR":2010,"DOING_BUSINESS_AS_NAME":"TERRIS EDWARD CLARK","POP_AT_RISK":283392,"BUSINESS_TYPE":"Peddler,food - (fruits and vegetables only) - special","LEGAL_NAME":"TERRIS EDWARD CLARK","LONGITUDE":-87.69253358081562},
{"STATE":"IL","ZIP":60637,"LATTITUDE":41.79194255756477,"ADDRESS":"5634 S DR MARTIN LUTHER KING JR DR 1 1","YEAR":2010,"DOING_BUSINESS_AS_NAME":"ALONZO HOWARD COATES","POP_AT_RISK":127404,"BUSINESS_TYPE":"Peddler,food - (fruits and vegetables only) - special","LEGAL_NAME":"ALONZO HOWARD COATES","LONGITUDE":-87.61605484659171},
{"STATE":"IL","ZIP":60616,"LATTITUDE":41.83475726864901,"ADDRESS":"400 E 33RD ST  2214","YEAR":2010,"DOING_BUSINESS_AS_NAME":"JOSEPH T. VALLIER JR.","POP_AT_RISK":398415,"BUSINESS_TYPE":"Peddler,food - (fruits and vegetables only) - special","LEGAL_NAME":"JOSEPH T. VALLIER JR.","LONGITUDE":-87.6170103485163},
{"STATE":"IL","ZIP":60618,"LATTITUDE":41.951395073705534,"ADDRESS":"3837 N KEDZIE AVE  ","YEAR":2010,"DOING_BUSINESS_AS_NAME":"VIBENCIO CONSUEGRA","POP_AT_RISK":195330,"BUSINESS_TYPE":"Peddler,food - (fruits and vegetables only) - special","LEGAL_NAME":"VIBENCIO D. CONSUEGRA","LONGITUDE":-87.70779981796335},
{"STATE":"IL","ZIP":60660,"LATTITUDE":41.98520448696692,"ADDRESS":"5657 N WAYNE AVE 1 ","YEAR":2010,"DOING_BUSINESS_AS_NAME":"LEOCADIO GARCIA ALDANA","POP_AT_RISK":1193859,"BUSINESS_TYPE":"Peddler,food - (fruits and vegetables only) - special","LEGAL_NAME":"LEOCADIO GARCIA ALDANA","LONGITUDE":-87.66345032212345},
}