{
{"STATE":"IL","ZIP":60644,"LATTITUDE":41.87288348920551,"ADDRESS":"5049 W HARRISON ST  ","YEAR":2013,"DOING_BUSINESS_AS_NAME":"GOODCITY NFP","POP_AT_RISK":303408,"BUSINESS_TYPE":"Raffles","LEGAL_NAME":"GOODCITY NFP","LONGITUDE":-87.75117316801726},
{"STATE":"IL","ZIP":60638,"LATTITUDE":41.77646068841604,"ADDRESS":"6949 W 63RD PL  ","YEAR":2013,"DOING_BUSINESS_AS_NAME":"ST. RENE CHURCH","POP_AT_RISK":35086,"BUSINESS_TYPE":"Raffles","LEGAL_NAME":"ST RENE CHURCH","LONGITUDE":-87.79542338880776},
{"STATE":"IL","ZIP":60609,"LATTITUDE":41.80267971189791,"ADDRESS":"5013 S HERMITAGE AVE 1ST & 2ND ","YEAR":2013,"DOING_BUSINESS_AS_NAME":"PORT MINISTRIES","POP_AT_RISK":288218,"BUSINESS_TYPE":"Raffles","LEGAL_NAME":"PORT MINISTRIES","LONGITUDE":-87.6683159247784},
{"STATE":"IL","ZIP":60631,"LATTITUDE":41.995875469571075,"ADDRESS":"6323 N NEWCASTLE AVE  ","YEAR":2013,"DOING_BUSINESS_AS_NAME":"ST THECLA SCHOOL","POP_AT_RISK":18239,"BUSINESS_TYPE":"Raffles","LEGAL_NAME":"ST. THECLA SCHOOL","LONGITUDE":-87.79675620156237},
{"STATE":"IL","ZIP":60651,"LATTITUDE":41.90058121225709,"ADDRESS":"4950 W THOMAS ST 1ST ","YEAR":2013,"DOING_BUSINESS_AS_NAME":"BETHEL NEW LIFE INC","POP_AT_RISK":319837,"BUSINESS_TYPE":"Raffles","LEGAL_NAME":"BETHEL NEW LIFE INC","LONGITUDE":-87.75040561250974},
{"STATE":"IL","ZIP":60621,"LATTITUDE":41.79380108969137,"ADDRESS":"843 W GARFIELD BLVD  ","YEAR":2013,"DOING_BUSINESS_AS_NAME":"ST BASIL VISITATION","POP_AT_RISK":191499,"BUSINESS_TYPE":"Raffles","LEGAL_NAME":"ST BASIL VISITATION","LONGITUDE":-87.64688314723936},
{"STATE":"IL","ZIP":60634,"LATTITUDE":41.94528537982695,"ADDRESS":"6949 W ADDISON ST  ","YEAR":2013,"DOING_BUSINESS_AS_NAME":"ST. PRISCILLA PARISH","POP_AT_RISK":148140,"BUSINESS_TYPE":"Raffles","LEGAL_NAME":"ST PRISCILLA PARISH","LONGITUDE":-87.80026504673488},
{"STATE":"IL","ZIP":60655,"LATTITUDE":41.69311327967713,"ADDRESS":"11005 S HOMAN AVE  ","YEAR":2013,"DOING_BUSINESS_AS_NAME":"ST. CHRISTINA PARISH","POP_AT_RISK":50040,"BUSINESS_TYPE":"Raffles","LEGAL_NAME":"ST CHRISTINA  PARISH","LONGITUDE":-87.70568309627774},
{"STATE":"IL","ZIP":60643,"LATTITUDE":41.721353154497784,"ADDRESS":"1500 W 95TH ST  ","YEAR":2013,"DOING_BUSINESS_AS_NAME":"HERITAGE PLAZA","POP_AT_RISK":231568,"BUSINESS_TYPE":"Raffles","LEGAL_NAME":"THIRD BAPTIST CHURCH","LONGITUDE":-87.66027200821352},
{"STATE":"IL","ZIP":60638,"LATTITUDE":41.80530932943512,"ADDRESS":"4810 S LEAMINGTON AVE  ","YEAR":2013,"DOING_BUSINESS_AS_NAME":"OUR LADY OF THE SNOWS","POP_AT_RISK":13441,"BUSINESS_TYPE":"Raffles","LEGAL_NAME":"OUR LADY OF THE SNOWS","LONGITUDE":-87.75180113361945},
{"STATE":"IL","ZIP":60643,"LATTITUDE":41.67970968590551,"ADDRESS":"11741 S WESTERN AVE  ","YEAR":2013,"DOING_BUSINESS_AS_NAME":"ST WALTER PARISH \/ SCHOOL","POP_AT_RISK":38986,"BUSINESS_TYPE":"Raffles","LEGAL_NAME":"ARCHDIOCESE OF CHICAGO","LONGITUDE":-87.68062959916783},
{"STATE":"IL","ZIP":60623,"LATTITUDE":41.86026098144286,"ADDRESS":"1512 S PULASKI RD 1ST ","YEAR":2013,"DOING_BUSINESS_AS_NAME":"BETTER BOYS FOUNDATION","POP_AT_RISK":202035,"BUSINESS_TYPE":"Raffles","LEGAL_NAME":"BETTER BOYS FOUNDATION","LONGITUDE":-87.72514260165443},
{"STATE":"IL","ZIP":60634,"LATTITUDE":41.93858857157271,"ADDRESS":"5900 W BELMONT AVE  ","YEAR":2013,"DOING_BUSINESS_AS_NAME":"ST. PATRICK HIGH SCHOOL","POP_AT_RISK":163920,"BUSINESS_TYPE":"Raffles","LEGAL_NAME":"ST PATRICK HIGH SCHOOL","LONGITUDE":-87.77384909269432},
{"STATE":"IL","ZIP":60638,"LATTITUDE":41.7804764713413,"ADDRESS":"6135 S AUSTIN AVE  ","YEAR":2013,"DOING_BUSINESS_AS_NAME":"ST. SYMPHOROSA SCHOOL","POP_AT_RISK":15782,"BUSINESS_TYPE":"Raffles","LEGAL_NAME":"SAINT SYMPHOROSA SCHOOL","LONGITUDE":-87.77144779252228},
{"STATE":"IL","ZIP":60655,"LATTITUDE":41.70612377529006,"ADDRESS":"3700 W 103RD ST  ","YEAR":2013,"DOING_BUSINESS_AS_NAME":"SAINT XAVIER UNIVERSITY","POP_AT_RISK":31083,"BUSINESS_TYPE":"Raffles","LEGAL_NAME":"SAINT XAVIER UNIVERSITY","LONGITUDE":-87.71369359633356},
{"STATE":"IL","ZIP":60629,"LATTITUDE":41.780471717777914,"ADDRESS":"3721 W 62ND ST  ","YEAR":2013,"DOING_BUSINESS_AS_NAME":"ST NICHOLAS OF TOLENTINE","POP_AT_RISK":231828,"BUSINESS_TYPE":"Raffles","LEGAL_NAME":"ST NICHOLAS OF TOLENTINE","LONGITUDE":-87.71633291158312},
{"STATE":"IL","ZIP":60656,"LATTITUDE":41.97481593505411,"ADDRESS":"5136 N NOTTINGHAM AVE  ","YEAR":2013,"DOING_BUSINESS_AS_NAME":"ST MONICA CHURCH","POP_AT_RISK":125060,"BUSINESS_TYPE":"Raffles","LEGAL_NAME":"CATHOLIC BISHOP OF CHICAGO","LONGITUDE":-87.80372387225738},
{"STATE":"IL","ZIP":60608,"LATTITUDE":41.84220833897254,"ADDRESS":"2859 S THROOP ST  ","YEAR":2013,"DOING_BUSINESS_AS_NAME":"SAINT BARBARA PARISH","POP_AT_RISK":37823,"BUSINESS_TYPE":"Raffles","LEGAL_NAME":"SAINT BARBARA PARISH BINGO","LONGITUDE":-87.65285080095492},
{"STATE":"IL","ZIP":60615,"LATTITUDE":41.8062437143429,"ADDRESS":"4851 S DREXEL BLVD  ","YEAR":2013,"DOING_BUSINESS_AS_NAME":"CROATIAN SCHOOL OF AMERICA","POP_AT_RISK":337936,"BUSINESS_TYPE":"Raffles","LEGAL_NAME":"CROATIAN SCHOOLS OF AMERICA","LONGITUDE":-87.60367979631124},
{"STATE":"IL","ZIP":60646,"LATTITUDE":41.99946016477578,"ADDRESS":"6525 N HIAWATHA AVE 1 ","YEAR":2013,"DOING_BUSINESS_AS_NAME":"EDGEBROOK SCHOOL FOUNDATION","POP_AT_RISK":53868,"BUSINESS_TYPE":"Raffles","LEGAL_NAME":"EDGEBROOK SCHOOL FOUNDATION","LONGITUDE":-87.7618211032257},
{"STATE":"IL","ZIP":60653,"LATTITUDE":41.82779592823685,"ADDRESS":"3663 S WABASH AVE 3 ","YEAR":2013,"DOING_BUSINESS_AS_NAME":"PERSPECTIVES CHARTER SCHOOL","POP_AT_RISK":29963,"BUSINESS_TYPE":"Raffles","LEGAL_NAME":"PERSPECTIVES CHARTER SCHOOL","LONGITUDE":-87.62475128513913},
{"STATE":"IL","ZIP":60641,"LATTITUDE":41.950828263646116,"ADDRESS":"3834 N CICERO AVE 1ST ","YEAR":2013,"DOING_BUSINESS_AS_NAME":"POLISH AMERICAN ASSOCIATION","POP_AT_RISK":48558,"BUSINESS_TYPE":"Raffles","LEGAL_NAME":"POLISH AMERICAN ASSOCIATION","LONGITUDE":-87.74738955902447},
{"STATE":"IL","ZIP":60617,"LATTITUDE":41.70995416965494,"ADDRESS":"10201 S EWING AVE 1ST ","YEAR":2013,"DOING_BUSINESS_AS_NAME":"ST. FRANCES DE SALES PARISH","POP_AT_RISK":59181,"BUSINESS_TYPE":"Raffles","LEGAL_NAME":"ST. FRANCIS DE SALES PARISH","LONGITUDE":-87.53513815125461},
{"STATE":"IL","ZIP":60630,"LATTITUDE":41.96917723324579,"ADDRESS":"4855 N ELSTON AVE 1ST ","YEAR":2013,"DOING_BUSINESS_AS_NAME":"SLOVAK AMER. SOKOL LODGE 306","POP_AT_RISK":45900,"BUSINESS_TYPE":"Raffles","LEGAL_NAME":"SLOVAK AMERICAN SOKOL KRIVAN","LONGITUDE":-87.74166451054992},
{"STATE":"IL","ZIP":60629,"LATTITUDE":41.7790727247982,"ADDRESS":"2609 W 63RD ST  ","YEAR":2013,"DOING_BUSINESS_AS_NAME":"SOUTHWEST ORGANIZING PROJECT","POP_AT_RISK":468837,"BUSINESS_TYPE":"Raffles","LEGAL_NAME":"SOUTHWEST ORGANIZING PROJECT","LONGITUDE":-87.68891743213281},
{"STATE":"IL","ZIP":60632,"LATTITUDE":41.799313736534394,"ADDRESS":"5157 S CALIFORNIA AVE  ","YEAR":2013,"DOING_BUSINESS_AS_NAME":"ST. SIMON THE APOSTLE CHURCH","POP_AT_RISK":109258,"BUSINESS_TYPE":"Raffles","LEGAL_NAME":"ST. SIMON THE APOSTLE CHRUCH","LONGITUDE":-87.6938087219452},
{"STATE":"IL","ZIP":60659,"LATTITUDE":41.99777504688853,"ADDRESS":"2534 W DEVON AVE 2 ","YEAR":2013,"DOING_BUSINESS_AS_NAME":"MIDWEST ASIAN AMERICAN CENTER","POP_AT_RISK":183903,"BUSINESS_TYPE":"Raffles","LEGAL_NAME":"MIDWEST ASIAN AMERICAN CENTER","LONGITUDE":-87.69369214246649},
{"STATE":"IL","ZIP":60638,"LATTITUDE":41.79586265022726,"ADDRESS":"5300 S NATOMA AVE 1ST ","YEAR":2013,"DOING_BUSINESS_AS_NAME":"ST. DANIEL THE PROPHET CHURCH","POP_AT_RISK":26425,"BUSINESS_TYPE":"Raffles","LEGAL_NAME":"ST. DANIEL THE PROPHET CHURCH","LONGITUDE":-87.78816407940643},
{"STATE":"IL","ZIP":60639,"LATTITUDE":41.91595538076389,"ADDRESS":"1921 N KEDVALE AVE  ","YEAR":2013,"DOING_BUSINESS_AS_NAME":"ST PHILOMENA CHURCH","POP_AT_RISK":257948,"BUSINESS_TYPE":"Raffles","LEGAL_NAME":"ST. PHILOMENA CATHOLIC CHURCH","LONGITUDE":-87.73003588302274},
{"STATE":"IL","ZIP":60655,"LATTITUDE":41.71125823220511,"ADDRESS":"10001 S PULASKI RD  ","YEAR":2013,"DOING_BUSINESS_AS_NAME":"BROTHER RICE HIGH SCHOOL","POP_AT_RISK":47552,"BUSINESS_TYPE":"Raffles","LEGAL_NAME":"BROTHER RICE HIGH SCHOOL, INC.","LONGITUDE":-87.72093947340284},
{"STATE":"IL","ZIP":60620,"LATTITUDE":41.7417050755653,"ADDRESS":"41 W 84TH ST 1ST ","YEAR":2013,"DOING_BUSINESS_AS_NAME":"CHICAGO FOOTBALL CLASSIC","POP_AT_RISK":367499,"BUSINESS_TYPE":"Raffles","LEGAL_NAME":"CHICAGO FOOTBALL CLASSIC, INC.","LONGITUDE":-87.62597631099247},
{"STATE":"IL","ZIP":60637,"LATTITUDE":41.79253620872735,"ADDRESS":"1701 E 57TH DR  ","YEAR":2013,"DOING_BUSINESS_AS_NAME":"MUSEUM OF SCIENCE AND INDUSTRY","POP_AT_RISK":102375,"BUSINESS_TYPE":"Raffles","LEGAL_NAME":"MUSEUM OF SCIENCE AND INDUSTRY","LONGITUDE":-87.58379120622547},
{"STATE":"IL","ZIP":60639,"LATTITUDE":41.92233137131519,"ADDRESS":"5352 W BELDEN AVE  ","YEAR":2013,"DOING_BUSINESS_AS_NAME":"ST. STANISLAUS BISHOP & MARTYR","POP_AT_RISK":394800,"BUSINESS_TYPE":"Raffles","LEGAL_NAME":"ST. STANISLAUS BISHOP & MARTYR","LONGITUDE":-87.76071250983351},
{"STATE":"IL","ZIP":60617,"LATTITUDE":41.73693992180307,"ADDRESS":"8708 S COLFAX AVE  ","YEAR":2013,"DOING_BUSINESS_AS_NAME":"ST. BRONISLAVA","POP_AT_RISK":164108,"BUSINESS_TYPE":"Raffles","LEGAL_NAME":"THE CATHOLIC BISHOP OF CHICAGO","LONGITUDE":-87.56129735249945},
{"STATE":"IL","ZIP":60652,"LATTITUDE":41.74337687361192,"ADDRESS":"8200 S KOSTNER AVE  ","YEAR":2013,"DOING_BUSINESS_AS_NAME":"ST. BEDE THE VENERABLE CHURCH","POP_AT_RISK":130260,"BUSINESS_TYPE":"Raffles","LEGAL_NAME":"THE CATHOLIC BISHOP OF CHICAGO","LONGITUDE":-87.73157248582065},
{"STATE":"IL","ZIP":60643,"LATTITUDE":41.706686638839365,"ADDRESS":"1912 W 103RD ST 1 1","YEAR":2013,"DOING_BUSINESS_AS_NAME":"BEACON THERAPEUTIC SCHOOL, INC.","POP_AT_RISK":17795,"BUSINESS_TYPE":"Raffles","LEGAL_NAME":"BEACON THERAPEUTIC SCHOOL, INC.","LONGITUDE":-87.66966989293678},
{"STATE":"IL","ZIP":60638,"LATTITUDE":41.796497571691084,"ADDRESS":"5252 S AUSTIN AVE  ","YEAR":2013,"DOING_BUSINESS_AS_NAME":"ST JANE DE CHANTAL","POP_AT_RISK":23021,"BUSINESS_TYPE":"Raffles","LEGAL_NAME":"CATHOLIC ARCHDIOCESE OF CHICAGO","LONGITUDE":-87.77232894377225},
{"STATE":"IL","ZIP":60632,"LATTITUDE":41.816437469635666,"ADDRESS":"4100 W ANN LURIE PL  ","YEAR":2013,"DOING_BUSINESS_AS_NAME":"GREATER CHICAGO FOOD DEPOSITORY","POP_AT_RISK":21859,"BUSINESS_TYPE":"Raffles","LEGAL_NAME":"GREATER CHICAGO FOOD DEPOSITORY","LONGITUDE":-87.72631747788576},
{"STATE":"IL","ZIP":60626,"LATTITUDE":42.01926576756868,"ADDRESS":"1607 W HOWARD ST 2ND ","YEAR":2013,"DOING_BUSINESS_AS_NAME":"HOUSING OPPORTUNITIES FOR WOMEN","POP_AT_RISK":162459,"BUSINESS_TYPE":"Raffles","LEGAL_NAME":"HOUSING OPPORTUNITIES FOR WOMEN","LONGITUDE":-87.67167773086105},
{"STATE":"IL","ZIP":60622,"LATTITUDE":41.89911060064597,"ADDRESS":"3059 W AUGUSTA BLVD  ","YEAR":2013,"DOING_BUSINESS_AS_NAME":"The Children's Place Association","POP_AT_RISK":209152,"BUSINESS_TYPE":"Raffles","LEGAL_NAME":"THE CHILDREN'S PLACE ASSOCIATION","LONGITUDE":-87.70400352669111},
{"STATE":"IL","ZIP":60647,"LATTITUDE":41.92471241419424,"ADDRESS":"3600 W FULLERTON AVE  ","YEAR":2013,"DOING_BUSINESS_AS_NAME":"INFANT WELFARE SOCIETY OF CHICAGO","POP_AT_RISK":80292,"BUSINESS_TYPE":"Raffles","LEGAL_NAME":"INFANT WELFARE SOCIETY OF CHICAGO","LONGITUDE":-87.71705735148927},
{"STATE":"IL","ZIP":60624,"LATTITUDE":41.88206524576064,"ADDRESS":"4300 W WASHINGTON BLVD  ","YEAR":2013,"DOING_BUSINESS_AS_NAME":"ST. MARTIN DE PORRES","POP_AT_RISK":40298,"BUSINESS_TYPE":"Raffles","LEGAL_NAME":"ST. MARTIN DE PORRES CATHOLIS CHURCH","LONGITUDE":-87.73319078416604},
{"STATE":"IL","ZIP":60631,"LATTITUDE":41.98946579936816,"ADDRESS":"7500 W TALCOTT AVE  ","YEAR":2013,"DOING_BUSINESS_AS_NAME":"RESURRECTION HIGH SCHOOL","POP_AT_RISK":43488,"BUSINESS_TYPE":"Raffles","LEGAL_NAME":"RESURRECTION COLLEGE PREP HIGH SCHOOL","LONGITUDE":-87.81421066629487},
{"STATE":"IL","ZIP":60625,"LATTITUDE":41.96219065391025,"ADDRESS":"4432 N TROY ST  ","YEAR":2013,"DOING_BUSINESS_AS_NAME":"OUR LADY OF MERCY","POP_AT_RISK":322236,"BUSINESS_TYPE":"Raffles","LEGAL_NAME":"CATHOLIC CHURCH ARCHDIOCESE OF CHICAGO","LONGITUDE":-87.7072035366742},
{"STATE":"IL","ZIP":60609,"LATTITUDE":41.81256299285329,"ADDRESS":"4500 S WALLACE ST 1ST ","YEAR":2013,"DOING_BUSINESS_AS_NAME":"ST. GABRIEL SCHOOL","POP_AT_RISK":13842,"BUSINESS_TYPE":"Raffles","LEGAL_NAME":"ARCHDIOCESE OF CHICAGO\/ST. GABRIEL SCHOOL","LONGITUDE":-87.64091625403532},
{"STATE":"IL","ZIP":60637,"LATTITUDE":41.78535881138583,"ADDRESS":"6020 S UNIVERSITY AVE  ","YEAR":2013,"DOING_BUSINESS_AS_NAME":"THE YOUNG CENTER FOR IMMIGRANT CHILDREN'S RIGHTS","POP_AT_RISK":37638,"BUSINESS_TYPE":"Raffles","LEGAL_NAME":"THE YOUNG CENTER FOR IMMIGRANT CHILDREN'S RIGHTS","LONGITUDE":-87.59807988064944},
{"STATE":"IL","ZIP":60641,"LATTITUDE":41.93934290151529,"ADDRESS":"3217 N CICERO AVE 1ST ","YEAR":2013,"DOING_BUSINESS_AS_NAME":"DEFCO","POP_AT_RISK":129460,"BUSINESS_TYPE":"Raffles","LEGAL_NAME":"DIABETIC AND EPILEPTIC FAMILY CHARITY ORGANIZATION","LONGITUDE":-87.74673144130682},
{"STATE":"IL","ZIP":60632,"LATTITUDE":41.81472363423928,"ADDRESS":"4325 S RICHMOND ST 1ST ","YEAR":2013,"DOING_BUSINESS_AS_NAME":"CATHOLIC BISHOP OF CHICAGO\/POPE JOHN PAUL II CATHOLIC SCHOOL","POP_AT_RISK":189196,"BUSINESS_TYPE":"Raffles","LEGAL_NAME":"Catholic Bishop of Chicago\/Pope John Paul II Catholic School","LONGITUDE":-87.69794253337163},
{"STATE":"IL","ZIP":60633,"LATTITUDE":41.652953675006444,"ADDRESS":"13323 S GREEN BAY AVE  ","YEAR":2013,"DOING_BUSINESS_AS_NAME":"ST COLUMBA PARISH COUNCIL RAFFLE","POP_AT_RISK":21668,"BUSINESS_TYPE":"Raffles","LEGAL_NAME":"ST COLUMBA PARISH SCHOOL BOARDARCHDIOCESE OF CHICAGO-ST COLUMBA","LONGITUDE":-87.54095862410118},
{"STATE":"IL","ZIP":60631,"LATTITUDE":41.98121020982407,"ADDRESS":"8430 W BRYN MAWR AVE 8 800","YEAR":2013,"DOING_BUSINESS_AS_NAME":"ALZHEIMER'S DISEASE AND RELATED DISORDERS ASSOCIATION, GREATER ILLINOIS CHAPTER","POP_AT_RISK":26948,"BUSINESS_TYPE":"Raffles","LEGAL_NAME":"ALZHEIMER'S DISEASE AND RELATED DISORDERS ASSOCIATION, GREATER ILLINOIS CHAPTER","LONGITUDE":-87.83801331542305},
}