{
{"STATE":"IL","ZIP":60714,"LATTITUDE":42.00880409570328,"ADDRESS":"7319  GREENLEAF   ","YEAR":2007,"DOING_BUSINESS_AS_NAME":"HYDRONICS, INC","POP_AT_RISK":15229,"BUSINESS_TYPE":"Home Repair","LEGAL_NAME":"FLORIN BENIUC","LONGITUDE":-87.80991034461503},
{"STATE":"IL","ZIP":60634,"LATTITUDE":41.93814813908292,"ADDRESS":"3213 N PACIFIC AVE  ","YEAR":2007,"DOING_BUSINESS_AS_NAME":"WINDY CITY WINDOWS AND REMODELING","POP_AT_RISK":32652,"BUSINESS_TYPE":"Home Repair","LEGAL_NAME":"ROBERT M ABBINANTI","LONGITUDE":-87.82618925190799},
{"STATE":"IL","ZIP":60644,"LATTITUDE":41.86562678619083,"ADDRESS":"5818 W ROOSEVELT RD  ","YEAR":2007,"DOING_BUSINESS_AS_NAME":"VIP TECH CORP","POP_AT_RISK":209672,"BUSINESS_TYPE":"Home Repair","LEGAL_NAME":"VIP TECH CORPORATION","LONGITUDE":-87.770106792239},
{"STATE":"IL","ZIP":60628,"LATTITUDE":41.66535420050011,"ADDRESS":"12565 S WENTWORTH AVE  ","YEAR":2007,"DOING_BUSINESS_AS_NAME":"HEATING & AIR CONDITIONING","POP_AT_RISK":15621,"BUSINESS_TYPE":"Home Repair","LEGAL_NAME":"WILLIAM ARTHUR WILSON","LONGITUDE":-87.62690817679636},
{"STATE":"IL","ZIP":60827,"LATTITUDE":41.657071201021026,"ADDRESS":"1138 E 131ST ST  ","YEAR":2007,"DOING_BUSINESS_AS_NAME":"FIOC Construction Company","POP_AT_RISK":6482,"BUSINESS_TYPE":"Home Repair","LEGAL_NAME":"FIOC Construction Company","LONGITUDE":-87.59378865341947},
{"STATE":"IL","ZIP":60655,"LATTITUDE":41.68404315198033,"ADDRESS":"4052 W 115TH ST 4 408","YEAR":2007,"DOING_BUSINESS_AS_NAME":"INNOVATIVE CONSTRUCTION","POP_AT_RISK":17633,"BUSINESS_TYPE":"Home Repair","LEGAL_NAME":"INNOVATIVE CONSTRUCTION LLC","LONGITUDE":-87.72202679774166},
{"STATE":"IL","ZIP":60656,"LATTITUDE":41.973360026362016,"ADDRESS":"5202 N WESLEY TER 1 ","YEAR":2007,"DOING_BUSINESS_AS_NAME":"GRANITE & MARBLE DESIGNS INC","POP_AT_RISK":16526,"BUSINESS_TYPE":"Home Repair","LEGAL_NAME":"GRANITE & MARBLE DESIGNS INC","LONGITUDE":-87.86421787628339},
{"STATE":"IL","ZIP":60655,"LATTITUDE":41.704138271482805,"ADDRESS":"10359 S PULASKI RD  ","YEAR":2007,"DOING_BUSINESS_AS_NAME":"MURPHY'S WINDOWS & SUNROOMS","POP_AT_RISK":22802,"BUSINESS_TYPE":"Home Repair","LEGAL_NAME":"MURPHY'S WINDOW & SIDING SYS","LONGITUDE":-87.72068680605787},
{"STATE":"IL","ZIP":60655,"LATTITUDE":41.706401044147185,"ADDRESS":"2850 W 103RD ST  ","YEAR":2007,"DOING_BUSINESS_AS_NAME":"TNT HEATING AND AIR CONDITIONING","POP_AT_RISK":32264,"BUSINESS_TYPE":"Home Repair","LEGAL_NAME":"TNT HEATING & AIR CONDITIONING","LONGITUDE":-87.69352850569015},
{"STATE":"IL","ZIP":60631,"LATTITUDE":41.98109378013414,"ADDRESS":"8700 W BRYN MAWR AVE  800","YEAR":2007,"DOING_BUSINESS_AS_NAME":"M.B.P. CONSTRUCTION ENTERPRISES INCORPORATED","POP_AT_RISK":21169,"BUSINESS_TYPE":"Home Repair","LEGAL_NAME":"M.B.P. CONSTRUCTION ENTERPRISES INCORPORATED","LONGITUDE":-87.844075627491},
}