{
{"STATE":"IL","ZIP":60623,"LATTITUDE":41.8519834015245,"ADDRESS":"2850 W CERMAK RD  B","YEAR":2011,"DOING_BUSINESS_AS_NAME":"ALEXIS USED FURNITURE","POP_AT_RISK":1035952,"BUSINESS_TYPE":"Secondhand Dealer (No Valuable Objects)","LEGAL_NAME":"ALFONSO ORTIZ","LONGITUDE":-87.6976295091615},
{"STATE":"IL","ZIP":60629,"LATTITUDE":41.78644334606665,"ADDRESS":"2413 W 59TH ST 1 1","YEAR":2011,"DOING_BUSINESS_AS_NAME":"USEDGENERALFURNITURE.COM","POP_AT_RISK":118320,"BUSINESS_TYPE":"Secondhand Dealer (No Valuable Objects)","LEGAL_NAME":"ARTURO ROMERO","LONGITUDE":-87.68443997353751},
{"STATE":"IL","ZIP":60657,"LATTITUDE":41.94002831319855,"ADDRESS":"952 W BELMONT AVE 1 ","YEAR":2011,"DOING_BUSINESS_AS_NAME":"IFIX CELLPHONE","POP_AT_RISK":99384,"BUSINESS_TYPE":"Secondhand Dealer (No Valuable Objects)","LEGAL_NAME":"JAM JAM, INC.","LONGITUDE":-87.653497831431},
{"STATE":"IL","ZIP":60616,"LATTITUDE":41.83118500986137,"ADDRESS":"244 E 35TH ST 1 ","YEAR":2011,"DOING_BUSINESS_AS_NAME":"123 WIRELESS","POP_AT_RISK":652726,"BUSINESS_TYPE":"Secondhand Dealer (No Valuable Objects)","LEGAL_NAME":"MARRYANN INC.","LONGITUDE":-87.62002241050031},
{"STATE":"IL","ZIP":60651,"LATTITUDE":41.90245322059611,"ADDRESS":"4245 W DIVISION ST 1ST ","YEAR":2011,"DOING_BUSINESS_AS_NAME":"BUY IT FOR LESS","POP_AT_RISK":184808,"BUSINESS_TYPE":"Secondhand Dealer (No Valuable Objects)","LEGAL_NAME":"NICOLAS ROBLES","LONGITUDE":-87.73302349151056},
{"STATE":"IL","ZIP":60649,"LATTITUDE":41.75296357348539,"ADDRESS":"7810-7816 S STONY ISLAND AVE 1ST ","YEAR":2011,"DOING_BUSINESS_AS_NAME":"LANDMARK LIQUIDATION & AUCTION CO","POP_AT_RISK":158980,"BUSINESS_TYPE":"Secondhand Dealer (No Valuable Objects)","LEGAL_NAME":"CHARLES MC GARY","LONGITUDE":-87.58621477696666},
{"STATE":"IL","ZIP":60622,"LATTITUDE":41.91047624774772,"ADDRESS":"1719 W NORTH AVE 1ST 1W","YEAR":2011,"DOING_BUSINESS_AS_NAME":"eRepairsolution.com","POP_AT_RISK":118272,"BUSINESS_TYPE":"Secondhand Dealer (No Valuable Objects)","LEGAL_NAME":"JM INTERNATIONL","LONGITUDE":-87.67089977747273},
{"STATE":"IL","ZIP":60651,"LATTITUDE":41.89548373128249,"ADDRESS":"3942 W CHICAGO AVE 1ST ","YEAR":2011,"DOING_BUSINESS_AS_NAME":"CAGO WIRELESS","POP_AT_RISK":88406,"BUSINESS_TYPE":"Secondhand Dealer (No Valuable Objects)","LEGAL_NAME":"LUGANO ONE INC.","LONGITUDE":-87.72529073995163},
{"STATE":"IL","ZIP":60659,"LATTITUDE":41.99757434394706,"ADDRESS":"3012 W DEVON AVE 1ST ","YEAR":2011,"DOING_BUSINESS_AS_NAME":"DEVON COMMUNICATION","POP_AT_RISK":308500,"BUSINESS_TYPE":"Secondhand Dealer (No Valuable Objects)","LEGAL_NAME":"U T GADGETS INC.","LONGITUDE":-87.70508424839316},
{"STATE":"IL","ZIP":60615,"LATTITUDE":41.79940011116613,"ADDRESS":"1377 E 53RD ST 1 ","YEAR":2011,"DOING_BUSINESS_AS_NAME":"HYDEPARK RECORDS","POP_AT_RISK":570080,"BUSINESS_TYPE":"Secondhand Dealer (No Valuable Objects)","LEGAL_NAME":"GROOVEONLINE, INC.","LONGITUDE":-87.5919995506027},
{"STATE":"IL","ZIP":60629,"LATTITUDE":41.778566567291335,"ADDRESS":"4702 W 63RD ST 1ST ","YEAR":2011,"DOING_BUSINESS_AS_NAME":"XTREME MOBILE INC.","POP_AT_RISK":153078,"BUSINESS_TYPE":"Secondhand Dealer (No Valuable Objects)","LEGAL_NAME":"XTREME MOBILE INC.","LONGITUDE":-87.73998283949524},
{"STATE":"IL","ZIP":60636,"LATTITUDE":41.76795743887444,"ADDRESS":"6910 S WESTERN AVE 1ST ","YEAR":2011,"DOING_BUSINESS_AS_NAME":"THE CONNECTION INC","POP_AT_RISK":108654,"BUSINESS_TYPE":"Secondhand Dealer (No Valuable Objects)","LEGAL_NAME":"THE CONNECTION INC.","LONGITUDE":-87.68347766848447},
{"STATE":"IL","ZIP":60625,"LATTITUDE":41.96819485557927,"ADDRESS":"3737 W LAWRENCE AVE 1 C","YEAR":2011,"DOING_BUSINESS_AS_NAME":"AU ELECTRONICS","POP_AT_RISK":740630,"BUSINESS_TYPE":"Secondhand Dealer (No Valuable Objects)","LEGAL_NAME":"AU ELECTRONICS, INC.","LONGITUDE":-87.72227079661039},
{"STATE":"IL","ZIP":60641,"LATTITUDE":41.953404894341084,"ADDRESS":"4425 W IRVING PARK RD 1ST ","YEAR":2011,"DOING_BUSINESS_AS_NAME":"DVTV' S","POP_AT_RISK":557062,"BUSINESS_TYPE":"Secondhand Dealer (No Valuable Objects)","LEGAL_NAME":"DOWNLOAD VALET, INC.","LONGITUDE":-87.73922016374782},
{"STATE":"IL","ZIP":60626,"LATTITUDE":42.019479023693876,"ADDRESS":"7600 N PAULINA ST 1ST ","YEAR":2011,"DOING_BUSINESS_AS_NAME":"KKH COMMUNICATION & ELECTRONICS","POP_AT_RISK":750888,"BUSINESS_TYPE":"Secondhand Dealer (No Valuable Objects)","LEGAL_NAME":"MOHAMMED KHAN SHAMIM","LONGITUDE":-87.67325237181792},
{"STATE":"IL","ZIP":60612,"LATTITUDE":41.8863656527098,"ADDRESS":"266 N KEDZIE AVE  ","YEAR":2011,"DOING_BUSINESS_AS_NAME":"AMERTEL CELLULAR INC","POP_AT_RISK":297891,"BUSINESS_TYPE":"Secondhand Dealer (No Valuable Objects)","LEGAL_NAME":"AMERTEL CELLULAR, INC","LONGITUDE":-87.70642715108946},
{"STATE":"IL","ZIP":60619,"LATTITUDE":41.75151682163721,"ADDRESS":"1244 E 79TH ST 1 1","YEAR":2011,"DOING_BUSINESS_AS_NAME":"SOLO WIRELESS","POP_AT_RISK":101082,"BUSINESS_TYPE":"Secondhand Dealer (No Valuable Objects)","LEGAL_NAME":"B ISMAIL INCORPORATED","LONGITUDE":-87.59370672167329},
{"STATE":"IL","ZIP":60657,"LATTITUDE":41.94157492848754,"ADDRESS":"3268 N CLARK ST 1ST ","YEAR":2011,"DOING_BUSINESS_AS_NAME":"PEOPLE PLAY GAMES","POP_AT_RISK":99014,"BUSINESS_TYPE":"Secondhand Dealer (No Valuable Objects)","LEGAL_NAME":"PEOPLE PLAY GAMES LLC","LONGITUDE":-87.65215811933149},
{"STATE":"IL","ZIP":60622,"LATTITUDE":41.90913708590372,"ADDRESS":"1524 N MILWAUKEE AVE FIRST ","YEAR":2011,"DOING_BUSINESS_AS_NAME":"The Exchange Buy Sell Trade","POP_AT_RISK":135474,"BUSINESS_TYPE":"Secondhand Dealer (No Valuable Objects)","LEGAL_NAME":"J.S. MUSIC CORPORATION","LONGITUDE":-87.67575279846864},
{"STATE":"IL","ZIP":60624,"LATTITUDE":41.86629404009699,"ADDRESS":"3938 W ROOSEVELT RD 1ST ","YEAR":2011,"DOING_BUSINESS_AS_NAME":"HOTLINE","POP_AT_RISK":563654,"BUSINESS_TYPE":"Secondhand Dealer (No Valuable Objects)","LEGAL_NAME":"JOUDEH WIRELESS, INC.,","LONGITUDE":-87.72432589687341},
{"STATE":"IL","ZIP":60621,"LATTITUDE":41.75983384439542,"ADDRESS":"7358 S HALSTED ST  ","YEAR":2011,"DOING_BUSINESS_AS_NAME":"ABC CHOICE","POP_AT_RISK":412860,"BUSINESS_TYPE":"Secondhand Dealer (No Valuable Objects)","LEGAL_NAME":"Y & Y ENTERPRISE, INC.","LONGITUDE":-87.6444234755419},
{"STATE":"IL","ZIP":60636,"LATTITUDE":41.793229706112776,"ADDRESS":"5512 S ASHLAND AVE 1 ","YEAR":2011,"DOING_BUSINESS_AS_NAME":"ABC","POP_AT_RISK":167936,"BUSINESS_TYPE":"Secondhand Dealer (No Valuable Objects)","LEGAL_NAME":"GARFIELD CONNECTION INC","LONGITUDE":-87.66470926450066},
{"STATE":"IL","ZIP":60609,"LATTITUDE":41.80299024852183,"ADDRESS":"5002 S ASHLAND AVE  ","YEAR":2011,"DOING_BUSINESS_AS_NAME":"THE CONNECTION","POP_AT_RISK":115506,"BUSINESS_TYPE":"Secondhand Dealer (No Valuable Objects)","LEGAL_NAME":"ASHLAND CONNECTION, INC.","LONGITUDE":-87.66496693821772},
{"STATE":"IL","ZIP":60629,"LATTITUDE":41.77698208964289,"ADDRESS":"6405 S KEDZIE AVE 1ST ","YEAR":2011,"DOING_BUSINESS_AS_NAME":"J & C THRIFT STORE, INC.","POP_AT_RISK":313220,"BUSINESS_TYPE":"Secondhand Dealer (No Valuable Objects)","LEGAL_NAME":"J & C THRIFT STORE, INC.","LONGITUDE":-87.70294465001373},
{"STATE":"IL","ZIP":60630,"LATTITUDE":41.97670302410916,"ADDRESS":"5564 W FARRAGUT AVE 1ST ","YEAR":2011,"DOING_BUSINESS_AS_NAME":"NORTHWEST VIDEO GAMES","POP_AT_RISK":270048,"BUSINESS_TYPE":"Secondhand Dealer (No Valuable Objects)","LEGAL_NAME":"RAUL EDUARDO PALMA PEREZ","LONGITUDE":-87.76809464300325},
{"STATE":"IL","ZIP":60639,"LATTITUDE":41.91685113711557,"ADDRESS":"1951 N PULASKI RD 1ST ","YEAR":2011,"DOING_BUSINESS_AS_NAME":"PAGE TEL CELLULAR 2","POP_AT_RISK":1283483,"BUSINESS_TYPE":"Secondhand Dealer (No Valuable Objects)","LEGAL_NAME":"PAGE TEL CELLULAR 2, INC.","LONGITUDE":-87.72639928061933},
{"STATE":"IL","ZIP":60660,"LATTITUDE":41.993674733493634,"ADDRESS":"6147 N BROADWAY   ","YEAR":2011,"DOING_BUSINESS_AS_NAME":"BESTCOM-WIRELESS","POP_AT_RISK":1384815,"BUSINESS_TYPE":"Secondhand Dealer (No Valuable Objects)","LEGAL_NAME":"RAYYAN COMMUNICATION INC.","LONGITUDE":-87.66023318180571},
{"STATE":"IL","ZIP":60652,"LATTITUDE":41.74988655467704,"ADDRESS":"2511 W 79TH ST 1ST ","YEAR":2011,"DOING_BUSINESS_AS_NAME":"KEITH THE COMPUTER GUY","POP_AT_RISK":145340,"BUSINESS_TYPE":"Secondhand Dealer (No Valuable Objects)","LEGAL_NAME":"KEITH THE COMPUTER GUY LLC","LONGITUDE":-87.6857695989238},
{"STATE":"IL","ZIP":60628,"LATTITUDE":41.713495573303135,"ADDRESS":"9923 S HALSTED ST 1ST ","YEAR":2011,"DOING_BUSINESS_AS_NAME":"THE SOURCE","POP_AT_RISK":256923,"BUSINESS_TYPE":"Secondhand Dealer (No Valuable Objects)","LEGAL_NAME":"A & A CLOTHING & CELLULAR, INC.","LONGITUDE":-87.64283393649},
{"STATE":"IL","ZIP":60657,"LATTITUDE":41.940079496683275,"ADDRESS":"820 W BELMONT AVE 1ST FLOOR 1","YEAR":2011,"DOING_BUSINESS_AS_NAME":"BYTES & COFFEE","POP_AT_RISK":176388,"BUSINESS_TYPE":"Secondhand Dealer (No Valuable Objects)","LEGAL_NAME":"VUKASIN MITROVIC AND DRAGOLJUB BATAR","LONGITUDE":-87.65011278064429},
{"STATE":"IL","ZIP":60647,"LATTITUDE":41.92500732368619,"ADDRESS":"2408-2410 W FULLERTON AVE 1 ","YEAR":2011,"DOING_BUSINESS_AS_NAME":"CHICAGO INDEPENDENT DISTRIBUTION, LLC","POP_AT_RISK":786786,"BUSINESS_TYPE":"Secondhand Dealer (No Valuable Objects)","LEGAL_NAME":"CHICAGO INDEPENDENT DISTRIBUTION, LLC","LONGITUDE":-87.68801953359667},
}