{
{"STATE":"IL","ZIP":60634,"LATTITUDE":41.93814813908292,"ADDRESS":"3213 N PACIFIC AVE  ","YEAR":2008,"DOING_BUSINESS_AS_NAME":"BULGARIAN CENTER","POP_AT_RISK":65304,"BUSINESS_TYPE":"Broker","LEGAL_NAME":"BULGARA INC.","LONGITUDE":-87.82618925190799},
{"STATE":"IL","ZIP":60644,"LATTITUDE":41.86563388414599,"ADDRESS":"5806 W ROOSEVELT RD 1ST ","YEAR":2008,"DOING_BUSINESS_AS_NAME":"MANUEL ORTIZ","POP_AT_RISK":576598,"BUSINESS_TYPE":"Broker","LEGAL_NAME":"MANUEL ORTIZ","LONGITUDE":-87.76955398692914},
{"STATE":"IL","ZIP":60646,"LATTITUDE":41.98979237059395,"ADDRESS":"4747 W PETERSON AVE LL 2","YEAR":2008,"DOING_BUSINESS_AS_NAME":"RAMA TOURS INC","POP_AT_RISK":19796,"BUSINESS_TYPE":"Broker","LEGAL_NAME":"RAMA TOURS INC.","LONGITUDE":-87.74784256216424},
{"STATE":"IL","ZIP":60617,"LATTITUDE":41.734844505482805,"ADDRESS":"8823 S COMMERCIAL AVE 1ST ","YEAR":2008,"DOING_BUSINESS_AS_NAME":"ROCHA TRAVEL\/SANTI'S ICE CREAM","POP_AT_RISK":50420,"BUSINESS_TYPE":"Broker","LEGAL_NAME":"ERNESTO GONZALEZ","LONGITUDE":-87.55122784891006},
{"STATE":"IL","ZIP":60637,"LATTITUDE":41.773123195333895,"ADDRESS":"500 E 67TH ST  ","YEAR":2008,"DOING_BUSINESS_AS_NAME":"NU STAGE THEATRE","POP_AT_RISK":341991,"BUSINESS_TYPE":"Broker","LEGAL_NAME":"NU STAGE THEATRE","LONGITUDE":-87.61298770791186},
{"STATE":"IL","ZIP":60645,"LATTITUDE":42.01926303068784,"ADDRESS":"2705 W HOWARD ST  ","YEAR":2008,"DOING_BUSINESS_AS_NAME":"OVERSEAS EXPRESS INC","POP_AT_RISK":130950,"BUSINESS_TYPE":"Broker","LEGAL_NAME":"OVERSEAS EXPRESS","LONGITUDE":-87.69749800849222},
{"STATE":"IL","ZIP":60638,"LATTITUDE":41.792020152973315,"ADDRESS":"6835 W ARCHER AVE 1ST ","YEAR":2008,"DOING_BUSINESS_AS_NAME":"TRAVEL FORUM,INC","POP_AT_RISK":37594,"BUSINESS_TYPE":"Broker","LEGAL_NAME":"TRAVEL FORUM,INC","LONGITUDE":-87.79293805360257},
{"STATE":"IL","ZIP":60620,"LATTITUDE":41.74595426680885,"ADDRESS":"8116 S WESTERN AVE 1ST ","YEAR":2008,"DOING_BUSINESS_AS_NAME":"WAY TO GO TRAVEL","POP_AT_RISK":171042,"BUSINESS_TYPE":"Broker","LEGAL_NAME":"VIRGINIA L. SMITH","LONGITUDE":-87.68289677791954},
{"STATE":"IL","ZIP":60643,"LATTITUDE":41.706631713956725,"ADDRESS":"1439 W 103RD ST  2","YEAR":2008,"DOING_BUSINESS_AS_NAME":"TWINS TRAVEL UNLIMITED","POP_AT_RISK":51508,"BUSINESS_TYPE":"Broker","LEGAL_NAME":"EVELYN  M.ANDERSON","LONGITUDE":-87.65896142211443},
{"STATE":"IL","ZIP":60707,"LATTITUDE":41.92343318428224,"ADDRESS":"7115 W GRAND AVE  ","YEAR":2008,"DOING_BUSINESS_AS_NAME":"ATLANTIC TRAVEL & TOURS","POP_AT_RISK":42019,"BUSINESS_TYPE":"Broker","LEGAL_NAME":"THOMAS R. FROHLICH","LONGITUDE":-87.8032678930031},
{"STATE":"IL","ZIP":60652,"LATTITUDE":41.73841150273835,"ADDRESS":"8503 S PULASKI RD  ","YEAR":2008,"DOING_BUSINESS_AS_NAME":"JETWAY WORLD TRAVEL","POP_AT_RISK":75699,"BUSINESS_TYPE":"Broker","LEGAL_NAME":"SCOTLIND TRAVEL LTD","LONGITUDE":-87.72140865872521},
{"STATE":"IL","ZIP":60655,"LATTITUDE":41.69163599044943,"ADDRESS":"2559 W 111TH ST  ","YEAR":2008,"DOING_BUSINESS_AS_NAME":"DISCOVER TRAVEL, INC","POP_AT_RISK":21672,"BUSINESS_TYPE":"Broker","LEGAL_NAME":"DISCOVER TRAVEL, INC","LONGITUDE":-87.68577418115912},
{"STATE":"IL","ZIP":60615,"LATTITUDE":41.80012851019524,"ADDRESS":"5226 S HARPER AVE  ","YEAR":2008,"DOING_BUSINESS_AS_NAME":"DR WAX RECORDS","POP_AT_RISK":661963,"BUSINESS_TYPE":"Broker","LEGAL_NAME":"G AND S RECORDS, INC","LONGITUDE":-87.58920988297274},
{"STATE":"IL","ZIP":60656,"LATTITUDE":41.9735836675355,"ADDRESS":"5057 N HARLEM AVE 1ST ","YEAR":2008,"DOING_BUSINESS_AS_NAME":"INTERDOME TRAVEL INC","POP_AT_RISK":30252,"BUSINESS_TYPE":"Broker","LEGAL_NAME":"INTERDOME TRAVEL INC","LONGITUDE":-87.80691645928532},
{"STATE":"IL","ZIP":60631,"LATTITUDE":42.01748743236638,"ADDRESS":"7512 N HARLEM AVE 1ST ","YEAR":2008,"DOING_BUSINESS_AS_NAME":"METROPOLE TRAVEL, INC.","POP_AT_RISK":56158,"BUSINESS_TYPE":"Broker","LEGAL_NAME":"METROPOLE TRAVEL, INC.","LONGITUDE":-87.80671443332021},
{"STATE":"IL","ZIP":60616,"LATTITUDE":41.838333344180036,"ADDRESS":"439 E 31ST ST 1 ","YEAR":2008,"DOING_BUSINESS_AS_NAME":"TRA-VAL SERVICES","POP_AT_RISK":95896,"BUSINESS_TYPE":"Broker","LEGAL_NAME":"TRA-VAL SERVICES, INC.","LONGITUDE":-87.6156134594386},
{"STATE":"IL","ZIP":60629,"LATTITUDE":41.78634364325531,"ADDRESS":"2651 W 59TH ST  ","YEAR":2008,"DOING_BUSINESS_AS_NAME":"COMMUNITY FINANCIAL  CORP.","POP_AT_RISK":132442,"BUSINESS_TYPE":"Broker","LEGAL_NAME":"COMMUNITY FINANCIAL CORP.","LONGITUDE":-87.69075432165229},
{"STATE":"IL","ZIP":60612,"LATTITUDE":41.87417293594547,"ADDRESS":"1926 W HARRISON ST 1ST ","YEAR":2008,"DOING_BUSINESS_AS_NAME":"DIRECT EXPRESS TOURS INC.","POP_AT_RISK":169225,"BUSINESS_TYPE":"Broker","LEGAL_NAME":"DIRECT EXPRESS TOURS INC.","LONGITUDE":-87.67509296181764},
{"STATE":"IL","ZIP":60649,"LATTITUDE":41.765990001140594,"ADDRESS":"2101 E 71ST ST  ","YEAR":2008,"DOING_BUSINESS_AS_NAME":"DOMINICK'S # 130\/1130","POP_AT_RISK":43337,"BUSINESS_TYPE":"Broker","LEGAL_NAME":"DOMINICK'S FINER FOODS, LLC","LONGITUDE":-87.57378733665412},
{"STATE":"IL","ZIP":60632,"LATTITUDE":41.814805132582975,"ADDRESS":"4330 S ARCHER AVE 1ST FLOOR 1","YEAR":2008,"DOING_BUSINESS_AS_NAME":"MULTIVIAJES GUTIERREZ","POP_AT_RISK":45567,"BUSINESS_TYPE":"Broker","LEGAL_NAME":"MULTIVIAJES GUTIERREZ, INC.","LONGITUDE":-87.70331158714477},
{"STATE":"IL","ZIP":60620,"LATTITUDE":41.73589838622629,"ADDRESS":"953 W 87TH ST  ","YEAR":2008,"DOING_BUSINESS_AS_NAME":"TREASURE ISLAND TRAVEL INC","POP_AT_RISK":250096,"BUSINESS_TYPE":"Broker","LEGAL_NAME":"TREASURE ISLAND TRAVEL, INC","LONGITUDE":-87.64817738580423},
{"STATE":"IL","ZIP":60619,"LATTITUDE":41.74777900897866,"ADDRESS":"8050 S DR MARTIN LUTHER KING JR DR 1ST ","YEAR":2008,"DOING_BUSINESS_AS_NAME":"EYES AROUND THE WORLD TRAVEL","POP_AT_RISK":176870,"BUSINESS_TYPE":"Broker","LEGAL_NAME":"EYES AROUND THE WORLD TRAVEL","LONGITUDE":-87.61502631469793},
{"STATE":"IL","ZIP":60633,"LATTITUDE":41.653769484084265,"ADDRESS":"13259 S BALTIMORE AVE 1ST ","YEAR":2008,"DOING_BUSINESS_AS_NAME":"PACK YOUR BAGS TRAVEL & CRUISE","POP_AT_RISK":40896,"BUSINESS_TYPE":"Broker","LEGAL_NAME":"PACK YOUR BAGS & TRAVEL CRUISE","LONGITUDE":-87.54700271536521},
{"STATE":"IL","ZIP":60651,"LATTITUDE":41.898867241581556,"ADDRESS":"4630 W AUGUSTA BLVD 1ST 1","YEAR":2008,"DOING_BUSINESS_AS_NAME":"TRANSPORTES GUERRERO","POP_AT_RISK":142840,"BUSINESS_TYPE":"Broker","LEGAL_NAME":"TOURS & CHARTERS SALGADO, INC.","LONGITUDE":-87.74249483200671},
{"STATE":"IL","ZIP":60623,"LATTITUDE":41.84426644699866,"ADDRESS":"4310 W 26TH ST  ","YEAR":2008,"DOING_BUSINESS_AS_NAME":"UNIVERSAL TRAVEL SERVICES","POP_AT_RISK":45902,"BUSINESS_TYPE":"Broker","LEGAL_NAME":"UNIVERSAL TRAVEL SERVICES, INC.","LONGITUDE":-87.73154096730023},
}