{
{"STATE":"IL","ZIP":60612,"LATTITUDE":41.87766464568878,"ADDRESS":"229 S WESTERN AVE  ","YEAR":2004,"DOING_BUSINESS_AS_NAME":"FISH & CHICKEN SENSATIONS","POP_AT_RISK":48148,"BUSINESS_TYPE":"Retail Food Establishment","LEGAL_NAME":"SILWAN,INC.","LONGITUDE":-87.68619648268242},
{"STATE":"IL","ZIP":60643,"LATTITUDE":41.70263854931954,"ADDRESS":"10500 S WESTERN AVE  ","YEAR":2004,"DOING_BUSINESS_AS_NAME":"JJ SAUSAGE INC","POP_AT_RISK":172184,"BUSINESS_TYPE":"Retail Food Establishment","LEGAL_NAME":"JJ SAUSAGE INC","LONGITUDE":-87.68164578260658},
{"STATE":"IL","ZIP":60639,"LATTITUDE":41.90941409870241,"ADDRESS":"5832 W NORTH AVE  ","YEAR":2004,"DOING_BUSINESS_AS_NAME":"LOTT'S OF CHICKEN","POP_AT_RISK":441837,"BUSINESS_TYPE":"Retail Food Establishment","LEGAL_NAME":"LARRY THOMPSON","LONGITUDE":-87.77157779620596},
{"STATE":"IL","ZIP":60659,"LATTITUDE":41.99731747733142,"ADDRESS":"3105 W DEVON AVE  ","YEAR":2004,"DOING_BUSINESS_AS_NAME":"U'R GROCERY TOBACCO","POP_AT_RISK":395353,"BUSINESS_TYPE":"Retail Food Establishment","LEGAL_NAME":"STEVE H. JAJOU","LONGITUDE":-87.70716804844962},
{"STATE":"IL","ZIP":60625,"LATTITUDE":41.968552976401575,"ADDRESS":"3216 W LAWRENCE AVE  ","YEAR":2004,"DOING_BUSINESS_AS_NAME":"GEORGES KABOB","POP_AT_RISK":76121,"BUSINESS_TYPE":"Retail Food Establishment","LEGAL_NAME":"ADNAN S GORGEES","LONGITUDE":-87.70920976165465},
{"STATE":"IL","ZIP":60645,"LATTITUDE":42.0086715871867,"ADDRESS":"7000 N WESTERN AVE 1ST ","YEAR":2004,"DOING_BUSINESS_AS_NAME":"JACKEY'S ICE CREAM","POP_AT_RISK":66799,"BUSINESS_TYPE":"Retail Food Establishment","LEGAL_NAME":"C & J ICE CREAM","LONGITUDE":-87.69031083829896},
{"STATE":"IL","ZIP":60654,"LATTITUDE":41.8880742810662,"ADDRESS":"222 W MERCHANDISE MART PLZ 3 FC3","YEAR":2004,"DOING_BUSINESS_AS_NAME":"Pita Pavilion","POP_AT_RISK":329755,"BUSINESS_TYPE":"Retail Food Establishment","LEGAL_NAME":"GDF Foods, Inc.","LONGITUDE":-87.63495520292739},
{"STATE":"IL","ZIP":60645,"LATTITUDE":42.01210009941053,"ADDRESS":"2113 W TOUHY AVE  ","YEAR":2004,"DOING_BUSINESS_AS_NAME":"MI PUEBLO","POP_AT_RISK":76219,"BUSINESS_TYPE":"Retail Food Establishment","LEGAL_NAME":"MI PUEBLO CORP.","LONGITUDE":-87.68355621327619},
{"STATE":"IL","ZIP":60639,"LATTITUDE":41.93177288210169,"ADDRESS":"4356 W DIVERSEY AVE  ","YEAR":2004,"DOING_BUSINESS_AS_NAME":"COZY CORNER DINER & PANCAKE HOUSE","POP_AT_RISK":1028496,"BUSINESS_TYPE":"Retail Food Establishment","LEGAL_NAME":"GOOD TASTE, INC.","LONGITUDE":-87.73667582038387},
{"STATE":"IL","ZIP":60630,"LATTITUDE":41.96582503121107,"ADDRESS":"4659 N ELSTON AVE  ","YEAR":2004,"DOING_BUSINESS_AS_NAME":"TAQUERIA VIVA EL TACO","POP_AT_RISK":47924,"BUSINESS_TYPE":"Retail Food Establishment","LEGAL_NAME":"RAFAEL MONDRAGON","LONGITUDE":-87.73660026298825},
{"STATE":"IL","ZIP":60628,"LATTITUDE":41.670802482962635,"ADDRESS":"12253 S HALSTED ST  ","YEAR":2004,"DOING_BUSINESS_AS_NAME":"USA GRILLE","POP_AT_RISK":247896,"BUSINESS_TYPE":"Retail Food Establishment","LEGAL_NAME":"TUNDRA F JACKSON","LONGITUDE":-87.64152738486891},
{"STATE":"IL","ZIP":60609,"LATTITUDE":41.81436985805435,"ADDRESS":"501 W 44TH ST  ","YEAR":2004,"DOING_BUSINESS_AS_NAME":"THE CORNER STORE","POP_AT_RISK":176688,"BUSINESS_TYPE":"Retail Food Establishment","LEGAL_NAME":"HEATHER L GARRITY","LONGITUDE":-87.63841157444058},
{"STATE":"IL","ZIP":60657,"LATTITUDE":41.939570356107744,"ADDRESS":"1629 W BELMONT AVE  ","YEAR":2004,"DOING_BUSINESS_AS_NAME":"SEATTLE SUTTONS HEALTHY EATING","POP_AT_RISK":800820,"BUSINESS_TYPE":"Retail Food Establishment","LEGAL_NAME":"LORI REBECCA TYBON","LONGITUDE":-87.66983770870691},
{"STATE":"IL","ZIP":60632,"LATTITUDE":41.816051750120515,"ADDRESS":"4258 S ARCHER AVE 1ST ","YEAR":2004,"DOING_BUSINESS_AS_NAME":"SABOR A MEXICO","POP_AT_RISK":388448,"BUSINESS_TYPE":"Retail Food Establishment","LEGAL_NAME":"RUBEN R. CASTREJON","LONGITUDE":-87.7012797093981},
{"STATE":"IL","ZIP":60612,"LATTITUDE":41.87248577517655,"ADDRESS":"719 S WESTERN AVE 1ST ","YEAR":2004,"DOING_BUSINESS_AS_NAME":"WORLD RECORDS","POP_AT_RISK":78168,"BUSINESS_TYPE":"Retail Food Establishment","LEGAL_NAME":"WORLD RECORDS, INC.","LONGITUDE":-87.68605069458569},
{"STATE":"IL","ZIP":60634,"LATTITUDE":41.94510050623739,"ADDRESS":"7607 W ADDISON ST  ","YEAR":2004,"DOING_BUSINESS_AS_NAME":"BOOM TOWN SALOON","POP_AT_RISK":175602,"BUSINESS_TYPE":"Retail Food Establishment","LEGAL_NAME":"BOOM TOWN SALOON INC","LONGITUDE":-87.817111685024},
{"STATE":"IL","ZIP":60632,"LATTITUDE":41.801139341974086,"ADDRESS":"2700 W 51ST ST  ","YEAR":2004,"DOING_BUSINESS_AS_NAME":"FORTY-SEVENTH STREET CITGO","POP_AT_RISK":394128,"BUSINESS_TYPE":"Retail Food Establishment","LEGAL_NAME":"TUXEDO JUNCTION INC.","LONGITUDE":-87.6916240486938},
{"STATE":"IL","ZIP":60626,"LATTITUDE":42.00810591934558,"ADDRESS":"6952 N CLARK ST 1ST ","YEAR":2004,"DOING_BUSINESS_AS_NAME":"A-1 SANDWICH SHOP INC","POP_AT_RISK":461676,"BUSINESS_TYPE":"Retail Food Establishment","LEGAL_NAME":"A-1 SANDWICH SHOP INC","LONGITUDE":-87.67390653190056},
{"STATE":"IL","ZIP":60644,"LATTITUDE":41.89142315631106,"ADDRESS":"600 N CICERO AVE 1ST ","YEAR":2004,"DOING_BUSINESS_AS_NAME":"AYMAN FOOD MARKET","POP_AT_RISK":320128,"BUSINESS_TYPE":"Retail Food Establishment","LEGAL_NAME":"AYMAN FOOD MARKET INC","LONGITUDE":-87.74582767466832},
{"STATE":"IL","ZIP":60641,"LATTITUDE":41.96103896740839,"ADDRESS":"4040 W MONTROSE AVE  ","YEAR":2004,"DOING_BUSINESS_AS_NAME":"JAN'S DELI TO GO, INC.","POP_AT_RISK":261160,"BUSINESS_TYPE":"Retail Food Establishment","LEGAL_NAME":"JAN'S DELI TO GO, INC.","LONGITUDE":-87.72951575987875},
{"STATE":"IL","ZIP":60624,"LATTITUDE":41.88042778664153,"ADDRESS":"8 S KARLOV AVE  ","YEAR":2004,"DOING_BUSINESS_AS_NAME":"CALVIN LOCKETT","POP_AT_RISK":574515,"BUSINESS_TYPE":"Retail Food Establishment","LEGAL_NAME":"KARLOV MEAT MARKET INC.","LONGITUDE":-87.7282578749267},
{"STATE":"IL","ZIP":60616,"LATTITUDE":41.850468483802665,"ADDRESS":"2317 S WENTWORTH AVE  ","YEAR":2004,"DOING_BUSINESS_AS_NAME":"WING CHEONG TRADING INC","POP_AT_RISK":239016,"BUSINESS_TYPE":"Retail Food Establishment","LEGAL_NAME":"WING CHEONG TRADING INC","LONGITUDE":-87.63181591235539},
{"STATE":"IL","ZIP":60647,"LATTITUDE":41.93196325562962,"ADDRESS":"2923 W DIVERSEY AVE 1ST ","YEAR":2004,"DOING_BUSINESS_AS_NAME":"ECUADOR RESTAURANT INC","POP_AT_RISK":108238,"BUSINESS_TYPE":"Retail Food Establishment","LEGAL_NAME":"ECUADOR RESTAURANT, INC.","LONGITUDE":-87.70099958246527},
{"STATE":"IL","ZIP":60614,"LATTITUDE":41.9235739992025,"ADDRESS":"2273 N LINCOLN AVE  ","YEAR":2004,"DOING_BUSINESS_AS_NAME":"Z'S FISH & SHRIMP","POP_AT_RISK":1232663,"BUSINESS_TYPE":"Retail Food Establishment","LEGAL_NAME":"Z'S FISH & SHRIMP L.L.C.","LONGITUDE":-87.64593222667874},
{"STATE":"IL","ZIP":60611,"LATTITUDE":41.901042374044735,"ADDRESS":"1009-1011 N RUSH ST  ","YEAR":2004,"DOING_BUSINESS_AS_NAME":"JILLY'S SINGAPORE INN","POP_AT_RISK":585416,"BUSINESS_TYPE":"Retail Food Establishment","LEGAL_NAME":"JILLY'S SINGAPORE INN LLC","LONGITUDE":-87.62749014771335},
{"STATE":"IL","ZIP":60652,"LATTITUDE":41.749868557847584,"ADDRESS":"3460 W 79TH ST  ","YEAR":2004,"DOING_BUSINESS_AS_NAME":"DEEP BLUE SEA SHRIMP HOUSE","POP_AT_RISK":132075,"BUSINESS_TYPE":"Retail Food Establishment","LEGAL_NAME":"DEEP BLUE SEA SHRIMP HOUSE","LONGITUDE":-87.70965323597203},
{"STATE":"IL","ZIP":60625,"LATTITUDE":41.965968695807646,"ADDRESS":"4642 N FRANCISCO AVE  ","YEAR":2004,"DOING_BUSINESS_AS_NAME":"AEL CATERING & ASSOCIATES","POP_AT_RISK":256884,"BUSINESS_TYPE":"Retail Food Establishment","LEGAL_NAME":"AEL CATERING & ASSOCIATES INC","LONGITUDE":-87.70120491585438},
{"STATE":"IL","ZIP":60613,"LATTITUDE":41.94713757914595,"ADDRESS":"957 W ADDISON ST  ","YEAR":2004,"DOING_BUSINESS_AS_NAME":"CHI - TOWN PIZZA WRIGLEYVILLE","POP_AT_RISK":1132911,"BUSINESS_TYPE":"Retail Food Establishment","LEGAL_NAME":"CHI - TOWN PIZZA WRIGLEYVILLE","LONGITUDE":-87.6541818785668},
{"STATE":"IL","ZIP":60616,"LATTITUDE":41.83118900095615,"ADDRESS":"254 E 35TH ST  ","YEAR":2004,"DOING_BUSINESS_AS_NAME":"J & J FISH","POP_AT_RISK":446602,"BUSINESS_TYPE":"Retail Food Establishment","LEGAL_NAME":"CHICAGO FISH RESTAURANTS, INC.","LONGITUDE":-87.61963120168059},
{"STATE":"IL","ZIP":60646,"LATTITUDE":41.9877840069617,"ADDRESS":"5844 N MILWAUKEE AVE  ","YEAR":2004,"DOING_BUSINESS_AS_NAME":"AMERICAN ATHLETIC CLUB","POP_AT_RISK":126525,"BUSINESS_TYPE":"Retail Food Establishment","LEGAL_NAME":"AMERICAN ATHLETIC CLUB OF CHICAGO","LONGITUDE":-87.77899396984665},
{"STATE":"IL","ZIP":60632,"LATTITUDE":41.807682027157476,"ADDRESS":"4235 W 47TH ST  ","YEAR":2004,"DOING_BUSINESS_AS_NAME":"PFC TED STEMPIEN POST 8821 VFW","POP_AT_RISK":278020,"BUSINESS_TYPE":"Retail Food Establishment","LEGAL_NAME":"PFC TED M. STEMPIEN POST NO. 8821 VFW, INC.","LONGITUDE":-87.72984725145503},
}