{
{"STATE":"IL","ZIP":60615,"LATTITUDE":41.79978705430929,"ADDRESS":"5240 S HYDE PARK BLVD 0 ","YEAR":2013,"DOING_BUSINESS_AS_NAME":"1525 HP, LLC","POP_AT_RISK":398463,"BUSINESS_TYPE":"Residential Real Estate Developer","LEGAL_NAME":"1525 HP, LLC","LONGITUDE":-87.58423703968494},
{"STATE":"IL","ZIP":60640,"LATTITUDE":41.97122553038923,"ADDRESS":"4880 N CLARK ST 1 C1","YEAR":2013,"DOING_BUSINESS_AS_NAME":"PJ Clifton Inc","POP_AT_RISK":347310,"BUSINESS_TYPE":"Residential Real Estate Developer","LEGAL_NAME":"PJ Clifton Inc","LONGITUDE":-87.66790930117793},
{"STATE":"IL","ZIP":60637,"LATTITUDE":41.784617789731094,"ADDRESS":"6030 S WABASH AVE  ","YEAR":2013,"DOING_BUSINESS_AS_NAME":"T.P. INVESTMENTS","POP_AT_RISK":28308,"BUSINESS_TYPE":"Residential Real Estate Developer","LEGAL_NAME":"THOMAS W PHAIR","LONGITUDE":-87.62396968026368},
{"STATE":"IL","ZIP":60647,"LATTITUDE":41.922006621825155,"ADDRESS":"2228 N KEDZIE BLVD 1 ","YEAR":2013,"DOING_BUSINESS_AS_NAME":"Concannon, Inc.","POP_AT_RISK":143454,"BUSINESS_TYPE":"Residential Real Estate Developer","LEGAL_NAME":"Concannon, Inc.","LONGITUDE":-87.70727854252239},
{"STATE":"IL","ZIP":60629,"LATTITUDE":41.786238442923924,"ADDRESS":"2925 W 59TH ST  ","YEAR":2013,"DOING_BUSINESS_AS_NAME":"2925 W. 59TH, LLC","POP_AT_RISK":816816,"BUSINESS_TYPE":"Residential Real Estate Developer","LEGAL_NAME":"2925 W. 59TH, LLC","LONGITUDE":-87.69719003767588},
{"STATE":"IL","ZIP":60637,"LATTITUDE":41.7851326960691,"ADDRESS":"6015 S INDIANA AVE 1ST ","YEAR":2013,"DOING_BUSINESS_AS_NAME":"IRONWOOD COURT LLC","POP_AT_RISK":25618,"BUSINESS_TYPE":"Residential Real Estate Developer","LEGAL_NAME":"IRONWOOD COURT LLC","LONGITUDE":-87.62045521097644},
{"STATE":"IL","ZIP":60630,"LATTITUDE":41.96139964562148,"ADDRESS":"5205 W AGATITE AVE 1 ","YEAR":2013,"DOING_BUSINESS_AS_NAME":"Jordan Bernard LLC","POP_AT_RISK":205395,"BUSINESS_TYPE":"Residential Real Estate Developer","LEGAL_NAME":"Jordan Bernard LLC","LONGITUDE":-87.75768924120476},
{"STATE":"IL","ZIP":60018,"LATTITUDE":42.012906109021976,"ADDRESS":"1350 E TOUHY AVE  150W","YEAR":2013,"DOING_BUSINESS_AS_NAME":"M R PROPERTIES, LLC","POP_AT_RISK":119774,"BUSINESS_TYPE":"Residential Real Estate Developer","LEGAL_NAME":"MR Properties, LLC","LONGITUDE":-87.66543304295764},
{"STATE":"IL","ZIP":60618,"LATTITUDE":41.96133617129735,"ADDRESS":"2934 W MONTROSE AVE 1ST 103","YEAR":2013,"DOING_BUSINESS_AS_NAME":"RONAN INVESTORS, LLC","POP_AT_RISK":538307,"BUSINESS_TYPE":"Residential Real Estate Developer","LEGAL_NAME":"RONAN INVESTORS, LLC","LONGITUDE":-87.70234393969042},
{"STATE":"IL","ZIP":60619,"LATTITUDE":41.758420522090596,"ADDRESS":"647 E 75TH ST 1 ","YEAR":2013,"DOING_BUSINESS_AS_NAME":"5T Construction Inc","POP_AT_RISK":174625,"BUSINESS_TYPE":"Residential Real Estate Developer","LEGAL_NAME":"5 T CONSTRUCTION INC.","LONGITUDE":-87.60839973648581},
{"STATE":"IL","ZIP":60624,"LATTITUDE":41.86802654338983,"ADDRESS":"3501 W FILLMORE ST  ","YEAR":2013,"DOING_BUSINESS_AS_NAME":"BREAKING GROUND,  INC.","POP_AT_RISK":229992,"BUSINESS_TYPE":"Residential Real Estate Developer","LEGAL_NAME":"BREAKING GROUND, INC.","LONGITUDE":-87.71315628099593},
{"STATE":"IL","ZIP":60646,"LATTITUDE":41.99134151657611,"ADDRESS":"6055 N LUCERNE AVE 1ST ","YEAR":2013,"DOING_BUSINESS_AS_NAME":"CULMORE BUILDERS, LLC","POP_AT_RISK":70914,"BUSINESS_TYPE":"Residential Real Estate Developer","LEGAL_NAME":"CULMORE BUILDERS, LLC","LONGITUDE":-87.75588931643233},
{"STATE":"IL","ZIP":60608,"LATTITUDE":41.866625124023905,"ADDRESS":"2750 W ROOSEVELT RD 3RD ","YEAR":2013,"DOING_BUSINESS_AS_NAME":"KMA Holdings III, LLC","POP_AT_RISK":116454,"BUSINESS_TYPE":"Residential Real Estate Developer","LEGAL_NAME":"KMA Holdings III, LLC","LONGITUDE":-87.69551480961502},
{"STATE":"IL","ZIP":60630,"LATTITUDE":41.98104186005954,"ADDRESS":"5459 N MOBILE AVE N\/A ","YEAR":2013,"DOING_BUSINESS_AS_NAME":"Coen Construction Corp","POP_AT_RISK":65132,"BUSINESS_TYPE":"Residential Real Estate Developer","LEGAL_NAME":"Coen Construction Corp","LONGITUDE":-87.78519812335453},
{"STATE":"IL","ZIP":60655,"LATTITUDE":41.694920388254616,"ADDRESS":"10900 S HAMLIN AVE GROUND ","YEAR":2013,"DOING_BUSINESS_AS_NAME":"mcbreartyconstruction","POP_AT_RISK":113545,"BUSINESS_TYPE":"Residential Real Estate Developer","LEGAL_NAME":"mcbrearty construction","LONGITUDE":-87.71573542568865},
{"STATE":"IL","ZIP":60626,"LATTITUDE":42.006746500061745,"ADDRESS":"1522 W FARWELL AVE SECOND FLOOR 2N","YEAR":2013,"DOING_BUSINESS_AS_NAME":"BOWERS DEVELOPMENT INC.","POP_AT_RISK":364455,"BUSINESS_TYPE":"Residential Real Estate Developer","LEGAL_NAME":"BOWERS DEVELOPMENT INC.","LONGITUDE":-87.66879237329789},
{"STATE":"IL","ZIP":60608,"LATTITUDE":41.857359616989356,"ADDRESS":"1818 S PAULINA ST 1-3 ","YEAR":2013,"DOING_BUSINESS_AS_NAME":"THE RESURRECTION PROJECT","POP_AT_RISK":40247,"BUSINESS_TYPE":"Residential Real Estate Developer","LEGAL_NAME":"THE RESURRECTION PROJECT","LONGITUDE":-87.66878702544355},
{"STATE":"IL","ZIP":60638,"LATTITUDE":41.790057644931764,"ADDRESS":"5611 S NASHVILLE AVE  ","YEAR":2013,"DOING_BUSINESS_AS_NAME":"A & SL CONSTRUCTION, INC.","POP_AT_RISK":184350,"BUSINESS_TYPE":"Residential Real Estate Developer","LEGAL_NAME":"A & SL CONSTRUCTION, INC.","LONGITUDE":-87.78646323276955},
{"STATE":"IL","ZIP":60625,"LATTITUDE":41.96752135930673,"ADDRESS":"4725 N WESTERN AVE 2 220","YEAR":2013,"DOING_BUSINESS_AS_NAME":"ACCESS REALTY GROUP, INC.","POP_AT_RISK":70413,"BUSINESS_TYPE":"Residential Real Estate Developer","LEGAL_NAME":"ACCESS REALTY GROUP, INC.","LONGITUDE":-87.68872157394394},
{"STATE":"IL","ZIP":60647,"LATTITUDE":41.913216925262034,"ADDRESS":"1730 N RICHMOND ST FIRST  ","YEAR":2013,"DOING_BUSINESS_AS_NAME":"Richmond Real Estate LLC","POP_AT_RISK":133744,"BUSINESS_TYPE":"Residential Real Estate Developer","LEGAL_NAME":"Richmond Real Estate, LLC","LONGITUDE":-87.70047889791918},
{"STATE":"IL","ZIP":60617,"LATTITUDE":41.729803341911,"ADDRESS":"9108 S BRANDON AVE 1 ","YEAR":2013,"DOING_BUSINESS_AS_NAME":"CLARETIAN ASSOCIATES","POP_AT_RISK":123914,"BUSINESS_TYPE":"Residential Real Estate Developer","LEGAL_NAME":"CLARETIAN ASSOCIATES, INC.","LONGITUDE":-87.547069977307},
{"STATE":"IL","ZIP":60653,"LATTITUDE":41.82233445416222,"ADDRESS":"4020 S OAKENWALD AVE  ","YEAR":2013,"DOING_BUSINESS_AS_NAME":"LAKE FRONT ASSOCIATES I LLC","POP_AT_RISK":68331,"BUSINESS_TYPE":"Residential Real Estate Developer","LEGAL_NAME":"LAKE FRONT ASSOCIATES I  LLC","LONGITUDE":-87.60092822936635},
{"STATE":"IL","ZIP":null,"LATTITUDE":42.00141792842539,"ADDRESS":"3121 W WALLEN AVE FIRST ","YEAR":2013,"DOING_BUSINESS_AS_NAME":"Wallen Development Group LLC","POP_AT_RISK":354024,"BUSINESS_TYPE":"Residential Real Estate Developer","LEGAL_NAME":"Wallen Development Group LLC","LONGITUDE":-87.7084333785625},
{"STATE":"IL","ZIP":60620,"LATTITUDE":41.75064556527101,"ADDRESS":"445 W 79TH ST 1ST ","YEAR":2013,"DOING_BUSINESS_AS_NAME":"R.V. DUNIGAN DEVELOPMENT, INC.","POP_AT_RISK":184465,"BUSINESS_TYPE":"Residential Real Estate Developer","LEGAL_NAME":"R.V. DUNIGAN DEVELOPMENT, INC.","LONGITUDE":-87.63611924618874},
{"STATE":"IL","ZIP":60624,"LATTITUDE":41.886269466960115,"ADDRESS":"3307 W FULTON BLVD  1ST","YEAR":2013,"DOING_BUSINESS_AS_NAME":"H&B MANAGEMENT CONSULTANTS INC.","POP_AT_RISK":165295,"BUSINESS_TYPE":"Residential Real Estate Developer","LEGAL_NAME":"H&B MANAGEMENT CONSULTANTS INC.","LONGITUDE":-87.70916418053521},
{"STATE":"IL","ZIP":60630,"LATTITUDE":41.97065323291963,"ADDRESS":"5558 W EDMUNDS ST 1ST ","YEAR":2013,"DOING_BUSINESS_AS_NAME":"P. O'DONNELL CONSTRUCTION I, L.L.C.","POP_AT_RISK":43234,"BUSINESS_TYPE":"Residential Real Estate Developer","LEGAL_NAME":"P. O'DONNELL CONSTRUCTION I, L.L.C.","LONGITUDE":-87.76705143085056},
{"STATE":"IL","ZIP":60620,"LATTITUDE":41.74591661747167,"ADDRESS":"8130 S RACINE AVE 1 ","YEAR":2013,"DOING_BUSINESS_AS_NAME":"NA0MI & SYLVESTER SMITH SENIOR LIVING CENTER","POP_AT_RISK":77854,"BUSINESS_TYPE":"Residential Real Estate Developer","LEGAL_NAME":"NEW PISGAH MISSIONARY BAPTIST CHURCH","LONGITUDE":-87.65376178752422},
{"STATE":"IL","ZIP":60616,"LATTITUDE":41.84202905467341,"ADDRESS":"2850 S MICHIGAN AVE  ","YEAR":2013,"DOING_BUSINESS_AS_NAME":"EASTLAKE MANAGEMENT","POP_AT_RISK":28902,"BUSINESS_TYPE":"Residential Real Estate Developer","LEGAL_NAME":"EAST LAKE MANAGEMENT & DEVELOPMENT CORP.","LONGITUDE":-87.62369326720368},
{"STATE":"IL","ZIP":60653,"LATTITUDE":41.82034950030901,"ADDRESS":"400 E 41ST ST 1ST 100","YEAR":2013,"DOING_BUSINESS_AS_NAME":"PAUL G. STEWART APARTMENTS","POP_AT_RISK":160270,"BUSINESS_TYPE":"Residential Real Estate Developer","LEGAL_NAME":"PEOPLES CO-OP FOR AFFORDABLE ELDERLY HOUSING","LONGITUDE":-87.61651410947175},
{"STATE":"IL","ZIP":60620,"LATTITUDE":41.75038804576943,"ADDRESS":"1159 W 79TH ST 1 ","YEAR":2013,"DOING_BUSINESS_AS_NAME":"GREATER AUBURN-GRESHAM DEVELOPMENT CORPORATION","POP_AT_RISK":171304,"BUSINESS_TYPE":"Residential Real Estate Developer","LEGAL_NAME":"GREATER AUBURN-GRESHAM DEVELOPMENT CORPORATION","LONGITUDE":-87.65367505738665},
}