{
{"STATE":"IL","ZIP":60707,"LATTITUDE":41.90912535950116,"ADDRESS":"6818 W NORTH AVE  ","YEAR":2010,"DOING_BUSINESS_AS_NAME":"CAFE LAGUARDIA WEST","POP_AT_RISK":172668,"BUSINESS_TYPE":"Outdoor Patio","LEGAL_NAME":"Bubu, Inc.","LONGITUDE":-87.79562029285854},
{"STATE":"IL","ZIP":60647,"LATTITUDE":41.91725149573076,"ADDRESS":"3281 W ARMITAGE AVE 1 ","YEAR":2010,"DOING_BUSINESS_AS_NAME":"MARBLE","POP_AT_RISK":522704,"BUSINESS_TYPE":"Outdoor Patio","LEGAL_NAME":"SABU, INC.","LONGITUDE":-87.71020612797271},
{"STATE":"IL","ZIP":60634,"LATTITUDE":41.94000063078428,"ADDRESS":"3246 N CENTRAL AVE  ","YEAR":2010,"DOING_BUSINESS_AS_NAME":"RETRO CAFE RESTAURANT","POP_AT_RISK":254544,"BUSINESS_TYPE":"Outdoor Patio","LEGAL_NAME":"CASPER INC.","LONGITUDE":-87.76669660556573},
{"STATE":"IL","ZIP":60630,"LATTITUDE":41.9775034792202,"ADDRESS":"5333 N MILWAUKEE AVE 1ST ","YEAR":2010,"DOING_BUSINESS_AS_NAME":"HAM TREE INN","POP_AT_RISK":135024,"BUSINESS_TYPE":"Outdoor Patio","LEGAL_NAME":"H.T.A. INC.","LONGITUDE":-87.76923663085236},
{"STATE":"IL","ZIP":60629,"LATTITUDE":41.78646851106931,"ADDRESS":"2908-2912 W 59TH ST 1ST ","YEAR":2010,"DOING_BUSINESS_AS_NAME":"CINCO ESTRELLAS","POP_AT_RISK":816816,"BUSINESS_TYPE":"Outdoor Patio","LEGAL_NAME":"VEDUA, INC.","LONGITUDE":-87.6964634262659},
{"STATE":"IL","ZIP":60638,"LATTITUDE":41.79812662454975,"ADDRESS":"5518 S ARCHER AVE  D","YEAR":2010,"DOING_BUSINESS_AS_NAME":"BOHICA RESTAURANT","POP_AT_RISK":182152,"BUSINESS_TYPE":"Outdoor Patio","LEGAL_NAME":"BOHICA, INC.","LONGITUDE":-87.74741651396842},
{"STATE":"IL","ZIP":60626,"LATTITUDE":42.01890350707934,"ADDRESS":"7541-7545 N CLARK ST 1ST ","YEAR":2010,"DOING_BUSINESS_AS_NAME":"HARD WATER BAR & GRILL","POP_AT_RISK":125148,"BUSINESS_TYPE":"Outdoor Patio","LEGAL_NAME":"KEFALOS, INC.","LONGITUDE":-87.67595814790334},
{"STATE":"IL","ZIP":60641,"LATTITUDE":41.95340285737685,"ADDRESS":"4441-4443 W IRVING PARK RD  ","YEAR":2010,"DOING_BUSINESS_AS_NAME":"SABATINOS INC","POP_AT_RISK":253210,"BUSINESS_TYPE":"Outdoor Patio","LEGAL_NAME":"SABATINOS INC","LONGITUDE":-87.73960222580374},
{"STATE":"IL","ZIP":60612,"LATTITUDE":41.86910773759604,"ADDRESS":"2322-2324 W TAYLOR ST  ","YEAR":2010,"DOING_BUSINESS_AS_NAME":"DAMENZO'S INC","POP_AT_RISK":255663,"BUSINESS_TYPE":"Outdoor Patio","LEGAL_NAME":"DAMENZO'S, INC.","LONGITUDE":-87.6845837581009},
{"STATE":"IL","ZIP":60652,"LATTITUDE":41.74056837192125,"ADDRESS":"8352 S PULASKI RD  ","YEAR":2010,"DOING_BUSINESS_AS_NAME":"ANGIE'S","POP_AT_RISK":191052,"BUSINESS_TYPE":"Outdoor Patio","LEGAL_NAME":"EAT-N-PIE, INC.","LONGITUDE":-87.7217734812376},
{"STATE":"IL","ZIP":60645,"LATTITUDE":42.01924584097389,"ADDRESS":"2727 W HOWARD ST 1ST ","YEAR":2010,"DOING_BUSINESS_AS_NAME":"GULLIVER'S INC","POP_AT_RISK":87300,"BUSINESS_TYPE":"Outdoor Patio","LEGAL_NAME":"GULLIVERS, INC.","LONGITUDE":-87.69833170944449},
{"STATE":"IL","ZIP":60625,"LATTITUDE":41.96775365745214,"ADDRESS":"4746-4750 N LINCOLN AVE 1-2 ","YEAR":2010,"DOING_BUSINESS_AS_NAME":"GENES SAUSAGE SHOP AT DELI MEYER","POP_AT_RISK":66824,"BUSINESS_TYPE":"Outdoor Patio","LEGAL_NAME":"AYGD MEATS, INC.","LONGITUDE":-87.68817171608093},
{"STATE":"IL","ZIP":60640,"LATTITUDE":41.97406911941592,"ADDRESS":"5024 N SHERIDAN RD  1ST F","YEAR":2010,"DOING_BUSINESS_AS_NAME":"BIG CHICKS, INC.","POP_AT_RISK":59642,"BUSINESS_TYPE":"Outdoor Patio","LEGAL_NAME":"BIG CHICKS, INC.","LONGITUDE":-87.6550944919287},
{"STATE":"IL","ZIP":60615,"LATTITUDE":41.79492106897254,"ADDRESS":"1055 E 55TH ST  ","YEAR":2010,"DOING_BUSINESS_AS_NAME":"SEVEN TEN","POP_AT_RISK":558852,"BUSINESS_TYPE":"Outdoor Patio","LEGAL_NAME":"STRIKE TWO CORP.","LONGITUDE":-87.59985203106729},
{"STATE":"IL","ZIP":60616,"LATTITUDE":41.852075574499366,"ADDRESS":"2233 S DR MARTIN LUTHER KING JR DR  ","YEAR":2010,"DOING_BUSINESS_AS_NAME":"HYATT REGENCY MCCORMICK PLACE HOTEL","POP_AT_RISK":35622,"BUSINESS_TYPE":"Outdoor Patio","LEGAL_NAME":"HYATT CORPORATION","LONGITUDE":-87.61885080391755},
{"STATE":"IL","ZIP":60634,"LATTITUDE":41.95034769269968,"ADDRESS":"3848 N HARLEM AVE  ","YEAR":2010,"DOING_BUSINESS_AS_NAME":"P J'S BREWERY","POP_AT_RISK":209321,"BUSINESS_TYPE":"Outdoor Patio","LEGAL_NAME":"P J'S BREWERY INC","LONGITUDE":-87.80732944580947},
{"STATE":"IL","ZIP":60647,"LATTITUDE":41.92976286483289,"ADDRESS":"2645 N KEDZIE AVE 1 & 2 ","YEAR":2010,"DOING_BUSINESS_AS_NAME":"EL CID TACOS #2","POP_AT_RISK":74427,"BUSINESS_TYPE":"Outdoor Patio","LEGAL_NAME":"GUSTO MEXICANO INC","LONGITUDE":-87.70722323405842},
{"STATE":"IL","ZIP":60609,"LATTITUDE":41.82365514125402,"ADDRESS":"514 W PERSHING RD  W","YEAR":2010,"DOING_BUSINESS_AS_NAME":"COBBLESTONES BAR & GRILL","POP_AT_RISK":204400,"BUSINESS_TYPE":"Outdoor Patio","LEGAL_NAME":"LAURETTE N VACCARO","LONGITUDE":-87.63927207504646},
{"STATE":"IL","ZIP":60622,"LATTITUDE":41.895543708081156,"ADDRESS":"2801 W CHICAGO AVE 1&2 ","YEAR":2010,"DOING_BUSINESS_AS_NAME":"THE CONTINENTAL LOUNGE","POP_AT_RISK":169856,"BUSINESS_TYPE":"Outdoor Patio","LEGAL_NAME":"WESTSIDE RAIL, INC.","LONGITUDE":-87.69676464023073},
{"STATE":"IL","ZIP":60659,"LATTITUDE":41.99057771185899,"ADDRESS":"2610-2612 W PETERSON AVE  ","YEAR":2010,"DOING_BUSINESS_AS_NAME":"PICCOLO","POP_AT_RISK":64031,"BUSINESS_TYPE":"Outdoor Patio","LEGAL_NAME":"2610 RESTAURANT INC.","LONGITUDE":-87.69505159486957},
{"STATE":"IL","ZIP":60632,"LATTITUDE":41.81185327457733,"ADDRESS":"4459 S KEDZIE AVE  ","YEAR":2010,"DOING_BUSINESS_AS_NAME":"CITY REFLECTIONS INC","POP_AT_RISK":590256,"BUSINESS_TYPE":"Outdoor Patio","LEGAL_NAME":"CITY REFLECTIONS INC","LONGITUDE":-87.70397505463012},
{"STATE":"IL","ZIP":60608,"LATTITUDE":41.85262494622832,"ADDRESS":"1146 W CERMAK RD 1ST ","YEAR":2010,"DOING_BUSINESS_AS_NAME":"MAY STREET CAFE","POP_AT_RISK":36121,"BUSINESS_TYPE":"Outdoor Patio","LEGAL_NAME":"MAY ST. CAFE 1, INC.","LONGITUDE":-87.65491858465299},
{"STATE":"IL","ZIP":60634,"LATTITUDE":41.95302030864294,"ADDRESS":"5737 W IRVING PARK RD  ","YEAR":2010,"DOING_BUSINESS_AS_NAME":"MARTINI CLUB","POP_AT_RISK":55125,"BUSINESS_TYPE":"Outdoor Patio","LEGAL_NAME":"O'CONNOR'S PUB, INC.","LONGITUDE":-87.77096800058055},
{"STATE":"IL","ZIP":60616,"LATTITUDE":41.83832850207603,"ADDRESS":"234-236 W 31ST ST  ","YEAR":2010,"DOING_BUSINESS_AS_NAME":"ROCKY'S","POP_AT_RISK":36895,"BUSINESS_TYPE":"Outdoor Patio","LEGAL_NAME":"234 W. 31ST ST., INC.","LONGITUDE":-87.63303201861649},
{"STATE":"IL","ZIP":60646,"LATTITUDE":41.9935432170097,"ADDRESS":"6154 N MILWAUKEE AVE 1-2 ","YEAR":2010,"DOING_BUSINESS_AS_NAME":"THE GARAGE BAR & SANDWICHES","POP_AT_RISK":64542,"BUSINESS_TYPE":"Outdoor Patio","LEGAL_NAME":"6154 RESTAURANT, INC.","LONGITUDE":-87.78443474169619},
{"STATE":"IL","ZIP":60659,"LATTITUDE":41.99547887896528,"ADDRESS":"6251 N MCCORMICK RD  ","YEAR":2010,"DOING_BUSINESS_AS_NAME":"PURE CAFE","POP_AT_RISK":84062,"BUSINESS_TYPE":"Outdoor Patio","LEGAL_NAME":"6251 N. MCCORMICK, LLC","LONGITUDE":-87.71287526525123},
{"STATE":"IL","ZIP":60655,"LATTITUDE":41.70582355306317,"ADDRESS":"3901 W 103RD ST  ","YEAR":2010,"DOING_BUSINESS_AS_NAME":"GILHOOLEY'S GRANDE SALOON","POP_AT_RISK":45604,"BUSINESS_TYPE":"Outdoor Patio","LEGAL_NAME":"COMPASS GROUP USA, INC.","LONGITUDE":-87.71853994620498},
{"STATE":"IL","ZIP":60638,"LATTITUDE":41.792013747165264,"ADDRESS":"6843 W ARCHER AVE  ","YEAR":2010,"DOING_BUSINESS_AS_NAME":"BOBBY G'S","POP_AT_RISK":75188,"BUSINESS_TYPE":"Outdoor Patio","LEGAL_NAME":"GRANAT'S FIRST COUNT, INC.","LONGITUDE":-87.79327642871685},
{"STATE":"IL","ZIP":60628,"LATTITUDE":41.69074200662608,"ADDRESS":"11203 S CORLISS AVE 1ST #","YEAR":2010,"DOING_BUSINESS_AS_NAME":"111TH STREET OTB","POP_AT_RISK":42012,"BUSINESS_TYPE":"Outdoor Patio","LEGAL_NAME":"INTER-TRACK PARTNERS L.L.C.","LONGITUDE":-87.60067790215122},
{"STATE":"IL","ZIP":60639,"LATTITUDE":41.928562731071594,"ADDRESS":"2640 N NARRAGANSETT AVE  ","YEAR":2010,"DOING_BUSINESS_AS_NAME":"Chipotle Mexican Grill","POP_AT_RISK":310932,"BUSINESS_TYPE":"Outdoor Patio","LEGAL_NAME":"CHIPOTLE MEXICAN GRILL, INC.","LONGITUDE":-87.7857711640629},
{"STATE":"IL","ZIP":60643,"LATTITUDE":41.70047177429385,"ADDRESS":"10612-10614 S WESTERN AVE 1 ","YEAR":2010,"DOING_BUSINESS_AS_NAME":"Cork And Kerry","POP_AT_RISK":107615,"BUSINESS_TYPE":"Outdoor Patio","LEGAL_NAME":"Chicago Pizza Department Corp.","LONGITUDE":-87.6815792920862},
{"STATE":"IL","ZIP":60631,"LATTITUDE":41.98740959681793,"ADDRESS":"8725 W HIGGINS RD  ","YEAR":2010,"DOING_BUSINESS_AS_NAME":"THE ORIGINAL GINO'S EAST","POP_AT_RISK":17648,"BUSINESS_TYPE":"Outdoor Patio","LEGAL_NAME":"PORT SILVER LIMITED PARTNERSHIP","LONGITUDE":-87.84438866503623},
{"STATE":"IL","ZIP":60656,"LATTITUDE":41.96645317297049,"ADDRESS":"8443-8445 W LAWRENCE AVE 1ST ","YEAR":2010,"DOING_BUSINESS_AS_NAME":"CAFE IL CORTILE","POP_AT_RISK":34164,"BUSINESS_TYPE":"Outdoor Patio","LEGAL_NAME":"S.R.D. CAFE IL CORTILE ENTERPRISES, INC.","LONGITUDE":-87.83838525840713},
}