{
{"STATE":"IL","ZIP":60621,"LATTITUDE":41.79380619916376,"ADDRESS":"5516 S STATE ST  1ST","YEAR":2015,"DOING_BUSINESS_AS_NAME":"CBJ CORPORATION","POP_AT_RISK":125590,"BUSINESS_TYPE":"Pawnbroker","LEGAL_NAME":"CBJ CORPORATION","LONGITUDE":-87.62582503784974},
{"STATE":"IL","ZIP":60623,"LATTITUDE":41.85178581984337,"ADDRESS":"2811 W CERMAK RD  1ST","YEAR":2015,"DOING_BUSINESS_AS_NAME":"CERMAK PAWN & JEWELRY","POP_AT_RISK":123572,"BUSINESS_TYPE":"Pawnbroker","LEGAL_NAME":"KEDZIE PAWN, INC","LONGITUDE":-87.69602496414917},
{"STATE":"IL","ZIP":60605,"LATTITUDE":41.87628277629029,"ADDRESS":"428 S CLARK ST  1ST","YEAR":2015,"DOING_BUSINESS_AS_NAME":"A ROYAL REDEMPTIONS","POP_AT_RISK":43864,"BUSINESS_TYPE":"Pawnbroker","LEGAL_NAME":"A B C RESALE, INC","LONGITUDE":-87.63087817514038},
{"STATE":"IL","ZIP":60622,"LATTITUDE":41.90324702386369,"ADDRESS":"2112 W DIVISION ST  ","YEAR":2015,"DOING_BUSINESS_AS_NAME":"DIVISION GOLD INC.","POP_AT_RISK":138172,"BUSINESS_TYPE":"Pawnbroker","LEGAL_NAME":"DIVISION GOLD INC.","LONGITUDE":-87.68027953469179},
{"STATE":"IL","ZIP":60615,"LATTITUDE":41.80215507163682,"ADDRESS":"224 E 51ST ST 1ST ","YEAR":2015,"DOING_BUSINESS_AS_NAME":"UNITED LOAN CO INC","POP_AT_RISK":59642,"BUSINESS_TYPE":"Pawnbroker","LEGAL_NAME":"UNITED LOAN CO INC","LONGITUDE":-87.61992004591386},
{"STATE":"IL","ZIP":60623,"LATTITUDE":41.8441493757973,"ADDRESS":"3949-59 W 26TH ST 1ST ","YEAR":2015,"DOING_BUSINESS_AS_NAME":"EZPAWN","POP_AT_RISK":116656,"BUSINESS_TYPE":"Pawnbroker","LEGAL_NAME":"EZPAWN ILLINOIS, INC.","LONGITUDE":-87.72403139750244},
{"STATE":"IL","ZIP":60641,"LATTITUDE":41.93871991967778,"ADDRESS":"5454 W BELMONT AVE 1 1","YEAR":2015,"DOING_BUSINESS_AS_NAME":"EZPAWN","POP_AT_RISK":152446,"BUSINESS_TYPE":"Pawnbroker","LEGAL_NAME":"EZPAWN ILLINOIS, INC.","LONGITUDE":-87.76383265588792},
{"STATE":"IL","ZIP":60647,"LATTITUDE":41.92445796623793,"ADDRESS":"3711-3719 W FULLERTON AVE  ","YEAR":2015,"DOING_BUSINESS_AS_NAME":"EZPAWN","POP_AT_RISK":168254,"BUSINESS_TYPE":"Pawnbroker","LEGAL_NAME":"EZPAWN ILLINOIS, INC.","LONGITUDE":-87.71988979660122},
{"STATE":"IL","ZIP":60636,"LATTITUDE":41.77125966859211,"ADDRESS":"6722-6738 S WESTERN AVE 1ST ","YEAR":2015,"DOING_BUSINESS_AS_NAME":"EZPAWN","POP_AT_RISK":315231,"BUSINESS_TYPE":"Pawnbroker","LEGAL_NAME":"EZPAWN ILLINOIS, INC.","LONGITUDE":-87.68356947186395},
{"STATE":"IL","ZIP":60707,"LATTITUDE":41.909241109545526,"ADDRESS":"6432 W NORTH AVE  ","YEAR":2015,"DOING_BUSINESS_AS_NAME":"EASY CASH SOLUTIONS","POP_AT_RISK":176185,"BUSINESS_TYPE":"Pawnbroker","LEGAL_NAME":"EZPAWN ILLINOIS, INC.","LONGITUDE":-87.78642661640143},
{"STATE":"IL","ZIP":60620,"LATTITUDE":41.74577418544017,"ADDRESS":"8130 S ASHLAND AVE  ","YEAR":2015,"DOING_BUSINESS_AS_NAME":"BIG PAWN 3","POP_AT_RISK":440847,"BUSINESS_TYPE":"Pawnbroker","LEGAL_NAME":"FREEMAN JEWELERS, INC.","LONGITUDE":-87.66346862058643},
{"STATE":"IL","ZIP":60620,"LATTITUDE":41.73615956889584,"ADDRESS":"111 W 87TH ST  1ST","YEAR":2015,"DOING_BUSINESS_AS_NAME":"FREEMAN JEWELERS, INC.","POP_AT_RISK":220088,"BUSINESS_TYPE":"Pawnbroker","LEGAL_NAME":"FREEMAN JEWELERS, INC.","LONGITUDE":-87.62747171270124},
{"STATE":"IL","ZIP":60618,"LATTITUDE":41.96095544553969,"ADDRESS":"3609 W MONTROSE AVE  ","YEAR":2015,"DOING_BUSINESS_AS_NAME":"B & B JEWELRY & LOAN CO","POP_AT_RISK":154734,"BUSINESS_TYPE":"Pawnbroker","LEGAL_NAME":"B & B JEWELRY & LOAN CO","LONGITUDE":-87.71843511767015},
{"STATE":"IL","ZIP":60639,"LATTITUDE":41.92396011185057,"ADDRESS":"5920 W FULLERTON AVE  ","YEAR":2015,"DOING_BUSINESS_AS_NAME":"FULLERTON PAWNERS, INC.","POP_AT_RISK":103700,"BUSINESS_TYPE":"Pawnbroker","LEGAL_NAME":"FULLERTON PAWNERS, INC.","LONGITUDE":-87.77426121129118},
{"STATE":"IL","ZIP":60639,"LATTITUDE":41.91705242360961,"ADDRESS":"5200 W GRAND AVE 1ST ","YEAR":2015,"DOING_BUSINESS_AS_NAME":"TTD JEWELRY & LOAN, LLC","POP_AT_RISK":281095,"BUSINESS_TYPE":"Pawnbroker","LEGAL_NAME":"TTD JEWELRY & LOAN, LLC","LONGITUDE":-87.75596219259076},
{"STATE":"IL","ZIP":60653,"LATTITUDE":41.80944685365532,"ADDRESS":"300 E 47TH ST 1ST ","YEAR":2015,"DOING_BUSINESS_AS_NAME":"SHELLY'S LOAN & JEWELRY CO","POP_AT_RISK":235452,"BUSINESS_TYPE":"Pawnbroker","LEGAL_NAME":"SHELLY'S LOAN & JEWELRY CO","LONGITUDE":-87.6195240872256},
{"STATE":"IL","ZIP":60619,"LATTITUDE":41.75112196233065,"ADDRESS":"645-47 E 79TH ST 1 ","YEAR":2015,"DOING_BUSINESS_AS_NAME":"CHATHAM JEWELRY & LOAN, INC.","POP_AT_RISK":371340,"BUSINESS_TYPE":"Pawnbroker","LEGAL_NAME":"CHATHAM JEWELRY & LOAN, INC.","LONGITUDE":-87.60830266825359},
{"STATE":"IL","ZIP":60626,"LATTITUDE":42.01036122762922,"ADDRESS":"7046-7048 N CLARK ST 1ST ","YEAR":2015,"DOING_BUSINESS_AS_NAME":"GOLD STAR JEWELRY & COIN CO.","POP_AT_RISK":75077,"BUSINESS_TYPE":"Pawnbroker","LEGAL_NAME":"GOLD STAR JEWELRY & COIN CO.","LONGITUDE":-87.67441126674453},
{"STATE":"IL","ZIP":60609,"LATTITUDE":41.80259442223294,"ADDRESS":"5016 S ASHLAND AVE 1ST ","YEAR":2015,"DOING_BUSINESS_AS_NAME":"BIG MONEY PAWN","POP_AT_RISK":192510,"BUSINESS_TYPE":"Pawnbroker","LEGAL_NAME":"SANTI'S JEWELRY & LOAN, INC.","LONGITUDE":-87.66495486202176},
{"STATE":"IL","ZIP":60624,"LATTITUDE":41.88076110275225,"ADDRESS":"4234 W MADISON ST 1ST ","YEAR":2015,"DOING_BUSINESS_AS_NAME":"INGRAM JEWELERS & PAWNER INC","POP_AT_RISK":561504,"BUSINESS_TYPE":"Pawnbroker","LEGAL_NAME":"INGRAM JEWELERS & PAWNERS INC","LONGITUDE":-87.73199189506212},
{"STATE":"IL","ZIP":60608,"LATTITUDE":41.85192841685362,"ADDRESS":"2337 W CERMAK RD  ","YEAR":2015,"DOING_BUSINESS_AS_NAME":"CASH AMERICA JEWELRY & LOAN","POP_AT_RISK":119748,"BUSINESS_TYPE":"Pawnbroker","LEGAL_NAME":"CASH AMERICA, INC. OF ILLINOIS","LONGITUDE":-87.68472649164053},
{"STATE":"IL","ZIP":60613,"LATTITUDE":41.95276709703117,"ADDRESS":"3900 N BROADWAY   ","YEAR":2015,"DOING_BUSINESS_AS_NAME":"CASH AMERICA JEWELRY & LOAN","POP_AT_RISK":989030,"BUSINESS_TYPE":"Pawnbroker","LEGAL_NAME":"CASH AMERICA, INC. OF ILLINOIS","LONGITUDE":-87.64980143619682},
{"STATE":"IL","ZIP":60657,"LATTITUDE":41.93860669664616,"ADDRESS":"3123 N ASHLAND AVE  ","YEAR":2015,"DOING_BUSINESS_AS_NAME":"CASH AMERICA JEWELRY & LOAN","POP_AT_RISK":1533818,"BUSINESS_TYPE":"Pawnbroker","LEGAL_NAME":"CASH AMERICA, INC. OF ILLINOIS","LONGITUDE":-87.66847691468966},
{"STATE":"IL","ZIP":60651,"LATTITUDE":41.905443604893954,"ADDRESS":"1334 N PULASKI RD 1ST ","YEAR":2015,"DOING_BUSINESS_AS_NAME":"CASH AMERICA JEWELRY & LOAN","POP_AT_RISK":478240,"BUSINESS_TYPE":"Pawnbroker","LEGAL_NAME":"CASH AMERICA, INC. OF ILLINOIS","LONGITUDE":-87.72653462580966},
{"STATE":"IL","ZIP":60632,"LATTITUDE":41.805875923240215,"ADDRESS":"4812 S KEDZIE AVE 1ST ","YEAR":2015,"DOING_BUSINESS_AS_NAME":"CASH AMERICA JEWELRY & LOAN","POP_AT_RISK":279036,"BUSINESS_TYPE":"Pawnbroker","LEGAL_NAME":"CASH AMERICA, INC. OF ILLINOIS","LONGITUDE":-87.70405781430063},
{"STATE":"IL","ZIP":60625,"LATTITUDE":41.96832576946269,"ADDRESS":"3243 W LAWRENCE AVE 1ST ","YEAR":2015,"DOING_BUSINESS_AS_NAME":"CASH AMERICA JEWELRY & LOAN","POP_AT_RISK":404445,"BUSINESS_TYPE":"Pawnbroker","LEGAL_NAME":"CASH AMERICA, INC. OF ILLINOIS","LONGITUDE":-87.71022769190832},
{"STATE":"IL","ZIP":60638,"LATTITUDE":41.80959122653701,"ADDRESS":"4556-4558 S CICERO AVE 1ST ","YEAR":2015,"DOING_BUSINESS_AS_NAME":"CASH AMERICA JEWELRY & LOAN","POP_AT_RISK":61434,"BUSINESS_TYPE":"Pawnbroker","LEGAL_NAME":"CASH AMERICA, INC. OF ILLINOIS","LONGITUDE":-87.74334846787684},
{"STATE":"IL","ZIP":60626,"LATTITUDE":42.01931899062496,"ADDRESS":"1901-1909 W HOWARD ST  1","YEAR":2015,"DOING_BUSINESS_AS_NAME":"CASH AMERICA PAWN OF CHGO #2","POP_AT_RISK":56477,"BUSINESS_TYPE":"Pawnbroker","LEGAL_NAME":"CASH AMERICA, INC. OF ILLINOIS","LONGITUDE":-87.67765261816052},
{"STATE":"IL","ZIP":60660,"LATTITUDE":41.998283636343615,"ADDRESS":"1230 W DEVON AVE 1 1","YEAR":2015,"DOING_BUSINESS_AS_NAME":"CASH AMERICA PAWN OF CHICAGO","POP_AT_RISK":895368,"BUSINESS_TYPE":"Pawnbroker","LEGAL_NAME":"CASH AMERICA, INC. OF ILLINOIS","LONGITUDE":-87.6618962932751},
{"STATE":"IL","ZIP":60629,"LATTITUDE":41.77783047517681,"ADDRESS":"6337 -6339 S KEDZIE AVE  ","YEAR":2015,"DOING_BUSINESS_AS_NAME":"CASH AMERICAN JEWLERY & LOAN","POP_AT_RISK":438508,"BUSINESS_TYPE":"Pawnbroker","LEGAL_NAME":"CASH AMERICA, INC. OF ILLINOIS","LONGITUDE":-87.70296402155023},
{"STATE":"IL","ZIP":60647,"LATTITUDE":41.92559667156526,"ADDRESS":"2437 N MILWAUKEE AVE 1 ","YEAR":2015,"DOING_BUSINESS_AS_NAME":"CASH AMERICA JEWLERY & LOAN OF CHICAGO # 13","POP_AT_RISK":70260,"BUSINESS_TYPE":"Pawnbroker","LEGAL_NAME":"CASH AMERICA, INC. OF ILLINOIS","LONGITUDE":-87.70151052423877},
{"STATE":"IL","ZIP":60612,"LATTITUDE":41.88105098894221,"ADDRESS":"2401  -2405 W MADISON ST  1","YEAR":2015,"DOING_BUSINESS_AS_NAME":"CHICAGO PAWNERS & JEWELERS, IN","POP_AT_RISK":442764,"BUSINESS_TYPE":"Pawnbroker","LEGAL_NAME":"CHICAGO PAWNERS & JEWELERS INC","LONGITUDE":-87.6865321682786},
{"STATE":"IL","ZIP":60618,"LATTITUDE":41.932541044121955,"ADDRESS":"2826 N MILWAUKEE AVE 1ST ","YEAR":2015,"DOING_BUSINESS_AS_NAME":"LA CARIDAD JEWELRY INCORPORATED","POP_AT_RISK":71768,"BUSINESS_TYPE":"Pawnbroker","LEGAL_NAME":"LA CARIDAD JEWELRY INCORPORATED","LONGITUDE":-87.71333083508695},
{"STATE":"IL","ZIP":60649,"LATTITUDE":41.76908328344945,"ADDRESS":"6920 S STONY ISLAND AVE  1","YEAR":2015,"DOING_BUSINESS_AS_NAME":"D. ANGELO PAWNERS & JEWELERS, INC.","POP_AT_RISK":502294,"BUSINESS_TYPE":"Pawnbroker","LEGAL_NAME":"D. ANGELO PAWNERS & JEWELERS, INC.","LONGITUDE":-87.58643748790274},
}