{
{"STATE":"IL","ZIP":60632,"LATTITUDE":41.82098754788502,"ADDRESS":"4008 S ARCHER AVE 1 ","YEAR":2012,"DOING_BUSINESS_AS_NAME":"CACHORRO PET","POP_AT_RISK":509832,"BUSINESS_TYPE":"Pet Shop","LEGAL_NAME":"JUAN ZARATE","LONGITUDE":-87.6932314725678},
{"STATE":"IL","ZIP":60651,"LATTITUDE":41.902331662977616,"ADDRESS":"4545 W DIVISION ST # 7-8-9","YEAR":2012,"DOING_BUSINESS_AS_NAME":"ZARATE PET SUPPLIES","POP_AT_RISK":117612,"BUSINESS_TYPE":"Pet Shop","LEGAL_NAME":"BELEM ZARATE","LONGITUDE":-87.74045894485229},
{"STATE":"IL","ZIP":60609,"LATTITUDE":41.80865270371698,"ADDRESS":"1836 W 47TH ST 1ST ","YEAR":2012,"DOING_BUSINESS_AS_NAME":"PARADISE DE AVES","POP_AT_RISK":143380,"BUSINESS_TYPE":"Pet Shop","LEGAL_NAME":"JOSE M PEREZ","LONGITUDE":-87.67127397220543},
{"STATE":"IL","ZIP":60623,"LATTITUDE":41.84432191601632,"ADDRESS":"3435 1\/2 W 26TH ST 1ST ","YEAR":2012,"DOING_BUSINESS_AS_NAME":"EL ARCA DE NOE","POP_AT_RISK":210948,"BUSINESS_TYPE":"Pet Shop","LEGAL_NAME":"AGUSTIN MARIN","LONGITUDE":-87.7112736592086},
{"STATE":"IL","ZIP":60632,"LATTITUDE":41.797991869962225,"ADDRESS":"5220 S PULASKI RD  ","YEAR":2012,"DOING_BUSINESS_AS_NAME":"Super Pets","POP_AT_RISK":81404,"BUSINESS_TYPE":"Pet Shop","LEGAL_NAME":"MARTIN ZARATE","LONGITUDE":-87.723443740796},
{"STATE":"IL","ZIP":60640,"LATTITUDE":41.98079618888139,"ADDRESS":"5430 N CLARK ST  1","YEAR":2012,"DOING_BUSINESS_AS_NAME":"RUFF N STUFF","POP_AT_RISK":338970,"BUSINESS_TYPE":"Pet Shop","LEGAL_NAME":"RUFF N' STUFF","LONGITUDE":-87.66850258743811},
{"STATE":"IL","ZIP":60632,"LATTITUDE":41.80103192267782,"ADDRESS":"2417 W 51ST ST 1 ","YEAR":2012,"DOING_BUSINESS_AS_NAME":"CERMAK PETS AND SUPPLIES","POP_AT_RISK":193712,"BUSINESS_TYPE":"Pet Shop","LEGAL_NAME":"DELGADO ANDRES","LONGITUDE":-87.68502893957555},
{"STATE":"IL","ZIP":60607,"LATTITUDE":41.86888971111206,"ADDRESS":"1101 S CANAL ST  ","YEAR":2012,"DOING_BUSINESS_AS_NAME":"PETSMART","POP_AT_RISK":162390,"BUSINESS_TYPE":"Pet Shop","LEGAL_NAME":"PETSMART, INC.","LONGITUDE":-87.63909892808796},
{"STATE":"IL","ZIP":60618,"LATTITUDE":41.94734998687162,"ADDRESS":"3640 N ELSTON AVE 1ST ","YEAR":2012,"DOING_BUSINESS_AS_NAME":"PET SUPPLIES PLUS","POP_AT_RISK":740448,"BUSINESS_TYPE":"Pet Shop","LEGAL_NAME":"PSP STORES LLC","LONGITUDE":-87.71012228783088},
{"STATE":"IL","ZIP":60656,"LATTITUDE":41.97462951006733,"ADDRESS":"7220 W FOSTER AVE 1ST ","YEAR":2012,"DOING_BUSINESS_AS_NAME":"PET SUPPLIES PLUS","POP_AT_RISK":187590,"BUSINESS_TYPE":"Pet Shop","LEGAL_NAME":"PSP STORES LLC","LONGITUDE":-87.80798109934157},
{"STATE":"IL","ZIP":60613,"LATTITUDE":41.95025659327846,"ADDRESS":"3757 N LINCOLN AVE 1ST ","YEAR":2012,"DOING_BUSINESS_AS_NAME":"Pet Supplies Plus","POP_AT_RISK":438284,"BUSINESS_TYPE":"Pet Shop","LEGAL_NAME":"PSP STORES LLC","LONGITUDE":-87.67587709308279},
{"STATE":"IL","ZIP":60641,"LATTITUDE":41.953598545339084,"ADDRESS":"4512 W IRVING PARK RD 1ST A","YEAR":2012,"DOING_BUSINESS_AS_NAME":"CHUBBROCKS PET SHOP","POP_AT_RISK":253210,"BUSINESS_TYPE":"Pet Shop","LEGAL_NAME":"CHUBBROCKS INC.","LONGITUDE":-87.7411646259312},
{"STATE":"IL","ZIP":60632,"LATTITUDE":41.79326180955464,"ADDRESS":"4222 W 55TH ST  1","YEAR":2012,"DOING_BUSINESS_AS_NAME":"FRANK KOLODZIEJ","POP_AT_RISK":180900,"BUSINESS_TYPE":"Pet Shop","LEGAL_NAME":"FRANK KOLODZIEJ","LONGITUDE":-87.72913638586823},
{"STATE":"IL","ZIP":60630,"LATTITUDE":41.977464175215516,"ADDRESS":"5342 N NORTHWEST HWY  ","YEAR":2012,"DOING_BUSINESS_AS_NAME":"Blue Planet Aquarium Services","POP_AT_RISK":284432,"BUSINESS_TYPE":"Pet Shop","LEGAL_NAME":"AQUARICLEAN, INC","LONGITUDE":-87.77274573784965},
{"STATE":"IL","ZIP":60641,"LATTITUDE":41.9534814021726,"ADDRESS":"4950 W IRVING PARK RD 1ST ","YEAR":2012,"DOING_BUSINESS_AS_NAME":"HUG-A-PUP","POP_AT_RISK":189336,"BUSINESS_TYPE":"Pet Shop","LEGAL_NAME":"SUSAN C NAWROCKI","LONGITUDE":-87.75167103100424},
{"STATE":"IL","ZIP":60639,"LATTITUDE":41.924095643270135,"ADDRESS":"5550 1\/2-52 W FULLERTON AVE  ","YEAR":2012,"DOING_BUSINESS_AS_NAME":"BIT O TROPICS","POP_AT_RISK":68079,"BUSINESS_TYPE":"Pet Shop","LEGAL_NAME":"BIT O TROPICS INC","LONGITUDE":-87.76561615253081},
{"STATE":"IL","ZIP":60707,"LATTITUDE":41.92345973283187,"ADDRESS":"6919 W GRAND AVE  ","YEAR":2012,"DOING_BUSINESS_AS_NAME":"TOP DOGS","POP_AT_RISK":251240,"BUSINESS_TYPE":"Pet Shop","LEGAL_NAME":"DARRELL B LINDSEY","LONGITUDE":-87.79884307511517},
{"STATE":"IL","ZIP":60625,"LATTITUDE":41.98151130262692,"ADDRESS":"5505 1\/2 N LINCOLN AVE 1ST ","YEAR":2012,"DOING_BUSINESS_AS_NAME":"BIRDMAN'S EXOTICS","POP_AT_RISK":409248,"BUSINESS_TYPE":"Pet Shop","LEGAL_NAME":"EDWARD BANNO ICHO","LONGITUDE":-87.69265480197147},
{"STATE":"IL","ZIP":60623,"LATTITUDE":41.851920612971924,"ADDRESS":"3040 W CERMAK RD  ","YEAR":2012,"DOING_BUSINESS_AS_NAME":"ACUARIO PISCIS \/ ESTETICA CANINA","POP_AT_RISK":70390,"BUSINESS_TYPE":"Pet Shop","LEGAL_NAME":"VICTOR M. PACHECO","LONGITUDE":-87.70201706310796},
{"STATE":"IL","ZIP":60639,"LATTITUDE":41.92395990947855,"ADDRESS":"5311 W FULLERTON AVE  ","YEAR":2012,"DOING_BUSINESS_AS_NAME":"FURRY FRIENDS INC.","POP_AT_RISK":65371,"BUSINESS_TYPE":"Pet Shop","LEGAL_NAME":"FURRY FRIENDS INC.","LONGITUDE":-87.75906120549509},
{"STATE":"IL","ZIP":60655,"LATTITUDE":41.703470270354465,"ADDRESS":"10429 S KEDZIE AVE 1ST ","YEAR":2012,"DOING_BUSINESS_AS_NAME":"PARK PET SHOP INC","POP_AT_RISK":183127,"BUSINESS_TYPE":"Pet Shop","LEGAL_NAME":"PARK PET SHOP INC.","LONGITUDE":-87.70110404556713},
{"STATE":"IL","ZIP":60649,"LATTITUDE":41.75196502179656,"ADDRESS":"2734 E 79TH ST 1ST ","YEAR":2012,"DOING_BUSINESS_AS_NAME":"BLUE MAGIC PET SHOP","POP_AT_RISK":524052,"BUSINESS_TYPE":"Pet Shop","LEGAL_NAME":"JACQUELINE R WILSON","LONGITUDE":-87.55701855522801},
{"STATE":"IL","ZIP":60647,"LATTITUDE":41.92099614759255,"ADDRESS":"2214 N MILWAUKEE AVE 1ST ","YEAR":2012,"DOING_BUSINESS_AS_NAME":"JULES PET SHOP, LLC","POP_AT_RISK":765518,"BUSINESS_TYPE":"Pet Shop","LEGAL_NAME":"JULES PET SHOP, LLC","LONGITUDE":-87.69447234911182},
{"STATE":"IL","ZIP":60608,"LATTITUDE":41.834311070719124,"ADDRESS":"1514 W 33RD ST 1ST J","YEAR":2012,"DOING_BUSINESS_AS_NAME":"GOLDEN AQUARIUM INC.","POP_AT_RISK":272864,"BUSINESS_TYPE":"Pet Shop","LEGAL_NAME":"GOLDEN AQUARIUM INC.","LONGITUDE":-87.66389989325327},
{"STATE":"IL","ZIP":60707,"LATTITUDE":41.90913139554721,"ADDRESS":"6804 W NORTH AVE  ","YEAR":2012,"DOING_BUSINESS_AS_NAME":"ONE LUCKY PUPPY, INC.","POP_AT_RISK":115112,"BUSINESS_TYPE":"Pet Shop","LEGAL_NAME":"ONE LUCKY PUPPY, INC.","LONGITUDE":-87.79516676645979},
{"STATE":"IL","ZIP":60639,"LATTITUDE":41.90976452703277,"ADDRESS":"4650 W NORTH AVE  ","YEAR":2012,"DOING_BUSINESS_AS_NAME":"WALMART #5402","POP_AT_RISK":56124,"BUSINESS_TYPE":"Pet Shop","LEGAL_NAME":"WAL-MART STORES, INC.","LONGITUDE":-87.74337629570627},
{"STATE":"IL","ZIP":60642,"LATTITUDE":41.90316161472991,"ADDRESS":"1180 N MILWAUKEE AVE 1 ","YEAR":2012,"DOING_BUSINESS_AS_NAME":"NEW FISH","POP_AT_RISK":581427,"BUSINESS_TYPE":"Pet Shop","LEGAL_NAME":"FISH PRO CHICAGO, INC.","LONGITUDE":-87.6664030926531},
{"STATE":"IL","ZIP":60652,"LATTITUDE":41.74602291961784,"ADDRESS":"8057 S CICERO AVE  ","YEAR":2012,"DOING_BUSINESS_AS_NAME":"PET LUV PET CENTER INC","POP_AT_RISK":80444,"BUSINESS_TYPE":"Pet Shop","LEGAL_NAME":"PET LUV PET CENTER INC","LONGITUDE":-87.7411015602688},
{"STATE":"IL","ZIP":60639,"LATTITUDE":41.9242635842671,"ADDRESS":"4343 W FULLERTON AVE 1ST ","YEAR":2012,"DOING_BUSINESS_AS_NAME":"CHICAGO PUPPY PLACE","POP_AT_RISK":716000,"BUSINESS_TYPE":"Pet Shop","LEGAL_NAME":"FRANCISCO DAMIAN MOLINA","LONGITUDE":-87.73587348927045},
{"STATE":"IL","ZIP":60608,"LATTITUDE":41.85771158479946,"ADDRESS":"1523 W 18TH ST 1ST ","YEAR":2012,"DOING_BUSINESS_AS_NAME":"+ KOTAS PETS","POP_AT_RISK":363294,"BUSINESS_TYPE":"Pet Shop","LEGAL_NAME":"FRANCISCA GABRIELA ZARATE","LONGITUDE":-87.66468980176782},
{"STATE":"IL","ZIP":60634,"LATTITUDE":41.94521699404446,"ADDRESS":"7540-7542 W ADDISON ST 1 1","YEAR":2012,"DOING_BUSINESS_AS_NAME":"OCEAN DESIGN AQUARIUM INC","POP_AT_RISK":175602,"BUSINESS_TYPE":"Pet Shop","LEGAL_NAME":"OCEAN DESIGN AQUARIUM INC","LONGITUDE":-87.81592072992251},
{"STATE":"IL","ZIP":60614,"LATTITUDE":41.91758179156386,"ADDRESS":"2000 N CLYBOURN AVE 1ST ","YEAR":2012,"DOING_BUSINESS_AS_NAME":"PETCO #869","POP_AT_RISK":219396,"BUSINESS_TYPE":"Pet Shop","LEGAL_NAME":"PETCO ANIMAL SUPPLIES STORES, INC.","LONGITUDE":-87.6590228976662},
{"STATE":"IL","ZIP":60657,"LATTITUDE":41.93769388463612,"ADDRESS":"3046 N HALSTED ST 1 #","YEAR":2012,"DOING_BUSINESS_AS_NAME":"PETCO # 696","POP_AT_RISK":989833,"BUSINESS_TYPE":"Pet Shop","LEGAL_NAME":"PETCO ANIMAL SUPPLIES STORES, INC.","LONGITUDE":-87.64934141699324},
{"STATE":"IL","ZIP":60610,"LATTITUDE":41.890341971280506,"ADDRESS":"440 N ORLEANS ST  ","YEAR":2012,"DOING_BUSINESS_AS_NAME":"PETCO #1965","POP_AT_RISK":461657,"BUSINESS_TYPE":"Pet Shop","LEGAL_NAME":"PETCO ANIMAL SUPPLIES STORES, INC.","LONGITUDE":-87.63714472645873},
{"STATE":"IL","ZIP":60643,"LATTITUDE":41.68064793017087,"ADDRESS":"11720 S MARSHFIELD AVE 1 ","YEAR":2012,"DOING_BUSINESS_AS_NAME":"PETCO #1983","POP_AT_RISK":110580,"BUSINESS_TYPE":"Pet Shop","LEGAL_NAME":"PETCO ANIMAL SUPPLIES STORES, INC.","LONGITUDE":-87.66259019890877},
{"STATE":"IL","ZIP":60640,"LATTITUDE":41.97358499223299,"ADDRESS":"5040 N CLARK ST 1ST ","YEAR":2012,"DOING_BUSINESS_AS_NAME":"CHICAGO AQUARIUM & AQUATIC LIFE, INC.","POP_AT_RISK":261620,"BUSINESS_TYPE":"Pet Shop","LEGAL_NAME":"CHICAGO AQUARIUM & AQUATIC LIFE, INC.","LONGITUDE":-87.66825910069814},
}