{
{"STATE":"IL","ZIP":60621,"LATTITUDE":41.76893241136131,"ADDRESS":"6903 S WENTWORTH AVE  ","YEAR":1996,"DOING_BUSINESS_AS_NAME":"MS. BELL'S CARRY-OUTS","POP_AT_RISK":170884,"BUSINESS_TYPE":"Retail Food Establishment","LEGAL_NAME":"JAMES LETT","LONGITUDE":-87.62971502555375},
{"STATE":"IL","ZIP":60632,"LATTITUDE":41.80126688672693,"ADDRESS":"5060 S ARCHER AVE  ","YEAR":1996,"DOING_BUSINESS_AS_NAME":"DUNAJEC INC","POP_AT_RISK":354078,"BUSINESS_TYPE":"Retail Food Establishment","LEGAL_NAME":"DUNAJEC INC","LONGITUDE":-87.72691924778876},
{"STATE":"IL","ZIP":60647,"LATTITUDE":41.93012611532404,"ADDRESS":"2657 N KEDZIE AVE  ","YEAR":1996,"DOING_BUSINESS_AS_NAME":"SMOKE","POP_AT_RISK":141180,"BUSINESS_TYPE":"Retail Food Establishment","LEGAL_NAME":"SMOKE, INC.","LONGITUDE":-87.7072308071835},
{"STATE":"IL","ZIP":60618,"LATTITUDE":41.93396946560308,"ADDRESS":"2901 N KEDZIE AVE 1ST ","YEAR":1996,"DOING_BUSINESS_AS_NAME":"A & P GROCERY","POP_AT_RISK":71652,"BUSINESS_TYPE":"Retail Food Establishment","LEGAL_NAME":"JULIO FLORES","LONGITUDE":-87.70733141899717},
{"STATE":"IL","ZIP":60629,"LATTITUDE":41.778750679607214,"ADDRESS":"6255 S KEELER AVE  ","YEAR":1996,"DOING_BUSINESS_AS_NAME":"BITE ME PIZZA","POP_AT_RISK":220290,"BUSINESS_TYPE":"Retail Food Establishment","LEGAL_NAME":"ROBERT DWYER","LONGITUDE":-87.72750346266426},
{"STATE":"IN","ZIP":46410,"LATTITUDE":41.986887705605504,"ADDRESS":"5790  BROADWAY   ","YEAR":1996,"DOING_BUSINESS_AS_NAME":"HATHAWAY'S VENDING SERVICE","POP_AT_RISK":1377220,"BUSINESS_TYPE":"Retail Food Establishment","LEGAL_NAME":"ROY HATHAWAY","LONGITUDE":-87.66031518107326},
{"STATE":"IL","ZIP":60631,"LATTITUDE":42.011803577263805,"ADDRESS":"7222 W TOUHY AVE  ","YEAR":1996,"DOING_BUSINESS_AS_NAME":"K MICHAELS INC","POP_AT_RISK":95800,"BUSINESS_TYPE":"Retail Food Establishment","LEGAL_NAME":"K MICHAEL INC","LONGITUDE":-87.80756453036145},
{"STATE":"IL","ZIP":60615,"LATTITUDE":41.795297878365226,"ADDRESS":"1550 E 55TH ST  ","YEAR":1996,"DOING_BUSINESS_AS_NAME":"BONJOUR BAKERY","POP_AT_RISK":644317,"BUSINESS_TYPE":"Retail Food Establishment","LEGAL_NAME":"ABEL BEKKOUCHE","LONGITUDE":-87.58788017604982},
{"STATE":"IL","ZIP":60657,"LATTITUDE":41.939465355476145,"ADDRESS":"1957 W BELMONT AVE  1","YEAR":1996,"DOING_BUSINESS_AS_NAME":"ALTON BEAN INC","POP_AT_RISK":1399248,"BUSINESS_TYPE":"Retail Food Establishment","LEGAL_NAME":"ALTON BEAN INC","LONGITUDE":-87.67815712261923},
{"STATE":"IL","ZIP":60620,"LATTITUDE":41.745126247535104,"ADDRESS":"8160 S RACINE AVE  ","YEAR":1996,"DOING_BUSINESS_AS_NAME":"MASON FOOD","POP_AT_RISK":194635,"BUSINESS_TYPE":"Retail Food Establishment","LEGAL_NAME":"KHALED Y HAMED","LONGITUDE":-87.65374068488805},
{"STATE":"IL","ZIP":60659,"LATTITUDE":41.99041086582508,"ADDRESS":"3446 W PETERSON AVE  ","YEAR":1996,"DOING_BUSINESS_AS_NAME":"OUR NIGHTS","POP_AT_RISK":127085,"BUSINESS_TYPE":"Retail Food Establishment","LEGAL_NAME":"OUR NIGHTS INC","LONGITUDE":-87.71590721387496},
{"STATE":"IL","ZIP":60620,"LATTITUDE":41.75437949218647,"ADDRESS":"816 W 77TH ST  ","YEAR":1996,"DOING_BUSINESS_AS_NAME":"R & I VARIETY STORE","POP_AT_RISK":143164,"BUSINESS_TYPE":"Retail Food Establishment","LEGAL_NAME":"ROBERT C SHIPP","LONGITUDE":-87.64487097785818},
{"STATE":"IL","ZIP":60639,"LATTITUDE":41.92214330584142,"ADDRESS":"2259 N LOREL AVE  ","YEAR":1996,"DOING_BUSINESS_AS_NAME":"EL AGUILA GROCERY","POP_AT_RISK":419391,"BUSINESS_TYPE":"Retail Food Establishment","LEGAL_NAME":"SALVADOR REYES","LONGITUDE":-87.75962876544102},
{"STATE":"IL","ZIP":60624,"LATTITUDE":41.88071371861411,"ADDRESS":"4412 W MADISON ST  ","YEAR":1996,"DOING_BUSINESS_AS_NAME":"MOO & BOO RED HOTS","POP_AT_RISK":507885,"BUSINESS_TYPE":"Retail Food Establishment","LEGAL_NAME":"MONECKA GREAVES","LONGITUDE":-87.73605704141086},
{"STATE":"IL","ZIP":60609,"LATTITUDE":41.82415036365103,"ADDRESS":"3847 S MORGAN ST  1ST","YEAR":1996,"DOING_BUSINESS_AS_NAME":"P & S GRILL","POP_AT_RISK":205360,"BUSINESS_TYPE":"Retail Food Establishment","LEGAL_NAME":"P & S GRILL, INC","LONGITUDE":-87.6506580321786},
{"STATE":"IL","ZIP":60602,"LATTITUDE":41.88331726083294,"ADDRESS":"170 W WASHINGTON ST  BASEM","YEAR":1996,"DOING_BUSINESS_AS_NAME":"CARDOZO'S PUB","POP_AT_RISK":52635,"BUSINESS_TYPE":"Retail Food Establishment","LEGAL_NAME":"DINING HERITAGE INC.","LONGITUDE":-87.63302428430005},
{"STATE":"IL","ZIP":60605,"LATTITUDE":41.86570260855135,"ADDRESS":"1301 S MICHIGAN AVE GROUND ","YEAR":1996,"DOING_BUSINESS_AS_NAME":"EKO RESTAURANT","POP_AT_RISK":78982,"BUSINESS_TYPE":"Retail Food Establishment","LEGAL_NAME":"ADEKUNLE S AROGUNDADE","LONGITUDE":-87.62396590534365},
{"STATE":"IL","ZIP":60639,"LATTITUDE":41.920463425192736,"ADDRESS":"6001 W GRAND AVE  ","YEAR":1996,"DOING_BUSINESS_AS_NAME":"G & G OPEN KITCHEN RESTAURANT","POP_AT_RISK":187440,"BUSINESS_TYPE":"Retail Food Establishment","LEGAL_NAME":"GEORGIO TRIANTAFILLOU","LONGITUDE":-87.77570033698544},
{"STATE":"IL","ZIP":60612,"LATTITUDE":41.88391207019441,"ADDRESS":"133 N CALIFORNIA AVE  ","YEAR":1996,"DOING_BUSINESS_AS_NAME":"GREENLINE DELI","POP_AT_RISK":653904,"BUSINESS_TYPE":"Retail Food Establishment","LEGAL_NAME":"GREENLINE GROCERY INC.","LONGITUDE":-87.69621624808191},
{"STATE":"IL","ZIP":60666,"LATTITUDE":42.008536400868735,"ADDRESS":"11601 W TOUHY AVE  G CON","YEAR":1996,"DOING_BUSINESS_AS_NAME":"AUNTIE ANNE'S","POP_AT_RISK":4956,"BUSINESS_TYPE":"Retail Food Establishment","LEGAL_NAME":"HOST INTERNATIONAL, INC.","LONGITUDE":-87.91442843927047},
{"STATE":"IL","ZIP":60643,"LATTITUDE":41.713822824012205,"ADDRESS":"9906 S VINCENNES AVE  ","YEAR":1996,"DOING_BUSINESS_AS_NAME":"VINCENNES CITGO","POP_AT_RISK":240544,"BUSINESS_TYPE":"Retail Food Establishment","LEGAL_NAME":"VINCENNES ENTERPRISES INC","LONGITUDE":-87.65357022378262},
{"STATE":"IL","ZIP":60628,"LATTITUDE":41.67775969474715,"ADDRESS":"555 W 119TH ST  ","YEAR":1996,"DOING_BUSINESS_AS_NAME":"KING SUBMARINE & GRILL INC","POP_AT_RISK":194075,"BUSINESS_TYPE":"Retail Food Establishment","LEGAL_NAME":"KING SUBMARINE & GRILL INC","LONGITUDE":-87.63686379901007},
{"STATE":"IL","ZIP":60630,"LATTITUDE":41.9748043859644,"ADDRESS":"5203 N MILWAUKEE AVE  ","YEAR":1996,"DOING_BUSINESS_AS_NAME":"DIET CARRY OUT","POP_AT_RISK":270048,"BUSINESS_TYPE":"Retail Food Establishment","LEGAL_NAME":"AMERICAN HEALTH SYSTEMS INC","LONGITUDE":-87.76678922174749},
{"STATE":"IL","ZIP":60608,"LATTITUDE":41.8576549900836,"ADDRESS":"1645 W 18TH ST  ","YEAR":1996,"DOING_BUSINESS_AS_NAME":"CARNICERIA TEPECOA GUERRERO","POP_AT_RISK":587216,"BUSINESS_TYPE":"Retail Food Establishment","LEGAL_NAME":"CARNICERIA TEPECOA GUERRERO, LTD.","LONGITUDE":-87.66804243098602},
}