{
{"STATE":"IL","ZIP":60618,"LATTITUDE":41.961116939451195,"ADDRESS":"2933 W MONTROSE AVE 1 #","YEAR":2015,"DOING_BUSINESS_AS_NAME":"MONTROSE SALOON","POP_AT_RISK":769010,"BUSINESS_TYPE":"Music and Dance","LEGAL_NAME":"ERRO INC","LONGITUDE":-87.70227415826348},
{"STATE":"IL","ZIP":60610,"LATTITUDE":41.89188767439628,"ADDRESS":"536 N CLARK ST 1ST ","YEAR":2015,"DOING_BUSINESS_AS_NAME":"BLUE CHICAGO","POP_AT_RISK":160038,"BUSINESS_TYPE":"Music and Dance","LEGAL_NAME":"DELBA INC","LONGITUDE":-87.63128077636969},
{"STATE":"IL","ZIP":60618,"LATTITUDE":41.93439264249547,"ADDRESS":"2918 N CENTRAL PARK AVE  1","YEAR":2015,"DOING_BUSINESS_AS_NAME":"PODLASIE","POP_AT_RISK":200685,"BUSINESS_TYPE":"Music and Dance","LEGAL_NAME":"AWGUL'S CORP","LONGITUDE":-87.7174027232856},
{"STATE":"IL","ZIP":60622,"LATTITUDE":41.91597456632108,"ADDRESS":"1645 W CORTLAND ST 1 ","YEAR":2015,"DOING_BUSINESS_AS_NAME":"CORTLAND'S GARAGE","POP_AT_RISK":255655,"BUSINESS_TYPE":"Music and Dance","LEGAL_NAME":"DONMAR, INC.","LONGITUDE":-87.66962157196225},
{"STATE":"IL","ZIP":60646,"LATTITUDE":41.98498351871542,"ADDRESS":"5688 N MILWAUKEE AVE 1ST ","YEAR":2015,"DOING_BUSINESS_AS_NAME":"STARDUST","POP_AT_RISK":165282,"BUSINESS_TYPE":"Music and Dance","LEGAL_NAME":"STARDUST INC","LONGITUDE":-87.77641784679408},
{"STATE":"IL","ZIP":60619,"LATTITUDE":41.75817409333064,"ADDRESS":"69 E 75TH ST  2","YEAR":2015,"DOING_BUSINESS_AS_NAME":"WILLA'S FIFTY YARD LINE","POP_AT_RISK":370832,"BUSINESS_TYPE":"Music and Dance","LEGAL_NAME":"WILLA JOHNSON","LONGITUDE":-87.62199444753409},
{"STATE":"IL","ZIP":60638,"LATTITUDE":41.77792381411959,"ADDRESS":"5625 W 63RD ST 1ST ","YEAR":2015,"DOING_BUSINESS_AS_NAME":"MARIANNA'S PLACE","POP_AT_RISK":37876,"BUSINESS_TYPE":"Music and Dance","LEGAL_NAME":"TROY LOGIC, INC","LONGITUDE":-87.76265938509499},
{"STATE":"IL","ZIP":60609,"LATTITUDE":41.81979679814973,"ADDRESS":"4046 S WESTERN AVE  ","YEAR":2015,"DOING_BUSINESS_AS_NAME":"CONFESSION","POP_AT_RISK":500423,"BUSINESS_TYPE":"Music and Dance","LEGAL_NAME":"ADAME & RUIZ INC","LONGITUDE":-87.68488112119262},
{"STATE":"IL","ZIP":60618,"LATTITUDE":41.95958202440171,"ADDRESS":"4265 N LINCOLN AVE  1ST F","YEAR":2015,"DOING_BUSINESS_AS_NAME":"WILD GOOSE BAR & GRILL","POP_AT_RISK":303126,"BUSINESS_TYPE":"Music and Dance","LEGAL_NAME":"WILD GOOSE, INC.","LONGITUDE":-87.68239844007711},
{"STATE":"IL","ZIP":60618,"LATTITUDE":41.939364443955505,"ADDRESS":"2319 W BELMONT AVE 1 ","YEAR":2015,"DOING_BUSINESS_AS_NAME":"HUNGRY BRAIN","POP_AT_RISK":149628,"BUSINESS_TYPE":"Music and Dance","LEGAL_NAME":"HUNGRY BRAIN,INC.","LONGITUDE":-87.68639763702431},
{"STATE":"IL","ZIP":60626,"LATTITUDE":41.998426385977595,"ADDRESS":"6412 N CLARK ST  ","YEAR":2015,"DOING_BUSINESS_AS_NAME":"TOUCHE'","POP_AT_RISK":1535770,"BUSINESS_TYPE":"Music and Dance","LEGAL_NAME":"NIGHT BEFORE INC.","LONGITUDE":-87.67087162992024},
{"STATE":"IL","ZIP":60642,"LATTITUDE":41.889975288186825,"ADDRESS":"439 N OGDEN AVE 1ST #","YEAR":2015,"DOING_BUSINESS_AS_NAME":"439 NIGHT CLUB INC","POP_AT_RISK":115689,"BUSINESS_TYPE":"Music and Dance","LEGAL_NAME":"439 NIGHT CLUB INC","LONGITUDE":-87.65976286576765},
{"STATE":"IL","ZIP":60610,"LATTITUDE":41.909029735838615,"ADDRESS":"1447 N WELLS ST  ","YEAR":2015,"DOING_BUSINESS_AS_NAME":"BURTON PLACE","POP_AT_RISK":64889,"BUSINESS_TYPE":"Music and Dance","LEGAL_NAME":"BURTON PLACE, INC.","LONGITUDE":-87.63449666286718},
{"STATE":"IL","ZIP":60605,"LATTITUDE":41.87305557644521,"ADDRESS":"701 S STATE ST  ","YEAR":2015,"DOING_BUSINESS_AS_NAME":"SOUTH LOOP CLUB INC","POP_AT_RISK":128394,"BUSINESS_TYPE":"Music and Dance","LEGAL_NAME":"SOUTH LOOP CLUB INC","LONGITUDE":-87.62741781254495},
{"STATE":"IL","ZIP":60617,"LATTITUDE":41.73204913540182,"ADDRESS":"8940-8942 S STONY ISLAND AVE  1","YEAR":2015,"DOING_BUSINESS_AS_NAME":"FAMILY DEN","POP_AT_RISK":94685,"BUSINESS_TYPE":"Music and Dance","LEGAL_NAME":"THE FAMILY DEN, INC.","LONGITUDE":-87.585689498895},
{"STATE":"IL","ZIP":60657,"LATTITUDE":41.93326207377274,"ADDRESS":"2816 N HALSTED ST 1ST ","YEAR":2015,"DOING_BUSINESS_AS_NAME":"HARRIGAN'S","POP_AT_RISK":1074828,"BUSINESS_TYPE":"Music and Dance","LEGAL_NAME":"2816 1\/2 HALSTED CORP.","LONGITUDE":-87.64917834017973},
{"STATE":"IL","ZIP":60622,"LATTITUDE":41.90339097291334,"ADDRESS":"1734 W DIVISION ST  ","YEAR":2015,"DOING_BUSINESS_AS_NAME":"MARIA'S LOUNGE","POP_AT_RISK":432803,"BUSINESS_TYPE":"Music and Dance","LEGAL_NAME":"MARIA'S LOUNGE II, LTD.","LONGITUDE":-87.67144899975825},
{"STATE":"IL","ZIP":60623,"LATTITUDE":41.84408106968191,"ADDRESS":"4153 W 26TH ST 1ST #","YEAR":2015,"DOING_BUSINESS_AS_NAME":"RESTAURANTE ALANIS LTD","POP_AT_RISK":699076,"BUSINESS_TYPE":"Music and Dance","LEGAL_NAME":"RESTAURANTE ALANIS LTD.","LONGITUDE":-87.72907469267422},
{"STATE":"IL","ZIP":60617,"LATTITUDE":41.74445686220236,"ADDRESS":"2020  -02022 E 83RD ST 1ST ","YEAR":2015,"DOING_BUSINESS_AS_NAME":"NEW CELEBRITY LOUNGE INC","POP_AT_RISK":259574,"BUSINESS_TYPE":"Music and Dance","LEGAL_NAME":"NEW CELEBRITY LOUNGE INC","LONGITUDE":-87.57491002150282},
{"STATE":"IL","ZIP":60607,"LATTITUDE":41.869411103369174,"ADDRESS":"1458 W TAYLOR ST  ","YEAR":2015,"DOING_BUSINESS_AS_NAME":"HAWKEYE'S BAR & GRILL INC","POP_AT_RISK":371480,"BUSINESS_TYPE":"Music and Dance","LEGAL_NAME":"HAWKEYE'S BAR & GRILL INC","LONGITUDE":-87.66401783425155},
{"STATE":"IL","ZIP":60638,"LATTITUDE":41.77750758060504,"ADDRESS":"6539-6541 W 63RD ST  ","YEAR":2015,"DOING_BUSINESS_AS_NAME":"J & J LOUNG & BANQUET HALL INC","POP_AT_RISK":66651,"BUSINESS_TYPE":"Music and Dance","LEGAL_NAME":"J & J LOUNGE BANQUET HALL INC","LONGITUDE":-87.78530285418451},
}