{
{"STATE":"IL","ZIP":60616,"LATTITUDE":41.85964842024526,"ADDRESS":"1629 S PRAIRIE AVE  ","YEAR":2007,"DOING_BUSINESS_AS_NAME":"JOHN HOWELL","POP_AT_RISK":80422,"BUSINESS_TYPE":"Street Performer","LEGAL_NAME":"JOHN HOWELL","LONGITUDE":-87.62066053872472},
{"STATE":"IL","ZIP":60643,"LATTITUDE":41.717804655681846,"ADDRESS":"9709 S PROSPECT AVE  ","YEAR":2007,"DOING_BUSINESS_AS_NAME":"JOEL BARR","POP_AT_RISK":50548,"BUSINESS_TYPE":"Street Performer","LEGAL_NAME":"JOEL B. BARR","LONGITUDE":-87.6643638264208},
{"STATE":"IL","ZIP":60609,"LATTITUDE":41.79624808776697,"ADDRESS":"5347 S WOOD ST 1ST #","YEAR":2007,"DOING_BUSINESS_AS_NAME":"CECIL D LOCKE","POP_AT_RISK":48881,"BUSINESS_TYPE":"Street Performer","LEGAL_NAME":"CECIL D LOCKE","LONGITUDE":-87.66936060628221},
{"STATE":"IL","ZIP":60643,"LATTITUDE":41.71887462307871,"ADDRESS":"9606 S CLAREMONT AVE 1 1","YEAR":2007,"DOING_BUSINESS_AS_NAME":"EVAN T. NOBLE","POP_AT_RISK":18196,"BUSINESS_TYPE":"Street Performer","LEGAL_NAME":"EVAN T. NOBLE","LONGITUDE":-87.68091802870475},
{"STATE":"IL","ZIP":60609,"LATTITUDE":41.830481857029845,"ADDRESS":"2038 W 35TH ST  ","YEAR":2007,"DOING_BUSINESS_AS_NAME":"CARMEN SALINAS","POP_AT_RISK":97036,"BUSINESS_TYPE":"Street Performer","LEGAL_NAME":"CARMEN SALINAS","LONGITUDE":-87.67687807638355},
{"STATE":"IL","ZIP":60628,"LATTITUDE":41.66959333607829,"ADDRESS":"12333 S LOWE AVE  ","YEAR":2007,"DOING_BUSINESS_AS_NAME":"HENRY D. MOSES","POP_AT_RISK":26583,"BUSINESS_TYPE":"Street Performer","LEGAL_NAME":"HENRY D. MOSES","LONGITUDE":-87.63788093024625},
{"STATE":"IL","ZIP":60638,"LATTITUDE":41.78203808780301,"ADDRESS":"6050 S CENTRAL AVE 1ST 4","YEAR":2007,"DOING_BUSINESS_AS_NAME":"JAMES P. MISUP","POP_AT_RISK":37876,"BUSINESS_TYPE":"Street Performer","LEGAL_NAME":"JAMES P. MISUP","LONGITUDE":-87.7620324686793},
{"STATE":"IL","ZIP":60632,"LATTITUDE":41.80321042739489,"ADDRESS":"4929 S KOSTNER AVE 1 1","YEAR":2007,"DOING_BUSINESS_AS_NAME":"JEANNA JOHNSON","POP_AT_RISK":70008,"BUSINESS_TYPE":"Street Performer","LEGAL_NAME":"JEANNA JOHNSON","LONGITUDE":-87.73309941520434},
{"STATE":"IL","ZIP":60636,"LATTITUDE":41.76415531499319,"ADDRESS":"1444 W 71ST PL  ","YEAR":2007,"DOING_BUSINESS_AS_NAME":"RODNEY JOHNSON","POP_AT_RISK":38600,"BUSINESS_TYPE":"Street Performer","LEGAL_NAME":"RODNEY JOHNSON","LONGITUDE":-87.6606397515453},
{"STATE":"IL","ZIP":60632,"LATTITUDE":41.79552296985734,"ADDRESS":"3018 W 54TH ST  ","YEAR":2007,"DOING_BUSINESS_AS_NAME":"ADRIAN SANTIAGO","POP_AT_RISK":63168,"BUSINESS_TYPE":"Street Performer","LEGAL_NAME":"ADRIAN SANTIAGO","LONGITUDE":-87.69953757396537},
{"STATE":"IL","ZIP":60626,"LATTITUDE":42.00247608795565,"ADDRESS":"1721 W WALLEN AVE  ","YEAR":2007,"DOING_BUSINESS_AS_NAME":"BRAD E.STANLEY","POP_AT_RISK":82398,"BUSINESS_TYPE":"Street Performer","LEGAL_NAME":"BRAD E. STANLEY","LONGITUDE":-87.67359316163771},
{"STATE":"IL","ZIP":60649,"LATTITUDE":41.76265653994295,"ADDRESS":"7363 S SOUTH SHORE DR  301","YEAR":2007,"DOING_BUSINESS_AS_NAME":"ERNEST J. POSEY","POP_AT_RISK":29497,"BUSINESS_TYPE":"Street Performer","LEGAL_NAME":"ERNEST J. POSEY","LONGITUDE":-87.55904035366618},
{"STATE":"IL","ZIP":60643,"LATTITUDE":41.7071723243098,"ADDRESS":"10243 S SEELEY AVE  ","YEAR":2007,"DOING_BUSINESS_AS_NAME":"ETHAN M. CRAVEN","POP_AT_RISK":59883,"BUSINESS_TYPE":"Street Performer","LEGAL_NAME":"ETHAN M. CRAVEN","LONGITUDE":-87.67225711469388},
{"STATE":"IL","ZIP":60643,"LATTITUDE":41.68585173166372,"ADDRESS":"1510 W 114TH PL  ","YEAR":2007,"DOING_BUSINESS_AS_NAME":"JASON M. NEWMAN","POP_AT_RISK":93948,"BUSINESS_TYPE":"Street Performer","LEGAL_NAME":"JASON M. NEWMAN","LONGITUDE":-87.66049501212929},
{"STATE":"IL","ZIP":60620,"LATTITUDE":41.75007889027195,"ADDRESS":"7916 S GREEN ST 2ND ","YEAR":2007,"DOING_BUSINESS_AS_NAME":"JOHNATHAN NOBLE\/ NEXT LEVEL DANCE TROUPE","POP_AT_RISK":81522,"BUSINESS_TYPE":"Street Performer","LEGAL_NAME":"JOHNATHAN NOBLE","LONGITUDE":-87.64538425917324},
{"STATE":"IL","ZIP":60632,"LATTITUDE":41.80212112484893,"ADDRESS":"5023 S FAIRFIELD  BSMT ","YEAR":2007,"DOING_BUSINESS_AS_NAME":"RONALD L MILLER","POP_AT_RISK":109230,"BUSINESS_TYPE":"Street Performer","LEGAL_NAME":"RONALD L MILLER","LONGITUDE":-87.69266205513807},
{"STATE":"IL","ZIP":60656,"LATTITUDE":41.961202594862584,"ADDRESS":"8615 W SUNNYSIDE AVE 1ST ","YEAR":2007,"DOING_BUSINESS_AS_NAME":"THOMAS M SEXTON","POP_AT_RISK":68328,"BUSINESS_TYPE":"Street Performer","LEGAL_NAME":"THOMAS M SEXTON","LONGITUDE":-87.8423017391636},
{"STATE":"IL","ZIP":60651,"LATTITUDE":41.90321674438855,"ADDRESS":"1241 N AUSTIN BLVD  ","YEAR":2007,"DOING_BUSINESS_AS_NAME":"ALLEN G. HOLLAND","POP_AT_RISK":182632,"BUSINESS_TYPE":"Street Performer","LEGAL_NAME":"ALLEN G. HOLLAND","LONGITUDE":-87.77525530458828},
{"STATE":"IL","ZIP":60645,"LATTITUDE":42.00668075852073,"ADDRESS":"2940 W MORSE AVE  ","YEAR":2007,"DOING_BUSINESS_AS_NAME":"AVRAHAM B KAPLAN","POP_AT_RISK":149892,"BUSINESS_TYPE":"Street Performer","LEGAL_NAME":"AVRAHAM B KAPLAN","LONGITUDE":-87.70378439625557},
{"STATE":"IL","ZIP":60624,"LATTITUDE":41.87690612300503,"ADDRESS":"4221 W JACKSON BLVD  ","YEAR":2007,"DOING_BUSINESS_AS_NAME":"GREGORY D PIERRE","POP_AT_RISK":34713,"BUSINESS_TYPE":"Street Performer","LEGAL_NAME":"GREGORY D PIERRE","LONGITUDE":-87.73132936743566},
{"STATE":"IL","ZIP":60621,"LATTITUDE":41.77842330898274,"ADDRESS":"6340 S ABERDEEN ST  `","YEAR":2007,"DOING_BUSINESS_AS_NAME":"JABOWEN S DIXON","POP_AT_RISK":35344,"BUSINESS_TYPE":"Street Performer","LEGAL_NAME":"JABOWEN  S DIXON","LONGITUDE":-87.65218636472981},
{"STATE":"IL","ZIP":60634,"LATTITUDE":41.93248494007717,"ADDRESS":"2842 N MENARD AVE  ","YEAR":2007,"DOING_BUSINESS_AS_NAME":"JOSEPH L. ALCALA","POP_AT_RISK":184068,"BUSINESS_TYPE":"Street Performer","LEGAL_NAME":"JOSEPH L. ALCALA","LONGITUDE":-87.77129575139928},
{"STATE":"IL","ZIP":60629,"LATTITUDE":41.7755330983029,"ADDRESS":"6437 S KILPATRICK AVE  ","YEAR":2007,"DOING_BUSINESS_AS_NAME":"LEONEL LOEZA JR.","POP_AT_RISK":23535,"BUSINESS_TYPE":"Street Performer","LEGAL_NAME":"LEONEL LOEZA JR.","LONGITUDE":-87.73961115561566},
{"STATE":"IL","ZIP":60645,"LATTITUDE":42.015513753247824,"ADDRESS":"2927 W JARVIS AVE  ","YEAR":2007,"DOING_BUSINESS_AS_NAME":"ELIZABETH A. LAND","POP_AT_RISK":24043,"BUSINESS_TYPE":"Street Performer","LEGAL_NAME":"ELIZABETH A. LAND","LONGITUDE":-87.7030787692355},
{"STATE":"IL","ZIP":60617,"LATTITUDE":41.72173971187443,"ADDRESS":"9525 S CLYDE AVE 1 ","YEAR":2007,"DOING_BUSINESS_AS_NAME":"JANE WRIGHT","POP_AT_RISK":104645,"BUSINESS_TYPE":"Street Performer","LEGAL_NAME":"JANE MARIE WRIGHT","LONGITUDE":-87.57155310349063},
{"STATE":"IL","ZIP":60628,"LATTITUDE":41.703684473874304,"ADDRESS":"739 E 105TH ST  ","YEAR":2007,"DOING_BUSINESS_AS_NAME":"LARRY LEE STEWART","POP_AT_RISK":81236,"BUSINESS_TYPE":"Street Performer","LEGAL_NAME":"LARRY LEE STEWART","LONGITUDE":-87.6047419252213},
{"STATE":"IL","ZIP":60630,"LATTITUDE":41.980383564676934,"ADDRESS":"5481 N NORTHWEST HWY 2ND 2","YEAR":2007,"DOING_BUSINESS_AS_NAME":"LISA L. JANOSCHKA","POP_AT_RISK":110188,"BUSINESS_TYPE":"Street Performer","LEGAL_NAME":"LISA L. JANOSCHKA","LONGITUDE":-87.77747659864201},
{"STATE":"IL","ZIP":60638,"LATTITUDE":41.796324314286394,"ADDRESS":"5814 S ARCHER AVE  ","YEAR":2007,"DOING_BUSINESS_AS_NAME":"LORITA ANN METLOW","POP_AT_RISK":39098,"BUSINESS_TYPE":"Street Performer","LEGAL_NAME":"LORITA ANN METLOW","LONGITUDE":-87.75916833211738},
{"STATE":"IL","ZIP":60651,"LATTITUDE":41.90492320599262,"ADDRESS":"4943 W KAMERLING AVE 2ND ","YEAR":2007,"DOING_BUSINESS_AS_NAME":"OZZIE L. STANFORD","POP_AT_RISK":84942,"BUSINESS_TYPE":"Street Performer","LEGAL_NAME":"Ozzie L. Stanford","LONGITUDE":-87.7502001478805},
{"STATE":"IL","ZIP":60629,"LATTITUDE":41.76092277264977,"ADDRESS":"7301 S CAMPBELL AVE  ","YEAR":2007,"DOING_BUSINESS_AS_NAME":"CARLOS W. SANDIFER","POP_AT_RISK":81490,"BUSINESS_TYPE":"Street Performer","LEGAL_NAME":"CARLOS W. SANDIFER","LONGITUDE":-87.68543787582433},
{"STATE":"IL","ZIP":60623,"LATTITUDE":41.8422306390621,"ADDRESS":"2715 S TROY ST BASEMENT ","YEAR":2007,"DOING_BUSINESS_AS_NAME":"GILBERT R. CORONEL","POP_AT_RISK":306080,"BUSINESS_TYPE":"Street Performer","LEGAL_NAME":"GILBERT R. CORONEL","LONGITUDE":-87.70359877060741},
{"STATE":"IL","ZIP":60620,"LATTITUDE":41.73511231339348,"ADDRESS":"8720 S ASHLAND AVE 3 3B","YEAR":2007,"DOING_BUSINESS_AS_NAME":"VICTOR M WALKER JR","POP_AT_RISK":77602,"BUSINESS_TYPE":"Street Performer","LEGAL_NAME":"VICTOR M WALKER JR","LONGITUDE":-87.66319455689805},
{"STATE":"IL","ZIP":60652,"LATTITUDE":41.7533343388514,"ADDRESS":"4260 W FORD CITY DR  104","YEAR":2007,"DOING_BUSINESS_AS_NAME":"VIMONT F. BROGSDALE","POP_AT_RISK":33516,"BUSINESS_TYPE":"Street Performer","LEGAL_NAME":"VIMONT F. BROGSDALE","LONGITUDE":-87.72906554788531},
{"STATE":"IL","ZIP":60659,"LATTITUDE":41.983679712399955,"ADDRESS":"5621 N CHRISTIANA AVE 3 ","YEAR":2007,"DOING_BUSINESS_AS_NAME":"AMANDA COHEN","POP_AT_RISK":55232,"BUSINESS_TYPE":"Street Performer","LEGAL_NAME":"AMANDA MERDITH COHEN","LONGITUDE":-87.71240568836679},
{"STATE":"IL","ZIP":60637,"LATTITUDE":41.783394260578476,"ADDRESS":"6124 S WOODLAWN AVE  ","YEAR":2007,"DOING_BUSINESS_AS_NAME":"RAY KENNETH RIPERTON","POP_AT_RISK":55876,"BUSINESS_TYPE":"Street Performer","LEGAL_NAME":"RAY KENNETH RIPERTON","LONGITUDE":-87.59641684509036},
{"STATE":"IL","ZIP":60619,"LATTITUDE":41.73645547394651,"ADDRESS":"541 E 87TH ST  ","YEAR":2007,"DOING_BUSINESS_AS_NAME":"JONATHAN K. ST. CLAIR","POP_AT_RISK":134928,"BUSINESS_TYPE":"Street Performer","LEGAL_NAME":"JONATHAN K. ST. CLAIR","LONGITUDE":-87.61043650713029},
{"STATE":"IL","ZIP":60623,"LATTITUDE":41.85735883126501,"ADDRESS":"1662 S TROY ST  ","YEAR":2007,"DOING_BUSINESS_AS_NAME":"RICHARD LAMONT CEASAR","POP_AT_RISK":56282,"BUSINESS_TYPE":"Street Performer","LEGAL_NAME":"RICHARD LAMONT CEASAR","LONGITUDE":-87.7043476270793},
{"STATE":"IL","ZIP":60626,"LATTITUDE":42.0169871580824,"ADDRESS":"7411 N WINCHESTER AVE  ","YEAR":2007,"DOING_BUSINESS_AS_NAME":"JONATHAN M. WINTERBURN","POP_AT_RISK":62574,"BUSINESS_TYPE":"Street Performer","LEGAL_NAME":"JONATHAN M. WINTERBURN","LONGITUDE":-87.67891161781962},
{"STATE":"IL","ZIP":60628,"LATTITUDE":41.710989683553585,"ADDRESS":"10058 S PRAIRIE AVE  ","YEAR":2007,"DOING_BUSINESS_AS_NAME":"DEBORAH A. HUBBARD-PARKS","POP_AT_RISK":97284,"BUSINESS_TYPE":"Street Performer","LEGAL_NAME":"DEBORAH A. HUBBARD-PARKS","LONGITUDE":-87.61766135145801},
}