{
{"STATE":"IL","ZIP":60614,"LATTITUDE":41.91844708184752,"ADDRESS":"338 W ARMITAGE AVE 1 ","YEAR":2007,"DOING_BUSINESS_AS_NAME":"BOBTAIL","POP_AT_RISK":728189,"BUSINESS_TYPE":"Mobile Frozen Desserts Dispenser - Non-Motorized","LEGAL_NAME":"BOBTAIL, LLC","LONGITUDE":-87.63792342122498},
{"STATE":"IL","ZIP":60621,"LATTITUDE":41.79226499746787,"ADDRESS":"416 W TREMONT ST  ","YEAR":2007,"DOING_BUSINESS_AS_NAME":"RENARD PORTE","POP_AT_RISK":106510,"BUSINESS_TYPE":"Mobile Frozen Desserts Dispenser - Non-Motorized","LEGAL_NAME":"RENARD PORTE","LONGITUDE":-87.63626251951023},
{"STATE":"IL","ZIP":60637,"LATTITUDE":41.7744030565167,"ADDRESS":"6613 S MARQUETTE RD 2 ","YEAR":2007,"DOING_BUSINESS_AS_NAME":"JANET JOHNSON","POP_AT_RISK":40487,"BUSINESS_TYPE":"Mobile Frozen Desserts Dispenser - Non-Motorized","LEGAL_NAME":"JANET JOHNSON","LONGITUDE":-87.61294017309599},
{"STATE":"IL","ZIP":60651,"LATTITUDE":41.896686441481215,"ADDRESS":"4957 W IOWA ST 1ST ","YEAR":2007,"DOING_BUSINESS_AS_NAME":"LOMA J. WHITE","POP_AT_RISK":165264,"BUSINESS_TYPE":"Mobile Frozen Desserts Dispenser - Non-Motorized","LEGAL_NAME":"LOMA J. WHITE","LONGITUDE":-87.7505473329026},
{"STATE":"IL","ZIP":60625,"LATTITUDE":41.96333980801993,"ADDRESS":"4513 N DRAKE AVE  ","YEAR":2007,"DOING_BUSINESS_AS_NAME":"MARTIN TELLEZ","POP_AT_RISK":151320,"BUSINESS_TYPE":"Mobile Frozen Desserts Dispenser - Non-Motorized","LEGAL_NAME":"MARTIN TELLEZ","LONGITUDE":-87.71673222372468},
{"STATE":"IL","ZIP":60632,"LATTITUDE":41.79353144259243,"ADDRESS":"3428 W 55TH ST  ","YEAR":2007,"DOING_BUSINESS_AS_NAME":"OJILVIO MANRA","POP_AT_RISK":262395,"BUSINESS_TYPE":"Mobile Frozen Desserts Dispenser - Non-Motorized","LEGAL_NAME":"OJILVIO MANRA","LONGITUDE":-87.70974809305812},
{"STATE":"IL","ZIP":60617,"LATTITUDE":41.740881220966536,"ADDRESS":"8500 S MUSKEGON AVE  ","YEAR":2007,"DOING_BUSINESS_AS_NAME":"DEBRA A. NICKS","POP_AT_RISK":72906,"BUSINESS_TYPE":"Mobile Frozen Desserts Dispenser - Non-Motorized","LEGAL_NAME":"DEBRA A. NICKS","LONGITUDE":-87.55527809714098},
{"STATE":"IL","ZIP":60610,"LATTITUDE":41.90146341490292,"ADDRESS":"1030 N STATE ST 2ND ","YEAR":2007,"DOING_BUSINESS_AS_NAME":"ELOISE BEASLEY","POP_AT_RISK":292708,"BUSINESS_TYPE":"Mobile Frozen Desserts Dispenser - Non-Motorized","LEGAL_NAME":"ELOISE BEASLEY","LONGITUDE":-87.62848137148605},
{"STATE":"IL","ZIP":60624,"LATTITUDE":41.871558050312146,"ADDRESS":"3845 W LEXINGTON ST  ","YEAR":2007,"DOING_BUSINESS_AS_NAME":"KATHY L. BURCH","POP_AT_RISK":332451,"BUSINESS_TYPE":"Mobile Frozen Desserts Dispenser - Non-Motorized","LEGAL_NAME":"KATHY L. BURCH","LONGITUDE":-87.72210190333209},
{"STATE":"IL","ZIP":60601,"LATTITUDE":41.885862105115756,"ADDRESS":"30 E LAKE ST BSMT ","YEAR":2007,"DOING_BUSINESS_AS_NAME":"M.H.R.,L.L.C.","POP_AT_RISK":494606,"BUSINESS_TYPE":"Mobile Frozen Desserts Dispenser - Non-Motorized","LEGAL_NAME":"M.H.R., L.L.C.","LONGITUDE":-87.62685864521356},
{"STATE":"IL","ZIP":60632,"LATTITUDE":41.79430368427873,"ADDRESS":"5421 S KOLIN AVE  ","YEAR":2007,"DOING_BUSINESS_AS_NAME":"MIGUEL HERRERA","POP_AT_RISK":323272,"BUSINESS_TYPE":"Mobile Frozen Desserts Dispenser - Non-Motorized","LEGAL_NAME":"MIGUEL HERRERA","LONGITUDE":-87.73162581748053},
{"STATE":"IL","ZIP":60628,"LATTITUDE":41.67790799105659,"ADDRESS":"17 W 119TH ST 2ND ","YEAR":2007,"DOING_BUSINESS_AS_NAME":"VELMA T. SMITH","POP_AT_RISK":70848,"BUSINESS_TYPE":"Mobile Frozen Desserts Dispenser - Non-Motorized","LEGAL_NAME":"VELMA T. SMITH","LONGITUDE":-87.62345868052496},
{"STATE":"IL","ZIP":60637,"LATTITUDE":41.777907910610566,"ADDRESS":"6418 S ST LAWRENCE AVE 3RD ","YEAR":2007,"DOING_BUSINESS_AS_NAME":"VERLEAN TANNER","POP_AT_RISK":39533,"BUSINESS_TYPE":"Mobile Frozen Desserts Dispenser - Non-Motorized","LEGAL_NAME":"VERLEAN TANNER","LONGITUDE":-87.61089377878292},
{"STATE":"IL","ZIP":60614,"LATTITUDE":41.92595686903509,"ADDRESS":"2419 N MARSHFIELD AVE 1ST 1R","YEAR":2007,"DOING_BUSINESS_AS_NAME":"AMY E. HEINRICH","POP_AT_RISK":773344,"BUSINESS_TYPE":"Mobile Frozen Desserts Dispenser - Non-Motorized","LEGAL_NAME":"AMY E. HEINRICH","LONGITUDE":-87.66924822039017},
{"STATE":"IL","ZIP":60608,"LATTITUDE":41.855211468989566,"ADDRESS":"1526 W CULLERTON ST  ","YEAR":2007,"DOING_BUSINESS_AS_NAME":"LINA MONTELONGO","POP_AT_RISK":38702,"BUSINESS_TYPE":"Mobile Frozen Desserts Dispenser - Non-Motorized","LEGAL_NAME":"LINA MONTELONGO","LONGITUDE":-87.66477634408962},
{"STATE":"IL","ZIP":60651,"LATTITUDE":41.89557687880783,"ADDRESS":"5803 W RICE ST  ","YEAR":2007,"DOING_BUSINESS_AS_NAME":"LORETTA HAYWOOD","POP_AT_RISK":390579,"BUSINESS_TYPE":"Mobile Frozen Desserts Dispenser - Non-Motorized","LEGAL_NAME":"LORETTA HAYWOOD","LONGITUDE":-87.77047027745444},
{"STATE":"IL","ZIP":60653,"LATTITUDE":41.80965747298947,"ADDRESS":"4659 S DREXEL BLVD  421","YEAR":2007,"DOING_BUSINESS_AS_NAME":"MELISSA T. FARR","POP_AT_RISK":499920,"BUSINESS_TYPE":"Mobile Frozen Desserts Dispenser - Non-Motorized","LEGAL_NAME":"MELISSA T. FARR","LONGITUDE":-87.6037522889473},
{"STATE":"IL","ZIP":60619,"LATTITUDE":41.74220710225957,"ADDRESS":"748 E 84TH ST  ","YEAR":2007,"DOING_BUSINESS_AS_NAME":"SADARI S. QUINN","POP_AT_RISK":123192,"BUSINESS_TYPE":"Mobile Frozen Desserts Dispenser - Non-Motorized","LEGAL_NAME":"SADARI S. QUINN","LONGITUDE":-87.60554852567736},
{"STATE":"IL","ZIP":60649,"LATTITUDE":41.773271128857346,"ADDRESS":"6701 S EAST END AVE  ","YEAR":2007,"DOING_BUSINESS_AS_NAME":"ALEXIS M NELSON","POP_AT_RISK":302886,"BUSINESS_TYPE":"Mobile Frozen Desserts Dispenser - Non-Motorized","LEGAL_NAME":"ALEXIS M. NELSON","LONGITUDE":-87.58371255298401},
{"STATE":"IL","ZIP":60618,"LATTITUDE":41.932718135704235,"ADDRESS":"3603 W WOLFRAM ST  ","YEAR":2007,"DOING_BUSINESS_AS_NAME":"FRANCISCO ACOSTA","POP_AT_RISK":834020,"BUSINESS_TYPE":"Mobile Frozen Desserts Dispenser - Non-Motorized","LEGAL_NAME":"FRANCISCO ACOSTA","LONGITUDE":-87.71741106571619},
{"STATE":"IL","ZIP":60637,"LATTITUDE":41.79394478375145,"ADDRESS":"5512 S WABASH AVE 3RD ","YEAR":2007,"DOING_BUSINESS_AS_NAME":"BEAUTIE B. BOYKIN","POP_AT_RISK":25118,"BUSINESS_TYPE":"Mobile Frozen Desserts Dispenser - Non-Motorized","LEGAL_NAME":"BEAUTIE B. BOYKIN","LONGITUDE":-87.62421595119858},
{"STATE":"IL","ZIP":60620,"LATTITUDE":41.74900800366205,"ADDRESS":"7955 S GREEN ST 1ST ","YEAR":2007,"DOING_BUSINESS_AS_NAME":"JEROME LUCKEY SR.","POP_AT_RISK":39339,"BUSINESS_TYPE":"Mobile Frozen Desserts Dispenser - Non-Motorized","LEGAL_NAME":"JEROME LUCKEY SR.","LONGITUDE":-87.64506242439423},
{"STATE":"IL","ZIP":60618,"LATTITUDE":41.9396575946445,"ADDRESS":"2050 W BELMONT AVE  ","YEAR":2007,"DOING_BUSINESS_AS_NAME":"PALETERIA ARCOS IRIS","POP_AT_RISK":527274,"BUSINESS_TYPE":"Mobile Frozen Desserts Dispenser - Non-Motorized","LEGAL_NAME":"FELICIANO MARTINEZ","LONGITUDE":-87.68036037889661},
{"STATE":"IL","ZIP":60651,"LATTITUDE":41.8976979414069,"ADDRESS":"915 N HARDING AVE  ","YEAR":2007,"DOING_BUSINESS_AS_NAME":"LATISHA E. BRANDON","POP_AT_RISK":239930,"BUSINESS_TYPE":"Mobile Frozen Desserts Dispenser - Non-Motorized","LEGAL_NAME":"LATISHA E. BRANDON","LONGITUDE":-87.72478270787013},
{"STATE":"IL","ZIP":60612,"LATTITUDE":41.89160354867516,"ADDRESS":"540 N ALBANY AVE  ","YEAR":2007,"DOING_BUSINESS_AS_NAME":"NESTOR JIMENEZ JR.","POP_AT_RISK":172900,"BUSINESS_TYPE":"Mobile Frozen Desserts Dispenser - Non-Motorized","LEGAL_NAME":"NESTOR JIMENEZ JR.","LONGITUDE":-87.70411727309036},
{"STATE":"IL","ZIP":60629,"LATTITUDE":41.78499743521863,"ADDRESS":"5950 S MAPLEWOOD AVE  ","YEAR":2007,"DOING_BUSINESS_AS_NAME":"Cecilia A. Dela Fuente","POP_AT_RISK":534930,"BUSINESS_TYPE":"Mobile Frozen Desserts Dispenser - Non-Motorized","LEGAL_NAME":"Cecilia Dela Fuente","LONGITUDE":-87.68760388269078},
{"STATE":"IL","ZIP":60643,"LATTITUDE":41.7026668551852,"ADDRESS":"10514 S VINCENNES AVE  ","YEAR":2007,"DOING_BUSINESS_AS_NAME":"JAMES A.V. MARSHALL","POP_AT_RISK":122904,"BUSINESS_TYPE":"Mobile Frozen Desserts Dispenser - Non-Motorized","LEGAL_NAME":"JAMES A.V. MARSHALL","LONGITUDE":-87.65770063907053},
{"STATE":"IL","ZIP":60620,"LATTITUDE":41.724784959399,"ADDRESS":"231 W 93RD PL  ","YEAR":2007,"DOING_BUSINESS_AS_NAME":"LEROY PATRICK NUNES","POP_AT_RISK":54200,"BUSINESS_TYPE":"Mobile Frozen Desserts Dispenser - Non-Motorized","LEGAL_NAME":"LEROY PATRICK NUNES","LONGITUDE":-87.63022846441444},
{"STATE":"IL","ZIP":60623,"LATTITUDE":41.85948057712892,"ADDRESS":"1539 S KEDVALE AVE  ","YEAR":2007,"DOING_BUSINESS_AS_NAME":"ROGER L. WASHINGTON","POP_AT_RISK":152661,"BUSINESS_TYPE":"Mobile Frozen Desserts Dispenser - Non-Motorized","LEGAL_NAME":"ROGER L. WASHINGTON","LONGITUDE":-87.72849227529412},
{"STATE":"IL","ZIP":60628,"LATTITUDE":41.7015029348306,"ADDRESS":"251 W 106TH ST  ","YEAR":2007,"DOING_BUSINESS_AS_NAME":"SAMANTHA D. PETTIES","POP_AT_RISK":71096,"BUSINESS_TYPE":"Mobile Frozen Desserts Dispenser - Non-Motorized","LEGAL_NAME":"SAMANTHA D. PETTIES","LONGITUDE":-87.63012488724631},
{"STATE":"IL","ZIP":60620,"LATTITUDE":41.74784955544534,"ADDRESS":"8026 S RACINE AVE  ","YEAR":2007,"DOING_BUSINESS_AS_NAME":"DUJUAN A MORGAN, SR.","POP_AT_RISK":246235,"BUSINESS_TYPE":"Mobile Frozen Desserts Dispenser - Non-Motorized","LEGAL_NAME":"DUJUAN A MORGAN, SR.","LONGITUDE":-87.65381275340782},
{"STATE":"IL","ZIP":60653,"LATTITUDE":41.81901870075915,"ADDRESS":"4139 S INDIANA AVE  ","YEAR":2007,"DOING_BUSINESS_AS_NAME":"OMAR ROLAND PHILLIPS","POP_AT_RISK":334466,"BUSINESS_TYPE":"Mobile Frozen Desserts Dispenser - Non-Motorized","LEGAL_NAME":"OMAR ROLAND PHILLIPS","LONGITUDE":-87.62132794238862},
{"STATE":"IL","ZIP":60628,"LATTITUDE":41.68642201355383,"ADDRESS":"11418 S MICHIGAN AVE 1ST 1","YEAR":2007,"DOING_BUSINESS_AS_NAME":"ANDREW W. JOHNSON, JR","POP_AT_RISK":26588,"BUSINESS_TYPE":"Mobile Frozen Desserts Dispenser - Non-Motorized","LEGAL_NAME":"ANDREW W. JOHNSON, JR","LONGITUDE":-87.62101639392573},
{"STATE":"IL","ZIP":60639,"LATTITUDE":41.92260523118646,"ADDRESS":"2327 N MELVINA AVE 2ND FLOOR 2","YEAR":2007,"DOING_BUSINESS_AS_NAME":"MATIAS IBARRA-FERNANDEZ","POP_AT_RISK":142329,"BUSINESS_TYPE":"Mobile Frozen Desserts Dispenser - Non-Motorized","LEGAL_NAME":"MATIAS IBARRA-FERNANDEZ","LONGITUDE":-87.78039272382074},
{"STATE":"IL","ZIP":60608,"LATTITUDE":41.84638121795965,"ADDRESS":"2520 S HALSTED ST  ","YEAR":2007,"DOING_BUSINESS_AS_NAME":"MIMI'S CHURROS","POP_AT_RISK":666172,"BUSINESS_TYPE":"Mobile Frozen Desserts Dispenser - Non-Motorized","LEGAL_NAME":"MIMI'S CHURROS USA INC.","LONGITUDE":-87.64661301435865},
{"STATE":"IL","ZIP":60652,"LATTITUDE":41.737733574846395,"ADDRESS":"8522 S KEDVALE AVE  ","YEAR":2007,"DOING_BUSINESS_AS_NAME":"C & E SWEET TREATS INC.","POP_AT_RISK":126165,"BUSINESS_TYPE":"Mobile Frozen Desserts Dispenser - Non-Motorized","LEGAL_NAME":"C & E  SWEET TREATS INC.","LONGITUDE":-87.72531945761821},
}