{
{"STATE":"IL","ZIP":60616,"LATTITUDE":41.84109417789479,"ADDRESS":"2929 S WABASH AVE  1ST","YEAR":2012,"DOING_BUSINESS_AS_NAME":"HENRY BOOTH HOUSE","POP_AT_RISK":35865,"BUSINESS_TYPE":"Day Care Center 2 - 6 Years","LEGAL_NAME":"HENRY BOOTH HOUSE","LONGITUDE":-87.62506779220855},
{"STATE":"IL","ZIP":60639,"LATTITUDE":41.92450052917981,"ADDRESS":"4310 W FULLERTON AVE 1ST ","YEAR":2012,"DOING_BUSINESS_AS_NAME":"A CARING WORLD INC","POP_AT_RISK":72844,"BUSINESS_TYPE":"Day Care Center 2 - 6 Years","LEGAL_NAME":"A CARING WORLD INC","LONGITUDE":-87.73457439543674},
{"STATE":"IL","ZIP":60643,"LATTITUDE":41.677685065833224,"ADDRESS":"1500 W 119TH ST  1ST F","YEAR":2012,"DOING_BUSINESS_AS_NAME":"THE LEARNING PLACE","POP_AT_RISK":25454,"BUSINESS_TYPE":"Day Care Center 2 - 6 Years","LEGAL_NAME":"THE LEARNING PLACE","LONGITUDE":-87.65901954921286},
{"STATE":"IL","ZIP":60644,"LATTITUDE":41.873773251493034,"ADDRESS":"500 S CENTRAL AVE 1ST ","YEAR":2012,"DOING_BUSINESS_AS_NAME":"COLUMBUS PARK HEAD START","POP_AT_RISK":89278,"BUSINESS_TYPE":"Day Care Center 2 - 6 Years","LEGAL_NAME":"THE SALVATION ARMY","LONGITUDE":-87.76476970436084},
{"STATE":"IL","ZIP":60630,"LATTITUDE":41.96865863857789,"ADDRESS":"5932 W GUNNISON ST  ","YEAR":2012,"DOING_BUSINESS_AS_NAME":"PINOCCHIO CHILD CARE","POP_AT_RISK":87848,"BUSINESS_TYPE":"Day Care Center 2 - 6 Years","LEGAL_NAME":"BOJDA DAY CARE CORP","LONGITUDE":-87.77718488891698},
{"STATE":"IL","ZIP":60628,"LATTITUDE":41.67792032109765,"ADDRESS":"7 E 119TH ST 1ST ","YEAR":2012,"DOING_BUSINESS_AS_NAME":"LINCOLN ROSELAND HEAD START","POP_AT_RISK":23616,"BUSINESS_TYPE":"Day Care Center 2 - 6 Years","LEGAL_NAME":"ABRAHAM LINCOLN CENTRE","LONGITUDE":-87.62231652696983},
{"STATE":"IL","ZIP":60628,"LATTITUDE":41.71235734507338,"ADDRESS":"708 E 100TH PL 1ST ","YEAR":2012,"DOING_BUSINESS_AS_NAME":"LONDON BRIDGES PRE-SCHOOL","POP_AT_RISK":18053,"BUSINESS_TYPE":"Day Care Center 2 - 6 Years","LEGAL_NAME":"LONDON BRIDGES PRE-SCHOOL","LONGITUDE":-87.60476353346552},
{"STATE":"IL","ZIP":60646,"LATTITUDE":42.003175359269584,"ADDRESS":"6736 N LOLETA AVE  ","YEAR":2012,"DOING_BUSINESS_AS_NAME":"EDGEBROOK COMMUNITY CHURCH","POP_AT_RISK":11252,"BUSINESS_TYPE":"Day Care Center 2 - 6 Years","LEGAL_NAME":"EDGEBROOK COMMUNITY CHURCH","LONGITUDE":-87.77183707699314},
{"STATE":"IL","ZIP":60638,"LATTITUDE":41.7932347787373,"ADDRESS":"6287 S ARCHER AVE  1ST F","YEAR":2012,"DOING_BUSINESS_AS_NAME":"KID'Z COLONY DAYCARE, INC.","POP_AT_RISK":93483,"BUSINESS_TYPE":"Day Care Center 2 - 6 Years","LEGAL_NAME":"KID'Z COLONY DAYCARE. INC.","LONGITUDE":-87.77777643611029},
{"STATE":"IL","ZIP":60646,"LATTITUDE":41.995446645749816,"ADDRESS":"4008 W ROSEMONT AVE  1ST F","YEAR":2012,"DOING_BUSINESS_AS_NAME":"ALL ABOARD LEARNING EXPRESS","POP_AT_RISK":20014,"BUSINESS_TYPE":"Day Care Center 2 - 6 Years","LEGAL_NAME":"ALL ABOARD LEARNING EXPRESS","LONGITUDE":-87.72932153283107},
{"STATE":"IL","ZIP":60656,"LATTITUDE":41.97436750072286,"ADDRESS":"7626-7630 W FOSTER AVE 1ST ","YEAR":2012,"DOING_BUSINESS_AS_NAME":"CZERWONY KAPTUREK","POP_AT_RISK":14234,"BUSINESS_TYPE":"Day Care Center 2 - 6 Years","LEGAL_NAME":"LITTLE RED RIDING HOOD, INC.","LONGITUDE":-87.81804729501805},
{"STATE":"IL","ZIP":60631,"LATTITUDE":41.98736048019242,"ADDRESS":"5849 N NINA AVE 1ST ","YEAR":2012,"DOING_BUSINESS_AS_NAME":"WHITE STEEPLE PRESCHOOL","POP_AT_RISK":20824,"BUSINESS_TYPE":"Day Care Center 2 - 6 Years","LEGAL_NAME":"MEDITATION CENTER OF CHICAGO","LONGITUDE":-87.80378597661188},
{"STATE":"IL","ZIP":60634,"LATTITUDE":41.93165821480086,"ADDRESS":"2820 N NARRAGANSETT AVE 1 ","YEAR":2012,"DOING_BUSINESS_AS_NAME":"Little Green Oak","POP_AT_RISK":54075,"BUSINESS_TYPE":"Day Care Center 2 - 6 Years","LEGAL_NAME":"LITTLE GREEN OAK INCORPORATED","LONGITUDE":-87.78585878124555},
{"STATE":"IL","ZIP":60609,"LATTITUDE":41.830358930906655,"ADDRESS":"1711 W 35TH ST  1ST F","YEAR":2012,"DOING_BUSINESS_AS_NAME":"LITTLE TYKES PRE-SCHOOL INC.","POP_AT_RISK":26182,"BUSINESS_TYPE":"Day Care Center 2 - 6 Years","LEGAL_NAME":"LITTLE TYKES PRE-SCHOOL, INC.","LONGITUDE":-87.66843553445109},
{"STATE":"IL","ZIP":60618,"LATTITUDE":41.939660448394484,"ADDRESS":"2044 W BELMONT AVE 1ST ","YEAR":2012,"DOING_BUSINESS_AS_NAME":"TWINKLING STARS DAYCARE","POP_AT_RISK":50244,"BUSINESS_TYPE":"Day Care Center 2 - 6 Years","LEGAL_NAME":"TWINKLING STARS DAYCARE, INC.","LONGITUDE":-87.68013460872132},
{"STATE":"IL","ZIP":60612,"LATTITUDE":41.874081965880684,"ADDRESS":"2150 W HARRISON ST  ","YEAR":2012,"DOING_BUSINESS_AS_NAME":"LAURENCE ARMOUR DAY SCHOOL","POP_AT_RISK":29569,"BUSINESS_TYPE":"Day Care Center 2 - 6 Years","LEGAL_NAME":"RUSH UNIVERSITY MEDICAL CENTER","LONGITUDE":-87.68092243741066},
{"STATE":"IL","ZIP":60656,"LATTITUDE":41.9793096533148,"ADDRESS":"8622 W CATALPA AVE 1ST ","YEAR":2012,"DOING_BUSINESS_AS_NAME":"BRICKTON MONTESSORI SCHOOL","POP_AT_RISK":63507,"BUSINESS_TYPE":"Day Care Center 2 - 6 Years","LEGAL_NAME":"THE BRICKTON MONTESSORI SCHOOL","LONGITUDE":-87.84247838940561},
{"STATE":"IL","ZIP":60617,"LATTITUDE":41.718354119253824,"ADDRESS":"9725 S COMMERCIAL AVE 1ST FLOOR ","YEAR":2012,"DOING_BUSINESS_AS_NAME":"MARI'S BUMBLE BEE DAY CARE CORP.","POP_AT_RISK":17749,"BUSINESS_TYPE":"Day Care Center 2 - 6 Years","LEGAL_NAME":"MARI'S BUMBLE BEE DAY CARE CORP.","LONGITUDE":-87.55087407318614},
{"STATE":"IL","ZIP":60632,"LATTITUDE":41.816195369762184,"ADDRESS":"4235 S KEDZIE AVE  ","YEAR":2012,"DOING_BUSINESS_AS_NAME":"KIDDIE GARDEN LITTLE ANGELS","POP_AT_RISK":43636,"BUSINESS_TYPE":"Day Care Center 2 - 6 Years","LEGAL_NAME":"KIDDIE GARDEN LITTLE ANGELS CORP.","LONGITUDE":-87.70414872843075},
{"STATE":"IL","ZIP":60651,"LATTITUDE":41.896679619009724,"ADDRESS":"5900 W IOWA ST 1ST ","YEAR":2012,"DOING_BUSINESS_AS_NAME":"HOPE CHILD DEVELOPMENT CENTER","POP_AT_RISK":49255,"BUSINESS_TYPE":"Day Care Center 2 - 6 Years","LEGAL_NAME":"TRINITY RESOURCES UNLIMITED, INC.","LONGITUDE":-87.77249925688668},
{"STATE":"IL","ZIP":60638,"LATTITUDE":41.80325513926886,"ADDRESS":"4922 S CICERO AVE 1ST ","YEAR":2012,"DOING_BUSINESS_AS_NAME":"SANCTUARY CHILDCARE DEVELOPMENT CENTER","POP_AT_RISK":24242,"BUSINESS_TYPE":"Day Care Center 2 - 6 Years","LEGAL_NAME":"SANCTUARY OF THE LIVING GOD CHURCH","LONGITUDE":-87.74318434425263},
{"STATE":"IL","ZIP":60638,"LATTITUDE":41.778117574741486,"ADDRESS":"6255 S MAYFIELD AVE  ","YEAR":2012,"DOING_BUSINESS_AS_NAME":"LITTLE LEARNERS DAYCARE","POP_AT_RISK":37876,"BUSINESS_TYPE":"Day Care Center 2 - 6 Years","LEGAL_NAME":"LITTLE LEARNERS DAYCARE INCORPORATED","LONGITUDE":-87.76891206328479},
{"STATE":"IL","ZIP":60643,"LATTITUDE":41.705835153211794,"ADDRESS":"10317 S WESTERN AVE  ","YEAR":2012,"DOING_BUSINESS_AS_NAME":"SMALL STRIDE ACADEMY","POP_AT_RISK":27724,"BUSINESS_TYPE":"Day Care Center 2 - 6 Years","LEGAL_NAME":"SMALL STRIDE ON WESTERN AVENUE, INC.","LONGITUDE":-87.68145602363649},
{"STATE":"IL","ZIP":60630,"LATTITUDE":41.97038297003879,"ADDRESS":"4909 N PULASKI RD 1 ","YEAR":2012,"DOING_BUSINESS_AS_NAME":"APPLE TREE INC.","POP_AT_RISK":63203,"BUSINESS_TYPE":"Day Care Center 2 - 6 Years","LEGAL_NAME":"APPLE TREE CHILDREN'S LEARNING CENTER","LONGITUDE":-87.72794266234457},
{"STATE":"IL","ZIP":60655,"LATTITUDE":41.69179966454041,"ADDRESS":"2760 W 111TH ST 1ST ","YEAR":2012,"DOING_BUSINESS_AS_NAME":"HILL OF ANGELS DAYCARE CENTER INC.","POP_AT_RISK":33360,"BUSINESS_TYPE":"Day Care Center 2 - 6 Years","LEGAL_NAME":"HILL OF ANGELS DAYCARE CENTER INC.NFP","LONGITUDE":-87.69069825582854},
{"STATE":"IL","ZIP":60617,"LATTITUDE":41.681053268167084,"ADDRESS":"3552 E 118TH ST  ","YEAR":2012,"DOING_BUSINESS_AS_NAME":"BRENDA'S KIDS CLUB DAYCARE CENTER","POP_AT_RISK":13690,"BUSINESS_TYPE":"Day Care Center 2 - 6 Years","LEGAL_NAME":"BRENDA'S KIDS CLUB DAY CARE CENTER INC.","LONGITUDE":-87.53683432709336},
{"STATE":"IL","ZIP":60634,"LATTITUDE":41.93802847798224,"ADDRESS":"7622 W BELMONT AVE  ","YEAR":2012,"DOING_BUSINESS_AS_NAME":"HAPPY KIDS PRESCHOOL & DAYCARE CENTER","POP_AT_RISK":35096,"BUSINESS_TYPE":"Day Care Center 2 - 6 Years","LEGAL_NAME":"HAPPY KIDS PRESCHOOL & DAYCARE CENTER LLC","LONGITUDE":-87.81751327838508},
{"STATE":"IL","ZIP":60615,"LATTITUDE":41.79956925486811,"ADDRESS":"5300 S SHORE DR  1 FLR","YEAR":2012,"DOING_BUSINESS_AS_NAME":"PARENT COOPERATIVE FOR EARLY LEARNING, INC.","POP_AT_RISK":29363,"BUSINESS_TYPE":"Day Care Center 2 - 6 Years","LEGAL_NAME":"PARENT COOPERATIVE FOR EARLY LEARNING, INC.","LONGITUDE":-87.58246503715458},
{"STATE":"IL","ZIP":60623,"LATTITUDE":41.84346389123191,"ADDRESS":"2629 S LAWNDALE AVE 1ST ","YEAR":2012,"DOING_BUSINESS_AS_NAME":"A-ZMALL WORLD CHILD DEVELOPMENT CENTER","POP_AT_RISK":66506,"BUSINESS_TYPE":"Day Care Center 2 - 6 Years","LEGAL_NAME":"A-ZMALL WORLD CHILD DEVELOPMENT CENTER CORP.","LONGITUDE":-87.71705500300543},
{"STATE":"IL","ZIP":60649,"LATTITUDE":41.75979271850805,"ADDRESS":"2672-2674 E 75TH ST 1ST ","YEAR":2012,"DOING_BUSINESS_AS_NAME":"LITTLE APPLE SEEDS LEARNING ACADEMY","POP_AT_RISK":29611,"BUSINESS_TYPE":"Day Care Center 2 - 6 Years","LEGAL_NAME":"LITTLE APPLE SEEDS LEARNING ACADEMY CORPORATION","LONGITUDE":-87.55901897113903},
}