{
{"STATE":"IL","ZIP":60617,"LATTITUDE":41.73971859820789,"ADDRESS":"8549 S SOUTH CHICAGO AVE  ","YEAR":2005,"DOING_BUSINESS_AS_NAME":"ART'S AUTO  BODY","POP_AT_RISK":228298,"BUSINESS_TYPE":"Motor Vehicle Repair: Engine\/Body(Class III)","LEGAL_NAME":"ART RESENDEZ","LONGITUDE":-87.56899428099885},
{"STATE":"IL","ZIP":60621,"LATTITUDE":41.76017212380373,"ADDRESS":"7346 S HALSTED ST  ","YEAR":2005,"DOING_BUSINESS_AS_NAME":"ADAM'S AUTO REBUILDER","POP_AT_RISK":439152,"BUSINESS_TYPE":"Motor Vehicle Repair: Engine\/Body(Class III)","LEGAL_NAME":"ADAM STALLWORTH","LONGITUDE":-87.64443182702918},
{"STATE":"IL","ZIP":60620,"LATTITUDE":41.73816304769432,"ADDRESS":"8607 S VINCENNES AVE  ","YEAR":2005,"DOING_BUSINESS_AS_NAME":"VINCENNES BODY SHOP","POP_AT_RISK":350970,"BUSINESS_TYPE":"Motor Vehicle Repair: Engine\/Body(Class III)","LEGAL_NAME":"GEORGE ROBINSON","LONGITUDE":-87.64186690910064},
{"STATE":"IL","ZIP":60609,"LATTITUDE":41.79696233428589,"ADDRESS":"5323 S ASHLAND AVE  1","YEAR":2005,"DOING_BUSINESS_AS_NAME":"ASHLAND AUTO REPAIRS & SALES","POP_AT_RISK":977460,"BUSINESS_TYPE":"Motor Vehicle Repair: Engine\/Body(Class III)","LEGAL_NAME":"INTISSAR AFFANEH","LONGITUDE":-87.66451632857104},
{"STATE":"IL","ZIP":60639,"LATTITUDE":41.91733257062871,"ADDRESS":"5269 W GRAND AVE 1ST ","YEAR":2005,"DOING_BUSINESS_AS_NAME":"MIKY'S BODY SHOP","POP_AT_RISK":185937,"BUSINESS_TYPE":"Motor Vehicle Repair: Engine\/Body(Class III)","LEGAL_NAME":"MIKY'S BODY SHOP","LONGITUDE":-87.7586839766976},
{"STATE":"IL","ZIP":60628,"LATTITUDE":41.68597770757004,"ADDRESS":"11439 S PERRY AVE # 1ST","YEAR":2005,"DOING_BUSINESS_AS_NAME":"S R M ENGINEERING WORKSHOP","POP_AT_RISK":121296,"BUSINESS_TYPE":"Motor Vehicle Repair: Engine\/Body(Class III)","LEGAL_NAME":"SOLOMON R MORGAN","LONGITUDE":-87.62548136876106},
{"STATE":"IL","ZIP":60632,"LATTITUDE":41.80583085757299,"ADDRESS":"4815 S ARCHER AVE  ","YEAR":2005,"DOING_BUSINESS_AS_NAME":"A & A AUTO REPAIR","POP_AT_RISK":377190,"BUSINESS_TYPE":"Motor Vehicle Repair: Engine\/Body(Class III)","LEGAL_NAME":"A & A AUTO REPAIR","LONGITUDE":-87.7174666731224},
{"STATE":"IL","ZIP":60617,"LATTITUDE":41.67898563669124,"ADDRESS":"11901 S AVENUE O   BACK","YEAR":2005,"DOING_BUSINESS_AS_NAME":"GALLO EQUIPMENT","POP_AT_RISK":2544,"BUSINESS_TYPE":"Motor Vehicle Repair: Engine\/Body(Class III)","LEGAL_NAME":"GALLO EQUIPMENT CO","LONGITUDE":-87.53991055891692},
{"STATE":"IL","ZIP":60612,"LATTITUDE":41.870106751227496,"ADDRESS":"900-908 S CALIFORNIA AVE  ","YEAR":2005,"DOING_BUSINESS_AS_NAME":"MAGIOROS AUTO","POP_AT_RISK":448560,"BUSINESS_TYPE":"Motor Vehicle Repair: Engine\/Body(Class III)","LEGAL_NAME":"KONSTADINO TSINGOS","LONGITUDE":-87.6961483594601},
{"STATE":"IL","ZIP":60637,"LATTITUDE":41.768478817719135,"ADDRESS":"6947 S SOUTH CHICAGO AVE  ","YEAR":2005,"DOING_BUSINESS_AS_NAME":"N & Z AUTO REPAIR","POP_AT_RISK":305460,"BUSINESS_TYPE":"Motor Vehicle Repair: Engine\/Body(Class III)","LEGAL_NAME":"MILORAD ANDELKOVIC","LONGITUDE":-87.60901224025406},
{"STATE":"IL","ZIP":60607,"LATTITUDE":41.876700506274176,"ADDRESS":"1014 W VAN BUREN ST # 1","YEAR":2005,"DOING_BUSINESS_AS_NAME":"WEST LOOP AUTO BODY","POP_AT_RISK":346518,"BUSINESS_TYPE":"Motor Vehicle Repair: Engine\/Body(Class III)","LEGAL_NAME":"WEST LOOP AUTO INC","LONGITUDE":-87.65249420614794},
{"STATE":"IL","ZIP":60651,"LATTITUDE":41.89979453858679,"ADDRESS":"1025 N PULASKI RD  ","YEAR":2005,"DOING_BUSINESS_AS_NAME":"PENA AUTO BODY SHOP INC.","POP_AT_RISK":251765,"BUSINESS_TYPE":"Motor Vehicle Repair: Engine\/Body(Class III)","LEGAL_NAME":"PENA AUTO BODY INC.","LONGITUDE":-87.72607186708322},
{"STATE":"IL","ZIP":60649,"LATTITUDE":41.7586745237535,"ADDRESS":"1637 E 75TH ST  ","YEAR":2005,"DOING_BUSINESS_AS_NAME":"Shore Auto Rebuilders","POP_AT_RISK":497640,"BUSINESS_TYPE":"Motor Vehicle Repair: Engine\/Body(Class III)","LEGAL_NAME":"AMB Enterprise, Inc.","LONGITUDE":-87.58428376708956},
{"STATE":"IL","ZIP":60628,"LATTITUDE":41.67772568283731,"ADDRESS":"707 W 119TH ST  ","YEAR":2005,"DOING_BUSINESS_AS_NAME":"C & J AUTO REPAIR INC","POP_AT_RISK":125624,"BUSINESS_TYPE":"Motor Vehicle Repair: Engine\/Body(Class III)","LEGAL_NAME":"C & J AUTO REPAIR INC","LONGITUDE":-87.63982947790603},
{"STATE":"IL","ZIP":60651,"LATTITUDE":41.902632007084115,"ADDRESS":"4350 W DIVISION ST 1ST ","YEAR":2005,"DOING_BUSINESS_AS_NAME":"PARS AUTO SALES","POP_AT_RISK":47954,"BUSINESS_TYPE":"Motor Vehicle Repair: Engine\/Body(Class III)","LEGAL_NAME":"FRED & MARY ALLAHVERDI","LONGITUDE":-87.73572033187864},
{"STATE":"IL","ZIP":60617,"LATTITUDE":41.72592378092122,"ADDRESS":"9333 S SOUTH CHICAGO AVE 1ST ","YEAR":2005,"DOING_BUSINESS_AS_NAME":"ACE AUTO REBUILDERS INC","POP_AT_RISK":92145,"BUSINESS_TYPE":"Motor Vehicle Repair: Engine\/Body(Class III)","LEGAL_NAME":"ACE AUTO REBUILDERS INC","LONGITUDE":-87.54983929547488},
{"STATE":"IL","ZIP":60625,"LATTITUDE":41.98174173583619,"ADDRESS":"5510 N WESTERN AVE  ","YEAR":2005,"DOING_BUSINESS_AS_NAME":"CHICAGO ON WHEELS LLC","POP_AT_RISK":425112,"BUSINESS_TYPE":"Motor Vehicle Repair: Engine\/Body(Class III)","LEGAL_NAME":"CHICAGO ON WHEELS, L.L.C.","LONGITUDE":-87.68952563303804},
{"STATE":"IL","ZIP":60652,"LATTITUDE":41.74613029609477,"ADDRESS":"3435 W COLUMBUS AVE 1ST ","YEAR":2005,"DOING_BUSINESS_AS_NAME":"DON'S AUTO REBUILDERS","POP_AT_RISK":134990,"BUSINESS_TYPE":"Motor Vehicle Repair: Engine\/Body(Class III)","LEGAL_NAME":"DON'S AUTO REBUILDERS INC","LONGITUDE":-87.70797390992252},
{"STATE":"IL","ZIP":60651,"LATTITUDE":41.894766099084464,"ADDRESS":"5449 W CHICAGO AVE  ","YEAR":2005,"DOING_BUSINESS_AS_NAME":"SUPERIOR AUTOMOTIVE REPAIR CEN","POP_AT_RISK":338064,"BUSINESS_TYPE":"Motor Vehicle Repair: Engine\/Body(Class III)","LEGAL_NAME":"ROBERTO & ROBERT GUTIERREZ","LONGITUDE":-87.76254919179325},
{"STATE":"IL","ZIP":60660,"LATTITUDE":41.993674733493634,"ADDRESS":"6147 N BROADWAY  1ST ","YEAR":2005,"DOING_BUSINESS_AS_NAME":"SUPERIOR AUTOMOTIVE & BODY","POP_AT_RISK":728850,"BUSINESS_TYPE":"Motor Vehicle Repair: Engine\/Body(Class III)","LEGAL_NAME":"SUPERIOR HAND CAR WASH CORP","LONGITUDE":-87.66023318180571},
{"STATE":"IL","ZIP":60631,"LATTITUDE":41.98733536232136,"ADDRESS":"5830 N NORTHWEST HWY  ","YEAR":2005,"DOING_BUSINESS_AS_NAME":"CARS COLLISION CENTER SHOP #1","POP_AT_RISK":141160,"BUSINESS_TYPE":"Motor Vehicle Repair: Engine\/Body(Class III)","LEGAL_NAME":"CARS COLLISION CENTER, L.L.C","LONGITUDE":-87.79041244760279},
{"STATE":"IL","ZIP":60626,"LATTITUDE":42.01770121035835,"ADDRESS":"7478 N ROGERS AVE  ","YEAR":2005,"DOING_BUSINESS_AS_NAME":"RUNGE'S AUTO & TIRE","POP_AT_RISK":174963,"BUSINESS_TYPE":"Motor Vehicle Repair: Engine\/Body(Class III)","LEGAL_NAME":"RUNGE'S AUTO & TIRE, LIMITED.","LONGITUDE":-87.6720115010643},
{"STATE":"IL","ZIP":60639,"LATTITUDE":41.92572767446021,"ADDRESS":"2448 N CICERO AVE 1ST ","YEAR":2005,"DOING_BUSINESS_AS_NAME":"A 1  M  AUTO REPAIR & SALES","POP_AT_RISK":490568,"BUSINESS_TYPE":"Motor Vehicle Repair: Engine\/Body(Class III)","LEGAL_NAME":"MARIAN NAGORZANSKI & ANDRZEJ JANUS","LONGITUDE":-87.74650330609992},
{"STATE":"IL","ZIP":60625,"LATTITUDE":41.96405483275474,"ADDRESS":"4535 - 4537 N KEDZIE AVE  ","YEAR":2005,"DOING_BUSINESS_AS_NAME":"UNIQUE AUTO REPAIR & BODY SHOP INC.","POP_AT_RISK":1671487,"BUSINESS_TYPE":"Motor Vehicle Repair: Engine\/Body(Class III)","LEGAL_NAME":"UNIQUE AUTO REPAIR & BODY SHOP INC.","LONGITUDE":-87.7081893219363},
}