{
{"STATE":"IL","ZIP":60652,"LATTITUDE":41.749860105596895,"ADDRESS":"3510 W 79TH ST 1ST 3","YEAR":2011,"DOING_BUSINESS_AS_NAME":"ACCUSCI LABS INC.","POP_AT_RISK":132075,"BUSINESS_TYPE":"Laboratories","LEGAL_NAME":"ACCUSCI LABS INC.","LONGITUDE":-87.7101866507587},
{"STATE":"IL","ZIP":60612,"LATTITUDE":41.87270954541505,"ADDRESS":"2250 W CAMPBELL PARK DR 1 ","YEAR":2011,"DOING_BUSINESS_AS_NAME":"LITHOLINK CORP","POP_AT_RISK":223974,"BUSINESS_TYPE":"Laboratories","LEGAL_NAME":"LITHOLINK CORPORATION","LONGITUDE":-87.68316808779458},
{"STATE":"IL","ZIP":60632,"LATTITUDE":41.809108968421576,"ADDRESS":"4626 S KEDZIE AVE 1ST ","YEAR":2011,"DOING_BUSINESS_AS_NAME":"MACNEAL HOSPITAL","POP_AT_RISK":524788,"BUSINESS_TYPE":"Laboratories","LEGAL_NAME":"VHS OF ILLINOIS, INC.","LONGITUDE":-87.70416110230349},
{"STATE":"IL","ZIP":60638,"LATTITUDE":41.79222059801244,"ADDRESS":"6858 W ARCHER AVE  ","YEAR":2011,"DOING_BUSINESS_AS_NAME":"CENTRAL CLINICAL LABS INC","POP_AT_RISK":75188,"BUSINESS_TYPE":"Laboratories","LEGAL_NAME":"CENTRAL CLINICAL LABS INC","LONGITUDE":-87.79396013374578},
{"STATE":"IL","ZIP":60625,"LATTITUDE":41.968527625160185,"ADDRESS":"3324 W LAWRENCE AVE  ","YEAR":2011,"DOING_BUSINESS_AS_NAME":"INTERSTATE BLOOD BANK INC","POP_AT_RISK":1136790,"BUSINESS_TYPE":"Laboratories","LEGAL_NAME":"INTERSTATE BLOOD BANK INC","LONGITUDE":-87.71200420196357},
{"STATE":"IL","ZIP":60640,"LATTITUDE":41.98291048246364,"ADDRESS":"5537 N BROADWAY  1 1","YEAR":2011,"DOING_BUSINESS_AS_NAME":"TPA NETWORK INC","POP_AT_RISK":562400,"BUSINESS_TYPE":"Laboratories","LEGAL_NAME":"TPA NETWORK, INCORPORATED","LONGITUDE":-87.6599014585154},
{"STATE":"IL","ZIP":60623,"LATTITUDE":41.844417364515635,"ADDRESS":"3814 W 26TH ST  ","YEAR":2011,"DOING_BUSINESS_AS_NAME":"26TH ST MEDICAL SERVICE CORP","POP_AT_RISK":443646,"BUSINESS_TYPE":"Laboratories","LEGAL_NAME":"26TH ST MEDICAL SERVICE CORP","LONGITUDE":-87.72037779520679},
{"STATE":"IL","ZIP":60616,"LATTITUDE":41.84556815589565,"ADDRESS":"2600 S MICHIGAN AVE 2 212","YEAR":2011,"DOING_BUSINESS_AS_NAME":"ACCU-LAB MEDICAL TESTING, INC","POP_AT_RISK":51270,"BUSINESS_TYPE":"Laboratories","LEGAL_NAME":"ACCU-LAB MEDICAL TESTING INC","LONGITUDE":-87.62378128593704},
{"STATE":"IL","ZIP":60660,"LATTITUDE":41.99793942630209,"ADDRESS":"6353 N BROADWAY   ","YEAR":2011,"DOING_BUSINESS_AS_NAME":"PLANNED PARENTHOOD\/CHICAGO AREA","POP_AT_RISK":596912,"BUSINESS_TYPE":"Laboratories","LEGAL_NAME":"PLANNED PARENTHOOD OF ILLINOIS","LONGITUDE":-87.6603716036534},
{"STATE":"IL","ZIP":60628,"LATTITUDE":41.68903437009135,"ADDRESS":"11250 S HALSTED ST  ","YEAR":2011,"DOING_BUSINESS_AS_NAME":"PLANNED PARENTHOOD\/CHICAGO AREA","POP_AT_RISK":54194,"BUSINESS_TYPE":"Laboratories","LEGAL_NAME":"PLANNED PARENTHOOD OF ILLINOIS","LONGITUDE":-87.64242319439414},
{"STATE":"IL","ZIP":60651,"LATTITUDE":41.894623059786724,"ADDRESS":"5937 W CHICAGO AVE  ","YEAR":2011,"DOING_BUSINESS_AS_NAME":"PLANNED PARENTHOOD\/CHICAGO AREA","POP_AT_RISK":302099,"BUSINESS_TYPE":"Laboratories","LEGAL_NAME":"PLANNED PARENTHOOD OF ILLINOIS","LONGITUDE":-87.77378271058993},
{"STATE":"IL","ZIP":60636,"LATTITUDE":41.78320283028375,"ADDRESS":"6059 S ASHLAND AVE  ","YEAR":2011,"DOING_BUSINESS_AS_NAME":"PLANNED PARENTHOOD\/CHICAGO AREA","POP_AT_RISK":579904,"BUSINESS_TYPE":"Laboratories","LEGAL_NAME":"PLANNED PARENTHOOD OF ILLINOIS","LONGITUDE":-87.66416452684764},
{"STATE":"IL","ZIP":60642,"LATTITUDE":41.902561612837594,"ADDRESS":"1152 N MILWAUKEE AVE  ","YEAR":2011,"DOING_BUSINESS_AS_NAME":"PLANNED PARENTHOOD\/CHICAGO AREA","POP_AT_RISK":688744,"BUSINESS_TYPE":"Laboratories","LEGAL_NAME":"PLANNED PARENTHOOD OF ILLINOIS","LONGITUDE":-87.6654596337037},
{"STATE":"IL","ZIP":60603,"LATTITUDE":41.88165873896031,"ADDRESS":"18 S MICHIGAN AVE 6 ","YEAR":2011,"DOING_BUSINESS_AS_NAME":"PLANNED PARENTHOOD\/ CHICAGO AREA","POP_AT_RISK":376656,"BUSINESS_TYPE":"Laboratories","LEGAL_NAME":"PLANNED PARENTHOOD OF ILLINOIS","LONGITUDE":-87.62450009856119},
{"STATE":"IL","ZIP":60610,"LATTITUDE":41.903969211264624,"ADDRESS":"1200 N LA SALLE DR  1ST","YEAR":2011,"DOING_BUSINESS_AS_NAME":"PLANNED PARENTHOOD ASSOCIATION\/CHICAGO AREA","POP_AT_RISK":81861,"BUSINESS_TYPE":"Laboratories","LEGAL_NAME":"PLANNED PARENTHOOD OF ILLINOIS","LONGITUDE":-87.6330707106653},
{"STATE":"IL","ZIP":60640,"LATTITUDE":41.96525232037537,"ADDRESS":"1824 W WILSON AVE  ","YEAR":2011,"DOING_BUSINESS_AS_NAME":"DOCTORS CLINCAL LABORATORY INC","POP_AT_RISK":393001,"BUSINESS_TYPE":"Laboratories","LEGAL_NAME":"DOCTORS CLINICAL LABORATORY INC","LONGITUDE":-87.67570199658167},
{"STATE":"IL","ZIP":60623,"LATTITUDE":41.85188848282105,"ADDRESS":"3138 W CERMAK RD 1ST ","YEAR":2011,"DOING_BUSINESS_AS_NAME":"MEDVISTA LABORATORY","POP_AT_RISK":523044,"BUSINESS_TYPE":"Laboratories","LEGAL_NAME":"MEDVISTA LABORATORY INCORPORATED","LONGITUDE":-87.7042820268433},
{"STATE":"IL","ZIP":60612,"LATTITUDE":41.87171470637883,"ADDRESS":"1634 W POLK ST  ","YEAR":2011,"DOING_BUSINESS_AS_NAME":"LAB CORP","POP_AT_RISK":175944,"BUSINESS_TYPE":"Laboratories","LEGAL_NAME":"LABORATORY CORPORATION OF AMERICA","LONGITUDE":-87.6679624082962},
{"STATE":"IL","ZIP":60628,"LATTITUDE":41.68557088399864,"ADDRESS":"556 E 115TH ST 1ST ","YEAR":2011,"DOING_BUSINESS_AS_NAME":"CHICAGO FAMILY HEALTH CENTER","POP_AT_RISK":13745,"BUSINESS_TYPE":"Laboratories","LEGAL_NAME":"CHICAGO FAMILY HEALTH CENTER, INC.","LONGITUDE":-87.60933022434682},
{"STATE":"IL","ZIP":60617,"LATTITUDE":41.72945712008797,"ADDRESS":"9119 S EXCHANGE AVE  ","YEAR":2011,"DOING_BUSINESS_AS_NAME":"CHICAGO FAMILY MEDICAL CENTER","POP_AT_RISK":88510,"BUSINESS_TYPE":"Laboratories","LEGAL_NAME":"CHICAGO FAMILY HEALTH CENTER, INC.","LONGITUDE":-87.5524778181968},
{"STATE":"IL","ZIP":60628,"LATTITUDE":41.692651314791675,"ADDRESS":"120 W 111TH ST 1 ","YEAR":2011,"DOING_BUSINESS_AS_NAME":"CHICAGO FAMILY HEALTH CENTER, INC.","POP_AT_RISK":69044,"BUSINESS_TYPE":"Laboratories","LEGAL_NAME":"CHICAGO FAMILY HEALTH CENTER, INC.","LONGITUDE":-87.62668640556926},
{"STATE":"IL","ZIP":60629,"LATTITUDE":41.778848206367265,"ADDRESS":"3223 W 63RD ST 1 ","YEAR":2011,"DOING_BUSINESS_AS_NAME":"CHICAGO FAMILY HEALTH CENTER, INC.","POP_AT_RISK":751728,"BUSINESS_TYPE":"Laboratories","LEGAL_NAME":"CHICAGO FAMILY HEALTH CENTER, INC.","LONGITUDE":-87.7040813020541},
{"STATE":"IL","ZIP":60617,"LATTITUDE":41.70345044795604,"ADDRESS":"10536 S EWING AVE 1 ","YEAR":2011,"DOING_BUSINESS_AS_NAME":"CHICAGO FAMILY HEALTH CENTER, INC.","POP_AT_RISK":146982,"BUSINESS_TYPE":"Laboratories","LEGAL_NAME":"CHICAGO FAMILY HEALTH CENTER, INC.","LONGITUDE":-87.53543213286827},
{"STATE":"IL","ZIP":60645,"LATTITUDE":42.008856595849,"ADDRESS":"7006 N WESTERN AVE  1","YEAR":2011,"DOING_BUSINESS_AS_NAME":"AMERICAN SCIENTIFIC LAB. INC.","POP_AT_RISK":734789,"BUSINESS_TYPE":"Laboratories","LEGAL_NAME":"AMERICAN SCIENTIFIC LABORATORY, INC.","LONGITUDE":-87.69031557271916},
{"STATE":"IL","ZIP":60636,"LATTITUDE":41.76084389018961,"ADDRESS":"7318 S RACINE AVE  1ST","YEAR":2011,"DOING_BUSINESS_AS_NAME":"TILMAN'S COMMUNITY HEALTH CLIN","POP_AT_RISK":766305,"BUSINESS_TYPE":"Laboratories","LEGAL_NAME":"TILMAN'S COMMUNITY HEALTH CLINIC, INC.","LONGITUDE":-87.65414946792342},
{"STATE":"IL","ZIP":60617,"LATTITUDE":41.72609928680657,"ADDRESS":"2301 E 93RD ST  ","YEAR":2011,"DOING_BUSINESS_AS_NAME":"ADVOCATE MEDICAL GROUP","POP_AT_RISK":82576,"BUSINESS_TYPE":"Laboratories","LEGAL_NAME":"ADVOCATE HEALTH AND HOSPITALS CORPORATION","LONGITUDE":-87.5681250672743},
{"STATE":"IL","ZIP":60643,"LATTITUDE":41.7066554943528,"ADDRESS":"1357 W 103RD ST  ","YEAR":2011,"DOING_BUSINESS_AS_NAME":"ADVOCATE MEDICAL GROUP","POP_AT_RISK":83084,"BUSINESS_TYPE":"Laboratories","LEGAL_NAME":"ADVOCATE HEALTH AND HOSPITALS CORPORATION","LONGITUDE":-87.65726200877707},
{"STATE":"IL","ZIP":60707,"LATTITUDE":41.909241609746,"ADDRESS":"6434 W NORTH AVE  ","YEAR":2011,"DOING_BUSINESS_AS_NAME":"ADVOCATE MEDICAL GROUP","POP_AT_RISK":140948,"BUSINESS_TYPE":"Laboratories","LEGAL_NAME":"ADVOCATE HEALTH AND HOSPITALS CORPORATION","LONGITUDE":-87.7865145159132},
{"STATE":"IL","ZIP":60647,"LATTITUDE":41.92694072608521,"ADDRESS":"2511 N KEDZIE BLVD  ","YEAR":2011,"DOING_BUSINESS_AS_NAME":"ADVOCATE MEDICAL GROUP","POP_AT_RISK":1882750,"BUSINESS_TYPE":"Laboratories","LEGAL_NAME":"ADVOCATE HEALTH AND HOSPITALS CORPORATION","LONGITUDE":-87.70713583064949},
{"STATE":"IL","ZIP":60618,"LATTITUDE":41.95477290347359,"ADDRESS":"4025 N WESTERN AVE  ","YEAR":2011,"DOING_BUSINESS_AS_NAME":"ADVOCATE MEDICAL GROUP","POP_AT_RISK":533690,"BUSINESS_TYPE":"Laboratories","LEGAL_NAME":"ADVOCATE HEALTH AND HOSPITALS CORPORATION","LONGITUDE":-87.68834099646449},
{"STATE":"IL","ZIP":60641,"LATTITUDE":41.957435057144416,"ADDRESS":"4211 N CICERO AVE  308","YEAR":2011,"DOING_BUSINESS_AS_NAME":"ADVOCATE MEDICAL GROUP","POP_AT_RISK":480271,"BUSINESS_TYPE":"Laboratories","LEGAL_NAME":"ADVOCATE HEALTH AND HOSPITALS CORPORATION","LONGITUDE":-87.74728039735759},
{"STATE":"IL","ZIP":60643,"LATTITUDE":41.714554470686906,"ADDRESS":"9831 S WESTERN AVE 1ST ","YEAR":2011,"DOING_BUSINESS_AS_NAME":"ADVOCATE MEDICAL GROUP","POP_AT_RISK":132708,"BUSINESS_TYPE":"Laboratories","LEGAL_NAME":"ADVOCATE HEALTH AND HOSPITALS CORPORATION","LONGITUDE":-87.68172059648889},
{"STATE":"IL","ZIP":60616,"LATTITUDE":41.84617748461005,"ADDRESS":"2545 S DR MARTIN LUTHER KING JR DR  ","YEAR":2011,"DOING_BUSINESS_AS_NAME":"ADVOCATE MEDICAL GROUP","POP_AT_RISK":82316,"BUSINESS_TYPE":"Laboratories","LEGAL_NAME":"ADVOCATE HEALTH AND HOSPITALS CORPORATION","LONGITUDE":-87.61716517711677},
}