{
{"STATE":"IL","ZIP":60640,"LATTITUDE":41.9666666771145,"ADDRESS":"4640 N SHERIDAN RD 7 710","YEAR":2013,"DOING_BUSINESS_AS_NAME":"DIANE JETER","POP_AT_RISK":140574,"BUSINESS_TYPE":"Peddler, non-food","LEGAL_NAME":"DIANE JETER","LONGITUDE":-87.65494190819766},
{"STATE":"IL","ZIP":60621,"LATTITUDE":41.78067401115371,"ADDRESS":"527 W ENGLEWOOD AVE  ","YEAR":2013,"DOING_BUSINESS_AS_NAME":"DONALD ROSS","POP_AT_RISK":34640,"BUSINESS_TYPE":"Peddler, non-food","LEGAL_NAME":"DONALD ROSS","LONGITUDE":-87.63855621023896},
{"STATE":"IL","ZIP":60617,"LATTITUDE":41.701062728606225,"ADDRESS":"10656 S AVENUE J   ","YEAR":2013,"DOING_BUSINESS_AS_NAME":"ELISEO LEON","POP_AT_RISK":104835,"BUSINESS_TYPE":"Peddler, non-food","LEGAL_NAME":"ELISEO LEON","LONGITUDE":-87.53422470733575},
{"STATE":"IL","ZIP":60637,"LATTITUDE":41.77801057345878,"ADDRESS":"6421 S GREENWOOD AVE  ","YEAR":2013,"DOING_BUSINESS_AS_NAME":"FAITH RAMEY","POP_AT_RISK":32028,"BUSINESS_TYPE":"Peddler, non-food","LEGAL_NAME":"FAITH RAMEY","LONGITUDE":-87.5991047883379},
{"STATE":"IL","ZIP":60612,"LATTITUDE":41.87818795988158,"ADDRESS":"2947 W ADAMS ST  1","YEAR":2013,"DOING_BUSINESS_AS_NAME":"DONYEL YOUNG","POP_AT_RISK":33095,"BUSINESS_TYPE":"Peddler, non-food","LEGAL_NAME":"DONYEL YOUNG","LONGITUDE":-87.70054673092312},
{"STATE":"IL","ZIP":60614,"LATTITUDE":41.915075094677924,"ADDRESS":"1813 N MOHAWK ST  ","YEAR":2013,"DOING_BUSINESS_AS_NAME":"FRANCES RENK","POP_AT_RISK":128448,"BUSINESS_TYPE":"Peddler, non-food","LEGAL_NAME":"FRANCES RENK","LONGITUDE":-87.64220251668864},
{"STATE":"IL","ZIP":60616,"LATTITUDE":41.84902426627988,"ADDRESS":"241 W 24TH ST 2ND R","YEAR":2013,"DOING_BUSINESS_AS_NAME":"MEI LI ZHENG","POP_AT_RISK":119508,"BUSINESS_TYPE":"Peddler, non-food","LEGAL_NAME":"MEI LI ZHENG","LONGITUDE":-87.63354438101098},
{"STATE":"IL","ZIP":60707,"LATTITUDE":41.92768127565064,"ADDRESS":"2612 N NORMANDY AVE  ","YEAR":2013,"DOING_BUSINESS_AS_NAME":"PAULA CORTES","POP_AT_RISK":51445,"BUSINESS_TYPE":"Peddler, non-food","LEGAL_NAME":"PAULA CORTES","LONGITUDE":-87.79306842615728},
{"STATE":"IL","ZIP":60617,"LATTITUDE":41.71618166671418,"ADDRESS":"9805 S OGLESBY AVE 1 1","YEAR":2013,"DOING_BUSINESS_AS_NAME":"AARON GLASPER","POP_AT_RISK":20958,"BUSINESS_TYPE":"Peddler, non-food","LEGAL_NAME":"AARON GLASPER","LONGITUDE":-87.56571534717423},
{"STATE":"IL","ZIP":60634,"LATTITUDE":41.958750362646,"ADDRESS":"5630 W CULLOM AVE  ","YEAR":2013,"DOING_BUSINESS_AS_NAME":"ROBERT BECKER","POP_AT_RISK":235735,"BUSINESS_TYPE":"Peddler, non-food","LEGAL_NAME":"ROBERT BECKER","LONGITUDE":-87.76847041244794},
{"STATE":"IL","ZIP":60651,"LATTITUDE":41.90389492283338,"ADDRESS":"5359 W POTOMAC AVE  ","YEAR":2013,"DOING_BUSINESS_AS_NAME":"JIMMIE JOHNSON","POP_AT_RISK":165486,"BUSINESS_TYPE":"Peddler, non-food","LEGAL_NAME":"JIMMIE JOHNSON","LONGITUDE":-87.76065832427042},
{"STATE":"IL","ZIP":60626,"LATTITUDE":42.0063399206843,"ADDRESS":"1951 W FARWELL AVE APT G ","YEAR":2013,"DOING_BUSINESS_AS_NAME":"WALEED ALGHHIZI","POP_AT_RISK":162522,"BUSINESS_TYPE":"Peddler, non-food","LEGAL_NAME":"WALEED ALGHIZI","LONGITUDE":-87.67999363074951},
{"STATE":"IL","ZIP":60643,"LATTITUDE":41.69179692942985,"ADDRESS":"11116 S GREEN ST  ","YEAR":2013,"DOING_BUSINESS_AS_NAME":"AGENALDO BAILEY","POP_AT_RISK":69350,"BUSINESS_TYPE":"Peddler, non-food","LEGAL_NAME":"AGENALDO BAILEY","LONGITUDE":-87.64372636935094},
{"STATE":"IL","ZIP":60630,"LATTITUDE":41.96926065532535,"ADDRESS":"4847 N KILBOURN AVE 3 ","YEAR":2013,"DOING_BUSINESS_AS_NAME":"AMER A. ALOMARI","POP_AT_RISK":229500,"BUSINESS_TYPE":"Peddler, non-food","LEGAL_NAME":"AMER A. ALOMARI","LONGITUDE":-87.74108376526348},
{"STATE":"IL","ZIP":60655,"LATTITUDE":41.68556100263544,"ADDRESS":"11431 S ST LOUIS AVE  ","YEAR":2013,"DOING_BUSINESS_AS_NAME":"JOSHUA JAMES SOICH","POP_AT_RISK":73892,"BUSINESS_TYPE":"Peddler, non-food","LEGAL_NAME":"JOSHUA J. SOICH","LONGITUDE":-87.70778792327808},
{"STATE":"IL","ZIP":60614,"LATTITUDE":41.927377514594724,"ADDRESS":"2513 N MARSHFIELD AVE 1 1","YEAR":2013,"DOING_BUSINESS_AS_NAME":"ROBERT EGAN","POP_AT_RISK":453544,"BUSINESS_TYPE":"Peddler, non-food","LEGAL_NAME":"ROBERT  E  EGAN","LONGITUDE":-87.66929579264736},
{"STATE":"IL","ZIP":60646,"LATTITUDE":41.987234552868365,"ADDRESS":"5823 N MULLIGAN AVE  ","YEAR":2013,"DOING_BUSINESS_AS_NAME":"SCOTT A. MARVEL","POP_AT_RISK":254198,"BUSINESS_TYPE":"Peddler, non-food","LEGAL_NAME":"SCOTT A. MARVEL","LONGITUDE":-87.7862944557037},
{"STATE":"IL","ZIP":60629,"LATTITUDE":41.76813851560602,"ADDRESS":"2611 W LITHUANIAN PLAZA CT  ","YEAR":2013,"DOING_BUSINESS_AS_NAME":"TONAKI S TALLIE","POP_AT_RISK":81620,"BUSINESS_TYPE":"Peddler, non-food","LEGAL_NAME":"TONAKI S TALLIE","LONGITUDE":-87.68875072291107},
{"STATE":"IL","ZIP":60637,"LATTITUDE":41.78289676984586,"ADDRESS":"6131 S INDIANA AVE  ","YEAR":2013,"DOING_BUSINESS_AS_NAME":"DARLENE  W. CLAIR","POP_AT_RISK":35314,"BUSINESS_TYPE":"Peddler, non-food","LEGAL_NAME":"DARLENE W. CLAIR","LONGITUDE":-87.6203988939854},
{"STATE":"IL","ZIP":60660,"LATTITUDE":41.98902019305214,"ADDRESS":"5920 N CLARK ST  505","YEAR":2013,"DOING_BUSINESS_AS_NAME":"MAHMOUD  EL SYAED","POP_AT_RISK":368545,"BUSINESS_TYPE":"Peddler, non-food","LEGAL_NAME":"MAHMOUD EL SAYED","LONGITUDE":-87.670066249482},
{"STATE":"IL","ZIP":60623,"LATTITUDE":41.84259597864753,"ADDRESS":"2653 S TRIPP AVE  ","YEAR":2013,"DOING_BUSINESS_AS_NAME":"MARIA L MENDIOLA","POP_AT_RISK":55750,"BUSINESS_TYPE":"Peddler, non-food","LEGAL_NAME":"MARIA L MENDIOLA","LONGITUDE":-87.7304318267451},
{"STATE":"IL","ZIP":60609,"LATTITUDE":41.802158828231185,"ADDRESS":"5039 S CARPENTER ST  ","YEAR":2013,"DOING_BUSINESS_AS_NAME":"SHIRLEY FRANKLIN","POP_AT_RISK":32889,"BUSINESS_TYPE":"Peddler, non-food","LEGAL_NAME":"SHIRLEY FRANKLIN","LONGITUDE":-87.65128486328196},
{"STATE":"IL","ZIP":60657,"LATTITUDE":41.93358925451465,"ADDRESS":"2828 N BURLING ST  204","YEAR":2013,"DOING_BUSINESS_AS_NAME":"WHEATEN E MATHER","POP_AT_RISK":447845,"BUSINESS_TYPE":"Peddler, non-food","LEGAL_NAME":"WHEATEN E MATHER","LONGITUDE":-87.64784388345717},
{"STATE":"IL","ZIP":60620,"LATTITUDE":41.73484265236551,"ADDRESS":"8734 S EMERALD AVE  ","YEAR":2013,"DOING_BUSINESS_AS_NAME":"ARTHUR L. JACKSON","POP_AT_RISK":112365,"BUSINESS_TYPE":"Peddler, non-food","LEGAL_NAME":"ARTHUR L. JACKSON","LONGITUDE":-87.64251197604102},
{"STATE":"IL","ZIP":60644,"LATTITUDE":41.88023523529787,"ADDRESS":"5912 W MADISON ST  ","YEAR":2013,"DOING_BUSINESS_AS_NAME":"BARBARA L WARMACK","POP_AT_RISK":46733,"BUSINESS_TYPE":"Peddler, non-food","LEGAL_NAME":"BARBARA L WARMACK","LONGITUDE":-87.77232918177985},
{"STATE":"IL","ZIP":60624,"LATTITUDE":41.86699618215448,"ADDRESS":"4528 W GRENSHAW ST  ","YEAR":2013,"DOING_BUSINESS_AS_NAME":"CATHERINE BURNETT","POP_AT_RISK":48000,"BUSINESS_TYPE":"Peddler, non-food","LEGAL_NAME":"CATHERINE BURNETT","LONGITUDE":-87.73865305959102},
{"STATE":"IL","ZIP":60609,"LATTITUDE":41.82465834225735,"ADDRESS":"3808 S WOOD ST  ","YEAR":2013,"DOING_BUSINESS_AS_NAME":"DONALD L SARAGOSA","POP_AT_RISK":88860,"BUSINESS_TYPE":"Peddler, non-food","LEGAL_NAME":"DONALD L SARAGOSA","LONGITUDE":-87.67039480192871},
{"STATE":"IL","ZIP":60652,"LATTITUDE":41.74074924918932,"ADDRESS":"3244 W 84TH ST  ","YEAR":2013,"DOING_BUSINESS_AS_NAME":"LORRAINE MCGREGOR","POP_AT_RISK":83454,"BUSINESS_TYPE":"Peddler, non-food","LEGAL_NAME":"LORRAINE MCGREGOR","LONGITUDE":-87.70393323120948},
{"STATE":"IL","ZIP":60654,"LATTITUDE":41.896769734398916,"ADDRESS":"30 W CHICAGO AVE  ","YEAR":2013,"DOING_BUSINESS_AS_NAME":"PAUL OLIVER KIRBY","POP_AT_RISK":266187,"BUSINESS_TYPE":"Peddler, non-food","LEGAL_NAME":"PAUL OLIVER KIRBY","LONGITUDE":-87.62944835451378},
{"STATE":"IL","ZIP":60622,"LATTITUDE":41.90820386280614,"ADDRESS":"1454 N FAIRFIELD AVE  2","YEAR":2013,"DOING_BUSINESS_AS_NAME":"TAMARA S DAVIDSON","POP_AT_RISK":603873,"BUSINESS_TYPE":"Peddler, non-food","LEGAL_NAME":"TAMARA S DAVIDSON","LONGITUDE":-87.69586042662897},
{"STATE":"IL","ZIP":60625,"LATTITUDE":41.962791073054916,"ADDRESS":"4445 1\/2 N DAMEN AVE 2ND L 2","YEAR":2013,"DOING_BUSINESS_AS_NAME":"DONALD D. JACOBSON","POP_AT_RISK":61405,"BUSINESS_TYPE":"Peddler, non-food","LEGAL_NAME":"DONALD D. JACOBSON","LONGITUDE":-87.67886686137732},
{"STATE":"IL","ZIP":60632,"LATTITUDE":41.81536099166218,"ADDRESS":"2959 W POPE JOHN PAUL II DR  ","YEAR":2013,"DOING_BUSINESS_AS_NAME":"MARIA E. HERNANDEZ","POP_AT_RISK":141897,"BUSINESS_TYPE":"Peddler, non-food","LEGAL_NAME":"MARIA E. HERNANDEZ","LONGITUDE":-87.69927796304019},
{"STATE":"IL","ZIP":60617,"LATTITUDE":41.74832729568592,"ADDRESS":"2746 E 81ST ST 1ST 1 C","YEAR":2013,"DOING_BUSINESS_AS_NAME":"MARTEZ JAY SWANSON","POP_AT_RISK":44195,"BUSINESS_TYPE":"Peddler, non-food","LEGAL_NAME":"MARTEZ JAY SWANSON","LONGITUDE":-87.55703783779596},
{"STATE":"IL","ZIP":60618,"LATTITUDE":41.932950017839964,"ADDRESS":"3538 W WOLFRAM ST  ","YEAR":2013,"DOING_BUSINESS_AS_NAME":"RUBENIA M. AGUIRRE","POP_AT_RISK":66276,"BUSINESS_TYPE":"Peddler, non-food","LEGAL_NAME":"RUBENIA M. AGUIREE","LONGITUDE":-87.71580453819504},
{"STATE":"IL","ZIP":60657,"LATTITUDE":41.939538376623446,"ADDRESS":"3150 N RACINE AVE  ","YEAR":2013,"DOING_BUSINESS_AS_NAME":"BEN G. BUCKLEY","POP_AT_RISK":167958,"BUSINESS_TYPE":"Peddler, non-food","LEGAL_NAME":"BENGAALEYAH BUCKLEY","LONGITUDE":-87.65910706443513},
{"STATE":"IL","ZIP":60628,"LATTITUDE":41.69407371273993,"ADDRESS":"46 E 110TH PL  ","YEAR":2013,"DOING_BUSINESS_AS_NAME":"LUTHER JAMES COBURN","POP_AT_RISK":155180,"BUSINESS_TYPE":"Peddler, non-food","LEGAL_NAME":"LUTHER JAMES COBURN","LONGITUDE":-87.6213970597157},
{"STATE":"IL","ZIP":60007,"LATTITUDE":41.99758038815998,"ADDRESS":"2479  DEVON AVE  ","YEAR":2013,"DOING_BUSINESS_AS_NAME":"BENJAMIN J DUNNIGAN","POP_AT_RISK":65286,"BUSINESS_TYPE":"Peddler, non-food","LEGAL_NAME":"BENJAMIN J DUNNINGAN","LONGITUDE":-87.6922577603872},
{"STATE":"IL","ZIP":60644,"LATTITUDE":41.87933108422042,"ADDRESS":"5015 W MONROE ST  ","YEAR":2013,"DOING_BUSINESS_AS_NAME":"ANGELA STOCKDALE-HEAD","POP_AT_RISK":44982,"BUSINESS_TYPE":"Peddler, non-food","LEGAL_NAME":"ANGELA STOCKDALE-HEAD","LONGITUDE":-87.75011760408881},
{"STATE":"IL","ZIP":60629,"LATTITUDE":41.78454380300825,"ADDRESS":"5945 S TRIPP AVE  ","YEAR":2013,"DOING_BUSINESS_AS_NAME":"MARCO ANTONIO SANDOVAL","POP_AT_RISK":124200,"BUSINESS_TYPE":"Peddler, non-food","LEGAL_NAME":"MARCO ANTONIO SANDOVAL","LONGITUDE":-87.7288885476095},
{"STATE":"IL","ZIP":60628,"LATTITUDE":41.71734264396393,"ADDRESS":"9742 S GREENWOOD AVE  ","YEAR":2013,"DOING_BUSINESS_AS_NAME":"TIFFANY PATRICE JACKSON","POP_AT_RISK":55756,"BUSINESS_TYPE":"Peddler, non-food","LEGAL_NAME":"TIFFANY PATRICE JACKSON","LONGITUDE":-87.59720032688406},
{"STATE":"IL","ZIP":60634,"LATTITUDE":41.93945406332852,"ADDRESS":"3300 N PANAMA AVE  ","YEAR":2013,"DOING_BUSINESS_AS_NAME":"ALLISON VICTORIA PINCSAK","POP_AT_RISK":194152,"BUSINESS_TYPE":"Peddler, non-food","LEGAL_NAME":"ALLISON VICTORIA PINCSAK","LONGITUDE":-87.82898482892645},
{"STATE":"IL","ZIP":60608,"LATTITUDE":41.83800054630608,"ADDRESS":"1240 W 31ST ST  ","YEAR":2013,"DOING_BUSINESS_AS_NAME":"NAAMAN GARNETT LANDERS III","POP_AT_RISK":115464,"BUSINESS_TYPE":"Peddler, non-food","LEGAL_NAME":"NAAMAN GARNETT LANDERS III","LONGITUDE":-87.6576298384397},
{"STATE":"IL","ZIP":60619,"LATTITUDE":41.7445146527379,"ADDRESS":"8241 S CHAMPLAIN AVE  ","YEAR":2013,"DOING_BUSINESS_AS_NAME":"SANDRA OLIVIA WILLIAMS-BROOKS","POP_AT_RISK":238038,"BUSINESS_TYPE":"Peddler, non-food","LEGAL_NAME":"SANDRA OLIVIA WILLIAMS-BROOKS","LONGITUDE":-87.60853752368693},
{"STATE":"IL","ZIP":60623,"LATTITUDE":41.85361921856147,"ADDRESS":"2841 W 21ST ST  ","YEAR":2013,"DOING_BUSINESS_AS_NAME":"JONATHAN ARMANDO RAMIREZ","POP_AT_RISK":102640,"BUSINESS_TYPE":"Peddler, non-food","LEGAL_NAME":"JONATHAN ARMANDO RAMIREZ-VERGARA","LONGITUDE":-87.69716650762338},
}