{
{"STATE":"IL","ZIP":60638,"LATTITUDE":41.778767119046,"ADDRESS":"6236 S CENTRAL AVE 1 ","YEAR":2011,"DOING_BUSINESS_AS_NAME":"DARLA'S DANCE CENTER","POP_AT_RISK":75752,"BUSINESS_TYPE":"Children's Activities Facilities","LEGAL_NAME":"DARLA AUMANN","LONGITUDE":-87.76189062356887},
{"STATE":"IL","ZIP":60617,"LATTITUDE":41.703109210731576,"ADDRESS":"10548 S EWING AVE 1 ","YEAR":2011,"DOING_BUSINESS_AS_NAME":"East Side Self Defense Studio","POP_AT_RISK":104835,"BUSINESS_TYPE":"Children's Activities Facilities","LEGAL_NAME":"JEFF SIEGLER","LONGITUDE":-87.53543097764681},
{"STATE":"IL","ZIP":60641,"LATTITUDE":41.95329415495261,"ADDRESS":"4823 W IRVING PARK RD  ","YEAR":2011,"DOING_BUSINESS_AS_NAME":"RICO MUSIC & DANCE STUDIO","POP_AT_RISK":100596,"BUSINESS_TYPE":"Children's Activities Facilities","LEGAL_NAME":"SARA OLIVERI","LONGITUDE":-87.74822295352504},
{"STATE":"IL","ZIP":60646,"LATTITUDE":41.98554475251073,"ADDRESS":"5719 N MILWAUKEE AVE 1 1","YEAR":2011,"DOING_BUSINESS_AS_NAME":"ARTORIUM","POP_AT_RISK":137735,"BUSINESS_TYPE":"Children's Activities Facilities","LEGAL_NAME":"ARTORIUM, INC.","LONGITUDE":-87.77657452473282},
{"STATE":"IL","ZIP":60641,"LATTITUDE":41.931558615500826,"ADDRESS":"2804-2808 N LARAMIE AVE 1ST ","YEAR":2011,"DOING_BUSINESS_AS_NAME":"CARDENAS TAEKWONDO ACADEMY USA","POP_AT_RISK":722876,"BUSINESS_TYPE":"Children's Activities Facilities","LEGAL_NAME":"JESUS CARDENAS","LONGITUDE":-87.75657409129889},
{"STATE":"IL","ZIP":60659,"LATTITUDE":41.98312017858479,"ADDRESS":"3354 W BRYN MAWR AVE 1ST ","YEAR":2011,"DOING_BUSINESS_AS_NAME":"BRAINY BOULEVARD DAYCARE","POP_AT_RISK":42525,"BUSINESS_TYPE":"Children's Activities Facilities","LEGAL_NAME":"JAL GROUP, INC.","LONGITUDE":-87.71352537786245},
{"STATE":"IL","ZIP":60626,"LATTITUDE":42.01182840147204,"ADDRESS":"7110 N SHERIDAN RD 1ST ","YEAR":2011,"DOING_BUSINESS_AS_NAME":"MADONNA MISSION","POP_AT_RISK":239548,"BUSINESS_TYPE":"Children's Activities Facilities","LEGAL_NAME":"MADONNA MISSION","LONGITUDE":-87.66313299964642},
{"STATE":"IL","ZIP":60643,"LATTITUDE":41.70001842313509,"ADDRESS":"10628 S WESTERN AVE 1ST ","YEAR":2011,"DOING_BUSINESS_AS_NAME":"DANCE GALLERY","POP_AT_RISK":150661,"BUSINESS_TYPE":"Children's Activities Facilities","LEGAL_NAME":"MARYLEE SINOPOLI","LONGITUDE":-87.68156397098628},
{"STATE":"IL","ZIP":60618,"LATTITUDE":41.95385946910342,"ADDRESS":"3660 W IRVING PARK RD  ","YEAR":2011,"DOING_BUSINESS_AS_NAME":"CHICAGO DANCE","POP_AT_RISK":197571,"BUSINESS_TYPE":"Children's Activities Facilities","LEGAL_NAME":"CHICAGO DANCE LLC","LONGITUDE":-87.72006394486716},
{"STATE":"IL","ZIP":60613,"LATTITUDE":41.958596113079565,"ADDRESS":"800 W BUENA AVE 1 1","YEAR":2011,"DOING_BUSINESS_AS_NAME":"THE MENOMONEE CLUB","POP_AT_RISK":290800,"BUSINESS_TYPE":"Children's Activities Facilities","LEGAL_NAME":"THE MENOMONEE CLUB","LONGITUDE":-87.64989539011405},
{"STATE":"IL","ZIP":60646,"LATTITUDE":41.997225482709574,"ADDRESS":"5347-5349 W DEVON AVE 1 1","YEAR":2011,"DOING_BUSINESS_AS_NAME":"DANCE & MUSIC ACADEMY","POP_AT_RISK":53868,"BUSINESS_TYPE":"Children's Activities Facilities","LEGAL_NAME":"DANCE ACADEMY, INC.","LONGITUDE":-87.7626611180413},
{"STATE":"IL","ZIP":60610,"LATTITUDE":41.91096863252097,"ADDRESS":"501 W NORTH AVE 1ST ","YEAR":2011,"DOING_BUSINESS_AS_NAME":"ALL ABOUT DANCE","POP_AT_RISK":69407,"BUSINESS_TYPE":"Children's Activities Facilities","LEGAL_NAME":"ALL ABOUT DANCE, LLC","LONGITUDE":-87.64107405118226},
{"STATE":"IL","ZIP":60622,"LATTITUDE":41.890770132136616,"ADDRESS":"1837 W GRAND AVE 1 ","YEAR":2011,"DOING_BUSINESS_AS_NAME":"KID CITY","POP_AT_RISK":132360,"BUSINESS_TYPE":"Children's Activities Facilities","LEGAL_NAME":"KID CITY CHICAGO LLC","LONGITUDE":-87.67350592654243},
{"STATE":"IL","ZIP":60604,"LATTITUDE":41.8779878069696,"ADDRESS":"310 S MICHIGAN AVE 1ST ","YEAR":2011,"DOING_BUSINESS_AS_NAME":"NEW MUSIC SCHOOL","POP_AT_RISK":121068,"BUSINESS_TYPE":"Children's Activities Facilities","LEGAL_NAME":"NEW MUSIC SCHOOL, LLC","LONGITUDE":-87.62445980070322},
{"STATE":"IL","ZIP":60634,"LATTITUDE":41.93810180993879,"ADDRESS":"7214 W BELMONT AVE 1ST UNIT 2","YEAR":2011,"DOING_BUSINESS_AS_NAME":"BELLA ANGEL MUSIC, LLC","POP_AT_RISK":52284,"BUSINESS_TYPE":"Children's Activities Facilities","LEGAL_NAME":"BELLA ANGEL MUSIC, LLC","LONGITUDE":-87.80739700112777},
{"STATE":"IL","ZIP":60647,"LATTITUDE":41.9162662175807,"ADDRESS":"1911 N MILWAUKEE AVE 1ST ","YEAR":2011,"DOING_BUSINESS_AS_NAME":"EASEL ART STUDIO","POP_AT_RISK":64115,"BUSINESS_TYPE":"Children's Activities Facilities","LEGAL_NAME":"EASEL ART STUDIO, INC.","LONGITUDE":-87.68633014921797},
{"STATE":"IL","ZIP":60634,"LATTITUDE":41.94522025213445,"ADDRESS":"7107 W ADDISON ST 1ST ","YEAR":2011,"DOING_BUSINESS_AS_NAME":"MA AI ARTS JUJITSU & HEALING","POP_AT_RISK":32608,"BUSINESS_TYPE":"Children's Activities Facilities","LEGAL_NAME":"MA AI ARTS PROF. CORP.","LONGITUDE":-87.80360428479375},
{"STATE":"IL","ZIP":60638,"LATTITUDE":41.7910695227168,"ADDRESS":"5527 S HARLEM AVE 1ST ","YEAR":2011,"DOING_BUSINESS_AS_NAME":"UFLACKER ACADEMY CORP.","POP_AT_RISK":122490,"BUSINESS_TYPE":"Children's Activities Facilities","LEGAL_NAME":"UFLACKER ACADEMY CORP.","LONGITUDE":-87.80134448678719},
{"STATE":"IL","ZIP":60618,"LATTITUDE":41.93843661592828,"ADDRESS":"2617 W FLETCHER ST 1 ","YEAR":2011,"DOING_BUSINESS_AS_NAME":"BASH SPORTS ACADEMY","POP_AT_RISK":202336,"BUSINESS_TYPE":"Children's Activities Facilities","LEGAL_NAME":"BASH SPORTS ACADEMY, LLC","LONGITUDE":-87.69364079401804},
{"STATE":"IL","ZIP":60614,"LATTITUDE":41.928987751160726,"ADDRESS":"721 W WRIGHTWOOD AVE 1ST ","YEAR":2011,"DOING_BUSINESS_AS_NAME":"SISTER-ARTS STUDIO, INC.","POP_AT_RISK":319656,"BUSINESS_TYPE":"Children's Activities Facilities","LEGAL_NAME":"SISTER-ARTS STUDIO, INC.","LONGITUDE":-87.64735058888385},
{"STATE":"IL","ZIP":60626,"LATTITUDE":42.019257023057904,"ADDRESS":"1543-1545 W HOWARD ST 1ST ","YEAR":2011,"DOING_BUSINESS_AS_NAME":"STARFISH LEARNING CENTER","POP_AT_RISK":54153,"BUSINESS_TYPE":"Children's Activities Facilities","LEGAL_NAME":"STARFISH LEARNING CENTER","LONGITUDE":-87.66998101341417},
{"STATE":"IL","ZIP":60608,"LATTITUDE":41.842662462230905,"ADDRESS":"2841 S ARCHER AVE 1ST ","YEAR":2011,"DOING_BUSINESS_AS_NAME":"SMART LEARNING CENTER LLC","POP_AT_RISK":83810,"BUSINESS_TYPE":"Children's Activities Facilities","LEGAL_NAME":"SMART LEARNING CENTER LLC","LONGITUDE":-87.6555778185462},
{"STATE":"IL","ZIP":60649,"LATTITUDE":41.7635484385392,"ADDRESS":"7223 S STONY ISLAND AVE 1 ","YEAR":2011,"DOING_BUSINESS_AS_NAME":"TAC KARATE & FITNESS INC.","POP_AT_RISK":418800,"BUSINESS_TYPE":"Children's Activities Facilities","LEGAL_NAME":"TAC KARATE & FITNESS INC.","LONGITUDE":-87.58570995554572},
{"STATE":"IL","ZIP":60630,"LATTITUDE":41.96794063966362,"ADDRESS":"4705 W LAWRENCE AVE  ","YEAR":2011,"DOING_BUSINESS_AS_NAME":"DEMAIRA DANCE STUDIOS, INC.","POP_AT_RISK":92043,"BUSINESS_TYPE":"Children's Activities Facilities","LEGAL_NAME":"DEMAIRA DANCE STUDIOS, INC.","LONGITUDE":-87.74555558305532},
{"STATE":"IL","ZIP":60615,"LATTITUDE":41.795355327310034,"ADDRESS":"1742 E 55TH ST 1ST ","YEAR":2011,"DOING_BUSINESS_AS_NAME":"FITZGERALDS MARTIAL ARTS","POP_AT_RISK":350472,"BUSINESS_TYPE":"Children's Activities Facilities","LEGAL_NAME":"FITZGERALDS MARTIAL ARTS LLC","LONGITUDE":-87.58229940901545},
{"STATE":"IL","ZIP":60634,"LATTITUDE":41.95298474318192,"ADDRESS":"5849 W IRVING PARK RD 1ST ","YEAR":2011,"DOING_BUSINESS_AS_NAME":"WYSPA DZIECI","POP_AT_RISK":99690,"BUSINESS_TYPE":"Children's Activities Facilities","LEGAL_NAME":"WYSPA DZIECI LEARNING CENTER","LONGITUDE":-87.77387728353199},
{"STATE":"IL","ZIP":60616,"LATTITUDE":41.83820176239482,"ADDRESS":"622 W 31ST ST 1 1","YEAR":2011,"DOING_BUSINESS_AS_NAME":"IVY GARDEN LEARNING CENTER","POP_AT_RISK":48501,"BUSINESS_TYPE":"Children's Activities Facilities","LEGAL_NAME":"IVY GARDEN LEARNING CENTER LLC","LONGITUDE":-87.64241188573403},
{"STATE":"IL","ZIP":60640,"LATTITUDE":41.97706272077924,"ADDRESS":"5228-5230 N CLARK ST 2 2","YEAR":2011,"DOING_BUSINESS_AS_NAME":"GUS GIORDANO DANCE SCHOOL","POP_AT_RISK":598248,"BUSINESS_TYPE":"Children's Activities Facilities","LEGAL_NAME":"AMY GIORDANO DANCE VENTURES LLC","LONGITUDE":-87.6685370997183},
{"STATE":"IL","ZIP":60652,"LATTITUDE":41.75466012439374,"ADDRESS":"7601 S CICERO AVE 1 T86","YEAR":2011,"DOING_BUSINESS_AS_NAME":"JOLLY EXPRESS TRAIN","POP_AT_RISK":129110,"BUSINESS_TYPE":"Children's Activities Facilities","LEGAL_NAME":"JOLLY ENTERTAINMENT GROUP, INC.","LONGITUDE":-87.74138475860521},
{"STATE":"IL","ZIP":60607,"LATTITUDE":41.86732839146857,"ADDRESS":"600 W ROOSEVELT RD 2ND 2-W","YEAR":2011,"DOING_BUSINESS_AS_NAME":"GYMBOREE PLAY & MUSIC OF CHICAGO","POP_AT_RISK":98463,"BUSINESS_TYPE":"Children's Activities Facilities","LEGAL_NAME":"RAMBLING ROSE ENTERPRISES, INC.","LONGITUDE":-87.6422642382445},
{"STATE":"IL","ZIP":60624,"LATTITUDE":41.87891736497124,"ADDRESS":"131-133 S PULASKI RD 1ST ","YEAR":2011,"DOING_BUSINESS_AS_NAME":"JANICE'S DREAMS WORKS FOUNDATION","POP_AT_RISK":708228,"BUSINESS_TYPE":"Children's Activities Facilities","LEGAL_NAME":"JANICE'S DREAMS WORKS FOUNDATION","LONGITUDE":-87.72546178408192},
{"STATE":"IL","ZIP":60628,"LATTITUDE":41.69089257787163,"ADDRESS":"28 E 112TH ST  ","YEAR":2011,"DOING_BUSINESS_AS_NAME":"NEW BEGINNINGS CHILD DEVELOPMENT CENTER","POP_AT_RISK":285066,"BUSINESS_TYPE":"Children's Activities Facilities","LEGAL_NAME":"INTERNATIONAL OUTREACH MINISTRIES","LONGITUDE":-87.62196619794452},
{"STATE":"IL","ZIP":60659,"LATTITUDE":41.983823999137584,"ADDRESS":"5620 N WESTERN AVE 1ST ","YEAR":2011,"DOING_BUSINESS_AS_NAME":"SOMALI  CENTER","POP_AT_RISK":172275,"BUSINESS_TYPE":"Children's Activities Facilities","LEGAL_NAME":"EAST AFRICAN COMMUNITY CENTER INC.","LONGITUDE":-87.68960791902764},
{"STATE":"IL","ZIP":60639,"LATTITUDE":41.9170185419664,"ADDRESS":"4111 W ARMITAGE AVE 1 1","YEAR":2011,"DOING_BUSINESS_AS_NAME":"EN LAS TABLAS PERFORMING ARTS, NFP","POP_AT_RISK":1334440,"BUSINESS_TYPE":"Children's Activities Facilities","LEGAL_NAME":"EN LAS TABLAS PERFORMING ARTS, NFP","LONGITUDE":-87.72951666402047},
{"STATE":"IL","ZIP":60631,"LATTITUDE":42.00327092044091,"ADDRESS":"6719-6721 N NORTHWEST HWY 1ST ","YEAR":2011,"DOING_BUSINESS_AS_NAME":"CHUNG'S TAE KWON DO INSTITUTE","POP_AT_RISK":94590,"BUSINESS_TYPE":"Children's Activities Facilities","LEGAL_NAME":"CHUNG'S TAE KWON DO INSTITUTE, INC.","LONGITUDE":-87.81670386199512},
{"STATE":"IL","ZIP":60634,"LATTITUDE":41.93807646873361,"ADDRESS":"7466 W BELMONT AVE 1 ","YEAR":2011,"DOING_BUSINESS_AS_NAME":"FOREVERMORE DANCE & THEATRE ARTS INC.","POP_AT_RISK":42383,"BUSINESS_TYPE":"Children's Activities Facilities","LEGAL_NAME":"FOREVERMORE DANCE & THEATRE ARTS INC.","LONGITUDE":-87.8140155062977},
{"STATE":"IL","ZIP":60608,"LATTITUDE":41.85221212143462,"ADDRESS":"2154 W CERMAK RD 1ST ","YEAR":2011,"DOING_BUSINESS_AS_NAME":"YOSHITAKA CHICAGO PILSEN","POP_AT_RISK":381100,"BUSINESS_TYPE":"Children's Activities Facilities","LEGAL_NAME":"INTERNATIONAL YOSHITAKA KARATE-DO, INC.","LONGITUDE":-87.68047140727501},
{"STATE":"IL","ZIP":60645,"LATTITUDE":42.012198149928324,"ADDRESS":"2738-2742 W TOUHY AVE 1ST ","YEAR":2011,"DOING_BUSINESS_AS_NAME":"PERFORMING ARTS LIMITED","POP_AT_RISK":317478,"BUSINESS_TYPE":"Children's Activities Facilities","LEGAL_NAME":"PERFORMING ARTS LIMITED LIABILITY COMPANY","LONGITUDE":-87.6989198743222},
{"STATE":"IL","ZIP":60616,"LATTITUDE":41.83826030922195,"ADDRESS":"209 E 31ST ST 1 B","YEAR":2011,"DOING_BUSINESS_AS_NAME":"POSH TUTORING & RECREATION CENTER","POP_AT_RISK":290673,"BUSINESS_TYPE":"Children's Activities Facilities","LEGAL_NAME":"POSH TUTORING AND RECREATION CENTERS, LLC","LONGITUDE":-87.62150105304843},
{"STATE":"IL","ZIP":60605,"LATTITUDE":41.866489279306265,"ADDRESS":"1234 S MICHIGAN AVE 2 ","YEAR":2011,"DOING_BUSINESS_AS_NAME":"INTRIGUE DANCE & PERFORMING ARTS CENTER, LLP","POP_AT_RISK":39491,"BUSINESS_TYPE":"Children's Activities Facilities","LEGAL_NAME":"INTRIGUE DANCE & PERFORMING ARTS CENTER, LLP","LONGITUDE":-87.62427930478904},
}