{
{"STATE":"IL","ZIP":60607,"LATTITUDE":41.869219246745565,"ADDRESS":"1417 W TAYLOR ST 1 & 2 ","YEAR":2005,"DOING_BUSINESS_AS_NAME":"TAYLOR TOTS CHILD DEVELOPMENT","POP_AT_RISK":297184,"BUSINESS_TYPE":"Day Care Center Under 2 and 2 - 6 Years","LEGAL_NAME":"TAYLOR TOTS, INC.","LONGITUDE":-87.6623354074544},
{"STATE":"IL","ZIP":60616,"LATTITUDE":41.85540975342332,"ADDRESS":"2001 S WABASH AVE  ","YEAR":2005,"DOING_BUSINESS_AS_NAME":"DETOUR 2 DISCOVERY DAY SCHOOL","POP_AT_RISK":139256,"BUSINESS_TYPE":"Day Care Center Under 2 and 2 - 6 Years","LEGAL_NAME":"DETOUR 2 DISCOVERY, INC","LONGITUDE":-87.62541063230867},
{"STATE":"IL","ZIP":60624,"LATTITUDE":41.889932183746026,"ADDRESS":"3301 W FRANKLIN BLVD  ","YEAR":2005,"DOING_BUSINESS_AS_NAME":"WESTINGHOUSE \/HULL HOUSE","POP_AT_RISK":528390,"BUSINESS_TYPE":"Day Care Center Under 2 and 2 - 6 Years","LEGAL_NAME":"HULL HOUSE  ASSOCIATION","LONGITUDE":-87.70895137347912},
{"STATE":"IL","ZIP":60619,"LATTITUDE":41.758445099922916,"ADDRESS":"723-725 E 75TH ST  ","YEAR":2005,"DOING_BUSINESS_AS_NAME":"LOVE N LEARN ACADEMY INC","POP_AT_RISK":346071,"BUSINESS_TYPE":"Day Care Center Under 2 and 2 - 6 Years","LEGAL_NAME":"LOVE N LEARN ACADEMY INC.","LONGITUDE":-87.60685482283574},
{"STATE":"IL","ZIP":60626,"LATTITUDE":42.018266967047175,"ADDRESS":"7510 N ASHLAND AVE  ","YEAR":2005,"DOING_BUSINESS_AS_NAME":"HOWARD AREA COMMUNITY CENTER","POP_AT_RISK":595683,"BUSINESS_TYPE":"Day Care Center Under 2 and 2 - 6 Years","LEGAL_NAME":"HOWARD AREA COMMUNITY CENTER","LONGITUDE":-87.67146123134698},
{"STATE":"IL","ZIP":60616,"LATTITUDE":41.835954885922824,"ADDRESS":"501 E 32ND ST  1ST","YEAR":2005,"DOING_BUSINESS_AS_NAME":"THE CHILDREN'S HOUSE-LK MEADOW","POP_AT_RISK":220260,"BUSINESS_TYPE":"Day Care Center Under 2 and 2 - 6 Years","LEGAL_NAME":"THE CHILDREN'S HOUSE LAKE MEAD","LONGITUDE":-87.61335015397036},
{"STATE":"IL","ZIP":60647,"LATTITUDE":41.913925247245835,"ADDRESS":"1800 N HUMBOLDT BLVD 1ST ","YEAR":2005,"DOING_BUSINESS_AS_NAME":"THE CHILDREN'S PLACE ASSN","POP_AT_RISK":1544036,"BUSINESS_TYPE":"Day Care Center Under 2 and 2 - 6 Years","LEGAL_NAME":"THE CHILDREN'S PLACE ASSOCIATION","LONGITUDE":-87.70212764503852},
{"STATE":"IL","ZIP":60619,"LATTITUDE":41.73185210877984,"ADDRESS":"8938-8940 S COTTAGE GROVE AVE  ","YEAR":2005,"DOING_BUSINESS_AS_NAME":"TOTS EXPRESS  LEARNING CENTER","POP_AT_RISK":182928,"BUSINESS_TYPE":"Day Care Center Under 2 and 2 - 6 Years","LEGAL_NAME":"TOTS EXPRESS LEARNING CENTER NFP","LONGITUDE":-87.60485274319225},
{"STATE":"IL","ZIP":60625,"LATTITUDE":41.970888597492355,"ADDRESS":"4908 N DAMEN AVE  ","YEAR":2005,"DOING_BUSINESS_AS_NAME":"RAVENSWOOD COMMUNITY DAYCARE, INC.","POP_AT_RISK":1287877,"BUSINESS_TYPE":"Day Care Center Under 2 and 2 - 6 Years","LEGAL_NAME":"RAVENSWOOD COMMUNITY DAYCARE, INC.","LONGITUDE":-87.67939623289391},
{"STATE":"IL","ZIP":60643,"LATTITUDE":41.70921709772374,"ADDRESS":"10126 S WESTERN AVE  ","YEAR":2005,"DOING_BUSINESS_AS_NAME":"LITTLE LAMB  SCHOLASTIC ACADEMY","POP_AT_RISK":195976,"BUSINESS_TYPE":"Day Care Center Under 2 and 2 - 6 Years","LEGAL_NAME":"LITTLE LAMB SCHOLASTIC ACADEMY INC.","LONGITUDE":-87.68185356852545},
{"STATE":"IL","ZIP":60623,"LATTITUDE":41.853475323255154,"ADDRESS":"3701 W OGDEN AVE  ","YEAR":2005,"DOING_BUSINESS_AS_NAME":"Carole Robertson Center for Learning","POP_AT_RISK":1299420,"BUSINESS_TYPE":"Day Care Center Under 2 and 2 - 6 Years","LEGAL_NAME":"CAROLE ROBERTSON CENTER FOR LEARNING","LONGITUDE":-87.71749061210578},
{"STATE":"IL","ZIP":60617,"LATTITUDE":41.74007573456715,"ADDRESS":"8515 S STONY ISLAND AVE  ","YEAR":2005,"DOING_BUSINESS_AS_NAME":"CREATIVE LEARNING ACADEMY","POP_AT_RISK":148535,"BUSINESS_TYPE":"Day Care Center Under 2 and 2 - 6 Years","LEGAL_NAME":"INSTITUTE FOR CREATIVE LEARNING INC.","LONGITUDE":-87.58512838435209},
{"STATE":"IL","ZIP":60607,"LATTITUDE":41.8719961299128,"ADDRESS":"801 S CANAL ST  ","YEAR":2005,"DOING_BUSINESS_AS_NAME":"THE NORTHERN TRUST CHILD DEVELOPMENT CENTER","POP_AT_RISK":36014,"BUSINESS_TYPE":"Day Care Center Under 2 and 2 - 6 Years","LEGAL_NAME":"BRIGHT HORIZONS CHILDREN'S CENTERS, INC.","LONGITUDE":-87.63920429168549},
{"STATE":"IL","ZIP":60602,"LATTITUDE":41.88294248005678,"ADDRESS":"40 N DEARBORN ST  ","YEAR":2005,"DOING_BUSINESS_AS_NAME":"COOK COUNTY\/CITY OF CHICAGO CHILD DEVELOMENT CENTER","POP_AT_RISK":428001,"BUSINESS_TYPE":"Day Care Center Under 2 and 2 - 6 Years","LEGAL_NAME":"BRIGHT HORIZONS CHILDREN'S CENTERS, INC.","LONGITUDE":-87.62958041259006},
{"STATE":"IL","ZIP":60629,"LATTITUDE":41.78654294207006,"ADDRESS":"2718 W 59TH ST  ","YEAR":2005,"DOING_BUSINESS_AS_NAME":"KEEPERS INSTITUTE FOR DEVELOPMENT AND SAFETY","POP_AT_RISK":766260,"BUSINESS_TYPE":"Day Care Center Under 2 and 2 - 6 Years","LEGAL_NAME":"KEEPER'S INSTITUTE FOR DEVELOPMENT AND SAFETY","LONGITUDE":-87.69204396187506},
}