{
{"STATE":"IL","ZIP":60632,"LATTITUDE":41.814419460490484,"ADDRESS":"4324 S PULASKI RD  ","YEAR":2008,"DOING_BUSINESS_AS_NAME":"NAIL ACADEMY","POP_AT_RISK":51597,"BUSINESS_TYPE":"Massage Establishment","LEGAL_NAME":"ALICE ZHANG","LONGITUDE":-87.72397868565669},
{"STATE":"IL","ZIP":60659,"LATTITUDE":41.98707283146295,"ADDRESS":"5816 N LINCOLN AVE 2ND 2F","YEAR":2008,"DOING_BUSINESS_AS_NAME":"SEA BREEZE HEALTH & FITNESS SPA","POP_AT_RISK":58582,"BUSINESS_TYPE":"Massage Establishment","LEGAL_NAME":"BK ELLE LLC","LONGITUDE":-87.70204284351793},
{"STATE":"IL","ZIP":60634,"LATTITUDE":41.94027309260876,"ADDRESS":"3314 N HARLEM AVE  ","YEAR":2008,"DOING_BUSINESS_AS_NAME":"EXLUSIVE STEPHANIE NAILS","POP_AT_RISK":205480,"BUSINESS_TYPE":"Massage Establishment","LEGAL_NAME":"LIDIA TOBYS","LONGITUDE":-87.80697418064285},
{"STATE":"IL","ZIP":60630,"LATTITUDE":41.9685316281803,"ADDRESS":"6338 W GUNNISON ST 1 ","YEAR":2008,"DOING_BUSINESS_AS_NAME":"GUNNISON SPA","POP_AT_RISK":38286,"BUSINESS_TYPE":"Massage Establishment","LEGAL_NAME":"SUE S. SHIN","LONGITUDE":-87.78709609897045},
{"STATE":"IL","ZIP":60631,"LATTITUDE":41.98384692202371,"ADDRESS":"7622 W HIGGINS AVE 1ST ","YEAR":2008,"DOING_BUSINESS_AS_NAME":"SOYDA HOUSE OF BEAUTY","POP_AT_RISK":50612,"BUSINESS_TYPE":"Massage Establishment","LEGAL_NAME":"TERESA SOJDA","LONGITUDE":-87.8177797238041},
{"STATE":"IL","ZIP":60641,"LATTITUDE":41.93608209790628,"ADDRESS":"3022 N PULASKI RD  ","YEAR":2008,"DOING_BUSINESS_AS_NAME":"ARIES MASSAGE","POP_AT_RISK":68230,"BUSINESS_TYPE":"Massage Establishment","LEGAL_NAME":"CARMEN Y WONG","LONGITUDE":-87.72724452413887},
{"STATE":"IL","ZIP":60608,"LATTITUDE":41.83734220361735,"ADDRESS":"3113 S ARCHER AVE  ","YEAR":2008,"DOING_BUSINESS_AS_NAME":"A J","POP_AT_RISK":60056,"BUSINESS_TYPE":"Massage Establishment","LEGAL_NAME":"JESUS AGUIRRE","LONGITUDE":-87.66607401895595},
{"STATE":"IL","ZIP":60616,"LATTITUDE":41.84225679712007,"ADDRESS":"2810 S WENTWORTH AVE 1 ","YEAR":2008,"DOING_BUSINESS_AS_NAME":"ALICE BEAUTY SALON","POP_AT_RISK":34296,"BUSINESS_TYPE":"Massage Establishment","LEGAL_NAME":"ALICE K. SZETO","LONGITUDE":-87.63193222658106},
{"STATE":"IL","ZIP":60632,"LATTITUDE":41.79850767912813,"ADDRESS":"5215 S KEDZIE AVE 1ST ","YEAR":2008,"DOING_BUSINESS_AS_NAME":"ALOE PLUS CORP","POP_AT_RISK":259845,"BUSINESS_TYPE":"Massage Establishment","LEGAL_NAME":"ALOE PLUS CORP","LONGITUDE":-87.70355219322796},
{"STATE":"IL","ZIP":60617,"LATTITUDE":41.72803591373235,"ADDRESS":"9204 S COMMERCIAL AVE  306","YEAR":2008,"DOING_BUSINESS_AS_NAME":"CREATIONS TOUCH","POP_AT_RISK":123914,"BUSINESS_TYPE":"Massage Establishment","LEGAL_NAME":"BARBARA A GODINA","LONGITUDE":-87.55135785246874},
{"STATE":"IL","ZIP":60653,"LATTITUDE":41.80961716146923,"ADDRESS":"712 E 47TH ST 1ST 102E","YEAR":2008,"DOING_BUSINESS_AS_NAME":"BAHDY","POP_AT_RISK":595153,"BUSINESS_TYPE":"Massage Establishment","LEGAL_NAME":"KAREN E. COLBERT","LONGITUDE":-87.60839592250494},
{"STATE":"IL","ZIP":60647,"LATTITUDE":41.92452088186192,"ADDRESS":"3523 W FULLERTON AVE 1ST ","YEAR":2008,"DOING_BUSINESS_AS_NAME":"SKY BLUE SPA","POP_AT_RISK":725256,"BUSINESS_TYPE":"Massage Establishment","LEGAL_NAME":"ROSA IDA MIRANDA","LONGITUDE":-87.71475728516636},
{"STATE":"IL","ZIP":60622,"LATTITUDE":41.90308051942857,"ADDRESS":"2556 W DIVISION ST  ","YEAR":2008,"DOING_BUSINESS_AS_NAME":"KM DAY SPA","POP_AT_RISK":67040,"BUSINESS_TYPE":"Massage Establishment","LEGAL_NAME":"PATRICIA A. TONEY","LONGITUDE":-87.69172244477599},
{"STATE":"IL","ZIP":60652,"LATTITUDE":41.75466012439374,"ADDRESS":"7601 S CICERO AVE  5581","YEAR":2008,"DOING_BUSINESS_AS_NAME":"RELAX CENTER","POP_AT_RISK":129110,"BUSINESS_TYPE":"Massage Establishment","LEGAL_NAME":"RELAX CENTER, INC.","LONGITUDE":-87.74138475860521},
{"STATE":"IL","ZIP":60634,"LATTITUDE":41.93665854813391,"ADDRESS":"3062 N CENTRAL AVE  ","YEAR":2008,"DOING_BUSINESS_AS_NAME":"AUM-V, INCORPORATED","POP_AT_RISK":70921,"BUSINESS_TYPE":"Massage Establishment","LEGAL_NAME":"AUM-V, INCORPORATED","LONGITUDE":-87.76657876692771},
{"STATE":"IL","ZIP":60634,"LATTITUDE":41.93833372992286,"ADDRESS":"6007 W BELMONT AVE 1ST ","YEAR":2008,"DOING_BUSINESS_AS_NAME":"MONA'S AGENCY, INC.","POP_AT_RISK":54111,"BUSINESS_TYPE":"Massage Establishment","LEGAL_NAME":"MONA'S AGENCY, INC.","LONGITUDE":-87.77655968561727},
{"STATE":"IL","ZIP":60651,"LATTITUDE":41.89492662954099,"ADDRESS":"5700 W CHICAGO AVE 2 ","YEAR":2008,"DOING_BUSINESS_AS_NAME":"ONLY BY FAITH","POP_AT_RISK":772798,"BUSINESS_TYPE":"Massage Establishment","LEGAL_NAME":"ONLY BY FAITH, INC.","LONGITUDE":-87.76800833135303},
{"STATE":"IL","ZIP":60652,"LATTITUDE":41.749855919708125,"ADDRESS":"2565 W 79TH ST 1 ","YEAR":2008,"DOING_BUSINESS_AS_NAME":"GG'S CREATIONS","POP_AT_RISK":145340,"BUSINESS_TYPE":"Massage Establishment","LEGAL_NAME":"GGM'S CREATIONS, LLC","LONGITUDE":-87.68777783964877},
{"STATE":"IL","ZIP":60645,"LATTITUDE":42.01216728502875,"ADDRESS":"2806 W TOUHY AVE 1ST ","YEAR":2008,"DOING_BUSINESS_AS_NAME":"MYSTIC FOUNTAIN INC.","POP_AT_RISK":116712,"BUSINESS_TYPE":"Massage Establishment","LEGAL_NAME":"MYSTIC FOUNTAIN INC.","LONGITUDE":-87.70006150482718},
{"STATE":"IL","ZIP":60629,"LATTITUDE":41.77861837124476,"ADDRESS":"3809 W 63RD ST  ","YEAR":2008,"DOING_BUSINESS_AS_NAME":"RENOVACIONES VALLEJO","POP_AT_RISK":459104,"BUSINESS_TYPE":"Massage Establishment","LEGAL_NAME":"RENOVACIONES VALLEJO","LONGITUDE":-87.71827863897089},
{"STATE":"IL","ZIP":60612,"LATTITUDE":41.871974478426516,"ADDRESS":"737 S WESTERN AVE 1 ","YEAR":2008,"DOING_BUSINESS_AS_NAME":"YIN MASSAGE SPA","POP_AT_RISK":312672,"BUSINESS_TYPE":"Massage Establishment","LEGAL_NAME":"DOLORES REYES-MERCADO","LONGITUDE":-87.6860394477166},
{"STATE":"IL","ZIP":60656,"LATTITUDE":41.978307146086195,"ADDRESS":"5441 N EAST RIVER RD  ","YEAR":2008,"DOING_BUSINESS_AS_NAME":"PAVILION SALON & SPA","POP_AT_RISK":63276,"BUSINESS_TYPE":"Massage Establishment","LEGAL_NAME":"ESCAPE TO BEAUTY, INC.","LONGITUDE":-87.84631557802447},
{"STATE":"IL","ZIP":60631,"LATTITUDE":42.017286150770815,"ADDRESS":"7504 N HARLEM AVE  ","YEAR":2008,"DOING_BUSINESS_AS_NAME":"NEW LOOK THERAPY, INC","POP_AT_RISK":56158,"BUSINESS_TYPE":"Massage Establishment","LEGAL_NAME":"NEW LOOK THERAPY, INC.","LONGITUDE":-87.80671760193259},
{"STATE":"IL","ZIP":60632,"LATTITUDE":41.816359078276456,"ADDRESS":"4235 S ARCHER AVE  ","YEAR":2008,"DOING_BUSINESS_AS_NAME":"VICTOR MAURICIO","POP_AT_RISK":388448,"BUSINESS_TYPE":"Massage Establishment","LEGAL_NAME":"VICTOR  MAURICIO, INC.","LONGITUDE":-87.70031714827986},
{"STATE":"IL","ZIP":60643,"LATTITUDE":41.69937269957871,"ADDRESS":"10655 S HALE AVE  1","YEAR":2008,"DOING_BUSINESS_AS_NAME":"RELAXATION STATION","POP_AT_RISK":18825,"BUSINESS_TYPE":"Massage Establishment","LEGAL_NAME":"MICHELLE MANNING PAPPAS","LONGITUDE":-87.66933262982369},
{"STATE":"IL","ZIP":60622,"LATTITUDE":41.89557413519898,"ADDRESS":"2623 W CHICAGO AVE  1","YEAR":2008,"DOING_BUSINESS_AS_NAME":"LILIAN SALON & SPA, INC.","POP_AT_RISK":48917,"BUSINESS_TYPE":"Massage Establishment","LEGAL_NAME":"LILIAN SALON & SPA, INC.","LONGITUDE":-87.69273516064196},
{"STATE":"IL","ZIP":60634,"LATTITUDE":41.95250358557895,"ADDRESS":"7441 W IRVING PARK RD  SE","YEAR":2008,"DOING_BUSINESS_AS_NAME":"DIMARE FASHION & SPA, INC.","POP_AT_RISK":61786,"BUSINESS_TYPE":"Massage Establishment","LEGAL_NAME":"DIMARE FASHION & SPA INC.","LONGITUDE":-87.81381995810226},
{"STATE":"IL","ZIP":60631,"LATTITUDE":42.01154951910313,"ADDRESS":"7257 W TOUHY AVE 103 ","YEAR":2008,"DOING_BUSINESS_AS_NAME":"EUROSPA","POP_AT_RISK":19160,"BUSINESS_TYPE":"Massage Establishment","LEGAL_NAME":"EURO MASSAGE CENTER, INC.","LONGITUDE":-87.8088829387666},
{"STATE":"IL","ZIP":60638,"LATTITUDE":41.79223321698213,"ADDRESS":"6842 W ARCHER AVE  ","YEAR":2008,"DOING_BUSINESS_AS_NAME":"THE BLOOMING LOTUS, CORP","POP_AT_RISK":75188,"BUSINESS_TYPE":"Massage Establishment","LEGAL_NAME":"THE BLOOMING LOTUS, CORP.","LONGITUDE":-87.7932838035596},
{"STATE":"IL","ZIP":60643,"LATTITUDE":41.710575115444506,"ADDRESS":"10043 S WESTERN AVE  ","YEAR":2008,"DOING_BUSINESS_AS_NAME":"ON THE MOVE TRAVELING MASSAGE SERVICES","POP_AT_RISK":21967,"BUSINESS_TYPE":"Massage Establishment","LEGAL_NAME":"TINA NORALS & CYNTHIA HUGHES","LONGITUDE":-87.68160058546219},
{"STATE":"IL","ZIP":60623,"LATTITUDE":41.851767626451384,"ADDRESS":"2841 W CERMAK RD 1ST ","YEAR":2008,"DOING_BUSINESS_AS_NAME":"OUR NEIGHBORHOOD DAY SPA, CORP.","POP_AT_RISK":988576,"BUSINESS_TYPE":"Massage Establishment","LEGAL_NAME":"OUR NEIGHBORHOOD DAY SPA CORP.","LONGITUDE":-87.69722597356764},
{"STATE":"IL","ZIP":60620,"LATTITUDE":41.72814388801822,"ADDRESS":"9101 S WESTERN AVE  1 & 2","YEAR":2008,"DOING_BUSINESS_AS_NAME":"Serenity Spa and Wellness, Inc.","POP_AT_RISK":13521,"BUSINESS_TYPE":"Massage Establishment","LEGAL_NAME":"SERENITY SPA AND WELLNESS, INC.","LONGITUDE":-87.6821399005298},
{"STATE":"IL","ZIP":60626,"LATTITUDE":42.01594471000577,"ADDRESS":"1445 W JARVIS AVE  ","YEAR":2008,"DOING_BUSINESS_AS_NAME":"LUMBAR LOUNGE","POP_AT_RISK":124592,"BUSINESS_TYPE":"Massage Establishment","LEGAL_NAME":"SUZEN COOK  MASSAGE THERAPY, INC.","LONGITUDE":-87.66789581133165},
{"STATE":"IL","ZIP":60619,"LATTITUDE":41.73894775730201,"ADDRESS":"8545 S COTTAGE GROVE AVE  ","YEAR":2008,"DOING_BUSINESS_AS_NAME":"SOUTH CENTRAL COMMUNITY SERVICES","POP_AT_RISK":461268,"BUSINESS_TYPE":"Massage Establishment","LEGAL_NAME":"SOUTH CENTRAL COMMUNITY SERVICES, INC.","LONGITUDE":-87.60474054067679},
}