{
{"STATE":"IL","ZIP":60619,"LATTITUDE":41.72208158125347,"ADDRESS":"556 E 95TH ST 1ST ","YEAR":2013,"DOING_BUSINESS_AS_NAME":"A P M AUTOMOTIVE","POP_AT_RISK":47872,"BUSINESS_TYPE":"Motor Vehicle Repair : Engine Only (Class II)","LEGAL_NAME":"C.T.MATHEWS","LONGITUDE":-87.60945485331932},
{"STATE":"IL","ZIP":60617,"LATTITUDE":41.74448380214607,"ADDRESS":"8301 S MANISTEE AVE 1ST ","YEAR":2013,"DOING_BUSINESS_AS_NAME":"GODINA'S AUTO SERVICE","POP_AT_RISK":34699,"BUSINESS_TYPE":"Motor Vehicle Repair : Engine Only (Class II)","LEGAL_NAME":"JOSE GODINA","LONGITUDE":-87.55747094835894},
{"STATE":"IL","ZIP":60640,"LATTITUDE":41.98233782248874,"ADDRESS":"5521 N CLARK ST 1ST REAR","YEAR":2013,"DOING_BUSINESS_AS_NAME":"TELLO AUTO REPAIR","POP_AT_RISK":74153,"BUSINESS_TYPE":"Motor Vehicle Repair : Engine Only (Class II)","LEGAL_NAME":"ARTURO TELLO","LONGITUDE":-87.66837894306158},
{"STATE":"IL","ZIP":60623,"LATTITUDE":41.85128969157083,"ADDRESS":"4401 W CERMAK RD  UNIT 2","YEAR":2013,"DOING_BUSINESS_AS_NAME":"CALVILLO AUTO REPAIR","POP_AT_RISK":47209,"BUSINESS_TYPE":"Motor Vehicle Repair : Engine Only (Class II)","LEGAL_NAME":"DANIEL GOMEZ","LONGITUDE":-87.73455439428103},
{"STATE":"IL","ZIP":60827,"LATTITUDE":41.64661613548738,"ADDRESS":"13701 S INDIANA AVE 1ST ","YEAR":2013,"DOING_BUSINESS_AS_NAME":"TRIANGLE SERVICE","POP_AT_RISK":17826,"BUSINESS_TYPE":"Motor Vehicle Repair : Engine Only (Class II)","LEGAL_NAME":"GUS KATSENIS","LONGITUDE":-87.61708342711016},
{"STATE":"IL","ZIP":60631,"LATTITUDE":42.00053082989466,"ADDRESS":"6546 N MILWAUKEE AVE  ","YEAR":2013,"DOING_BUSINESS_AS_NAME":"AUTO WORX","POP_AT_RISK":20191,"BUSINESS_TYPE":"Motor Vehicle Repair : Engine Only (Class II)","LEGAL_NAME":"AUTO WORX, INC.","LONGITUDE":-87.7909427250137},
{"STATE":"IL","ZIP":60630,"LATTITUDE":41.97170908200497,"ADDRESS":"5748 W HIGGINS AVE 1ST ","YEAR":2013,"DOING_BUSINESS_AS_NAME":"A & S AUTOMOTIVE","POP_AT_RISK":35833,"BUSINESS_TYPE":"Motor Vehicle Repair : Engine Only (Class II)","LEGAL_NAME":"STEVEN M ANDERSON","LONGITUDE":-87.7722878646383},
{"STATE":"IL","ZIP":60620,"LATTITUDE":41.72953879935988,"ADDRESS":"9040 S HALSTED ST  ","YEAR":2013,"DOING_BUSINESS_AS_NAME":"JC GARAGE INC.","POP_AT_RISK":29492,"BUSINESS_TYPE":"Motor Vehicle Repair : Engine Only (Class II)","LEGAL_NAME":"J C'S GARAGE, INC.","LONGITUDE":-87.64358676233867},
{"STATE":"IL","ZIP":60655,"LATTITUDE":41.6857048697285,"ADDRESS":"11400 S PULASKI RD  ","YEAR":2013,"DOING_BUSINESS_AS_NAME":"MCCARTHY FORD INC","POP_AT_RISK":117800,"BUSINESS_TYPE":"Motor Vehicle Repair : Engine Only (Class II)","LEGAL_NAME":"MCCARTHY FORD, INC","LONGITUDE":-87.72026357236545},
{"STATE":"IL","ZIP":60621,"LATTITUDE":41.787083262767226,"ADDRESS":"932-936 W 59TH ST 1 1","YEAR":2013,"DOING_BUSINESS_AS_NAME":"AAA & A AUTO REPAIR","POP_AT_RISK":33341,"BUSINESS_TYPE":"Motor Vehicle Repair : Engine Only (Class II)","LEGAL_NAME":"PLATNUM AUTO, INC.","LONGITUDE":-87.64868064245024},
{"STATE":"IL","ZIP":60628,"LATTITUDE":41.66188846021267,"ADDRESS":"12747 -12757 S HALSTED ST 1 ","YEAR":2013,"DOING_BUSINESS_AS_NAME":"Mega Auto Sales","POP_AT_RISK":95612,"BUSINESS_TYPE":"Motor Vehicle Repair : Engine Only (Class II)","LEGAL_NAME":"Mega Auto Sales Inc","LONGITUDE":-87.64122912261676},
{"STATE":"IL","ZIP":60653,"LATTITUDE":41.81668404083808,"ADDRESS":"4256 S MICHIGAN AVE  ","YEAR":2013,"DOING_BUSINESS_AS_NAME":"QUICK AND FAIR AUTO","POP_AT_RISK":28851,"BUSINESS_TYPE":"Motor Vehicle Repair : Engine Only (Class II)","LEGAL_NAME":"S AND D SALES, INC.","LONGITUDE":-87.6231801307422},
{"STATE":"IL","ZIP":60707,"LATTITUDE":41.93106236671105,"ADDRESS":"6506 W DIVERSEY AVE 1ST ","YEAR":2013,"DOING_BUSINESS_AS_NAME":"BRICKYARD AUTO SERVICE","POP_AT_RISK":54075,"BUSINESS_TYPE":"Motor Vehicle Repair : Engine Only (Class II)","LEGAL_NAME":"FRANK J MICCUCIO III","LONGITUDE":-87.78843283971459},
{"STATE":"IL","ZIP":60628,"LATTITUDE":41.67234697234078,"ADDRESS":"12209 S INDIANA AVE  ","YEAR":2013,"DOING_BUSINESS_AS_NAME":"SAM'S PLACE AUTO CLINIC","POP_AT_RISK":62724,"BUSINESS_TYPE":"Motor Vehicle Repair : Engine Only (Class II)","LEGAL_NAME":"SAMUEL CORBBINS, JR.","LONGITUDE":-87.61750416654964},
{"STATE":"IL","ZIP":60631,"LATTITUDE":42.000104228399934,"ADDRESS":"6571 N OLMSTED AVE  ","YEAR":2013,"DOING_BUSINESS_AS_NAME":"E K AUTOMOTIVE  LTD","POP_AT_RISK":21690,"BUSINESS_TYPE":"Motor Vehicle Repair : Engine Only (Class II)","LEGAL_NAME":"EK AUTOMOTIVE LIMITED","LONGITUDE":-87.8132939597512},
{"STATE":"IL","ZIP":60620,"LATTITUDE":41.72616754095205,"ADDRESS":"9205 S WESTERN AVE  ","YEAR":2013,"DOING_BUSINESS_AS_NAME":"EVERGREEN KIA","POP_AT_RISK":34488,"BUSINESS_TYPE":"Motor Vehicle Repair : Engine Only (Class II)","LEGAL_NAME":"EVERGREEN MOTORS, INC","LONGITUDE":-87.68208155982708},
{"STATE":"IL","ZIP":60629,"LATTITUDE":41.78238984296332,"ADDRESS":"6107-6111 S KEDZIE AVE 1ST ","YEAR":2013,"DOING_BUSINESS_AS_NAME":"R & R AUTO REPAIR","POP_AT_RISK":63610,"BUSINESS_TYPE":"Motor Vehicle Repair : Engine Only (Class II)","LEGAL_NAME":"R & R AUTO REPAIR LLC","LONGITUDE":-87.70308724477408},
{"STATE":"IL","ZIP":60615,"LATTITUDE":41.79959786938958,"ADDRESS":"1330 E 53RD ST  ","YEAR":2013,"DOING_BUSINESS_AS_NAME":"HYDE PARK MOBIL","POP_AT_RISK":80554,"BUSINESS_TYPE":"Motor Vehicle Repair : Engine Only (Class II)","LEGAL_NAME":"HYDE PARK CAR WASH INC","LONGITUDE":-87.59376103688076},
{"STATE":"IL","ZIP":60649,"LATTITUDE":41.76779095632842,"ADDRESS":"7000-7008 S STONY ISLAND AVE 1ST ","YEAR":2013,"DOING_BUSINESS_AS_NAME":"PIT STOP 500","POP_AT_RISK":185985,"BUSINESS_TYPE":"Motor Vehicle Repair : Engine Only (Class II)","LEGAL_NAME":"PETROLEUM EXPRESS INC.","LONGITUDE":-87.58651631889869},
{"STATE":"IL","ZIP":60636,"LATTITUDE":41.76828622622114,"ADDRESS":"6901-6917 S BELL AVE 1 ","YEAR":2013,"DOING_BUSINESS_AS_NAME":"CHICAGO AUTO REPAIR INC.","POP_AT_RISK":71466,"BUSINESS_TYPE":"Motor Vehicle Repair : Engine Only (Class II)","LEGAL_NAME":"CHICAGO AUTO REPAIR INC","LONGITUDE":-87.67944196098765},
{"STATE":"IL","ZIP":60634,"LATTITUDE":41.945901279807025,"ADDRESS":"5910-5914 W ADDISON ST 1ST ","YEAR":2013,"DOING_BUSINESS_AS_NAME":"ALPHA AUTO REPAIR","POP_AT_RISK":175684,"BUSINESS_TYPE":"Motor Vehicle Repair : Engine Only (Class II)","LEGAL_NAME":"HENRY A BARAHONA VARGAS","LONGITUDE":-87.77456663564445},
{"STATE":"IL","ZIP":60659,"LATTITUDE":41.99497663051784,"ADDRESS":"6229 N WESTERN AVE  ","YEAR":2013,"DOING_BUSINESS_AS_NAME":"WHEELS OF CHICAGO, INC.","POP_AT_RISK":68863,"BUSINESS_TYPE":"Motor Vehicle Repair : Engine Only (Class II)","LEGAL_NAME":"WHEELS OF CHICAGO, INC.","LONGITUDE":-87.68964583233159},
{"STATE":"IL","ZIP":60607,"LATTITUDE":41.86736266976161,"ADDRESS":"510 W ROOSEVELT RD 1ST ","YEAR":2013,"DOING_BUSINESS_AS_NAME":"MIDAS AUTO SERVICES EXPERTS","POP_AT_RISK":31157,"BUSINESS_TYPE":"Motor Vehicle Repair : Engine Only (Class II)","LEGAL_NAME":"POP'S AUTO SERVICE, INC.","LONGITUDE":-87.63971619649821},
{"STATE":"IL","ZIP":60613,"LATTITUDE":41.95439176162065,"ADDRESS":"939 W IRVING PARK RD 1ST ","YEAR":2013,"DOING_BUSINESS_AS_NAME":"AUTO REPAIRS 4 LESS, INC.","POP_AT_RISK":164016,"BUSINESS_TYPE":"Motor Vehicle Repair : Engine Only (Class II)","LEGAL_NAME":"AUTO REPAIRS 4 LESS, INC.","LONGITUDE":-87.65366931289527},
{"STATE":"IL","ZIP":60616,"LATTITUDE":41.831303366547964,"ADDRESS":"460 E 35TH ST 1 ","YEAR":2013,"DOING_BUSINESS_AS_NAME":"BRONZEVILLE AUTO REPAIR","POP_AT_RISK":60228,"BUSINESS_TYPE":"Motor Vehicle Repair : Engine Only (Class II)","LEGAL_NAME":"LINDSAY ENTERPRISES, INC.","LONGITUDE":-87.61461418521799},
{"STATE":"IL","ZIP":60644,"LATTITUDE":41.88003666620055,"ADDRESS":"5829 W MADISON ST 1 A","YEAR":2013,"DOING_BUSINESS_AS_NAME":"One Stop Tire Center","POP_AT_RISK":397488,"BUSINESS_TYPE":"Motor Vehicle Repair : Engine Only (Class II)","LEGAL_NAME":"One Stop Tire Center Inc.","LONGITUDE":-87.77098503103548},
{"STATE":"IL","ZIP":60615,"LATTITUDE":41.794777232849405,"ADDRESS":"48 E GARFIELD BLVD 1 ","YEAR":2013,"DOING_BUSINESS_AS_NAME":"MOBIL ONE STOP CAR WASH","POP_AT_RISK":50236,"BUSINESS_TYPE":"Motor Vehicle Repair : Engine Only (Class II)","LEGAL_NAME":"ONE STOP ENTERPRISES, INC.","LONGITUDE":-87.62391935385449},
{"STATE":"IL","ZIP":60638,"LATTITUDE":41.8035378500225,"ADDRESS":"4912 S CICERO AVE 1ST ","YEAR":2013,"DOING_BUSINESS_AS_NAME":"PRESTIGE PLUS AUTOMOTIVE","POP_AT_RISK":26185,"BUSINESS_TYPE":"Motor Vehicle Repair : Engine Only (Class II)","LEGAL_NAME":"ALI M AGEL & GERMAN ARGUETA","LONGITUDE":-87.74319348208473},
{"STATE":"IL","ZIP":60646,"LATTITUDE":41.996166547688986,"ADDRESS":"6301 N CENTRAL AVE  ","YEAR":2013,"DOING_BUSINESS_AS_NAME":"CENTRAL AND CALDWELL SERVICE","POP_AT_RISK":17956,"BUSINESS_TYPE":"Motor Vehicle Repair : Engine Only (Class II)","LEGAL_NAME":"CENTRAL AND CALDWELL SERVICE","LONGITUDE":-87.76404923745231},
{"STATE":"IL","ZIP":60707,"LATTITUDE":41.92365396933332,"ADDRESS":"7034 W GRAND AVE  1","YEAR":2013,"DOING_BUSINESS_AS_NAME":"GRAND TIRE & AUTO SERV INC","POP_AT_RISK":42019,"BUSINESS_TYPE":"Motor Vehicle Repair : Engine Only (Class II)","LEGAL_NAME":"GRAND TIRE & AUTO SERVICE INC","LONGITUDE":-87.80223515670508},
{"STATE":"IL","ZIP":60637,"LATTITUDE":41.77304782188627,"ADDRESS":"6700 S COTTAGE GROVE AVE  ","YEAR":2013,"DOING_BUSINESS_AS_NAME":"CITGO FUEL & MINI MART","POP_AT_RISK":148648,"BUSINESS_TYPE":"Motor Vehicle Repair : Engine Only (Class II)","LEGAL_NAME":"CHICAGO FUEL & MINI MART, INC.","LONGITUDE":-87.6059130528716},
{"STATE":"IL","ZIP":60652,"LATTITUDE":41.746360450665,"ADDRESS":"3423-3431 W COLUMBUS AVE 1ST ","YEAR":2013,"DOING_BUSINESS_AS_NAME":"COLUMBUS MUFFLERS & BRAKES","POP_AT_RISK":26998,"BUSINESS_TYPE":"Motor Vehicle Repair : Engine Only (Class II)","LEGAL_NAME":"COLUMBUS MUFFLERS & BRAKES INC.","LONGITUDE":-87.7076800133878},
{"STATE":"IL","ZIP":60652,"LATTITUDE":41.7515205971866,"ADDRESS":"3201-3211 W 78TH ST  ","YEAR":2013,"DOING_BUSINESS_AS_NAME":"EL PRIMO MUFFLERS & BRAKES, INC.","POP_AT_RISK":23017,"BUSINESS_TYPE":"Motor Vehicle Repair : Engine Only (Class II)","LEGAL_NAME":"EL PRIMO MUFFLERS & BRAKES, INC.","LONGITUDE":-87.70250606017899},
{"STATE":"IL","ZIP":60632,"LATTITUDE":41.79970586533028,"ADDRESS":"5136-5140 S KEDZIE AVE 1ST ","YEAR":2013,"DOING_BUSINESS_AS_NAME":"LOS CHITOS BRAKES & MUFFLERS, INC.","POP_AT_RISK":46771,"BUSINESS_TYPE":"Motor Vehicle Repair : Engine Only (Class II)","LEGAL_NAME":"LOS CHITOS BRAKES & MUFFLERS, INC.","LONGITUDE":-87.70388174568811},
{"STATE":"IL","ZIP":60614,"LATTITUDE":41.93280849685226,"ADDRESS":"824 W DIVERSEY PKWY  ","YEAR":2013,"DOING_BUSINESS_AS_NAME":"WM J CASSIDY TIRE & AUTO","POP_AT_RISK":597303,"BUSINESS_TYPE":"Motor Vehicle Repair : Engine Only (Class II)","LEGAL_NAME":"WM. J. CASSIDY TIRE & AUTO SUPPLY CO.","LONGITUDE":-87.65000549071719},
{"STATE":"IL","ZIP":60652,"LATTITUDE":41.73628922702488,"ADDRESS":"8601-8611 S CICERO AVE 1 ","YEAR":2013,"DOING_BUSINESS_AS_NAME":"PAISANO MUFFLERS AND AUTO SERVICE, LLC","POP_AT_RISK":47846,"BUSINESS_TYPE":"Motor Vehicle Repair : Engine Only (Class II)","LEGAL_NAME":"PAISANO MUFFLERS AND AUTO SERVICE, LLC","LONGITUDE":-87.74078193737448},
}