{
{"STATE":"IL","ZIP":61801,"LATTITUDE":41.86132147983107,"ADDRESS":"901 W COLLEGE CT 11TH 1106 A","YEAR":2013,"DOING_BUSINESS_AS_NAME":"JINSUK KIM","POP_AT_RISK":32629,"BUSINESS_TYPE":"Street Performer","LEGAL_NAME":"JINSUK KIM","LONGITUDE":-87.64885738000746},
{"STATE":"IL","ZIP":60639,"LATTITUDE":41.915008990020915,"ADDRESS":"1851 N KARLOV AVE  ","YEAR":2013,"DOING_BUSINESS_AS_NAME":"NOEL LOPEZ","POP_AT_RISK":264332,"BUSINESS_TYPE":"Street Performer","LEGAL_NAME":"NOEL LOPEZ","LONGITUDE":-87.72878861422866},
{"STATE":"IL","ZIP":60645,"LATTITUDE":42.00755826080593,"ADDRESS":"2541 W COYLE AVE BSMT ","YEAR":2013,"DOING_BUSINESS_AS_NAME":"CAT M RABIN","POP_AT_RISK":63614,"BUSINESS_TYPE":"Street Performer","LEGAL_NAME":"CAT M RABIN","LONGITUDE":-87.69416362635943},
{"STATE":"IL","ZIP":60629,"LATTITUDE":41.777695724709645,"ADDRESS":"6331 S KARLOV AVE  ","YEAR":2013,"DOING_BUSINESS_AS_NAME":"JORGE URIBE","POP_AT_RISK":164856,"BUSINESS_TYPE":"Street Performer","LEGAL_NAME":"JORGE URIBE","LONGITUDE":-87.7250308789542},
{"STATE":"IL","ZIP":60619,"LATTITUDE":41.75739566260848,"ADDRESS":"7534 S EBERHART AVE  ","YEAR":2013,"DOING_BUSINESS_AS_NAME":"DAVID BOYKIN","POP_AT_RISK":76292,"BUSINESS_TYPE":"Street Performer","LEGAL_NAME":"DAVID BOYKIN","LONGITUDE":-87.6127963488081},
{"STATE":"IL","ZIP":60629,"LATTITUDE":41.77240858467668,"ADDRESS":"3938 W 66TH PL 1 1","YEAR":2013,"DOING_BUSINESS_AS_NAME":"ALAN GEIERMAN","POP_AT_RISK":46565,"BUSINESS_TYPE":"Street Performer","LEGAL_NAME":"ALAN GEIERMAN","LONGITUDE":-87.72171770256712},
{"STATE":"IL","ZIP":60628,"LATTITUDE":41.71184705992434,"ADDRESS":"34 E 100TH PL  ","YEAR":2013,"DOING_BUSINESS_AS_NAME":"MARIO SANDERS","POP_AT_RISK":82950,"BUSINESS_TYPE":"Street Performer","LEGAL_NAME":"MARIO SANDERS","LONGITUDE":-87.62228987739334},
{"STATE":"IL","ZIP":60629,"LATTITUDE":41.79252071712797,"ADDRESS":"5537 S RICHMOND ST  ","YEAR":2013,"DOING_BUSINESS_AS_NAME":"ANTONIO TORRES","POP_AT_RISK":648384,"BUSINESS_TYPE":"Street Performer","LEGAL_NAME":"ANTONIO TORRES","LONGITUDE":-87.6972806369158},
{"STATE":"IL","ZIP":60645,"LATTITUDE":42.015060035775996,"ADDRESS":"7344 N ALBANY AVE 1 ","YEAR":2013,"DOING_BUSINESS_AS_NAME":"ERICK G. MATEO","POP_AT_RISK":31488,"BUSINESS_TYPE":"Street Performer","LEGAL_NAME":"ERICK G. MATEO","LONGITUDE":-87.70689724240283},
{"STATE":"IL","ZIP":60621,"LATTITUDE":41.79069527812616,"ADDRESS":"1016 W 57TH ST  ","YEAR":2013,"DOING_BUSINESS_AS_NAME":"PIERRE H JONES","POP_AT_RISK":478592,"BUSINESS_TYPE":"Street Performer","LEGAL_NAME":"PIERRE H JONES","LONGITUDE":-87.65071554243252},
{"STATE":"IL","ZIP":60608,"LATTITUDE":41.85854117270067,"ADDRESS":"1731 W 17TH ST 1ST 6","YEAR":2013,"DOING_BUSINESS_AS_NAME":"SHERRI HOUMADI","POP_AT_RISK":40247,"BUSINESS_TYPE":"Street Performer","LEGAL_NAME":"SHERRI HOUMADI","LONGITUDE":-87.67002198040632},
{"STATE":"IL","ZIP":60641,"LATTITUDE":41.955185986997655,"ADDRESS":"5334 W BELLE PLAINE AVE  ","YEAR":2013,"DOING_BUSINESS_AS_NAME":"WENDY A PLACEK","POP_AT_RISK":239100,"BUSINESS_TYPE":"Street Performer","LEGAL_NAME":"WENDY A PLACEK","LONGITUDE":-87.76109805129877},
{"STATE":"IL","ZIP":60649,"LATTITUDE":41.75378718780503,"ADDRESS":"2818 E 78TH ST 2ND ","YEAR":2013,"DOING_BUSINESS_AS_NAME":"FREDERICK RILEY","POP_AT_RISK":43671,"BUSINESS_TYPE":"Street Performer","LEGAL_NAME":"FREDERICK RILEY","LONGITUDE":-87.55628169334479},
{"STATE":"IL","ZIP":60620,"LATTITUDE":41.74669091648532,"ADDRESS":"1335 W 81ST ST  ","YEAR":2013,"DOING_BUSINESS_AS_NAME":"JORDAN M MOORE","POP_AT_RISK":133734,"BUSINESS_TYPE":"Street Performer","LEGAL_NAME":"JORDAN M. MOORE","LONGITUDE":-87.65742161737303},
{"STATE":"IL","ZIP":60624,"LATTITUDE":41.883091493549166,"ADDRESS":"3834 W WEST END AVE  ","YEAR":2013,"DOING_BUSINESS_AS_NAME":"KEVIN A. MARTIN","POP_AT_RISK":169005,"BUSINESS_TYPE":"Street Performer","LEGAL_NAME":"KEVIN A. MARTIN","LONGITUDE":-87.72211597509587},
{"STATE":"IL","ZIP":60645,"LATTITUDE":42.0177393977197,"ADDRESS":"2544 W BIRCHWOOD AVE  ","YEAR":2013,"DOING_BUSINESS_AS_NAME":"SAMUEL A. SIMON","POP_AT_RISK":47903,"BUSINESS_TYPE":"Street Performer","LEGAL_NAME":"SAMUEL A. SIMON","LONGITUDE":-87.69432086360867},
{"STATE":"IL","ZIP":60646,"LATTITUDE":41.990945726966935,"ADDRESS":"6037 N ELSTON AVE  B","YEAR":2013,"DOING_BUSINESS_AS_NAME":"STUART D. FRANK","POP_AT_RISK":121710,"BUSINESS_TYPE":"Street Performer","LEGAL_NAME":"STUART D. FRANK","LONGITUDE":-87.77953844420163},
{"STATE":"IL","ZIP":60617,"LATTITUDE":41.72863395838726,"ADDRESS":"9177 S SOUTH CHICAGO AVE  ","YEAR":2013,"DOING_BUSINESS_AS_NAME":"ABIMBOLA ADEMOSU","POP_AT_RISK":35404,"BUSINESS_TYPE":"Street Performer","LEGAL_NAME":"ABIMBOLA ADEMOSU","LONGITUDE":-87.55360264844659},
{"STATE":"IL","ZIP":60628,"LATTITUDE":41.69230877114162,"ADDRESS":"11118 S CHAMPLAIN AVE  ","YEAR":2013,"DOING_BUSINESS_AS_NAME":"BELINDA K FULLER","POP_AT_RISK":35920,"BUSINESS_TYPE":"Street Performer","LEGAL_NAME":"BELINDA K FULLER","LONGITUDE":-87.60734232372639},
{"STATE":"IL","ZIP":60645,"LATTITUDE":42.00852517115278,"ADDRESS":"2856 W LUNT AVE  ","YEAR":2013,"DOING_BUSINESS_AS_NAME":"CHARLES E HARRIS","POP_AT_RISK":46966,"BUSINESS_TYPE":"Street Performer","LEGAL_NAME":"CHARLES E HARRIS","LONGITUDE":-87.70196144084936},
{"STATE":"CA","ZIP":90262,"LATTITUDE":41.83314336538047,"ADDRESS":"3359  MARTIN LUTHER KING BLVD  ","YEAR":2013,"DOING_BUSINESS_AS_NAME":"GERARDO GONZALEZ","POP_AT_RISK":61814,"BUSINESS_TYPE":"Street Performer","LEGAL_NAME":"GERARDO GONZALEZ","LONGITUDE":-87.61685058239901},
{"STATE":"IL","ZIP":60625,"LATTITUDE":41.96546888220734,"ADDRESS":"3723 W EASTWOOD AVE  1E","YEAR":2013,"DOING_BUSINESS_AS_NAME":"DIANE MARIE NORTH","POP_AT_RISK":155196,"BUSINESS_TYPE":"Street Performer","LEGAL_NAME":"DIANE MARIE NORTH","LONGITUDE":-87.72169225186659},
{"STATE":"IL","ZIP":60620,"LATTITUDE":41.757074993572374,"ADDRESS":"7520 S MORGAN ST  ","YEAR":2013,"DOING_BUSINESS_AS_NAME":"LONNIE STURDIVANT","POP_AT_RISK":123988,"BUSINESS_TYPE":"Street Performer","LEGAL_NAME":"LONNIE STURDIVANT","LONGITUDE":-87.64920646682991},
{"STATE":"IL","ZIP":60623,"LATTITUDE":41.850858889561515,"ADDRESS":"2835 W 22ND PL  ","YEAR":2013,"DOING_BUSINESS_AS_NAME":"LOUIS S SIERRA II","POP_AT_RISK":494288,"BUSINESS_TYPE":"Street Performer","LEGAL_NAME":"LOUIS S SIERRA II","LONGITUDE":-87.69676289508892},
{"STATE":"IL","ZIP":60619,"LATTITUDE":41.76449578241853,"ADDRESS":"7164 S SOUTH CHICAGO AVE  ","YEAR":2013,"DOING_BUSINESS_AS_NAME":"EDGAR OMAR GUALOTO","POP_AT_RISK":176265,"BUSINESS_TYPE":"Street Performer","LEGAL_NAME":"EDGAR OMAR GUALOTO","LONGITUDE":-87.60386159120708},
{"STATE":"IL","ZIP":60641,"LATTITUDE":41.93383511208716,"ADDRESS":"2923 N LUNA AVE  ","YEAR":2013,"DOING_BUSINESS_AS_NAME":"ELTON RAJIV OROZCO","POP_AT_RISK":401562,"BUSINESS_TYPE":"Street Performer","LEGAL_NAME":"ELTON RAJIV OROZCO","LONGITUDE":-87.76495874449746},
{"STATE":"IL","ZIP":60649,"LATTITUDE":41.758499344839876,"ADDRESS":"7617 S SOUTH SHORE DR  ","YEAR":2013,"DOING_BUSINESS_AS_NAME":"JOSHUA CHAS MCCOOL","POP_AT_RISK":59222,"BUSINESS_TYPE":"Street Performer","LEGAL_NAME":"JOSHUA CHAS MCCOOL","LONGITUDE":-87.55486464468747},
{"STATE":"IL","ZIP":60655,"LATTITUDE":41.71329864243373,"ADDRESS":"9911 S ARTESIAN AVE  ","YEAR":2013,"DOING_BUSINESS_AS_NAME":"MATTHEW JAMES KERR","POP_AT_RISK":48310,"BUSINESS_TYPE":"Street Performer","LEGAL_NAME":"MATTHEW JAMES KERR","LONGITUDE":-87.68296739421811},
{"STATE":"IL","ZIP":60643,"LATTITUDE":41.69122711362856,"ADDRESS":"11121 S LONGWOOD DR  ","YEAR":2013,"DOING_BUSINESS_AS_NAME":"JAMES ROBERT CRAVEN","POP_AT_RISK":39214,"BUSINESS_TYPE":"Street Performer","LEGAL_NAME":"JAMES ROBERT CRAVEN","LONGITUDE":-87.67192990135744},
{"STATE":"IL","ZIP":60608,"LATTITUDE":41.835483631185696,"ADDRESS":"3222 S MORGAN ST  ","YEAR":2013,"DOING_BUSINESS_AS_NAME":"LANCE DAVID SKELTON","POP_AT_RISK":83466,"BUSINESS_TYPE":"Street Performer","LEGAL_NAME":"LANCE DAVID SKELTON","LONGITUDE":-87.65122622872329},
{"STATE":"IL","ZIP":60637,"LATTITUDE":41.79103161602651,"ADDRESS":"329 E 57TH ST 1 1","YEAR":2013,"DOING_BUSINESS_AS_NAME":"LAURENCE T. INKATHA","POP_AT_RISK":197652,"BUSINESS_TYPE":"Street Performer","LEGAL_NAME":"LAURENCE T. INKATHA","LONGITUDE":-87.61784246649778},
{"STATE":"IL","ZIP":60615,"LATTITUDE":41.8044549815234,"ADDRESS":"4949 S COTTAGE GROVE AVE  ","YEAR":2013,"DOING_BUSINESS_AS_NAME":"CONRAD CARIVISE WEST","POP_AT_RISK":152928,"BUSINESS_TYPE":"Street Performer","LEGAL_NAME":"CONRAD CARIVISE WEST","LONGITUDE":-87.60630957560828},
{"STATE":"IL","ZIP":60624,"LATTITUDE":41.87093531168616,"ADDRESS":"3710 W POLK ST  ","YEAR":2013,"DOING_BUSINESS_AS_NAME":"GABRIELLA T WILLIAMS","POP_AT_RISK":46663,"BUSINESS_TYPE":"Street Performer","LEGAL_NAME":"GABRIELLA T WILLIAMS","LONGITUDE":-87.71850875774827},
{"STATE":"IL","ZIP":60643,"LATTITUDE":41.706049856838554,"ADDRESS":"1104 W 103RD PL  ","YEAR":2013,"DOING_BUSINESS_AS_NAME":"JAMES MICHAEL FARLEY","POP_AT_RISK":89019,"BUSINESS_TYPE":"Street Performer","LEGAL_NAME":"JAMES MICHAEL FARLEY","LONGITUDE":-87.65037306106422},
{"STATE":"IL","ZIP":60612,"LATTITUDE":41.87369900134411,"ADDRESS":"2715 W HARRISON ST  ","YEAR":2013,"DOING_BUSINESS_AS_NAME":"DAVID FRANCIS VERWIEL","POP_AT_RISK":122008,"BUSINESS_TYPE":"Street Performer","LEGAL_NAME":"DAVID FRANCIS VERWIEL","LONGITUDE":-87.6943229701354},
{"STATE":"IL","ZIP":60607,"LATTITUDE":41.88657845334519,"ADDRESS":"1137 W FULTON MARKET   ","YEAR":2013,"DOING_BUSINESS_AS_NAME":"KASUMI S. KATO","POP_AT_RISK":70328,"BUSINESS_TYPE":"Street Performer","LEGAL_NAME":"KASUMI STEVENSON KATO","LONGITUDE":-87.65590919932605},
{"STATE":"IL","ZIP":60617,"LATTITUDE":41.709267761063636,"ADDRESS":"10218 S CRANDON AVE  ","YEAR":2013,"DOING_BUSINESS_AS_NAME":"CORDERO TIERRE JOHNSON","POP_AT_RISK":35628,"BUSINESS_TYPE":"Street Performer","LEGAL_NAME":"CORDERO TIERRE JOHNSON","LONGITUDE":-87.56709072532036},
{"STATE":"IL","ZIP":60621,"LATTITUDE":41.75892308167637,"ADDRESS":"7435 S WENTWORTH AVE  ","YEAR":2013,"DOING_BUSINESS_AS_NAME":"DAVID SHAWN WILLAIMSON","POP_AT_RISK":47270,"BUSINESS_TYPE":"Street Performer","LEGAL_NAME":"DAVID SHAWN WILLIAMSON","LONGITUDE":-87.62948098997315},
{"STATE":"IL","ZIP":60634,"LATTITUDE":41.93886562434502,"ADDRESS":"3231 N ORIOLE AVE  ","YEAR":2013,"DOING_BUSINESS_AS_NAME":"DOUGLAS EDWARD BRAMMER","POP_AT_RISK":70192,"BUSINESS_TYPE":"Street Performer","LEGAL_NAME":"DOUGLAS EDWARD BRAMMER","LONGITUDE":-87.8164039110251},
{"STATE":"IL","ZIP":60615,"LATTITUDE":41.79695863246325,"ADDRESS":"5435 S KENWOOD AVE  ","YEAR":2013,"DOING_BUSINESS_AS_NAME":"JEROME IMHOTEP CROSWELL","POP_AT_RISK":125646,"BUSINESS_TYPE":"Street Performer","LEGAL_NAME":"JEROME IMHOTEP CROSWELL","LONGITUDE":-87.59328594635564},
{"STATE":"IL","ZIP":60620,"LATTITUDE":41.747782971742275,"ADDRESS":"8034 S EMERALD AVE  ","YEAR":2013,"DOING_BUSINESS_AS_NAME":"ROBERT SPENCER WILLIAMS","POP_AT_RISK":34678,"BUSINESS_TYPE":"Street Performer","LEGAL_NAME":"ROBERT SPENCER WILLIAMS","LONGITUDE":-87.64288558989394},
{"STATE":"IL","ZIP":60634,"LATTITUDE":41.93945406332852,"ADDRESS":"3300 N PANAMA AVE  ","YEAR":2013,"DOING_BUSINESS_AS_NAME":"ALLISON VICTORIA PINCSAK","POP_AT_RISK":27736,"BUSINESS_TYPE":"Street Performer","LEGAL_NAME":"ALLISON VICTORIA PINCSAK","LONGITUDE":-87.82898482892645},
}