{
{"STATE":"IL","ZIP":60624,"LATTITUDE":41.88758777549686,"ADDRESS":"4255 W KINZIE ST 1ST ","YEAR":2012,"DOING_BUSINESS_AS_NAME":"H T 'S DISCOUNT GLASS CO","POP_AT_RISK":721875,"BUSINESS_TYPE":"Board-Up Work","LEGAL_NAME":"HERMON TONEY JR","LONGITUDE":-87.73296174326708},
{"STATE":"IL","ZIP":60661,"LATTITUDE":41.88041818854342,"ADDRESS":"703 W MONROE ST 1 1","YEAR":2012,"DOING_BUSINESS_AS_NAME":"CLEANSLATE PROPERTY SERVICES, LLC","POP_AT_RISK":335902,"BUSINESS_TYPE":"Board-Up Work","LEGAL_NAME":"180 PROPERTIES LLC","LONGITUDE":-87.64423627788658},
{"STATE":"IL","ZIP":60630,"LATTITUDE":41.980733083375114,"ADDRESS":"5460 N MILWAUKEE AVE  ","YEAR":2012,"DOING_BUSINESS_AS_NAME":"ACE BOARD-UP COMPANY","POP_AT_RISK":215327,"BUSINESS_TYPE":"Board-Up Work","LEGAL_NAME":"ACE BOARD-UP COMPANY INC","LONGITUDE":-87.77253948587003},
{"STATE":"IL","ZIP":60641,"LATTITUDE":41.95343222161391,"ADDRESS":"5112 W IRVING PARK RD 1ST ","YEAR":2012,"DOING_BUSINESS_AS_NAME":"ADVANCE GLASS SERVICE INC.","POP_AT_RISK":634776,"BUSINESS_TYPE":"Board-Up Work","LEGAL_NAME":"ADVANCE GLASS SERVICE INC.","LONGITUDE":-87.7552265374798},
{"STATE":"IL","ZIP":60639,"LATTITUDE":41.915093322076125,"ADDRESS":"4447 W CORTLAND ST 1ST ","YEAR":2012,"DOING_BUSINESS_AS_NAME":"RESTORE BOARD - UP INC.","POP_AT_RISK":301080,"BUSINESS_TYPE":"Board-Up Work","LEGAL_NAME":"RESTORE BOARD-UP CO., INC.","LONGITUDE":-87.7381484006334},
{"STATE":"IL","ZIP":60601,"LATTITUDE":41.886339416011204,"ADDRESS":"222 N COLUMBUS DR 33RD 3302","YEAR":2012,"DOING_BUSINESS_AS_NAME":"BUZY BEE BOARD UP","POP_AT_RISK":57302,"BUSINESS_TYPE":"Board-Up Work","LEGAL_NAME":"BUZY BEE BOARD UP CORPORATION","LONGITUDE":-87.62083614995649},
{"STATE":"IL","ZIP":60647,"LATTITUDE":41.909826163903105,"ADDRESS":"3801 W NORTH AVE 1 ","YEAR":2012,"DOING_BUSINESS_AS_NAME":"EXPRESS BOARD UP SERVICE, INC.","POP_AT_RISK":68393,"BUSINESS_TYPE":"Board-Up Work","LEGAL_NAME":"EXPRESS BOARD UP SERVICE, INC.","LONGITUDE":-87.72172132037602},
{"STATE":"IL","ZIP":60618,"LATTITUDE":41.9376896243661,"ADDRESS":"3101 N WESTERN AVE  ","YEAR":2012,"DOING_BUSINESS_AS_NAME":"A Emergency Services and Restoration, Inc.","POP_AT_RISK":666162,"BUSINESS_TYPE":"Board-Up Work","LEGAL_NAME":"A EMERGENCY FIRE-BOARD UP, INC.","LONGITUDE":-87.68773947308173},
{"STATE":"IL","ZIP":60612,"LATTITUDE":41.882165578261116,"ADDRESS":"2532 W WARREN BLVD 2ND ","YEAR":2012,"DOING_BUSINESS_AS_NAME":"EXCLUSIVE BOARD UP SERVICES, INC.","POP_AT_RISK":569610,"BUSINESS_TYPE":"Board-Up Work","LEGAL_NAME":"EXCLUSIVE BOARD UP SERVICES, INC.","LONGITUDE":-87.68980000092242},
{"STATE":"IL","ZIP":60647,"LATTITUDE":41.91722211533986,"ADDRESS":"3421 W ARMITAGE AVE 1 1","YEAR":2012,"DOING_BUSINESS_AS_NAME":"A Plus Board Up And Restoration Inc.","POP_AT_RISK":649890,"BUSINESS_TYPE":"Board-Up Work","LEGAL_NAME":"A Plus Board Up And Restoration Inc.","LONGITUDE":-87.71279170840764},
{"STATE":"IL","ZIP":60647,"LATTITUDE":41.923902128523224,"ADDRESS":"2333 N SEELEY AVE 2ND 2N","YEAR":2012,"DOING_BUSINESS_AS_NAME":"Illinois Board-Up and Construction, Inc.","POP_AT_RISK":732158,"BUSINESS_TYPE":"Board-Up Work","LEGAL_NAME":"ILLINOIS BOARD-UP AND CONSTRUCTION, INC.","LONGITUDE":-87.67893622887743},
{"STATE":"IL","ZIP":60639,"LATTITUDE":41.925223815689186,"ADDRESS":"2435 N LARAMIE AVE 1ST ","YEAR":2012,"DOING_BUSINESS_AS_NAME":"BB BOARD UP AND EMERGENCY RESTORATIONS, INC.","POP_AT_RISK":624010,"BUSINESS_TYPE":"Board-Up Work","LEGAL_NAME":"BB BOARD UP AND EMERGENCY RESTORATIONS, INC.","LONGITUDE":-87.75604010060692},
{"STATE":"IL","ZIP":60644,"LATTITUDE":41.880319045582965,"ADDRESS":"5660 W MADISON ST 1ST ","YEAR":2012,"DOING_BUSINESS_AS_NAME":"PLATINUM BOARD UP SERVICES AND CONSTRUCTION CO.INC.","POP_AT_RISK":415210,"BUSINESS_TYPE":"Board-Up Work","LEGAL_NAME":"PLATINUM BOARD UP SERVICES AND CONSTRUCTION CO.INC.","LONGITUDE":-87.76723089050485},
}