{
{"STATE":"IL","ZIP":60636,"LATTITUDE":41.78675314130303,"ADDRESS":"1241-1247 W 59TH ST 1ST ","YEAR":2011,"DOING_BUSINESS_AS_NAME":"ALAMO'S TIRE SHOP & REPAIR","POP_AT_RISK":208878,"BUSINESS_TYPE":"Tire Facility Class II (1,001 - 5,000 Tires)","LEGAL_NAME":"ANA L. ALAMO","LONGITUDE":-87.65629414237921},
{"STATE":"IL","ZIP":60644,"LATTITUDE":41.86561698574138,"ADDRESS":"5838 W ROOSEVELT RD  ","YEAR":2011,"DOING_BUSINESS_AS_NAME":"ROOSEVELT TIRE SHOP","POP_AT_RISK":576598,"BUSINESS_TYPE":"Tire Facility Class II (1,001 - 5,000 Tires)","LEGAL_NAME":"JAMES GOODMAN","LONGITUDE":-87.77069153109431},
{"STATE":"IL","ZIP":60651,"LATTITUDE":41.90877065103871,"ADDRESS":"4253 W GRAND AVE 1 1","YEAR":2011,"DOING_BUSINESS_AS_NAME":"RIM CITY AND VP AUTO SOUNDS","POP_AT_RISK":62464,"BUSINESS_TYPE":"Tire Facility Class II (1,001 - 5,000 Tires)","LEGAL_NAME":"ALMA D. HUERTA","LONGITUDE":-87.73330387068063},
{"STATE":"IL","ZIP":60639,"LATTITUDE":41.92443929099319,"ADDRESS":"4510-4512 W FULLERTON AVE  ","YEAR":2011,"DOING_BUSINESS_AS_NAME":"CHICAGO TIRE","POP_AT_RISK":555752,"BUSINESS_TYPE":"Tire Facility Class II (1,001 - 5,000 Tires)","LEGAL_NAME":"HANNA T VITELA","LONGITUDE":-87.73949062103195},
{"STATE":"IL","ZIP":60651,"LATTITUDE":41.90296073281804,"ADDRESS":"3644  -03648 W GRAND AVE 1ST ","YEAR":2011,"DOING_BUSINESS_AS_NAME":"VICTOR TIRE SERVICE","POP_AT_RISK":392637,"BUSINESS_TYPE":"Tire Facility Class II (1,001 - 5,000 Tires)","LEGAL_NAME":"OLIVIER CHACON","LONGITUDE":-87.7180346257577},
{"STATE":"IL","ZIP":60608,"LATTITUDE":41.844897032915085,"ADDRESS":"2510 W 26TH ST  ","YEAR":2011,"DOING_BUSINESS_AS_NAME":"SOTO TIRES INC","POP_AT_RISK":377703,"BUSINESS_TYPE":"Tire Facility Class II (1,001 - 5,000 Tires)","LEGAL_NAME":"SOTO TIRES INC","LONGITUDE":-87.68813335165316},
{"STATE":"IL","ZIP":60620,"LATTITUDE":41.73023756491855,"ADDRESS":"9018 S HALSTED ST  1ST","YEAR":2011,"DOING_BUSINESS_AS_NAME":"BEN'S TIRE SERVICE","POP_AT_RISK":323270,"BUSINESS_TYPE":"Tire Facility Class II (1,001 - 5,000 Tires)","LEGAL_NAME":"BENNIE BROWNLEE","LONGITUDE":-87.64360085508315},
{"STATE":"IL","ZIP":60634,"LATTITUDE":41.94636306771919,"ADDRESS":"3636 N HARLEM AVE  1ST","YEAR":2011,"DOING_BUSINESS_AS_NAME":"DEVILLE TIRE INC","POP_AT_RISK":264404,"BUSINESS_TYPE":"Tire Facility Class II (1,001 - 5,000 Tires)","LEGAL_NAME":"DEVILLE TIRE INC","LONGITUDE":-87.80719094931474},
{"STATE":"IL","ZIP":60632,"LATTITUDE":41.800358082137066,"ADDRESS":"5101 S KOLMAR AVE  ","YEAR":2011,"DOING_BUSINESS_AS_NAME":"PACHECO TIRE SHOP","POP_AT_RISK":63176,"BUSINESS_TYPE":"Tire Facility Class II (1,001 - 5,000 Tires)","LEGAL_NAME":"SEFERINO PACHECO","LONGITUDE":-87.73670915443839},
{"STATE":"IL","ZIP":60636,"LATTITUDE":41.781322701386785,"ADDRESS":"6153 S WESTERN AVE  1","YEAR":2011,"DOING_BUSINESS_AS_NAME":"SEARS ROEBUCK & CO 1030","POP_AT_RISK":52560,"BUSINESS_TYPE":"Tire Facility Class II (1,001 - 5,000 Tires)","LEGAL_NAME":"SEARS,ROEBUCK & CO.","LONGITUDE":-87.68355312594959},
{"STATE":"IL","ZIP":60640,"LATTITUDE":41.96891329702292,"ADDRESS":"1824 W LAWRENCE AVE  1","YEAR":2011,"DOING_BUSINESS_AS_NAME":"SEARS ROEBUCK & CO #6071","POP_AT_RISK":481257,"BUSINESS_TYPE":"Tire Facility Class II (1,001 - 5,000 Tires)","LEGAL_NAME":"SEARS,ROEBUCK & CO.","LONGITUDE":-87.67559464763697},
{"STATE":"IL","ZIP":60619,"LATTITUDE":41.751536016682095,"ADDRESS":"1334 E 79TH ST  ","YEAR":2011,"DOING_BUSINESS_AS_NAME":"SEARS, ROEBUCK AND CO. #6092","POP_AT_RISK":373090,"BUSINESS_TYPE":"Tire Facility Class II (1,001 - 5,000 Tires)","LEGAL_NAME":"SEARS,ROEBUCK & CO.","LONGITUDE":-87.59170944843967},
{"STATE":"IL","ZIP":60609,"LATTITUDE":41.82368445199922,"ADDRESS":"426 W PERSHING RD  1ST","YEAR":2011,"DOING_BUSINESS_AS_NAME":"TRUCK TIRE SALES, INC","POP_AT_RISK":431382,"BUSINESS_TYPE":"Tire Facility Class II (1,001 - 5,000 Tires)","LEGAL_NAME":"TRUCK TIRE SALES INC","LONGITUDE":-87.63719418165383},
{"STATE":"IL","ZIP":60618,"LATTITUDE":41.94501207220803,"ADDRESS":"3501 N WESTERN AVE  ","YEAR":2011,"DOING_BUSINESS_AS_NAME":"LUCAS TIRES","POP_AT_RISK":254075,"BUSINESS_TYPE":"Tire Facility Class II (1,001 - 5,000 Tires)","LEGAL_NAME":"VEHICLE ALIGN & BRAKE","LONGITUDE":-87.68806222000072},
{"STATE":"IL","ZIP":60622,"LATTITUDE":41.90359031409245,"ADDRESS":"1250 W DIVISION ST 1ST ","YEAR":2011,"DOING_BUSINESS_AS_NAME":"MCGRATH LEXUS","POP_AT_RISK":595644,"BUSINESS_TYPE":"Tire Facility Class II (1,001 - 5,000 Tires)","LEGAL_NAME":"MCGRATH-COLOSIMO, LTD.","LONGITUDE":-87.65921320919513},
{"STATE":"IL","ZIP":60632,"LATTITUDE":41.79914875229354,"ADDRESS":"5301 S ARCHER AVE 1ST ","YEAR":2011,"DOING_BUSINESS_AS_NAME":"V I P TIRE CORPORATION","POP_AT_RISK":29168,"BUSINESS_TYPE":"Tire Facility Class II (1,001 - 5,000 Tires)","LEGAL_NAME":"V I P TIRE CORPORATION","LONGITUDE":-87.73928818506286},
{"STATE":"IL","ZIP":60628,"LATTITUDE":41.67644113450211,"ADDRESS":"716 E 120TH ST  ","YEAR":2011,"DOING_BUSINESS_AS_NAME":"WENTWORTH TIRE SERVICE","POP_AT_RISK":31059,"BUSINESS_TYPE":"Tire Facility Class II (1,001 - 5,000 Tires)","LEGAL_NAME":"WENTWORTH TIRE SERVICE","LONGITUDE":-87.60422029903714},
{"STATE":"IL","ZIP":60628,"LATTITUDE":41.691957617261934,"ADDRESS":"11130 S CORLISS AVE  ","YEAR":2011,"DOING_BUSINESS_AS_NAME":"WENTWORTH TIRE SERVICE INC","POP_AT_RISK":31509,"BUSINESS_TYPE":"Tire Facility Class II (1,001 - 5,000 Tires)","LEGAL_NAME":"WENTWORTH TIRE SERVICE","LONGITUDE":-87.600851137676},
{"STATE":"IL","ZIP":60614,"LATTITUDE":41.92544377898498,"ADDRESS":"1106 W FULLERTON AVE 1ST ","YEAR":2011,"DOING_BUSINESS_AS_NAME":"MILITO'S MOBIL","POP_AT_RISK":1023000,"BUSINESS_TYPE":"Tire Facility Class II (1,001 - 5,000 Tires)","LEGAL_NAME":"LINCOLN PARK AUTO, INC.","LONGITUDE":-87.656314390191},
{"STATE":"IL","ZIP":60609,"LATTITUDE":41.79536064707432,"ADDRESS":"5414 S ASHLAND AVE 1 ","YEAR":2011,"DOING_BUSINESS_AS_NAME":"JC AUTO & TIRE SHOP","POP_AT_RISK":44120,"BUSINESS_TYPE":"Tire Facility Class II (1,001 - 5,000 Tires)","LEGAL_NAME":"JC AUTO & TIRE SHOP, INC.","LONGITUDE":-87.66476747111768},
{"STATE":"IL","ZIP":60651,"LATTITUDE":41.895422885732735,"ADDRESS":"4110-4112 W CHICAGO AVE 1 1","YEAR":2011,"DOING_BUSINESS_AS_NAME":"SIERRA TIRE SHOP & AUTO REPAIR","POP_AT_RISK":205890,"BUSINESS_TYPE":"Tire Facility Class II (1,001 - 5,000 Tires)","LEGAL_NAME":"CALIFORNIA TIRE SHOP, INC.","LONGITUDE":-87.72907676896722},
{"STATE":"IL","ZIP":60639,"LATTITUDE":41.909544842437064,"ADDRESS":"4655 W NORTH AVE  ","YEAR":2011,"DOING_BUSINESS_AS_NAME":"BIONIC AUTO PARTS & SALE INC","POP_AT_RISK":168372,"BUSINESS_TYPE":"Tire Facility Class II (1,001 - 5,000 Tires)","LEGAL_NAME":"BIONIC AUTO PARTS & SALE INC","LONGITUDE":-87.7433839232007},
{"STATE":"IL","ZIP":60614,"LATTITUDE":41.93102100579779,"ADDRESS":"2746 N CLYBOURN AVE  ","YEAR":2011,"DOING_BUSINESS_AS_NAME":"Costco Wholesale # 380","POP_AT_RISK":275335,"BUSINESS_TYPE":"Tire Facility Class II (1,001 - 5,000 Tires)","LEGAL_NAME":"COSTCO WHOLESALE CORPORATION","LONGITUDE":-87.6768640181342},
{"STATE":"IL","ZIP":60707,"LATTITUDE":41.92365396933332,"ADDRESS":"7034 W GRAND AVE  1","YEAR":2011,"DOING_BUSINESS_AS_NAME":"GRAND TIRE & AUTO SERV INC","POP_AT_RISK":42019,"BUSINESS_TYPE":"Tire Facility Class II (1,001 - 5,000 Tires)","LEGAL_NAME":"GRAND TIRE & AUTO SERVICE INC","LONGITUDE":-87.80223515670508},
{"STATE":"IL","ZIP":60609,"LATTITUDE":41.80859263241939,"ADDRESS":"1253-1257 W 47TH ST 1ST ","YEAR":2011,"DOING_BUSINESS_AS_NAME":"J & V TIRE SHOP & WHEELS INC.","POP_AT_RISK":90480,"BUSINESS_TYPE":"Tire Facility Class II (1,001 - 5,000 Tires)","LEGAL_NAME":"J & V TIRE SHOP & WHEELS INC.","LONGITUDE":-87.65733492955451},
{"STATE":"IL","ZIP":60617,"LATTITUDE":41.719862723302185,"ADDRESS":"9651 S EWING AVE 1ST ","YEAR":2011,"DOING_BUSINESS_AS_NAME":"ARANDAS TIRE & RIMS-EWING","POP_AT_RISK":68160,"BUSINESS_TYPE":"Tire Facility Class II (1,001 - 5,000 Tires)","LEGAL_NAME":"ARANDAS TIRE & RIMS-EWING, INC.","LONGITUDE":-87.53514226733395},
{"STATE":"IL","ZIP":60640,"LATTITUDE":41.96926022285773,"ADDRESS":"4807-4819 N BROADWAY   1","YEAR":2011,"DOING_BUSINESS_AS_NAME":"Just Tires #1262","POP_AT_RISK":526715,"BUSINESS_TYPE":"Tire Facility Class II (1,001 - 5,000 Tires)","LEGAL_NAME":"THE GOODYEAR TIRE & RUBBER COMPANY","LONGITUDE":-87.65953026288018},
{"STATE":"IL","ZIP":60634,"LATTITUDE":41.93188037864371,"ADDRESS":"2819-2833 N CENTRAL AVE  1","YEAR":2011,"DOING_BUSINESS_AS_NAME":"JUST TIRES # 6162","POP_AT_RISK":736197,"BUSINESS_TYPE":"Tire Facility Class II (1,001 - 5,000 Tires)","LEGAL_NAME":"THE GOODYEAR TIRE & RUBBER COMPANY","LONGITUDE":-87.76612106798859},
{"STATE":"IL","ZIP":60652,"LATTITUDE":41.73638928135282,"ADDRESS":"3949 W COLUMBUS AVE 1ST ","YEAR":2011,"DOING_BUSINESS_AS_NAME":"WILLIAM J CASSIDY TIRE SUPPLY","POP_AT_RISK":126165,"BUSINESS_TYPE":"Tire Facility Class II (1,001 - 5,000 Tires)","LEGAL_NAME":"WM. J. CASSIDY TIRE & AUTO SUPPLY CO.","LONGITUDE":-87.72026580406488},
{"STATE":"IL","ZIP":60707,"LATTITUDE":41.92348507066099,"ADDRESS":"6811 W GRAND AVE  ","YEAR":2011,"DOING_BUSINESS_AS_NAME":"THE PEP BOYS-MANNY,MOE & JACK","POP_AT_RISK":46330,"BUSINESS_TYPE":"Tire Facility Class II (1,001 - 5,000 Tires)","LEGAL_NAME":"THE PEP BOYS MANNY MOE & JACK OF CALIFORNIA (INC.)","LONGITUDE":-87.79569188276241},
}