{
{"STATE":"IL","ZIP":60613,"LATTITUDE":41.95880408212383,"ADDRESS":"4214  -4220 N BROADWAY  1ST ","YEAR":2013,"DOING_BUSINESS_AS_NAME":"A STEP AHEAD LEARNING CENTER","POP_AT_RISK":1431860,"BUSINESS_TYPE":"Night Care Privilege","LEGAL_NAME":"CARING HANDS, INC.","LONGITUDE":-87.65342019040853},
{"STATE":"IL","ZIP":60649,"LATTITUDE":41.75908547586528,"ADDRESS":"2334 E 75TH ST  ","YEAR":2013,"DOING_BUSINESS_AS_NAME":"KENYATTA'S DAYCARE","POP_AT_RISK":258198,"BUSINESS_TYPE":"Night Care Privilege","LEGAL_NAME":"KENYATTA DAYCARE CENTER","LONGITUDE":-87.56744784945764},
{"STATE":"IL","ZIP":60609,"LATTITUDE":41.794210943335344,"ADDRESS":"1400 W GARFIELD BLVD 1 ","YEAR":2013,"DOING_BUSINESS_AS_NAME":"COMPUTER PRE-SCHOOL ACADEMY","POP_AT_RISK":939026,"BUSINESS_TYPE":"Night Care Privilege","LEGAL_NAME":"ROSLYN FRANCINE PHILLIPS","LONGITUDE":-87.65978679572046},
{"STATE":"IL","ZIP":60619,"LATTITUDE":41.73666986650331,"ADDRESS":"532-534 E 87TH ST  ","YEAR":2013,"DOING_BUSINESS_AS_NAME":"CHICAGO PRESCHOOL ACADEMY","POP_AT_RISK":404784,"BUSINESS_TYPE":"Night Care Privilege","LEGAL_NAME":"CHICAGO PRESCHOOL ACADEMY, INC.","LONGITUDE":-87.61074798462452},
{"STATE":"IL","ZIP":60620,"LATTITUDE":41.72933663322672,"ADDRESS":"9040 S VINCENNES AVE 1ST ","YEAR":2013,"DOING_BUSINESS_AS_NAME":"KIDS R FIRST LEARNING CENTER","POP_AT_RISK":234451,"BUSINESS_TYPE":"Night Care Privilege","LEGAL_NAME":"KIDS R FIRST LEARNING CENTER, INC.","LONGITUDE":-87.64786961995537},
{"STATE":"IL","ZIP":60620,"LATTITUDE":41.74675127864962,"ADDRESS":"1155 W 81ST ST  ","YEAR":2013,"DOING_BUSINESS_AS_NAME":"KIDS R FIRST LEARNING ACADEMY","POP_AT_RISK":311416,"BUSINESS_TYPE":"Night Care Privilege","LEGAL_NAME":"KIDS R FIRST LEARNING ACADEMY, INC.","LONGITUDE":-87.65340876316907},
{"STATE":"IL","ZIP":60649,"LATTITUDE":41.772686674997274,"ADDRESS":"6725 S JEFFERY BLVD # 1ST","YEAR":2013,"DOING_BUSINESS_AS_NAME":"STAIR STEP VILLA NURSERY & KINDERGARTEN","POP_AT_RISK":118792,"BUSINESS_TYPE":"Night Care Privilege","LEGAL_NAME":"STAIR STEP VILLA NURSERY SCHOOL & KINDERGARTEN, INC.","LONGITUDE":-87.57632814441791},
{"STATE":"IL","ZIP":60605,"LATTITUDE":41.86945883538021,"ADDRESS":"1020 S WABASH AVE # 100","YEAR":2013,"DOING_BUSINESS_AS_NAME":"A CHILD'S SPACE EARLY LITERACY AND LEARNING CENTER, INC.","POP_AT_RISK":306887,"BUSINESS_TYPE":"Night Care Privilege","LEGAL_NAME":"A CHILD'S SPACE EARLY LITERACY AND LEARNING CENTER, INC.","LONGITUDE":-87.62602744550121},
}