{
{"STATE":"IL","ZIP":60634,"LATTITUDE":41.93757297633352,"ADDRESS":"3135 N NARRAGANSETT AVE  ","YEAR":2005,"DOING_BUSINESS_AS_NAME":"ELSA MENDEZ","POP_AT_RISK":292782,"BUSINESS_TYPE":"Peddler, non-food","LEGAL_NAME":"ELSA MENDEZ","LONGITUDE":-87.78576055452592},
{"STATE":"IL","ZIP":60618,"LATTITUDE":41.94565470973922,"ADDRESS":"3115 W EDDY ST 1ST ","YEAR":2005,"DOING_BUSINESS_AS_NAME":"ELSA MORENO","POP_AT_RISK":54033,"BUSINESS_TYPE":"Peddler, non-food","LEGAL_NAME":"ELSA MORENO","LONGITUDE":-87.70604979875498},
{"STATE":"IL","ZIP":60617,"LATTITUDE":41.73784885396959,"ADDRESS":"8643 S MANISTEE AVE  ","YEAR":2005,"DOING_BUSINESS_AS_NAME":"JOANN BURNS","POP_AT_RISK":245187,"BUSINESS_TYPE":"Peddler, non-food","LEGAL_NAME":"JOANN BURNS","LONGITUDE":-87.55737035361604},
{"STATE":"IL","ZIP":60624,"LATTITUDE":41.87985331680794,"ADDRESS":"4036 W MONROE ST  2","YEAR":2005,"DOING_BUSINESS_AS_NAME":"TONY HALLOM","POP_AT_RISK":236076,"BUSINESS_TYPE":"Peddler, non-food","LEGAL_NAME":"TONY HALLOM","LONGITUDE":-87.72713068819523},
{"STATE":"IL","ZIP":60628,"LATTITUDE":41.71161366965141,"ADDRESS":"937 E 100TH ST 1ST ","YEAR":2005,"DOING_BUSINESS_AS_NAME":"EMMETT MCKEE","POP_AT_RISK":36106,"BUSINESS_TYPE":"Peddler, non-food","LEGAL_NAME":"EMMETT MCKEE","LONGITUDE":-87.60036103617287},
{"STATE":"IL","ZIP":60644,"LATTITUDE":41.879210873223435,"ADDRESS":"5349 W MONROE ST  ","YEAR":2005,"DOING_BUSINESS_AS_NAME":"RAY C SAVAGE","POP_AT_RISK":331184,"BUSINESS_TYPE":"Peddler, non-food","LEGAL_NAME":"RAY C SAVAGE","LONGITUDE":-87.7594960431567},
{"STATE":"IL","ZIP":60612,"LATTITUDE":41.868309597823995,"ADDRESS":"2427 W FILLMORE ST  2","YEAR":2005,"DOING_BUSINESS_AS_NAME":"ROCIO MORENO","POP_AT_RISK":155345,"BUSINESS_TYPE":"Peddler, non-food","LEGAL_NAME":"ROCIO MORENO","LONGITUDE":-87.68718984394098},
{"STATE":"IL","ZIP":60625,"LATTITUDE":41.975292685361886,"ADDRESS":"5141 N LINCOLN AVE  ","YEAR":2005,"DOING_BUSINESS_AS_NAME":"CATHY STANLEY","POP_AT_RISK":109636,"BUSINESS_TYPE":"Peddler, non-food","LEGAL_NAME":"CATHY STANLEY","LONGITUDE":-87.69216050619893},
{"STATE":"IL","ZIP":60619,"LATTITUDE":41.755707510067595,"ADDRESS":"7630 S RHODES AVE  ","YEAR":2005,"DOING_BUSINESS_AS_NAME":"CYNTHIA  DAVIS","POP_AT_RISK":34793,"BUSINESS_TYPE":"Peddler, non-food","LEGAL_NAME":"CYNTHIA DAVIS","LONGITUDE":-87.61154836308229},
{"STATE":"IL","ZIP":60652,"LATTITUDE":41.74600478346717,"ADDRESS":"8101 S CHRISTIANA AVE  ","YEAR":2005,"DOING_BUSINESS_AS_NAME":"HILDA NEGRETE","POP_AT_RISK":81556,"BUSINESS_TYPE":"Peddler, non-food","LEGAL_NAME":"HILDA NEGRETE","LONGITUDE":-87.70580415705686},
{"STATE":"IL","ZIP":60632,"LATTITUDE":41.818686295979894,"ADDRESS":"4118 S ARTESIAN AVE  ","YEAR":2005,"DOING_BUSINESS_AS_NAME":"MARTINA PEREZ","POP_AT_RISK":509022,"BUSINESS_TYPE":"Peddler, non-food","LEGAL_NAME":"MARTINA PEREZ","LONGITUDE":-87.68613064332143},
{"STATE":"IL","ZIP":60630,"LATTITUDE":41.973470959587445,"ADDRESS":"5324 W CARMEN AVE 1 ","YEAR":2005,"DOING_BUSINESS_AS_NAME":"NAHED SALES","POP_AT_RISK":304632,"BUSINESS_TYPE":"Peddler, non-food","LEGAL_NAME":"NAHED A HAMAD","LONGITUDE":-87.761248371715},
{"STATE":"IL","ZIP":60616,"LATTITUDE":41.84426348697075,"ADDRESS":"2701 S DEARBORN ST  ","YEAR":2005,"DOING_BUSINESS_AS_NAME":"REGINA WALTON","POP_AT_RISK":361344,"BUSINESS_TYPE":"Peddler, non-food","LEGAL_NAME":"REGINA WALTON","LONGITUDE":-87.628299390012},
{"STATE":"IL","ZIP":60624,"LATTITUDE":41.877375453160894,"ADDRESS":"3418 W JACKSON BLVD  ","YEAR":2005,"DOING_BUSINESS_AS_NAME":"ROSIE LEE SIMMONS","POP_AT_RISK":65956,"BUSINESS_TYPE":"Peddler, non-food","LEGAL_NAME":"ROSIE SIMMONS","LONGITUDE":-87.71169882612467},
{"STATE":"IL","ZIP":60639,"LATTITUDE":41.9240361389609,"ADDRESS":"5053 W FULLERTON AVE  ","YEAR":2005,"DOING_BUSINESS_AS_NAME":"DORIS COSTELLO","POP_AT_RISK":147280,"BUSINESS_TYPE":"Peddler, non-food","LEGAL_NAME":"DORIS COSTELLO","LONGITUDE":-87.75332846282431},
{"STATE":"IL","ZIP":60651,"LATTITUDE":41.902295630968375,"ADDRESS":"5414 W DIVISION ST  ","YEAR":2005,"DOING_BUSINESS_AS_NAME":"PHENOMENAL CLASSIC FABRICS","POP_AT_RISK":426064,"BUSINESS_TYPE":"Peddler, non-food","LEGAL_NAME":"JAMIN T JADDUA","LONGITUDE":-87.76160313518629},
{"STATE":"IL","ZIP":60647,"LATTITUDE":41.925806442151554,"ADDRESS":"2443 N SPRINGFIELD AVE  ","YEAR":2005,"DOING_BUSINESS_AS_NAME":"JUAN C. PINEDA","POP_AT_RISK":150060,"BUSINESS_TYPE":"Peddler, non-food","LEGAL_NAME":"JUAN C. PINEDA","LONGITUDE":-87.7242162761996},
{"STATE":"IL","ZIP":60641,"LATTITUDE":41.946392069273905,"ADDRESS":"4256 W ADDISON ST  2","YEAR":2005,"DOING_BUSINESS_AS_NAME":"KLEDIS MEMISHI","POP_AT_RISK":581680,"BUSINESS_TYPE":"Peddler, non-food","LEGAL_NAME":"KLEDIS MEMISHI","LONGITUDE":-87.73440670312719},
{"STATE":"IL","ZIP":60629,"LATTITUDE":41.77330873916035,"ADDRESS":"3948 W 66TH ST  ","YEAR":2005,"DOING_BUSINESS_AS_NAME":"LIDIA SULLIVAN","POP_AT_RISK":93130,"BUSINESS_TYPE":"Peddler, non-food","LEGAL_NAME":"LIDIA SULLIVAN","LONGITUDE":-87.72212358937378},
{"STATE":"IL","ZIP":60649,"LATTITUDE":41.76122692357528,"ADDRESS":"7412 S COLES AVE  ","YEAR":2005,"DOING_BUSINESS_AS_NAME":"MAGGIE  JENKINS","POP_AT_RISK":299700,"BUSINESS_TYPE":"Peddler, non-food","LEGAL_NAME":"MAGGIE JENKINS","LONGITUDE":-87.56008959783705},
{"STATE":"IL","ZIP":60629,"LATTITUDE":41.792076999862985,"ADDRESS":"5555 S CALIFORNIA AVE  ","YEAR":2005,"DOING_BUSINESS_AS_NAME":"MARIA   S   CORRAL","POP_AT_RISK":309370,"BUSINESS_TYPE":"Peddler, non-food","LEGAL_NAME":"MARIA S CORRAL","LONGITUDE":-87.6936061987932},
{"STATE":"IL","ZIP":60634,"LATTITUDE":41.9354505488483,"ADDRESS":"3032 N SAYRE AVE  1","YEAR":2005,"DOING_BUSINESS_AS_NAME":"RIDVAN MUSTAFA","POP_AT_RISK":161084,"BUSINESS_TYPE":"Peddler, non-food","LEGAL_NAME":"RIDVAN MUSTAFA","LONGITUDE":-87.8012802189826},
{"STATE":"IL","ZIP":60629,"LATTITUDE":41.78284958138877,"ADDRESS":"6058 S CALIFORNIA AVE  ","YEAR":2005,"DOING_BUSINESS_AS_NAME":"Willie M. Tate","POP_AT_RISK":58308,"BUSINESS_TYPE":"Peddler, non-food","LEGAL_NAME":"Willie M. Tate","LONGITUDE":-87.69364718956687},
{"STATE":"IL","ZIP":60646,"LATTITUDE":42.00755189230276,"ADDRESS":"6944 N WILDWOOD AVE  ","YEAR":2005,"DOING_BUSINESS_AS_NAME":"DALE M. SALZMAN","POP_AT_RISK":32259,"BUSINESS_TYPE":"Peddler, non-food","LEGAL_NAME":"DALE M. SALZMAN","LONGITUDE":-87.77176252526428},
{"STATE":"IL","ZIP":60660,"LATTITUDE":41.984925162454765,"ADDRESS":"5655 N CLARK ST  172","YEAR":2005,"DOING_BUSINESS_AS_NAME":"HERIBERTO NUNEZ","POP_AT_RISK":1075635,"BUSINESS_TYPE":"Peddler, non-food","LEGAL_NAME":"HERIBERTO NUNEZ","LONGITUDE":-87.66891810315875},
{"STATE":"IL","ZIP":60612,"LATTITUDE":41.8670398874297,"ADDRESS":"1140 S FRANCISCO AVE  ","YEAR":2005,"DOING_BUSINESS_AS_NAME":"JUANITA J MAJOR","POP_AT_RISK":130456,"BUSINESS_TYPE":"Peddler, non-food","LEGAL_NAME":"JUANITA J MAJOR","LONGITUDE":-87.69850757342911},
{"STATE":"IL","ZIP":60626,"LATTITUDE":42.00608644356681,"ADDRESS":"6822 N ASHLAND BLVD  ","YEAR":2005,"DOING_BUSINESS_AS_NAME":"TINA D BONNEY","POP_AT_RISK":77177,"BUSINESS_TYPE":"Peddler, non-food","LEGAL_NAME":"TINA   D BONNEY","LONGITUDE":-87.67011989773252},
{"STATE":"IL","ZIP":60619,"LATTITUDE":41.75120791545852,"ADDRESS":"7904 S KIMBARK AVE  ","YEAR":2005,"DOING_BUSINESS_AS_NAME":"KEVIN R DESPIAU","POP_AT_RISK":111927,"BUSINESS_TYPE":"Peddler, non-food","LEGAL_NAME":"Kevin R. Despiau","LONGITUDE":-87.59319370157681},
{"STATE":"IL","ZIP":60643,"LATTITUDE":41.68709068364194,"ADDRESS":"1743 W STEUBEN ST  ","YEAR":2005,"DOING_BUSINESS_AS_NAME":"LARDELL WILLIAMS","POP_AT_RISK":106320,"BUSINESS_TYPE":"Peddler, non-food","LEGAL_NAME":"LARDELL WILLIAMS","LONGITUDE":-87.6650832871199},
{"STATE":"IL","ZIP":60628,"LATTITUDE":41.69924011203312,"ADDRESS":"10722 S INDIANA AVE 1ST ","YEAR":2005,"DOING_BUSINESS_AS_NAME":"VINCENT DAVIDSON","POP_AT_RISK":141312,"BUSINESS_TYPE":"Peddler, non-food","LEGAL_NAME":"VINCENT DAVIDSON","LONGITUDE":-87.6185771474817},
{"STATE":"IL","ZIP":60621,"LATTITUDE":41.76045730464199,"ADDRESS":"7335 S SANGAMON ST  ","YEAR":2005,"DOING_BUSINESS_AS_NAME":"ALBERT D. COLLINS","POP_AT_RISK":72650,"BUSINESS_TYPE":"Peddler, non-food","LEGAL_NAME":"ALBERT D. COLLINS","LONGITUDE":-87.64778500875661},
{"STATE":"IL","ZIP":60651,"LATTITUDE":41.90743072425332,"ADDRESS":"3354 W BEACH AVE  ","YEAR":2005,"DOING_BUSINESS_AS_NAME":"ANTONIO T. LEGRIER","POP_AT_RISK":58034,"BUSINESS_TYPE":"Peddler, non-food","LEGAL_NAME":"ANTONIO T LEGRIER","LONGITUDE":-87.7115498949501},
{"STATE":"IL","ZIP":60620,"LATTITUDE":41.753295023074756,"ADDRESS":"7729 S ABERDEEN ST 2 ","YEAR":2005,"DOING_BUSINESS_AS_NAME":"BARBARA R JACKSON","POP_AT_RISK":132612,"BUSINESS_TYPE":"Peddler, non-food","LEGAL_NAME":"BARBARA R JACKSON","LONGITUDE":-87.65123991095291},
{"STATE":"IL","ZIP":60625,"LATTITUDE":41.96947968395888,"ADDRESS":"4831 N WASHTENAW AVE  3N","YEAR":2005,"DOING_BUSINESS_AS_NAME":"DIMITRIOS MITALAS","POP_AT_RISK":68200,"BUSINESS_TYPE":"Peddler, non-food","LEGAL_NAME":"DIMITRIOS MITALAS","LONGITUDE":-87.69612521274563},
{"STATE":"IL","ZIP":60625,"LATTITUDE":41.96823912243996,"ADDRESS":"4755 N SAWYER AVE  ","YEAR":2005,"DOING_BUSINESS_AS_NAME":"RAJI AYYAD","POP_AT_RISK":456726,"BUSINESS_TYPE":"Peddler, non-food","LEGAL_NAME":"RAJI BRAHEM AYYAD","LONGITUDE":-87.70953758234023},
{"STATE":"IL","ZIP":60615,"LATTITUDE":41.79966351340591,"ADDRESS":"5226 S DREXEL AVE  A","YEAR":2005,"DOING_BUSINESS_AS_NAME":"ARLEISHA R HAYWOOD","POP_AT_RISK":621795,"BUSINESS_TYPE":"Peddler, non-food","LEGAL_NAME":"ARLEISHA R HAYWOOD","LONGITUDE":-87.60407147154108},
{"STATE":"IL","ZIP":60637,"LATTITUDE":41.781521130486816,"ADDRESS":"6223 S COTTAGE GROVE AVE  2W","YEAR":2005,"DOING_BUSINESS_AS_NAME":"DAUPHINE R GREGORY","POP_AT_RISK":303561,"BUSINESS_TYPE":"Peddler, non-food","LEGAL_NAME":"DAUPHINE R GREGORY","LONGITUDE":-87.60580957635824},
{"STATE":"IL","ZIP":60621,"LATTITUDE":41.762432160599054,"ADDRESS":"7232 S UNION AVE  ","YEAR":2005,"DOING_BUSINESS_AS_NAME":"DUANE H. LEWIS","POP_AT_RISK":32485,"BUSINESS_TYPE":"Peddler, non-food","LEGAL_NAME":"DUANE H. LEWIS SR.","LONGITUDE":-87.64162214466393},
{"STATE":"IL","ZIP":60623,"LATTITUDE":41.83991964876658,"ADDRESS":"2831 S SAWYER AVE  ","YEAR":2005,"DOING_BUSINESS_AS_NAME":"JAVIER J. TLAXCALA","POP_AT_RISK":793182,"BUSINESS_TYPE":"Peddler, non-food","LEGAL_NAME":"JAVIER J. TLAXCALA","LONGITUDE":-87.70597507414911},
{"STATE":"IL","ZIP":60609,"LATTITUDE":41.81944142629576,"ADDRESS":"4100 S ASHLAND AVE  506A","YEAR":2005,"DOING_BUSINESS_AS_NAME":"MARIA E. HERNANDEZ","POP_AT_RISK":61020,"BUSINESS_TYPE":"Peddler, non-food","LEGAL_NAME":"MARIA E. HERNANDEZ","LONGITUDE":-87.6653755449091},
{"STATE":"IL","ZIP":60651,"LATTITUDE":41.90627613595271,"ADDRESS":"3531 W HIRSCH ST  ","YEAR":2005,"DOING_BUSINESS_AS_NAME":"BALTAZAR S. CORCINO","POP_AT_RISK":50038,"BUSINESS_TYPE":"Peddler, non-food","LEGAL_NAME":"BALTAZAR S. CORCINO","LONGITUDE":-87.71549641101178},
{"STATE":"IL","ZIP":60628,"LATTITUDE":41.71056204638533,"ADDRESS":"10105 S LA SALLE ST  ","YEAR":2005,"DOING_BUSINESS_AS_NAME":"DELORES E SHOEMATE","POP_AT_RISK":60262,"BUSINESS_TYPE":"Peddler, non-food","LEGAL_NAME":"DELORES E. SHOEMATE","LONGITUDE":-87.62705190239282},
{"STATE":"IL","ZIP":60639,"LATTITUDE":41.92010072010418,"ADDRESS":"2150 N LOREL AVE 2 ","YEAR":2005,"DOING_BUSINESS_AS_NAME":"ESGAR","POP_AT_RISK":60251,"BUSINESS_TYPE":"Peddler, non-food","LEGAL_NAME":"ESGAR C BLANCAS SR.","LONGITUDE":-87.75985947811252},
{"STATE":"IL","ZIP":60621,"LATTITUDE":41.79270131919078,"ADDRESS":"5558 S PRINCETON AVE  ","YEAR":2005,"DOING_BUSINESS_AS_NAME":"RODERICK M. FRAZIER","POP_AT_RISK":47852,"BUSINESS_TYPE":"Peddler, non-food","LEGAL_NAME":"RODERICK M. FRAZIER","LONGITUDE":-87.63309688716983},
{"STATE":"IL","ZIP":60619,"LATTITUDE":41.76085754359238,"ADDRESS":"7351 S KENWOOD AVE 2ND ","YEAR":2005,"DOING_BUSINESS_AS_NAME":"CHARLOTTE A. HOUSTON","POP_AT_RISK":98913,"BUSINESS_TYPE":"Peddler, non-food","LEGAL_NAME":"CHARLOTTE A. HOUSTON","LONGITUDE":-87.59192911830641},
{"STATE":"IL","ZIP":60622,"LATTITUDE":41.90613379668933,"ADDRESS":"1956 W EVERGREEN AVE  ","YEAR":2005,"DOING_BUSINESS_AS_NAME":"CHRISTOPHER M METZFER","POP_AT_RISK":1482558,"BUSINESS_TYPE":"Peddler, non-food","LEGAL_NAME":"CHRISTOPHER M METZFER","LONGITUDE":-87.67636232177401},
{"STATE":"IL","ZIP":60621,"LATTITUDE":41.79191646609541,"ADDRESS":"5616 S EMERALD AVE 2ND ","YEAR":2005,"DOING_BUSINESS_AS_NAME":"IMOGENE CARSON FRENCH","POP_AT_RISK":195480,"BUSINESS_TYPE":"Peddler, non-food","LEGAL_NAME":"IMOGENE CARSON FRENCH","LONGITUDE":-87.64402809729106},
}