{
{"STATE":"IL","ZIP":60660,"LATTITUDE":41.99326388349249,"ADDRESS":"6130 N SHERIDAN RD  ","YEAR":2012,"DOING_BUSINESS_AS_NAME":"KINDRED CHICAGO-LAKESHORE","POP_AT_RISK":738010,"BUSINESS_TYPE":"Hospital","LEGAL_NAME":"THC-CHICAGO, INC","LONGITUDE":-87.65563353046953},
{"STATE":"IL","ZIP":60641,"LATTITUDE":41.94008298285754,"ADDRESS":"4058 W MELROSE ST  ","YEAR":2012,"DOING_BUSINESS_AS_NAME":"KINDRED CHICAGO-CENTRAL HOSPITAL","POP_AT_RISK":969232,"BUSINESS_TYPE":"Hospital","LEGAL_NAME":"THC-CHICAGO, INC","LONGITUDE":-87.72954609719962},
{"STATE":"IL","ZIP":60618,"LATTITUDE":41.961394983299115,"ADDRESS":"2544 W MONTROSE AVE  ","YEAR":2012,"DOING_BUSINESS_AS_NAME":"KINDRED HOSPITAL CHICAGO-NORTH CAMPUS","POP_AT_RISK":409458,"BUSINESS_TYPE":"Hospital","LEGAL_NAME":"THC-CHICAGO, INC","LONGITUDE":-87.6929262371129},
{"STATE":"IL","ZIP":60629,"LATTITUDE":41.76992924229612,"ADDRESS":"2701 W 68TH ST  ","YEAR":2012,"DOING_BUSINESS_AS_NAME":"HOLY CROSS HOSPITAL","POP_AT_RISK":462130,"BUSINESS_TYPE":"Hospital","LEGAL_NAME":"HOLY CROSS HOSPITAL","LONGITUDE":-87.69084133894114},
{"STATE":"IL","ZIP":60649,"LATTITUDE":41.757815422071765,"ADDRESS":"7531 S STONY ISLAND AVE  264","YEAR":2012,"DOING_BUSINESS_AS_NAME":"JACKSON PARK HOSPITAL","POP_AT_RISK":340029,"BUSINESS_TYPE":"Hospital","LEGAL_NAME":"JACKSON PARK HOSPITAL","LONGITUDE":-87.58556922151126},
{"STATE":"IL","ZIP":60623,"LATTITUDE":41.85540289350027,"ADDRESS":"2875 W 19TH ST  1","YEAR":2012,"DOING_BUSINESS_AS_NAME":"ST. ANTHONY HOSPITAL","POP_AT_RISK":196388,"BUSINESS_TYPE":"Hospital","LEGAL_NAME":"SAINT ANTHONY HOSPITAL","LONGITUDE":-87.69870754487314},
{"STATE":"IL","ZIP":60624,"LATTITUDE":41.89056922593429,"ADDRESS":"520 N RIDGEWAY AVE  1","YEAR":2012,"DOING_BUSINESS_AS_NAME":"HARTGROVE HOSPITAL","POP_AT_RISK":117903,"BUSINESS_TYPE":"Hospital","LEGAL_NAME":"UHS OF HARTGROVE, INC.","LONGITUDE":-87.71998387578803},
{"STATE":"IL","ZIP":60644,"LATTITUDE":41.86565488609488,"ADDRESS":"5730 W ROOSEVELT RD  ","YEAR":2012,"DOING_BUSINESS_AS_NAME":"HARTGROVE HOSPITAL","POP_AT_RISK":144861,"BUSINESS_TYPE":"Hospital","LEGAL_NAME":"UHS OF HARTGROVE, INC.","LONGITUDE":-87.76805077897151},
{"STATE":"IL","ZIP":60613,"LATTITUDE":41.95464082537165,"ADDRESS":"850 W IRVING PARK RD  1","YEAR":2012,"DOING_BUSINESS_AS_NAME":"THOREK MEMORIAL HOSPITAL","POP_AT_RISK":377725,"BUSINESS_TYPE":"Hospital","LEGAL_NAME":"THOREK MEMORIAL HOSPITAL","LONGITUDE":-87.65156901235385},
{"STATE":"IL","ZIP":60617,"LATTITUDE":41.74945060417943,"ADDRESS":"8012 S CRANDON AVE 1ST ","YEAR":2012,"DOING_BUSINESS_AS_NAME":"SOUTH SHORE HOSPITAL","POP_AT_RISK":264684,"BUSINESS_TYPE":"Hospital","LEGAL_NAME":"SOUTH SHORE HOSPITAL CORP","LONGITUDE":-87.5687786244394},
{"STATE":"IL","ZIP":60625,"LATTITUDE":41.97533413581096,"ADDRESS":"5145 N CALIFORNIA AVE  ","YEAR":2012,"DOING_BUSINESS_AS_NAME":"SWEDISH COVENANT HOSPITAL","POP_AT_RISK":417445,"BUSINESS_TYPE":"Hospital","LEGAL_NAME":"SWEDISH COVENANT HOSPITAL","LONGITUDE":-87.69875687452328},
{"STATE":"IL","ZIP":60640,"LATTITUDE":41.97325400916783,"ADDRESS":"5025 N PAULINA ST  ","YEAR":2012,"DOING_BUSINESS_AS_NAME":"METHODIST HOSPITAL OF CHICAGO","POP_AT_RISK":273910,"BUSINESS_TYPE":"Hospital","LEGAL_NAME":"METHODIST HOSPITAL OF CHICAGO","LONGITUDE":-87.67099338741193},
{"STATE":"IL","ZIP":60612,"LATTITUDE":41.87499492139062,"ADDRESS":"1753 W CONGRESS PKWY  ","YEAR":2012,"DOING_BUSINESS_AS_NAME":"RUSH CHILDREN'S SERVICES","POP_AT_RISK":67688,"BUSINESS_TYPE":"Hospital","LEGAL_NAME":"RUSH UNIVERSITY MEDICAL CENTER","LONGITUDE":-87.67126464972608},
{"STATE":"IL","ZIP":60612,"LATTITUDE":41.87503334144109,"ADDRESS":"1653 W CONGRESS PKWY POB III 364","YEAR":2012,"DOING_BUSINESS_AS_NAME":"RUSH UNIVERSITY MEDICAL CENTER","POP_AT_RISK":30712,"BUSINESS_TYPE":"Hospital","LEGAL_NAME":"RUSH UNIVERSITY MEDICAL CENTER","LONGITUDE":-87.66875300130346},
{"STATE":"IL","ZIP":60707,"LATTITUDE":41.920336171536384,"ADDRESS":"2211 N OAK PARK AVE  ","YEAR":2012,"DOING_BUSINESS_AS_NAME":"SHRINERS HOSPITALS FOR CHILDREN","POP_AT_RISK":289898,"BUSINESS_TYPE":"Hospital","LEGAL_NAME":"SHRINERS HOSPITALS FOR CHILDREN","LONGITUDE":-87.7949943024895},
{"STATE":"IL","ZIP":60616,"LATTITUDE":41.847231123487234,"ADDRESS":"2510 S DR MARTIN LUTHER KING JR DR  ","YEAR":2012,"DOING_BUSINESS_AS_NAME":"MERCY HOSPITAL\/MEDICAL CENTER","POP_AT_RISK":452738,"BUSINESS_TYPE":"Hospital","LEGAL_NAME":"MERCY HOSPITAL AND MEDICAL CENTER","LONGITUDE":-87.61785599314607},
{"STATE":"IL","ZIP":60622,"LATTITUDE":41.900524957170965,"ADDRESS":"1044 N FRANCISCO AVE # 1","YEAR":2012,"DOING_BUSINESS_AS_NAME":"NORWEGIAN-AMERICIAN HOSPITAL","POP_AT_RISK":189828,"BUSINESS_TYPE":"Hospital","LEGAL_NAME":"NORWEGIAN AMERICAN HOSPITAL, INC.","LONGITUDE":-87.69943295362468},
{"STATE":"IL","ZIP":60657,"LATTITUDE":41.93645016758182,"ADDRESS":"836 W WELLINGTON AVE # 1","YEAR":2012,"DOING_BUSINESS_AS_NAME":"ADVOCATE ILLINOIS MASONIC MEDICAL CENTER","POP_AT_RISK":316488,"BUSINESS_TYPE":"Hospital","LEGAL_NAME":"ADVOCATE NORTH SIDE HEALTH NETWORK","LONGITUDE":-87.65055245204128},
{"STATE":"IL","ZIP":60621,"LATTITUDE":41.77821515610851,"ADDRESS":"326 W 64TH ST 1ST ","YEAR":2012,"DOING_BUSINESS_AS_NAME":"ST BERNARD HOSPITAL & HEALTH CENTER","POP_AT_RISK":254214,"BUSINESS_TYPE":"Hospital","LEGAL_NAME":"ST BERNARD HOSPITAL & HEALTH CENTER","LONGITUDE":-87.63346442603714},
{"STATE":"IL","ZIP":60631,"LATTITUDE":41.98857518279947,"ADDRESS":"7435 W TALCOTT AVE 1ST ","YEAR":2012,"DOING_BUSINESS_AS_NAME":"PRESENCE RESURRECTION MEDICAL CENTER","POP_AT_RISK":108720,"BUSINESS_TYPE":"Hospital","LEGAL_NAME":"PRESENCE RESURRECTION MEDICAL CENTER","LONGITUDE":-87.81297791219501},
{"STATE":"IL","ZIP":60628,"LATTITUDE":41.692452920668444,"ADDRESS":"45 W 111TH ST  1","YEAR":2012,"DOING_BUSINESS_AS_NAME":"ROSELAND COMMUNITY HOSPITAL","POP_AT_RISK":310698,"BUSINESS_TYPE":"Hospital","LEGAL_NAME":"ROSELAND COMMUNITY HOSPITAL ASSOCIATION","LONGITUDE":-87.62487641934587},
{"STATE":"IL","ZIP":60624,"LATTITUDE":41.87532906210967,"ADDRESS":"3435 W VAN BUREN ST 1 1","YEAR":2012,"DOING_BUSINESS_AS_NAME":"RML CHICAGO","POP_AT_RISK":207640,"BUSINESS_TYPE":"Hospital","LEGAL_NAME":"RML HEALTH PROVIDERS LIMITED PARTNERSHIP","LONGITUDE":-87.71214702805145},
{"STATE":"IL","ZIP":60637,"LATTITUDE":41.78961184518281,"ADDRESS":"5758 S MARYLAND AVE  ","YEAR":2012,"DOING_BUSINESS_AS_NAME":"DUCHOSSOIS CENTER FOR ADVANCED MEDICINE","POP_AT_RISK":46160,"BUSINESS_TYPE":"Hospital","LEGAL_NAME":"THE UNIVERSITY OF CHICAGO MEDICAL CENTER","LONGITUDE":-87.60508472212474},
{"STATE":"IL","ZIP":60617,"LATTITUDE":41.726329231442904,"ADDRESS":"2320 E 93RD ST  ","YEAR":2012,"DOING_BUSINESS_AS_NAME":"ADVOCATE TRINITY HOSPITAL","POP_AT_RISK":123864,"BUSINESS_TYPE":"Hospital","LEGAL_NAME":"ADVOCATE HEALTH AND HOSPITALS CORPORATION","LONGITUDE":-87.56727090823563},
{"STATE":"IL","ZIP":60622,"LATTITUDE":41.907627207523525,"ADDRESS":"1431 N CLAREMONT AVE  1","YEAR":2012,"DOING_BUSINESS_AS_NAME":"PRESENCE SAINT ELIZABETH HOSPITAL","POP_AT_RISK":277916,"BUSINESS_TYPE":"Hospital","LEGAL_NAME":"PRESENCE SAINTS MARY AND ELIZABETH MEDICAL CENTER","LONGITUDE":-87.68578575863826},
{"STATE":"IL","ZIP":60622,"LATTITUDE":41.90297191226172,"ADDRESS":"2233 W DIVISION ST 1ST ","YEAR":2012,"DOING_BUSINESS_AS_NAME":"PRESENCE SAINT MARY OF NAZARETH HOSPITAL","POP_AT_RISK":293232,"BUSINESS_TYPE":"Hospital","LEGAL_NAME":"PRESENCE SAINTS MARY AND ELIZABETH MEDICAL CENTER","LONGITUDE":-87.68348493134597},
{"STATE":"IL","ZIP":60614,"LATTITUDE":41.92447447787659,"ADDRESS":"2300 N CHILDRENS PLZ # 1ST","YEAR":2012,"DOING_BUSINESS_AS_NAME":"CHILDREN'S MEMORIAL HOSPITAL","POP_AT_RISK":518049,"BUSINESS_TYPE":"Hospital","LEGAL_NAME":"ANN & ROBERT H. LURIE CHILDREN'S HOSPITAL OF CHICAGO","LONGITUDE":-87.64736629825727},
{"STATE":"IL","ZIP":60634,"LATTITUDE":41.94574757468233,"ADDRESS":"5645 W ADDISON ST  ","YEAR":2012,"DOING_BUSINESS_AS_NAME":"PRESENCE OUR LADY OF THE RESURRECTION","POP_AT_RISK":643308,"BUSINESS_TYPE":"Hospital","LEGAL_NAME":"PRESENCE OUR LADY OF THE RESURRECTION MEDICAL CENTER","LONGITUDE":-87.7685382793401},
}