{
{"STATE":"IL","ZIP":60634,"LATTITUDE":41.93796213860232,"ADDRESS":"7009 W BELMONT AVE 1ST ","YEAR":2009,"DOING_BUSINESS_AS_NAME":"MONTCLARE DIALYSIS","POP_AT_RISK":397269,"BUSINESS_TYPE":"Laboratories","LEGAL_NAME":"TOTAL RENAL CARE, INC","LONGITUDE":-87.80161720257367},
{"STATE":"IL","ZIP":60629,"LATTITUDE":41.785820612753135,"ADDRESS":"4009 W 59TH ST 1ST ","YEAR":2009,"DOING_BUSINESS_AS_NAME":"MACNEAL HOSPITAL","POP_AT_RISK":663552,"BUSINESS_TYPE":"Laboratories","LEGAL_NAME":"VHS OF ILLINOIS, INC.","LONGITUDE":-87.72338914879845},
{"STATE":"IL","ZIP":60623,"LATTITUDE":41.842091114224644,"ADDRESS":"2709 S PULASKI RD 1ST ","YEAR":2009,"DOING_BUSINESS_AS_NAME":"MACNEAL HOSPITAL","POP_AT_RISK":60027,"BUSINESS_TYPE":"Laboratories","LEGAL_NAME":"VHS OF ILLINOIS, INC.","LONGITUDE":-87.72434614567167},
{"STATE":"IL","ZIP":60632,"LATTITUDE":41.809108968421576,"ADDRESS":"4626 S KEDZIE AVE 1ST ","YEAR":2009,"DOING_BUSINESS_AS_NAME":"MACNEAL HOSPITAL","POP_AT_RISK":524788,"BUSINESS_TYPE":"Laboratories","LEGAL_NAME":"VHS OF ILLINOIS, INC.","LONGITUDE":-87.70416110230349},
{"STATE":"IL","ZIP":60645,"LATTITUDE":42.01523482238855,"ADDRESS":"7337 N WESTERN AVE 1ST FLOOR 1","YEAR":2009,"DOING_BUSINESS_AS_NAME":"US DIAGNOSTICS LAB INC.","POP_AT_RISK":169695,"BUSINESS_TYPE":"Laboratories","LEGAL_NAME":"US DIAGNOSTICS LAB INC.","LONGITUDE":-87.69007076977955},
{"STATE":"IL","ZIP":60638,"LATTITUDE":41.79222059801244,"ADDRESS":"6858 W ARCHER AVE  ","YEAR":2009,"DOING_BUSINESS_AS_NAME":"CENTRAL CLINICAL LABS INC","POP_AT_RISK":75188,"BUSINESS_TYPE":"Laboratories","LEGAL_NAME":"CENTRAL CLINICAL LABS INC","LONGITUDE":-87.79396013374578},
{"STATE":"IL","ZIP":60625,"LATTITUDE":41.968527625160185,"ADDRESS":"3324 W LAWRENCE AVE  ","YEAR":2009,"DOING_BUSINESS_AS_NAME":"INTERSTATE BLOOD BANK INC","POP_AT_RISK":1136790,"BUSINESS_TYPE":"Laboratories","LEGAL_NAME":"INTERSTATE BLOOD BANK INC","LONGITUDE":-87.71200420196357},
{"STATE":"IL","ZIP":60630,"LATTITUDE":41.97806401247451,"ADDRESS":"5330 N ELSTON AVE 1ST ","YEAR":2009,"DOING_BUSINESS_AS_NAME":"METROMED LABORATORIES INC","POP_AT_RISK":95208,"BUSINESS_TYPE":"Laboratories","LEGAL_NAME":"METROMED LABORATORIES INC","LONGITUDE":-87.75656137533555},
{"STATE":"IL","ZIP":60623,"LATTITUDE":41.85188848282105,"ADDRESS":"3138 W CERMAK RD 1ST ","YEAR":2009,"DOING_BUSINESS_AS_NAME":"MEDWAY \/ AMERIPAK","POP_AT_RISK":523044,"BUSINESS_TYPE":"Laboratories","LEGAL_NAME":"MEDWAY DIAGNOSTIC LABS INC.","LONGITUDE":-87.7042820268433},
{"STATE":"IL","ZIP":60605,"LATTITUDE":41.8656758723776,"ADDRESS":"1300 S WABASH AVE  2ND F","YEAR":2009,"DOING_BUSINESS_AS_NAME":"ACCU-LAB MEDICAL TESTING, INC.","POP_AT_RISK":78982,"BUSINESS_TYPE":"Laboratories","LEGAL_NAME":"ACCU-LAB MEDICAL TESTING INC","LONGITUDE":-87.625943531346},
{"STATE":"IL","ZIP":60660,"LATTITUDE":41.99793942630209,"ADDRESS":"6353 N BROADWAY   ","YEAR":2009,"DOING_BUSINESS_AS_NAME":"PLANNED PARENTHOOD\/CHICAGO AREA","POP_AT_RISK":1268438,"BUSINESS_TYPE":"Laboratories","LEGAL_NAME":"PLANNED PARENTHOOD OF ILLINOIS","LONGITUDE":-87.6603716036534},
{"STATE":"IL","ZIP":60628,"LATTITUDE":41.68903437009135,"ADDRESS":"11250 S HALSTED ST  ","YEAR":2009,"DOING_BUSINESS_AS_NAME":"PLANNED PARENTHOOD\/CHICAGO AREA","POP_AT_RISK":54194,"BUSINESS_TYPE":"Laboratories","LEGAL_NAME":"PLANNED PARENTHOOD OF ILLINOIS","LONGITUDE":-87.64242319439414},
{"STATE":"IL","ZIP":60651,"LATTITUDE":41.894623059786724,"ADDRESS":"5937 W CHICAGO AVE  ","YEAR":2009,"DOING_BUSINESS_AS_NAME":"PLANNED PARENTHOOD\/CHICAGO AREA","POP_AT_RISK":302099,"BUSINESS_TYPE":"Laboratories","LEGAL_NAME":"PLANNED PARENTHOOD OF ILLINOIS","LONGITUDE":-87.77378271058993},
{"STATE":"IL","ZIP":60636,"LATTITUDE":41.78320283028375,"ADDRESS":"6059 S ASHLAND AVE  ","YEAR":2009,"DOING_BUSINESS_AS_NAME":"PLANNED PARENTHOOD\/CHICAGO AREA","POP_AT_RISK":579904,"BUSINESS_TYPE":"Laboratories","LEGAL_NAME":"PLANNED PARENTHOOD OF ILLINOIS","LONGITUDE":-87.66416452684764},
{"STATE":"IL","ZIP":60642,"LATTITUDE":41.902561612837594,"ADDRESS":"1152 N MILWAUKEE AVE  ","YEAR":2009,"DOING_BUSINESS_AS_NAME":"PLANNED PARENTHOOD\/CHICAGO AREA","POP_AT_RISK":688744,"BUSINESS_TYPE":"Laboratories","LEGAL_NAME":"PLANNED PARENTHOOD OF ILLINOIS","LONGITUDE":-87.6654596337037},
{"STATE":"IL","ZIP":60603,"LATTITUDE":41.88165873896031,"ADDRESS":"18 S MICHIGAN AVE 6 ","YEAR":2009,"DOING_BUSINESS_AS_NAME":"PLANNED PARENTHOOD\/ CHICAGO AREA","POP_AT_RISK":188328,"BUSINESS_TYPE":"Laboratories","LEGAL_NAME":"PLANNED PARENTHOOD OF ILLINOIS","LONGITUDE":-87.62450009856119},
{"STATE":"IL","ZIP":60610,"LATTITUDE":41.903969211264624,"ADDRESS":"1200 N LA SALLE DR  1ST","YEAR":2009,"DOING_BUSINESS_AS_NAME":"PLANNED PARENTHOOD ASSOCIATION\/CHICAGO AREA","POP_AT_RISK":81861,"BUSINESS_TYPE":"Laboratories","LEGAL_NAME":"PLANNED PARENTHOOD OF ILLINOIS","LONGITUDE":-87.6330707106653},
{"STATE":"IL","ZIP":60640,"LATTITUDE":41.96525232037537,"ADDRESS":"1824 W WILSON AVE  ","YEAR":2009,"DOING_BUSINESS_AS_NAME":"DOCTORS CLINCAL LABORATORY INC","POP_AT_RISK":505287,"BUSINESS_TYPE":"Laboratories","LEGAL_NAME":"DOCTORS CLINICAL LABORATORY INC","LONGITUDE":-87.67570199658167},
{"STATE":"IL","ZIP":60643,"LATTITUDE":41.68833907674344,"ADDRESS":"11250 S WESTERN AVE 1ST ","YEAR":2009,"DOING_BUSINESS_AS_NAME":"MIDWEST PHY CTR OF MED & SUR","POP_AT_RISK":58808,"BUSINESS_TYPE":"Laboratories","LEGAL_NAME":"MIDWEST PHYSICIAN GROUP LIMITED.","LONGITUDE":-87.6811933929709},
{"STATE":"IL","ZIP":60616,"LATTITUDE":41.83619637346004,"ADDRESS":"3201 S WALLACE ST 1ST ","YEAR":2009,"DOING_BUSINESS_AS_NAME":"MIDWEST PHY CTR OF BRIDGEPORT","POP_AT_RISK":467484,"BUSINESS_TYPE":"Laboratories","LEGAL_NAME":"MIDWEST PHYSICIAN GROUP LIMITED.","LONGITUDE":-87.64121855709443},
{"STATE":"IL","ZIP":60612,"LATTITUDE":41.87171470637883,"ADDRESS":"1634 W POLK ST  ","YEAR":2009,"DOING_BUSINESS_AS_NAME":"LAB CORP","POP_AT_RISK":175944,"BUSINESS_TYPE":"Laboratories","LEGAL_NAME":"LABORATORY CORPORATION OF AMERICA","LONGITUDE":-87.6679624082962},
{"STATE":"IL","ZIP":60628,"LATTITUDE":41.68557088399864,"ADDRESS":"556 E 115TH ST 1ST ","YEAR":2009,"DOING_BUSINESS_AS_NAME":"CHICAGO FAMILY HEALTH CENTER","POP_AT_RISK":13745,"BUSINESS_TYPE":"Laboratories","LEGAL_NAME":"CHICAGO FAMILY HEALTH CENTER, INC.","LONGITUDE":-87.60933022434682},
{"STATE":"IL","ZIP":60617,"LATTITUDE":41.72945712008797,"ADDRESS":"9119 S EXCHANGE AVE  ","YEAR":2009,"DOING_BUSINESS_AS_NAME":"CHICAGO FAMILY MEDICAL CENTER","POP_AT_RISK":88510,"BUSINESS_TYPE":"Laboratories","LEGAL_NAME":"CHICAGO FAMILY HEALTH CENTER, INC.","LONGITUDE":-87.5524778181968},
{"STATE":"IL","ZIP":60628,"LATTITUDE":41.692651314791675,"ADDRESS":"120 W 111TH ST 1 ","YEAR":2009,"DOING_BUSINESS_AS_NAME":"CHICAGO FAMILY HEALTH CENTER, INC.","POP_AT_RISK":69044,"BUSINESS_TYPE":"Laboratories","LEGAL_NAME":"CHICAGO FAMILY HEALTH CENTER, INC.","LONGITUDE":-87.62668640556926},
{"STATE":"IL","ZIP":60617,"LATTITUDE":41.70345044795604,"ADDRESS":"10536 S EWING AVE 1 ","YEAR":2009,"DOING_BUSINESS_AS_NAME":"CHICAGO FAMILY HEALTH CENTER, INC.","POP_AT_RISK":146982,"BUSINESS_TYPE":"Laboratories","LEGAL_NAME":"CHICAGO FAMILY HEALTH CENTER, INC.","LONGITUDE":-87.53543213286827},
{"STATE":"IL","ZIP":60645,"LATTITUDE":42.008856595849,"ADDRESS":"7006 N WESTERN AVE  1","YEAR":2009,"DOING_BUSINESS_AS_NAME":"AMERICAN SCIENTIFIC LAB. INC.","POP_AT_RISK":200397,"BUSINESS_TYPE":"Laboratories","LEGAL_NAME":"AMERICAN SCIENTIFIC LABORATORY, INC.","LONGITUDE":-87.69031557271916},
{"STATE":"IL","ZIP":60636,"LATTITUDE":41.76084389018961,"ADDRESS":"7318 S RACINE AVE  1ST","YEAR":2009,"DOING_BUSINESS_AS_NAME":"TILMAN'S COMMUNITY HEALTH CLIN","POP_AT_RISK":766305,"BUSINESS_TYPE":"Laboratories","LEGAL_NAME":"TILMAN'S COMMUNITY HEALTH CLINIC, INC.","LONGITUDE":-87.65414946792342},
{"STATE":"IL","ZIP":60617,"LATTITUDE":41.72609928680657,"ADDRESS":"2301 E 93RD ST  ","YEAR":2009,"DOING_BUSINESS_AS_NAME":"ADVOCATE MEDICAL GROUP","POP_AT_RISK":82576,"BUSINESS_TYPE":"Laboratories","LEGAL_NAME":"ADVOCATE HEALTH AND HOSPITALS CORPORATION","LONGITUDE":-87.5681250672743},
{"STATE":"IL","ZIP":60707,"LATTITUDE":41.909241609746,"ADDRESS":"6434 W NORTH AVE  ","YEAR":2009,"DOING_BUSINESS_AS_NAME":"ADVOCATE MEDICAL GROUP","POP_AT_RISK":140948,"BUSINESS_TYPE":"Laboratories","LEGAL_NAME":"ADVOCATE HEALTH AND HOSPITALS CORPORATION","LONGITUDE":-87.7865145159132},
{"STATE":"IL","ZIP":60647,"LATTITUDE":41.92694072608521,"ADDRESS":"2511 N KEDZIE BLVD  ","YEAR":2009,"DOING_BUSINESS_AS_NAME":"ADVOCATE MEDICAL GROUP","POP_AT_RISK":1882750,"BUSINESS_TYPE":"Laboratories","LEGAL_NAME":"ADVOCATE HEALTH AND HOSPITALS CORPORATION","LONGITUDE":-87.70713583064949},
{"STATE":"IL","ZIP":60641,"LATTITUDE":41.957435057144416,"ADDRESS":"4211 N CICERO AVE  308","YEAR":2009,"DOING_BUSINESS_AS_NAME":"ADVOCATE MEDICAL GROUP","POP_AT_RISK":480271,"BUSINESS_TYPE":"Laboratories","LEGAL_NAME":"ADVOCATE HEALTH AND HOSPITALS CORPORATION","LONGITUDE":-87.74728039735759},
{"STATE":"IL","ZIP":60643,"LATTITUDE":41.714554470686906,"ADDRESS":"9831 S WESTERN AVE 1ST ","YEAR":2009,"DOING_BUSINESS_AS_NAME":"ADVOCATE MEDICAL GROUP","POP_AT_RISK":132708,"BUSINESS_TYPE":"Laboratories","LEGAL_NAME":"ADVOCATE HEALTH AND HOSPITALS CORPORATION","LONGITUDE":-87.68172059648889},
{"STATE":"IL","ZIP":60642,"LATTITUDE":41.908169320052544,"ADDRESS":"1460 N HALSTED ST 4TH 401","YEAR":2009,"DOING_BUSINESS_AS_NAME":"ADVOCATE MEDICAL GROUP","POP_AT_RISK":148887,"BUSINESS_TYPE":"Laboratories","LEGAL_NAME":"ADVOCATE HEALTH AND HOSPITALS CORPORATION","LONGITUDE":-87.64834802010354},
{"STATE":"IL","ZIP":60616,"LATTITUDE":41.84617748461005,"ADDRESS":"2545 S DR MARTIN LUTHER KING JR DR  ","YEAR":2009,"DOING_BUSINESS_AS_NAME":"ADVOCATE MEDICAL GROUP","POP_AT_RISK":246948,"BUSINESS_TYPE":"Laboratories","LEGAL_NAME":"ADVOCATE HEALTH AND HOSPITALS CORPORATION","LONGITUDE":-87.61716517711677},
}