{
{"STATE":"IL","ZIP":60625,"LATTITUDE":41.974369465401125,"ADDRESS":"5109 N LINCOLN AVE  1","YEAR":2013,"DOING_BUSINESS_AS_NAME":"ST. PAULI'S BAR","POP_AT_RISK":53114,"BUSINESS_TYPE":"Late Hour","LEGAL_NAME":"SAAR INC","LONGITUDE":-87.69199821258272},
{"STATE":"IL","ZIP":60649,"LATTITUDE":41.7668180675386,"ADDRESS":"7041 S JEFFERY BLVD  ","YEAR":2013,"DOING_BUSINESS_AS_NAME":"JEFFERY PUB","POP_AT_RISK":520044,"BUSINESS_TYPE":"Late Hour","LEGAL_NAME":"JAF, LTD.","LONGITUDE":-87.5761708282342},
{"STATE":"IL","ZIP":60626,"LATTITUDE":42.01890350707934,"ADDRESS":"7541-7545 N CLARK ST 1ST ","YEAR":2013,"DOING_BUSINESS_AS_NAME":"HARD WATER BAR & GRILL","POP_AT_RISK":62574,"BUSINESS_TYPE":"Late Hour","LEGAL_NAME":"KEFALOS, INC.","LONGITUDE":-87.67595814790334},
{"STATE":"IL","ZIP":60645,"LATTITUDE":42.016961012809865,"ADDRESS":"7436-7442 N WESTERN AVE 1ST ","YEAR":2013,"DOING_BUSINESS_AS_NAME":"MARK II, LTD","POP_AT_RISK":149505,"BUSINESS_TYPE":"Late Hour","LEGAL_NAME":"MARK II, LTD.","LONGITUDE":-87.69034725403856},
{"STATE":"IL","ZIP":60641,"LATTITUDE":41.95324249980824,"ADDRESS":"5007-5009 W IRVING PARK RD  ","YEAR":2013,"DOING_BUSINESS_AS_NAME":"NITE CAP","POP_AT_RISK":94668,"BUSINESS_TYPE":"Late Hour","LEGAL_NAME":"NITE CAP, INC.","LONGITUDE":-87.75253198482571},
{"STATE":"IL","ZIP":60623,"LATTITUDE":41.85895171070665,"ADDRESS":"3245 W 16TH ST 1ST ","YEAR":2013,"DOING_BUSINESS_AS_NAME":"BRIANS LOUNGE","POP_AT_RISK":491733,"BUSINESS_TYPE":"Late Hour","LEGAL_NAME":"ROSE DEVEREAUX","LONGITUDE":-87.70719055849162},
{"STATE":"IL","ZIP":60638,"LATTITUDE":41.77792381411959,"ADDRESS":"5625 W 63RD ST 1ST ","YEAR":2013,"DOING_BUSINESS_AS_NAME":"MARIANNA'S PLACE","POP_AT_RISK":18938,"BUSINESS_TYPE":"Late Hour","LEGAL_NAME":"TROY LOGIC, INC","LONGITUDE":-87.76265938509499},
{"STATE":"IL","ZIP":60641,"LATTITUDE":41.933845775536575,"ADDRESS":"2906 N PULASKI RD 1ST ","YEAR":2013,"DOING_BUSINESS_AS_NAME":"FENIX LOUNGE LTD","POP_AT_RISK":289280,"BUSINESS_TYPE":"Late Hour","LEGAL_NAME":"FENIX LOUNGE, LTD.","LONGITUDE":-87.72718317931765},
{"STATE":"IL","ZIP":60643,"LATTITUDE":41.70486871150318,"ADDRESS":"10350 S WESTERN AVE  ","YEAR":2013,"DOING_BUSINESS_AS_NAME":"BREWBAKERS","POP_AT_RISK":249516,"BUSINESS_TYPE":"Late Hour","LEGAL_NAME":"GORDON LOUNGE, INC","LONGITUDE":-87.68171958749872},
{"STATE":"IL","ZIP":60618,"LATTITUDE":41.95019167345904,"ADDRESS":"3759 N KEDZIE AVE  1","YEAR":2013,"DOING_BUSINESS_AS_NAME":"CHRISTINA'S PLACE","POP_AT_RISK":291425,"BUSINESS_TYPE":"Late Hour","LEGAL_NAME":"WHERE'S PAPPA, INC","LONGITUDE":-87.70776827145029},
{"STATE":"IL","ZIP":60622,"LATTITUDE":41.895543708081156,"ADDRESS":"2801 W CHICAGO AVE 1&2 ","YEAR":2013,"DOING_BUSINESS_AS_NAME":"THE CONTINENTAL LOUNGE","POP_AT_RISK":297248,"BUSINESS_TYPE":"Late Hour","LEGAL_NAME":"WESTSIDE RAIL, INC.","LONGITUDE":-87.69676464023073},
{"STATE":"IL","ZIP":60619,"LATTITUDE":41.7514313030561,"ADDRESS":"914 E 79TH ST 1ST ","YEAR":2013,"DOING_BUSINESS_AS_NAME":"EAST OF THE RYAN,INC","POP_AT_RISK":125541,"BUSINESS_TYPE":"Late Hour","LEGAL_NAME":"EAST OF THE RYAN INC","LONGITUDE":-87.60211212497248},
{"STATE":"IL","ZIP":60612,"LATTITUDE":41.87748553469393,"ADDRESS":"1645 W JACKSON BLVD  ","YEAR":2013,"DOING_BUSINESS_AS_NAME":"PARK TAVERN CHICAGO","POP_AT_RISK":155835,"BUSINESS_TYPE":"Late Hour","LEGAL_NAME":"1645 W. JACKSON, INC.","LONGITUDE":-87.66852104233708},
{"STATE":"IL","ZIP":60613,"LATTITUDE":41.96135532131147,"ADDRESS":"1959 W MONTROSE AVE 1ST #","YEAR":2013,"DOING_BUSINESS_AS_NAME":"OAKWOOD '83","POP_AT_RISK":64775,"BUSINESS_TYPE":"Late Hour","LEGAL_NAME":"LILLIAN PROCHASKA INC","LONGITUDE":-87.67830515937477},
{"STATE":"IL","ZIP":60659,"LATTITUDE":41.99547887896528,"ADDRESS":"6251 N MCCORMICK RD  ","YEAR":2013,"DOING_BUSINESS_AS_NAME":"PURE CAFE","POP_AT_RISK":126093,"BUSINESS_TYPE":"Late Hour","LEGAL_NAME":"6251 N. MCCORMICK, LLC","LONGITUDE":-87.71287526525123},
{"STATE":"IL","ZIP":60644,"LATTITUDE":41.88685126291917,"ADDRESS":"356 N CICERO AVE 1 #","YEAR":2013,"DOING_BUSINESS_AS_NAME":"LAKE & CICERO INC.","POP_AT_RISK":636090,"BUSINESS_TYPE":"Late Hour","LEGAL_NAME":"LAKE AND CICERO , INC.","LONGITUDE":-87.74565351960071},
{"STATE":"IL","ZIP":60629,"LATTITUDE":41.78652676834002,"ADDRESS":"2748 W 59TH ST  ","YEAR":2013,"DOING_BUSINESS_AS_NAME":"RITCHIE'S","POP_AT_RISK":702405,"BUSINESS_TYPE":"Late Hour","LEGAL_NAME":"RICK'S THAT'S IT, LTD.","LONGITUDE":-87.69311455891014},
{"STATE":"IL","ZIP":60638,"LATTITUDE":41.77726177253016,"ADDRESS":"6301 S HARLEM AVE 1ST ","YEAR":2013,"DOING_BUSINESS_AS_NAME":"ESCAPADES","POP_AT_RISK":70974,"BUSINESS_TYPE":"Late Hour","LEGAL_NAME":"6301 SOUTH HARLEM, INC.","LONGITUDE":-87.80074962919096},
{"STATE":"IL","ZIP":60623,"LATTITUDE":41.84066059466386,"ADDRESS":"2759 S PULASKI RD 1ST ","YEAR":2013,"DOING_BUSINESS_AS_NAME":"El Sinaloense","POP_AT_RISK":47450,"BUSINESS_TYPE":"Late Hour","LEGAL_NAME":"FAUSTO ENTERPRISES INC.","LONGITUDE":-87.7243059784339},
{"STATE":"IL","ZIP":60623,"LATTITUDE":41.84408106968191,"ADDRESS":"4153 W 26TH ST 1ST #","YEAR":2013,"DOING_BUSINESS_AS_NAME":"RESTAURANTE ALANIS LTD","POP_AT_RISK":99868,"BUSINESS_TYPE":"Late Hour","LEGAL_NAME":"RESTAURANTE ALANIS LTD.","LONGITUDE":-87.72907469267422},
{"STATE":"IL","ZIP":60630,"LATTITUDE":41.97836392545557,"ADDRESS":"5368 N MILWAUKEE AVE  ","YEAR":2013,"DOING_BUSINESS_AS_NAME":"ZIEMEK CORP.","POP_AT_RISK":202536,"BUSINESS_TYPE":"Late Hour","LEGAL_NAME":"ZIEMEK CORPORATION, INC.","LONGITUDE":-87.77037720178194},
{"STATE":"IL","ZIP":60656,"LATTITUDE":41.980726198415624,"ADDRESS":"7123 W HIGGINS AVE 1ST ","YEAR":2013,"DOING_BUSINESS_AS_NAME":"TEASER'S PUB","POP_AT_RISK":177684,"BUSINESS_TYPE":"Late Hour","LEGAL_NAME":"7123 W. HIGGINS RD. CORP.","LONGITUDE":-87.80571278001223},
{"STATE":"IL","ZIP":60660,"LATTITUDE":41.9862308107723,"ADDRESS":"5739 N RAVENSWOOD AVE  ","YEAR":2013,"DOING_BUSINESS_AS_NAME":"Fireside Tavern & Grill","POP_AT_RISK":53214,"BUSINESS_TYPE":"Late Hour","LEGAL_NAME":"FIRESIDE PUB,INCORPORATED","LONGITUDE":-87.67454136310121},
{"STATE":"IL","ZIP":60639,"LATTITUDE":41.919526594497476,"ADDRESS":"5726 W GRAND AVE  ","YEAR":2013,"DOING_BUSINESS_AS_NAME":"JEREZ SPORT BAR AND GRILL","POP_AT_RISK":491553,"BUSINESS_TYPE":"Late Hour","LEGAL_NAME":"GRAND CENTRAL CORPORATION","LONGITUDE":-87.76937582701346},
{"STATE":"IL","ZIP":60647,"LATTITUDE":41.91736098818671,"ADDRESS":"3702 W ARMITAGE AVE  ","YEAR":2013,"DOING_BUSINESS_AS_NAME":"LAS VEGAS NITE CLUB INC","POP_AT_RISK":617944,"BUSINESS_TYPE":"Late Hour","LEGAL_NAME":"LAS VEGAS NITE CLUB, INC.","LONGITUDE":-87.71936114474791},
{"STATE":"IL","ZIP":60634,"LATTITUDE":41.9379941491104,"ADDRESS":"7706 W BELMONT AVE  ","YEAR":2013,"DOING_BUSINESS_AS_NAME":"AS TIME GOES BY II LTD.","POP_AT_RISK":305280,"BUSINESS_TYPE":"Late Hour","LEGAL_NAME":"AS TIME GOES BY II LIMITED","LONGITUDE":-87.81928311687304},
{"STATE":"IL","ZIP":60641,"LATTITUDE":41.96092772787229,"ADDRESS":"4420  -04430 W MONTROSE AVE 1ST ","YEAR":2013,"DOING_BUSINESS_AS_NAME":"SIDEKICKS","POP_AT_RISK":46331,"BUSINESS_TYPE":"Late Hour","LEGAL_NAME":"THE CONCORD RESTAURANT INC","LONGITUDE":-87.73933586085796},
{"STATE":"IL","ZIP":60634,"LATTITUDE":41.95837384588684,"ADDRESS":"4250 N CENTRAL AVE  ","YEAR":2013,"DOING_BUSINESS_AS_NAME":"SUPAROSSA","POP_AT_RISK":262135,"BUSINESS_TYPE":"Late Hour","LEGAL_NAME":"MR. B'S STUFFED PIZZA, INC.","LONGITUDE":-87.76732076240101},
{"STATE":"IL","ZIP":60632,"LATTITUDE":41.80577977439837,"ADDRESS":"4807-4809 S PULASKI RD 1ST ","YEAR":2013,"DOING_BUSINESS_AS_NAME":"BLUE SKY RESTAURANT","POP_AT_RISK":158685,"BUSINESS_TYPE":"Late Hour","LEGAL_NAME":"GENE & SOPHIE'S LOUNGE, INC.","LONGITUDE":-87.72337496234026},
{"STATE":"IL","ZIP":60619,"LATTITUDE":41.758565116524814,"ADDRESS":"502-506 E 75TH ST 1ST ","YEAR":2013,"DOING_BUSINESS_AS_NAME":"NEW APARTMENT LOUNGE, INC","POP_AT_RISK":211794,"BUSINESS_TYPE":"Late Hour","LEGAL_NAME":"THE NEW APARTMENT LOUNGE, INC.","LONGITUDE":-87.61253430608224},
{"STATE":"IL","ZIP":60623,"LATTITUDE":41.846245643861586,"ADDRESS":"2501-2513 S KEDZIE AVE  ","YEAR":2013,"DOING_BUSINESS_AS_NAME":"CLUB VOLKAN","POP_AT_RISK":138652,"BUSINESS_TYPE":"Late Hour","LEGAL_NAME":"LITTLE VILLAGE CONCESSIONS, LLC","LONGITUDE":-87.70494537233583},
{"STATE":"IL","ZIP":60639,"LATTITUDE":41.91093116886587,"ADDRESS":"1643-1647 N CICERO AVE 1 & 2 BANQU","YEAR":2013,"DOING_BUSINESS_AS_NAME":"EL MEXICO MODERN BALLROOM INC","POP_AT_RISK":310368,"BUSINESS_TYPE":"Late Hour","LEGAL_NAME":"EL MEXICO MODERNO BALLROOM, INC.","LONGITUDE":-87.74575021004954},
{"STATE":"IL","ZIP":60652,"LATTITUDE":41.74051514320914,"ADDRESS":"8355 S PULASKI RD  ","YEAR":2013,"DOING_BUSINESS_AS_NAME":"GROUCHO'S BAR & GRILL","POP_AT_RISK":191052,"BUSINESS_TYPE":"Late Hour","LEGAL_NAME":"PAUL AND MARC'S ENTERPRISES, LTD.","LONGITUDE":-87.72147836324686},
}