{
{"STATE":"IL","ZIP":60608,"LATTITUDE":41.85831434523092,"ADDRESS":"1717 S RACINE AVE  ","YEAR":2005,"DOING_BUSINESS_AS_NAME":"PEDRO LOPEZ","POP_AT_RISK":174332,"BUSINESS_TYPE":"Peddler, food (fruits and vegtables only)","LEGAL_NAME":"PEDRO LOPEZ","LONGITUDE":-87.65629337864371},
{"STATE":"IL","ZIP":60609,"LATTITUDE":41.80601464073737,"ADDRESS":"4829 S ELIZABETH ST 1ST ","YEAR":2005,"DOING_BUSINESS_AS_NAME":"EIRA FUENTES","POP_AT_RISK":160750,"BUSINESS_TYPE":"Peddler, food (fruits and vegtables only)","LEGAL_NAME":"EIRA FUENTES","LONGITUDE":-87.65624500102271},
{"STATE":"IL","ZIP":60625,"LATTITUDE":41.96692306006385,"ADDRESS":"4708 N SPAULDING AVE  ","YEAR":2005,"DOING_BUSINESS_AS_NAME":"MARIA CHAVEZ","POP_AT_RISK":80889,"BUSINESS_TYPE":"Peddler, food (fruits and vegtables only)","LEGAL_NAME":"MARIA CHAVEZ","LONGITUDE":-87.71102209968235},
{"STATE":"IL","ZIP":60632,"LATTITUDE":41.82017985360166,"ADDRESS":"4030 S ROCKWELL ST  1ST","YEAR":2005,"DOING_BUSINESS_AS_NAME":"RAMIRO SILVA","POP_AT_RISK":105982,"BUSINESS_TYPE":"Peddler, food (fruits and vegtables only)","LEGAL_NAME":"RAMIRO SILVA","LONGITUDE":-87.68980565513284},
{"STATE":"IL","ZIP":60618,"LATTITUDE":41.960539196461895,"ADDRESS":"4342 N DRAKE AVE  ","YEAR":2005,"DOING_BUSINESS_AS_NAME":"AMADEO CHAVEZ","POP_AT_RISK":151320,"BUSINESS_TYPE":"Peddler, food (fruits and vegtables only)","LEGAL_NAME":"AMADEO CHAVEZ","LONGITUDE":-87.71694113388705},
{"STATE":"IL","ZIP":60632,"LATTITUDE":41.82361139695471,"ADDRESS":"2733 W 38TH PL 1ST ","YEAR":2005,"DOING_BUSINESS_AS_NAME":"SALVADOR TENA","POP_AT_RISK":43492,"BUSINESS_TYPE":"Peddler, food (fruits and vegtables only)","LEGAL_NAME":"SALVADOR TENA","LONGITUDE":-87.69351759919297},
{"STATE":"IL","ZIP":60645,"LATTITUDE":42.01140623249728,"ADDRESS":"2018 W ESTES AVE  ","YEAR":2005,"DOING_BUSINESS_AS_NAME":"SOCORRO FLORES","POP_AT_RISK":80310,"BUSINESS_TYPE":"Peddler, food (fruits and vegtables only)","LEGAL_NAME":"SOCORRO FLORES","LONGITUDE":-87.68104913040304},
{"STATE":"IL","ZIP":60618,"LATTITUDE":41.93440703876781,"ADDRESS":"2916 N SPAULDING AVE 1ST ","YEAR":2005,"DOING_BUSINESS_AS_NAME":"CARMEN GONZALEZ","POP_AT_RISK":205290,"BUSINESS_TYPE":"Peddler, food (fruits and vegtables only)","LEGAL_NAME":"CARMEN GONZALEZ","LONGITUDE":-87.71006917988285},
{"STATE":"IL","ZIP":60639,"LATTITUDE":41.929640584383236,"ADDRESS":"2713 N MOBILE AVE HOUSE ","YEAR":2005,"DOING_BUSINESS_AS_NAME":"MARIA HERNANDEZ","POP_AT_RISK":207288,"BUSINESS_TYPE":"Peddler, food (fruits and vegtables only)","LEGAL_NAME":"MARIA HERNANDEZ","LONGITUDE":-87.78306388144483},
{"STATE":"IL","ZIP":60629,"LATTITUDE":41.781470881106344,"ADDRESS":"3519 W 61ST PL  ","YEAR":2005,"DOING_BUSINESS_AS_NAME":"ANTONIA SALDIVAR","POP_AT_RISK":652157,"BUSINESS_TYPE":"Peddler, food (fruits and vegtables only)","LEGAL_NAME":"ANTONIA SALDIVAR","LONGITUDE":-87.71128246261945},
{"STATE":"IL","ZIP":60626,"LATTITUDE":42.014637909692745,"ADDRESS":"7345 N ROGERS AVE 2 ","YEAR":2005,"DOING_BUSINESS_AS_NAME":"ERENDIRA QUEZADA","POP_AT_RISK":74190,"BUSINESS_TYPE":"Peddler, food (fruits and vegtables only)","LEGAL_NAME":"ERENDIRA QUEZADA","LONGITUDE":-87.6779269703366},
{"STATE":"IL","ZIP":60639,"LATTITUDE":41.92844163070833,"ADDRESS":"5543 W DRUMMOND PL 1 ","YEAR":2005,"DOING_BUSINESS_AS_NAME":"GUILLERMO GARCIA","POP_AT_RISK":461514,"BUSINESS_TYPE":"Peddler, food (fruits and vegtables only)","LEGAL_NAME":"GUILLERMO GARCIA","LONGITUDE":-87.76540876689451},
{"STATE":"IL","ZIP":60623,"LATTITUDE":41.84879049508066,"ADDRESS":"2338 S KEDZIE AVE 1ST ","YEAR":2005,"DOING_BUSINESS_AS_NAME":"EVENCIO BALDONADO","POP_AT_RISK":71566,"BUSINESS_TYPE":"Peddler, food (fruits and vegtables only)","LEGAL_NAME":"EVENCIO BALDONADO","LONGITUDE":-87.70531098155864},
{"STATE":"IL","ZIP":60625,"LATTITUDE":41.96880698653123,"ADDRESS":"4814 N LAWNDALE AVE  ","YEAR":2005,"DOING_BUSINESS_AS_NAME":"MARGARITA SEGUNDO","POP_AT_RISK":74155,"BUSINESS_TYPE":"Peddler, food (fruits and vegtables only)","LEGAL_NAME":"MARGARITA SEGUNDO","LONGITUDE":-87.7208573791235},
{"STATE":"IL","ZIP":60608,"LATTITUDE":41.861665752297334,"ADDRESS":"1441 S TALMAN AVE 1ST ","YEAR":2005,"DOING_BUSINESS_AS_NAME":"ARNULFO TOVAR RUIZ","POP_AT_RISK":252612,"BUSINESS_TYPE":"Peddler, food (fruits and vegtables only)","LEGAL_NAME":"ARNULFO TOVAR RUIZ","LONGITUDE":-87.69187733198248},
{"STATE":"IL","ZIP":60647,"LATTITUDE":41.91506916276526,"ADDRESS":"1845 N SAWYER AVE  ","YEAR":2005,"DOING_BUSINESS_AS_NAME":"LILIA ROMAN MORENO","POP_AT_RISK":268720,"BUSINESS_TYPE":"Peddler, food (fruits and vegtables only)","LEGAL_NAME":"LILIA ROMAN MORENO","LONGITUDE":-87.70844887715118},
{"STATE":"IL","ZIP":60639,"LATTITUDE":41.91242292733876,"ADDRESS":"1731 N CICERO AVE  ","YEAR":2005,"DOING_BUSINESS_AS_NAME":"JOSE AQARICIO LOPEZ","POP_AT_RISK":115768,"BUSINESS_TYPE":"Peddler, food (fruits and vegtables only)","LEGAL_NAME":"JOSE APARICIO LOPEZ","LONGITUDE":-87.74579488391359},
{"STATE":"IL","ZIP":60608,"LATTITUDE":41.855140086646344,"ADDRESS":"1037 W CULLERTON ST  ","YEAR":2005,"DOING_BUSINESS_AS_NAME":"LEONARDO AYALA, SR.","POP_AT_RISK":110817,"BUSINESS_TYPE":"Peddler, food (fruits and vegtables only)","LEGAL_NAME":"LEONARDO AYALA, SR.","LONGITUDE":-87.65288664119842},
{"STATE":"IL","ZIP":60634,"LATTITUDE":41.95966347848037,"ADDRESS":"5632 W PENSACOLA AVE  ","YEAR":2005,"DOING_BUSINESS_AS_NAME":"EMPERATRIZ FRUIT","POP_AT_RISK":566489,"BUSINESS_TYPE":"Peddler, food (fruits and vegtables only)","LEGAL_NAME":"EMPERATRIZ M. MALDONADO","LONGITUDE":-87.76855204500197},
{"STATE":"IL","ZIP":60645,"LATTITUDE":42.00397948469877,"ADDRESS":"6720 N DAMEN AVE 3 ","YEAR":2005,"DOING_BUSINESS_AS_NAME":"MELITON ARCHUNDIA-ECHEVERRIA","POP_AT_RISK":81988,"BUSINESS_TYPE":"Peddler, food (fruits and vegtables only)","LEGAL_NAME":"MELITON ARCHUNDIA-ECHEVERRIA","LONGITUDE":-87.68047966732321},
{"STATE":"IL","ZIP":60647,"LATTITUDE":41.90993070424115,"ADDRESS":"3425 W NORTH AVE  BACK","YEAR":2005,"DOING_BUSINESS_AS_NAME":"MARIA SILVIA-GUITERREZ MIRANDA","POP_AT_RISK":186708,"BUSINESS_TYPE":"Peddler, food (fruits and vegtables only)","LEGAL_NAME":"MARIA  SILVIA-GUTIERREZ MIRANDA","LONGITUDE":-87.71291075134596},
}