{
{"STATE":"IL","ZIP":60660,"LATTITUDE":41.98710091514182,"ADDRESS":"5779-5781 N RIDGE AVE 1 ","YEAR":2015,"DOING_BUSINESS_AS_NAME":"THE OTUNJ","POP_AT_RISK":67082,"BUSINESS_TYPE":"Performing Arts Venue","LEGAL_NAME":"STJEPAN MISETIC","LONGITUDE":-87.66551380521494},
{"STATE":"IL","ZIP":60640,"LATTITUDE":41.977900451821434,"ADDRESS":"1515 W BERWYN AVE  ","YEAR":2015,"DOING_BUSINESS_AS_NAME":"PH PRODUCTIONS","POP_AT_RISK":201432,"BUSINESS_TYPE":"Performing Arts Venue","LEGAL_NAME":"PH PRODUCTIONS NFP.","LONGITUDE":-87.66900399268134},
{"STATE":"IL","ZIP":60610,"LATTITUDE":41.91008024220972,"ADDRESS":"1531 N WELLS ST  ","YEAR":2015,"DOING_BUSINESS_AS_NAME":"A RED ORCHID THEATER","POP_AT_RISK":713779,"BUSINESS_TYPE":"Performing Arts Venue","LEGAL_NAME":"A RED ORCHID THEATER","LONGITUDE":-87.63452976939911},
{"STATE":"IL","ZIP":60657,"LATTITUDE":41.939843345836316,"ADDRESS":"851-853 W BELMONT AVE 2ND ","YEAR":2015,"DOING_BUSINESS_AS_NAME":"ANNOYANCE PRODUCTIONS","POP_AT_RISK":267606,"BUSINESS_TYPE":"Performing Arts Venue","LEGAL_NAME":"ANNOYANCE PRODUCTIONS, INC.","LONGITUDE":-87.65125514003165},
{"STATE":"IL","ZIP":60618,"LATTITUDE":41.931924343764976,"ADDRESS":"2800-2810 N MILWAUKEE AVE 2 ","YEAR":2015,"DOING_BUSINESS_AS_NAME":"HAIRPIN ARTS CENTER","POP_AT_RISK":1726736,"BUSINESS_TYPE":"Performing Arts Venue","LEGAL_NAME":"LOGAN SQUARE CHAMBER OF ARTS","LONGITUDE":-87.71238138589705},
{"STATE":"IL","ZIP":60639,"LATTITUDE":41.92984029473928,"ADDRESS":"2707 N LARAMIE AVE  ","YEAR":2015,"DOING_BUSINESS_AS_NAME":"AGUIJON THEATER COMPANY","POP_AT_RISK":1172944,"BUSINESS_TYPE":"Performing Arts Venue","LEGAL_NAME":"AGUIJON THEATER COMPANY OF CHICAGO","LONGITUDE":-87.75621406151068},
{"STATE":"IL","ZIP":60657,"LATTITUDE":41.93532392011869,"ADDRESS":"2933 N SOUTHPORT AVE  ","YEAR":2015,"DOING_BUSINESS_AS_NAME":"EMERALD CITY THEATRE","POP_AT_RISK":221016,"BUSINESS_TYPE":"Performing Arts Venue","LEGAL_NAME":"EMERALD CITY THEATRE COMPANY, INC.","LONGITUDE":-87.66351257495947},
{"STATE":"IL","ZIP":60640,"LATTITUDE":41.96533475021083,"ADDRESS":"935 W WILSON AVE  ","YEAR":2015,"DOING_BUSINESS_AS_NAME":"WILSON ABBEY","POP_AT_RISK":67548,"BUSINESS_TYPE":"Performing Arts Venue","LEGAL_NAME":"JESUS PEOPLE U.S.A. COVENANT CHURCH","LONGITUDE":-87.65377546985945},
{"STATE":"IL","ZIP":60654,"LATTITUDE":41.892340477333065,"ADDRESS":"31 W OHIO ST 2 ","YEAR":2015,"DOING_BUSINESS_AS_NAME":"INSTITUTO CERVANTES","POP_AT_RISK":80019,"BUSINESS_TYPE":"Performing Arts Venue","LEGAL_NAME":"INSTITUTO CERVANTES OF CHICAGO, INC.","LONGITUDE":-87.62942627883271},
}