{
{"STATE":"IL","ZIP":60622,"LATTITUDE":41.90306317045896,"ADDRESS":"2642 W DIVISION ST  ","YEAR":2005,"DOING_BUSINESS_AS_NAME":"PALETERIA FLOR DE MICHOACAN","POP_AT_RISK":1068012,"BUSINESS_TYPE":"Wholesale Food Establishment","LEGAL_NAME":"EDGAR MARTINEZ","LONGITUDE":-87.69368260743562},
{"STATE":"IL","ZIP":60619,"LATTITUDE":41.73441096044655,"ADDRESS":"8815 S DOBSON AVE  ","YEAR":2005,"DOING_BUSINESS_AS_NAME":"MARIGOLD, INC.","POP_AT_RISK":319759,"BUSINESS_TYPE":"Wholesale Food Establishment","LEGAL_NAME":"MARIGOLD, INC.","LONGITUDE":-87.59893837985673},
{"STATE":"IL","ZIP":60632,"LATTITUDE":41.810716373752776,"ADDRESS":"4525 S TRIPP AVE  ","YEAR":2005,"DOING_BUSINESS_AS_NAME":"ISOLA IMPORT","POP_AT_RISK":90515,"BUSINESS_TYPE":"Wholesale Food Establishment","LEGAL_NAME":"ISOLA IMPORT INC","LONGITUDE":-87.72974146670688},
{"STATE":"IL","ZIP":60617,"LATTITUDE":41.74092933306208,"ADDRESS":"8501 S COMMERCIAL AVE 1ST ","YEAR":2005,"DOING_BUSINESS_AS_NAME":"CHICAGO FREEZE","POP_AT_RISK":115816,"BUSINESS_TYPE":"Wholesale Food Establishment","LEGAL_NAME":"SERAFIN GONZALEZ","LONGITUDE":-87.55134841564764},
{"STATE":"IL","ZIP":60612,"LATTITUDE":41.88720305755881,"ADDRESS":"316 N LEAVITT ST  ","YEAR":2005,"DOING_BUSINESS_AS_NAME":"EURO DELIGHTS INC.","POP_AT_RISK":39371,"BUSINESS_TYPE":"Wholesale Food Establishment","LEGAL_NAME":"EURO DELIGHTS INC","LONGITUDE":-87.68184273676503},
{"STATE":"IL","ZIP":60632,"LATTITUDE":41.82097846505962,"ADDRESS":"3949 S KEELER AVE  B","YEAR":2005,"DOING_BUSINESS_AS_NAME":"K & S FOODS, INC.","POP_AT_RISK":9333,"BUSINESS_TYPE":"Wholesale Food Establishment","LEGAL_NAME":"K & S FOODS, INC.","LONGITUDE":-87.72814368336078},
{"STATE":"IL","ZIP":60634,"LATTITUDE":41.9382930305789,"ADDRESS":"6125 W BELMONT AVE 1ST ","YEAR":2005,"DOING_BUSINESS_AS_NAME":"OSCAR'S FOOD INC","POP_AT_RISK":701316,"BUSINESS_TYPE":"Wholesale Food Establishment","LEGAL_NAME":"OSCAR'S FOODS INC","LONGITUDE":-87.77966768952179},
{"STATE":"IL","ZIP":60624,"LATTITUDE":41.89153683220557,"ADDRESS":"4350 W OHIO ST 1ST ","YEAR":2005,"DOING_BUSINESS_AS_NAME":"STUART HALE COMPANY","POP_AT_RISK":398230,"BUSINESS_TYPE":"Wholesale Food Establishment","LEGAL_NAME":"S D R CORPORATION","LONGITUDE":-87.73529404088588},
{"STATE":"IL","ZIP":60628,"LATTITUDE":41.684079079941675,"ADDRESS":"304 -328 E KENSINGTON AVE 1ST ","YEAR":2005,"DOING_BUSINESS_AS_NAME":"GONNELLA BAKING","POP_AT_RISK":154728,"BUSINESS_TYPE":"Wholesale Food Establishment","LEGAL_NAME":"GONNELLA BAKING CO.","LONGITUDE":-87.61644380536383},
{"STATE":"IL","ZIP":60644,"LATTITUDE":41.86923620697448,"ADDRESS":"4825 W ARTHINGTON ST 1ST ","YEAR":2005,"DOING_BUSINESS_AS_NAME":"PARS ICECREAM CO, INC","POP_AT_RISK":359316,"BUSINESS_TYPE":"Wholesale Food Establishment","LEGAL_NAME":"PARS ICECREAM CO, INC","LONGITUDE":-87.74589271238392},
{"STATE":"IL","ZIP":60617,"LATTITUDE":41.727396382754264,"ADDRESS":"9229 S BALTIMORE AVE  ","YEAR":2005,"DOING_BUSINESS_AS_NAME":"CHICAGO FRESH MEATS INC.","POP_AT_RISK":17702,"BUSINESS_TYPE":"Wholesale Food Establishment","LEGAL_NAME":"CHICAGO FRESH MEATS INC.","LONGITUDE":-87.54828692765585},
{"STATE":"IL","ZIP":60608,"LATTITUDE":41.83929995733921,"ADDRESS":"3000 S ASHLAND AVE  ","YEAR":2005,"DOING_BUSINESS_AS_NAME":"MARGARITA FOOD DISTRIBUTORS","POP_AT_RISK":331461,"BUSINESS_TYPE":"Wholesale Food Establishment","LEGAL_NAME":"THE QUAY CORPORATION INC","LONGITUDE":-87.66593524191883},
{"STATE":"IL","ZIP":60612,"LATTITUDE":41.887517624850766,"ADDRESS":"2107 W CARROLL AVE  ","YEAR":2005,"DOING_BUSINESS_AS_NAME":"KIM & SCOTT'S GOURMET PRETZELS","POP_AT_RISK":40740,"BUSINESS_TYPE":"Wholesale Food Establishment","LEGAL_NAME":"KIM & SCOTT'S GOURMET PRETZELS","LONGITUDE":-87.67960751940059},
}