{
{"STATE":"IL","ZIP":60608,"LATTITUDE":41.85224870980069,"ADDRESS":"2058 W CERMAK RD  1","YEAR":2006,"DOING_BUSINESS_AS_NAME":"JUNIOR'S SPORTS BAR","POP_AT_RISK":206805,"BUSINESS_TYPE":"Tobacco Vending, Individual","LEGAL_NAME":"AYUTLA CORP","LONGITUDE":-87.67817272295613},
{"STATE":"IL","ZIP":60628,"LATTITUDE":41.69759720559696,"ADDRESS":"10815 S MICHIGAN AVE  1ST F","YEAR":2006,"DOING_BUSINESS_AS_NAME":"MY FRIEND'S PLACE","POP_AT_RISK":299817,"BUSINESS_TYPE":"Tobacco Vending, Individual","LEGAL_NAME":"JOYCE CRYER","LONGITUDE":-87.62071089147835},
{"STATE":"IL","ZIP":60645,"LATTITUDE":42.016961012809865,"ADDRESS":"7436 N WESTERN AVE 1ST ","YEAR":2006,"DOING_BUSINESS_AS_NAME":"MARK II LTD","POP_AT_RISK":348845,"BUSINESS_TYPE":"Tobacco Vending, Individual","LEGAL_NAME":"MARK II, LTD.","LONGITUDE":-87.69034725403856},
{"STATE":"IL","ZIP":60626,"LATTITUDE":42.005871902451084,"ADDRESS":"6809-6813 N SHERIDAN RD 1ST ","YEAR":2006,"DOING_BUSINESS_AS_NAME":"OASIS, THE","POP_AT_RISK":122382,"BUSINESS_TYPE":"Tobacco Vending, Individual","LEGAL_NAME":"PRATTFALL INC","LONGITUDE":-87.66085202755195},
{"STATE":"IL","ZIP":60647,"LATTITUDE":41.91531012151821,"ADDRESS":"1850 N DAMEN AVE 1ST ","YEAR":2006,"DOING_BUSINESS_AS_NAME":"LEMMINGS","POP_AT_RISK":57381,"BUSINESS_TYPE":"Tobacco Vending, Individual","LEGAL_NAME":"1850 DAMEN INC","LONGITUDE":-87.67771343094232},
{"STATE":"IL","ZIP":60609,"LATTITUDE":41.819222277449555,"ADDRESS":"230-234 W ROOT ST  ","YEAR":2006,"DOING_BUSINESS_AS_NAME":"THE ROOT INN","POP_AT_RISK":371505,"BUSINESS_TYPE":"Tobacco Vending, Individual","LEGAL_NAME":"234 W ROOT LLC","LONGITUDE":-87.63247835812965},
{"STATE":"IL","ZIP":60632,"LATTITUDE":41.79800597428108,"ADDRESS":"5221 S CICERO AVE  ","YEAR":2006,"DOING_BUSINESS_AS_NAME":"SUNSET INN,INC","POP_AT_RISK":145840,"BUSINESS_TYPE":"Tobacco Vending, Individual","LEGAL_NAME":"SUNSET INN,INC","LONGITUDE":-87.7427569288057},
{"STATE":"IL","ZIP":60623,"LATTITUDE":41.840922809543144,"ADDRESS":"2758 S SPAULDING AVE  ","YEAR":2006,"DOING_BUSINESS_AS_NAME":"CARMENS PLACE","POP_AT_RISK":301120,"BUSINESS_TYPE":"Tobacco Vending, Individual","LEGAL_NAME":"VILLAGRANA INC","LONGITUDE":-87.707517430604},
{"STATE":"IL","ZIP":60626,"LATTITUDE":42.008005360561306,"ADDRESS":"1414 W MORSE AVE  ","YEAR":2006,"DOING_BUSINESS_AS_NAME":"TOP HAT LOUNGE","POP_AT_RISK":71531,"BUSINESS_TYPE":"Tobacco Vending, Individual","LEGAL_NAME":"1414 MORSE CORP","LONGITUDE":-87.66656748650497},
{"STATE":"IL","ZIP":60638,"LATTITUDE":41.77800881941127,"ADDRESS":"5908 W 63RD ST 1ST ","YEAR":2006,"DOING_BUSINESS_AS_NAME":"PETE & MARY'S LOUNGE","POP_AT_RISK":37876,"BUSINESS_TYPE":"Tobacco Vending, Individual","LEGAL_NAME":"MARY FEDUNYSZYN","LONGITUDE":-87.7694838110424},
{"STATE":"IL","ZIP":60630,"LATTITUDE":41.97032186228699,"ADDRESS":"4906-4908 N PULASKI RD  ","YEAR":2006,"DOING_BUSINESS_AS_NAME":"GAMBLERS","POP_AT_RISK":126406,"BUSINESS_TYPE":"Tobacco Vending, Individual","LEGAL_NAME":"GAMBLERS I, INC.","LONGITUDE":-87.72823518111367},
{"STATE":"IL","ZIP":60640,"LATTITUDE":41.96700507358272,"ADDRESS":"4659 N CLARK ST 1ST ","YEAR":2006,"DOING_BUSINESS_AS_NAME":"CAROL'S PUB INC","POP_AT_RISK":217599,"BUSINESS_TYPE":"Tobacco Vending, Individual","LEGAL_NAME":"CAROL'S PUB, INC.","LONGITUDE":-87.66695423206848},
{"STATE":"IL","ZIP":60622,"LATTITUDE":41.91048833165543,"ADDRESS":"1659 W NORTH AVE  ","YEAR":2006,"DOING_BUSINESS_AS_NAME":"LOUIE'S PUB","POP_AT_RISK":215988,"BUSINESS_TYPE":"Tobacco Vending, Individual","LEGAL_NAME":"LOUIE'S PUB, INC.","LONGITUDE":-87.67007042084737},
{"STATE":"IL","ZIP":60608,"LATTITUDE":41.83476431410133,"ADDRESS":"3243 S PAULINA ST  ","YEAR":2006,"DOING_BUSINESS_AS_NAME":"HARRY'S TAP","POP_AT_RISK":285300,"BUSINESS_TYPE":"Tobacco Vending, Individual","LEGAL_NAME":"3243 S PAULINA INC","LONGITUDE":-87.66790838011202},
{"STATE":"IL","ZIP":60630,"LATTITUDE":41.96246973487343,"ADDRESS":"4500 N ELSTON AVE 1ST ","YEAR":2006,"DOING_BUSINESS_AS_NAME":"O'DONNELLS","POP_AT_RISK":54619,"BUSINESS_TYPE":"Tobacco Vending, Individual","LEGAL_NAME":"D. O'D CORPORATION","LONGITUDE":-87.73215028038183},
{"STATE":"IL","ZIP":60655,"LATTITUDE":41.69183626604223,"ADDRESS":"11050 S SPAULDING AVE 1ST ","YEAR":2006,"DOING_BUSINESS_AS_NAME":"Blackthorn","POP_AT_RISK":84012,"BUSINESS_TYPE":"Tobacco Vending, Individual","LEGAL_NAME":"ERIK THE RED, INC.","LONGITUDE":-87.70352239364296},
{"STATE":"IL","ZIP":60619,"LATTITUDE":41.75824795059918,"ADDRESS":"307 E 75TH ST 1ST ","YEAR":2006,"DOING_BUSINESS_AS_NAME":"FRANCES COCKTAIL LOUNGE","POP_AT_RISK":409032,"BUSINESS_TYPE":"Tobacco Vending, Individual","LEGAL_NAME":"FRANCES M MITCHELL","LONGITUDE":-87.61796718262126},
{"STATE":"IL","ZIP":60643,"LATTITUDE":41.70486871150318,"ADDRESS":"10350 S WESTERN AVE  ","YEAR":2006,"DOING_BUSINESS_AS_NAME":"BREWBAKERS","POP_AT_RISK":221792,"BUSINESS_TYPE":"Tobacco Vending, Individual","LEGAL_NAME":"GORDON LOUNGE, INC","LONGITUDE":-87.68171958749872},
{"STATE":"IL","ZIP":60649,"LATTITUDE":41.751863533921544,"ADDRESS":"2442 E 79TH ST 1ST ","YEAR":2006,"DOING_BUSINESS_AS_NAME":"LEISURE LIFE LOUNGE","POP_AT_RISK":298152,"BUSINESS_TYPE":"Tobacco Vending, Individual","LEGAL_NAME":"SHEILA D. THOMPSON","LONGITUDE":-87.56454224278873},
{"STATE":"IL","ZIP":60617,"LATTITUDE":41.72672309390813,"ADDRESS":"9273 S SOUTH CHICAGO AVE  ","YEAR":2006,"DOING_BUSINESS_AS_NAME":"ROMA'S REST","POP_AT_RISK":109165,"BUSINESS_TYPE":"Tobacco Vending, Individual","LEGAL_NAME":"PALIATSOS & SON CO.","LONGITUDE":-87.55094326211272},
{"STATE":"IL","ZIP":60629,"LATTITUDE":41.78654849218397,"ADDRESS":"2710 W 59TH ST 1 ","YEAR":2006,"DOING_BUSINESS_AS_NAME":"EL FOCO ROJO","POP_AT_RISK":766260,"BUSINESS_TYPE":"Tobacco Vending, Individual","LEGAL_NAME":"REGGIES LOUNGE LTD.","LONGITUDE":-87.69167741710028},
{"STATE":"IL","ZIP":60617,"LATTITUDE":41.70631521468144,"ADDRESS":"10400 S MUSKEGON AVE  ","YEAR":2006,"DOING_BUSINESS_AS_NAME":"LEMON TREE TOO, INC.","POP_AT_RISK":33096,"BUSINESS_TYPE":"Tobacco Vending, Individual","LEGAL_NAME":"LEMON TREE TOO, INC.","LONGITUDE":-87.55512950510155},
{"STATE":"IL","ZIP":60634,"LATTITUDE":41.952524733255466,"ADDRESS":"3938 N CENTRAL AVE 1 ","YEAR":2006,"DOING_BUSINESS_AS_NAME":"DON'T WORRY","POP_AT_RISK":115452,"BUSINESS_TYPE":"Tobacco Vending, Individual","LEGAL_NAME":"M.G.R. GUARDIAN, INC.","LONGITUDE":-87.7671269338514},
{"STATE":"IL","ZIP":60657,"LATTITUDE":41.93972219199107,"ADDRESS":"3159 N SOUTHPORT AVE  1","YEAR":2006,"DOING_BUSINESS_AS_NAME":"SCHUBAS TAVERN\/HARMONY GRILL","POP_AT_RISK":243546,"BUSINESS_TYPE":"Tobacco Vending, Individual","LEGAL_NAME":"SOUTHMONT CORPORATION","LONGITUDE":-87.66367244899654},
{"STATE":"IL","ZIP":60647,"LATTITUDE":41.920921282115486,"ADDRESS":"2210 N MILWAUKEE AVE 1ST ","YEAR":2006,"DOING_BUSINESS_AS_NAME":"EL NUEVO NARANJO LOUNGE","POP_AT_RISK":167454,"BUSINESS_TYPE":"Tobacco Vending, Individual","LEGAL_NAME":"EL NUEVO NARANJO, INC.","LONGITUDE":-87.69434880817748},
{"STATE":"IL","ZIP":60640,"LATTITUDE":41.978291592499495,"ADDRESS":"1064 W BERWYN AVE  ","YEAR":2006,"DOING_BUSINESS_AS_NAME":"OLLIES","POP_AT_RISK":704520,"BUSINESS_TYPE":"Tobacco Vending, Individual","LEGAL_NAME":"BURTONS TAP & GRILL INC","LONGITUDE":-87.65764127563683},
{"STATE":"IL","ZIP":60630,"LATTITUDE":41.96864190649567,"ADDRESS":"6000 W GUNNISON ST  ","YEAR":2006,"DOING_BUSINESS_AS_NAME":"CHARLOTTE'S BAR AND GRILL","POP_AT_RISK":264012,"BUSINESS_TYPE":"Tobacco Vending, Individual","LEGAL_NAME":"CRYSTAL RESTAURANT, INC.","LONGITUDE":-87.77830163616822},
{"STATE":"IL","ZIP":60634,"LATTITUDE":41.9379941491104,"ADDRESS":"7706 W BELMONT AVE  ","YEAR":2006,"DOING_BUSINESS_AS_NAME":"AS TIME GOES BY II LTD.","POP_AT_RISK":305280,"BUSINESS_TYPE":"Tobacco Vending, Individual","LEGAL_NAME":"AS TIME GOES BY II LIMITED","LONGITUDE":-87.81928311687304},
{"STATE":"IL","ZIP":60625,"LATTITUDE":41.972793193319774,"ADDRESS":"5035 N LINCOLN AVE 1ST ","YEAR":2006,"DOING_BUSINESS_AS_NAME":"Boomers","POP_AT_RISK":388535,"BUSINESS_TYPE":"Tobacco Vending, Individual","LEGAL_NAME":"KOFIELD'S RESTAURANT, INC.","LONGITUDE":-87.69109190721971},
{"STATE":"IL","ZIP":60647,"LATTITUDE":41.927250990177676,"ADDRESS":"2521 N MILWAUKEE AVE 1ST ","YEAR":2006,"DOING_BUSINESS_AS_NAME":"THE OWL BAR","POP_AT_RISK":330715,"BUSINESS_TYPE":"Tobacco Vending, Individual","LEGAL_NAME":"COLON AND BRUNO CORPORATION","LONGITUDE":-87.7042033510881},
{"STATE":"IL","ZIP":60610,"LATTITUDE":41.892290858543895,"ADDRESS":"151 W OHIO ST LL ","YEAR":2006,"DOING_BUSINESS_AS_NAME":"RUBY","POP_AT_RISK":72484,"BUSINESS_TYPE":"Tobacco Vending, Individual","LEGAL_NAME":"MCDUFFY'S ENTERPRISES, INC.","LONGITUDE":-87.63312249045453},
{"STATE":"IL","ZIP":60632,"LATTITUDE":41.80577977439837,"ADDRESS":"4807-4809 S PULASKI RD 1ST ","YEAR":2006,"DOING_BUSINESS_AS_NAME":"BLUE SKY RESTAURANT","POP_AT_RISK":190422,"BUSINESS_TYPE":"Tobacco Vending, Individual","LEGAL_NAME":"GENE & SOPHIE'S LOUNGE, INC.","LONGITUDE":-87.72337496234026},
{"STATE":"IL","ZIP":60641,"LATTITUDE":41.94587969801943,"ADDRESS":"5223 W ADDISON ST  1","YEAR":2006,"DOING_BUSINESS_AS_NAME":"TED'S & MIKE'S LIQUOR INC","POP_AT_RISK":44501,"BUSINESS_TYPE":"Tobacco Vending, Individual","LEGAL_NAME":"TED'S & MIKE'S LIQUORS, INC.","LONGITUDE":-87.75787930696465},
{"STATE":"IL","ZIP":60638,"LATTITUDE":41.77750758060504,"ADDRESS":"6539-6541 W 63RD ST  ","YEAR":2006,"DOING_BUSINESS_AS_NAME":"J & J LOUNG & BANQUET HALL INC","POP_AT_RISK":66651,"BUSINESS_TYPE":"Tobacco Vending, Individual","LEGAL_NAME":"J & J LOUNGE BANQUET HALL INC","LONGITUDE":-87.78530285418451},
{"STATE":"IL","ZIP":60639,"LATTITUDE":41.931374091845875,"ADDRESS":"5616 W DIVERSEY AVE # 1ST","YEAR":2006,"DOING_BUSINESS_AS_NAME":"JEDYNKA","POP_AT_RISK":576972,"BUSINESS_TYPE":"Tobacco Vending, Individual","LEGAL_NAME":"PETER'S ONE TWO THREE LOUNGE I","LONGITUDE":-87.76703855660186},
{"STATE":"IL","ZIP":60661,"LATTITUDE":41.878172571606136,"ADDRESS":"233 S HALSTED ST  ","YEAR":2006,"DOING_BUSINESS_AS_NAME":"SPECTRUM SPORTS BAR & GRILL","POP_AT_RISK":210295,"BUSINESS_TYPE":"Tobacco Vending, Individual","LEGAL_NAME":"SPECTRUM SPORTS BAR & GRILL, INC.","LONGITUDE":-87.64709973557522},
{"STATE":"IL","ZIP":60610,"LATTITUDE":41.904041830936535,"ADDRESS":"14 W DIVISION ST  ","YEAR":2006,"DOING_BUSINESS_AS_NAME":"MOTHER'S TOO","POP_AT_RISK":149658,"BUSINESS_TYPE":"Tobacco Vending, Individual","LEGAL_NAME":"14 WEST DIVISION STREET CORPORATION","LONGITUDE":-87.62925137553839},
}