{
{"STATE":"IL","ZIP":60630,"LATTITUDE":41.97543839448701,"ADDRESS":"5200-5210 N CICERO AVE  ","YEAR":2015,"DOING_BUSINESS_AS_NAME":"FOSTER CICERO MARATHON","POP_AT_RISK":44140,"BUSINESS_TYPE":"Filling Station","LEGAL_NAME":"BANU INC.","LONGITUDE":-87.74814516646671},
{"STATE":"IL","ZIP":60623,"LATTITUDE":41.851294737339686,"ADDRESS":"4351 W CERMAK RD 1ST ","YEAR":2015,"DOING_BUSINESS_AS_NAME":"CERMAK CITGO","POP_AT_RISK":47209,"BUSINESS_TYPE":"Filling Station","LEGAL_NAME":"YARA, INC.","LONGITUDE":-87.73415259628885},
{"STATE":"IL","ZIP":60617,"LATTITUDE":41.70807742904229,"ADDRESS":"10300-10302 S TORRENCE AVE 1 ","YEAR":2015,"DOING_BUSINESS_AS_NAME":"TORRENCE BP","POP_AT_RISK":23752,"BUSINESS_TYPE":"Filling Station","LEGAL_NAME":"TOR103 INC.","LONGITUDE":-87.55980687133224},
{"STATE":"IL","ZIP":60651,"LATTITUDE":41.90217743763021,"ADDRESS":"5035-5051 W DIVISION ST  ","YEAR":2015,"DOING_BUSINESS_AS_NAME":"AMSTAR","POP_AT_RISK":265140,"BUSINESS_TYPE":"Filling Station","LEGAL_NAME":"GINOOB, INC.","LONGITUDE":-87.75231663842898},
{"STATE":"IL","ZIP":60628,"LATTITUDE":41.69247497477615,"ADDRESS":"734-742 W 111TH ST  ","YEAR":2015,"DOING_BUSINESS_AS_NAME":"CITGO GAS & FOOD","POP_AT_RISK":34675,"BUSINESS_TYPE":"Filling Station","LEGAL_NAME":"MEHRAN, INC.","LONGITUDE":-87.64131341884206},
{"STATE":"IL","ZIP":60647,"LATTITUDE":41.91010808224881,"ADDRESS":"3554 W NORTH AVE  ","YEAR":2015,"DOING_BUSINESS_AS_NAME":"SPEEDWAY #8320","POP_AT_RISK":78459,"BUSINESS_TYPE":"Filling Station","LEGAL_NAME":"SPEEDWAY LLC","LONGITUDE":-87.71636347779774},
{"STATE":"IL","ZIP":60639,"LATTITUDE":41.93137791313464,"ADDRESS":"5610 W DIVERSEY AVE  ","YEAR":2015,"DOING_BUSINESS_AS_NAME":"CENTRAL & DIVERSEY AMOCO","POP_AT_RISK":133854,"BUSINESS_TYPE":"Filling Station","LEGAL_NAME":"JOHN P JOSEPH","LONGITUDE":-87.7667665152801},
{"STATE":"IL","ZIP":60639,"LATTITUDE":41.923575855788215,"ADDRESS":"6349-6357 W FULLERTON AVE 1 ","YEAR":2015,"DOING_BUSINESS_AS_NAME":"FULLERTON CITGO","POP_AT_RISK":99046,"BUSINESS_TYPE":"Filling Station","LEGAL_NAME":"FNG 6353, INC.","LONGITUDE":-87.78498537215225},
{"STATE":"IL","ZIP":60653,"LATTITUDE":41.8097503335653,"ADDRESS":"1158 E 47TH ST 1ST ","YEAR":2015,"DOING_BUSINESS_AS_NAME":"WOOD LAWN AMOCO","POP_AT_RISK":45423,"BUSINESS_TYPE":"Filling Station","LEGAL_NAME":"MOHAMMAD ZAHIR","LONGITUDE":-87.59695555343261},
{"STATE":"IL","ZIP":60649,"LATTITUDE":41.76779762303839,"ADDRESS":"7001 S STONY ISLAND AVE  ","YEAR":2015,"DOING_BUSINESS_AS_NAME":"Stony Shell","POP_AT_RISK":37197,"BUSINESS_TYPE":"Filling Station","LEGAL_NAME":"P K PETRO INC.","LONGITUDE":-87.58581991823232},
{"STATE":"IL","ZIP":60644,"LATTITUDE":41.876547875279705,"ADDRESS":"5201 W JACKSON BLVD  ","YEAR":2015,"DOING_BUSINESS_AS_NAME":"BP GAS STATION","POP_AT_RISK":120996,"BUSINESS_TYPE":"Filling Station","LEGAL_NAME":"AMAL ARYA CORP.","LONGITUDE":-87.7550579948297},
{"STATE":"IL","ZIP":60646,"LATTITUDE":41.99024418564742,"ADDRESS":"4000 W PETERSON AVE  ","YEAR":2015,"DOING_BUSINESS_AS_NAME":"P & P AMOCO INC","POP_AT_RISK":35948,"BUSINESS_TYPE":"Filling Station","LEGAL_NAME":"P & P AMOCO INC","LONGITUDE":-87.7287143910091},
{"STATE":"IL","ZIP":60618,"LATTITUDE":41.95375842662663,"ADDRESS":"3960 W IRVING PARK RD 1 ","YEAR":2015,"DOING_BUSINESS_AS_NAME":"Snappy Convenience Center #7","POP_AT_RISK":196437,"BUSINESS_TYPE":"Filling Station","LEGAL_NAME":"3960 Irving Corp","LONGITUDE":-87.72755892105032},
{"STATE":"IL","ZIP":60609,"LATTITUDE":41.80154012834072,"ADDRESS":"5101 - 5109 S HALSTED ST  ","YEAR":2015,"DOING_BUSINESS_AS_NAME":"51 HALSTED, INC.","POP_AT_RISK":43362,"BUSINESS_TYPE":"Filling Station","LEGAL_NAME":"51 HALSTED, INC.","LONGITUDE":-87.64519698905924},
{"STATE":"IL","ZIP":60631,"LATTITUDE":41.99718204105818,"ADDRESS":"6405 N NORTHWEST HWY  ","YEAR":2015,"DOING_BUSINESS_AS_NAME":"NORTHWEST BP GAS","POP_AT_RISK":47856,"BUSINESS_TYPE":"Filling Station","LEGAL_NAME":"CKNP CORPORATION","LONGITUDE":-87.8069080343869},
{"STATE":"IL","ZIP":60616,"LATTITUDE":41.8382513911452,"ADDRESS":"3101 S MICHIGAN AVE 1ST ","YEAR":2015,"DOING_BUSINESS_AS_NAME":"BP AMOCO","POP_AT_RISK":30854,"BUSINESS_TYPE":"Filling Station","LEGAL_NAME":"FIFY CORPORATION","LONGITUDE":-87.62329481051012},
{"STATE":"IL","ZIP":60618,"LATTITUDE":41.93243602862578,"ADDRESS":"2811 N SACRAMENTO AVE  ","YEAR":2015,"DOING_BUSINESS_AS_NAME":"MARATHON","POP_AT_RISK":108238,"BUSINESS_TYPE":"Filling Station","LEGAL_NAME":"N & P GROUP,INC.","LONGITUDE":-87.70238542607703},
{"STATE":"IL","ZIP":60614,"LATTITUDE":41.93267441805559,"ADDRESS":"1160 W DIVERSEY PKWY 1 ","YEAR":2015,"DOING_BUSINESS_AS_NAME":"CIRCLE K #6735","POP_AT_RISK":247650,"BUSINESS_TYPE":"Filling Station","LEGAL_NAME":"RDK VENTURES LLC","LONGITUDE":-87.65822868850925},
{"STATE":"IL","ZIP":60613,"LATTITUDE":41.947207091228684,"ADDRESS":"801 - 809 W ADDISON ST 1 ","YEAR":2015,"DOING_BUSINESS_AS_NAME":"CIRCLE K # 6711","POP_AT_RISK":191300,"BUSINESS_TYPE":"Filling Station","LEGAL_NAME":"RDK VENTURES LLC","LONGITUDE":-87.64955300074726},
{"STATE":"IL","ZIP":60655,"LATTITUDE":41.69183628557645,"ADDRESS":"2632 W 111TH ST  ","YEAR":2015,"DOING_BUSINESS_AS_NAME":"KEAN BROS INC","POP_AT_RISK":108360,"BUSINESS_TYPE":"Filling Station","LEGAL_NAME":"KEAN BROTHERS INC","LONGITUDE":-87.68736448197355},
{"STATE":"IL","ZIP":60622,"LATTITUDE":41.90450210717989,"ADDRESS":"1234 N HALSTED ST  ","YEAR":2015,"DOING_BUSINESS_AS_NAME":"MONAMI GAS INC","POP_AT_RISK":118294,"BUSINESS_TYPE":"Filling Station","LEGAL_NAME":"MON AMI GAS, INC.","LONGITUDE":-87.64826686780404},
{"STATE":"IL","ZIP":60628,"LATTITUDE":41.676143347931784,"ADDRESS":"11957 S HALSTED ST  ","YEAR":2015,"DOING_BUSINESS_AS_NAME":"DANIYAL MART, CORP.","POP_AT_RISK":49678,"BUSINESS_TYPE":"Filling Station","LEGAL_NAME":"DANIYAL MART, CORP.","LONGITUDE":-87.64170612159367},
{"STATE":"IL","ZIP":60630,"LATTITUDE":41.975765419442304,"ADDRESS":"6300-6308 W FOSTER AVE 1 ","YEAR":2015,"DOING_BUSINESS_AS_NAME":"FASTWAY CITGO, INC.","POP_AT_RISK":35677,"BUSINESS_TYPE":"Filling Station","LEGAL_NAME":"FASTWAY CITGO, INC.","LONGITUDE":-87.78522772614805},
{"STATE":"IL","ZIP":60659,"LATTITUDE":41.99059321365038,"ADDRESS":"2500 W PETERSON AVE 1ST ","YEAR":2015,"DOING_BUSINESS_AS_NAME":"MOBIL","POP_AT_RISK":235868,"BUSINESS_TYPE":"Filling Station","LEGAL_NAME":"GURNAM MARATHON INC","LONGITUDE":-87.6921619626574},
{"STATE":"IL","ZIP":60638,"LATTITUDE":41.79242577857389,"ADDRESS":"6434 W ARCHER AVE 1ST ","YEAR":2015,"DOING_BUSINESS_AS_NAME":"ARCHER SHELL","POP_AT_RISK":30725,"BUSINESS_TYPE":"Filling Station","LEGAL_NAME":"MBS PETROLEUM, INC.","LONGITUDE":-87.78317609026391},
{"STATE":"IL","ZIP":60640,"LATTITUDE":41.97600177657613,"ADDRESS":"1745 W FOSTER AVE  ","YEAR":2015,"DOING_BUSINESS_AS_NAME":"CITGO","POP_AT_RISK":61582,"BUSINESS_TYPE":"Filling Station","LEGAL_NAME":"MDP PETROMART, INC.","LONGITUDE":-87.67383790914607},
{"STATE":"IL","ZIP":60626,"LATTITUDE":41.9980889165408,"ADDRESS":"6401 N RIDGE BLVD  ","YEAR":2015,"DOING_BUSINESS_AS_NAME":"DEVON & RIDGE SHELL","POP_AT_RISK":156894,"BUSINESS_TYPE":"Filling Station","LEGAL_NAME":"HAFIZ FOODMART, INC.","LONGITUDE":-87.67674036828906},
{"STATE":"IL","ZIP":60615,"LATTITUDE":41.80190798861809,"ADDRESS":"123 E 51ST ST  ","YEAR":2015,"DOING_BUSINESS_AS_NAME":"HYDE PARK CITGO","POP_AT_RISK":30643,"BUSINESS_TYPE":"Filling Station","LEGAL_NAME":"HYDE PARK CORPORATION","LONGITUDE":-87.62156099431172},
{"STATE":"IL","ZIP":60653,"LATTITUDE":41.82374783303715,"ADDRESS":"437 E PERSHING RD 1 ","YEAR":2015,"DOING_BUSINESS_AS_NAME":"LAKE FRONT CITGO","POP_AT_RISK":32372,"BUSINESS_TYPE":"Filling Station","LEGAL_NAME":"LAKE FRONT CITGO INC.","LONGITUDE":-87.61529192049633},
{"STATE":"IL","ZIP":60617,"LATTITUDE":41.74453593701442,"ADDRESS":"2941 E 83RD ST TH ","YEAR":2015,"DOING_BUSINESS_AS_NAME":"CITGO","POP_AT_RISK":33876,"BUSINESS_TYPE":"Filling Station","LEGAL_NAME":"TUMARA FOOD MART INC.","LONGITUDE":-87.55235844692069},
{"STATE":"IL","ZIP":60626,"LATTITUDE":42.01270437063092,"ADDRESS":"7201 N CLARK ST  ","YEAR":2015,"DOING_BUSINESS_AS_NAME":"ESQUIRE PETROLEUM-MOBIL","POP_AT_RISK":77683,"BUSINESS_TYPE":"Filling Station","LEGAL_NAME":"ESQUIRE PETROLEUM, LLC","LONGITUDE":-87.67450071917104},
{"STATE":"IL","ZIP":60605,"LATTITUDE":41.86683145443883,"ADDRESS":"1221 - 1223 S WABASH AVE 1ST ","YEAR":2015,"DOING_BUSINESS_AS_NAME":"PRIDE OF CHICAGO\/ BP \/AM PM","POP_AT_RISK":39491,"BUSINESS_TYPE":"Filling Station","LEGAL_NAME":"THE PRIDE STORES, INC.","LONGITUDE":-87.62566960895664},
{"STATE":"IL","ZIP":60618,"LATTITUDE":41.960913215361195,"ADDRESS":"4346 N WESTERN AVE 1ST ","YEAR":2015,"DOING_BUSINESS_AS_NAME":"WESTERN MONTROSE SHELL","POP_AT_RISK":65719,"BUSINESS_TYPE":"Filling Station","LEGAL_NAME":"WESTERN MONTROSE, INC.","LONGITUDE":-87.68881742016944},
{"STATE":"IL","ZIP":60640,"LATTITUDE":41.969052475380735,"ADDRESS":"755 W LAWRENCE AVE 1ST ","YEAR":2015,"DOING_BUSINESS_AS_NAME":"BELCHI GAS & FOOD","POP_AT_RISK":169923,"BUSINESS_TYPE":"Filling Station","LEGAL_NAME":"BELCHI GAS & FOOD, INC.","LONGITUDE":-87.64978867605367},
{"STATE":"IL","ZIP":60641,"LATTITUDE":41.93885685727634,"ADDRESS":"4345 W BELMONT AVE 1ST ","YEAR":2015,"DOING_BUSINESS_AS_NAME":"Daisy's Carwash and Gas","POP_AT_RISK":53644,"BUSINESS_TYPE":"Filling Station","LEGAL_NAME":"Daisy's carwash and Gas","LONGITUDE":-87.73665676811015},
{"STATE":"IL","ZIP":60625,"LATTITUDE":41.97549167738373,"ADDRESS":"5155 N KIMBALL AVE 1ST ","YEAR":2015,"DOING_BUSINESS_AS_NAME":"FOSTER SHELL","POP_AT_RISK":171651,"BUSINESS_TYPE":"Filling Station","LEGAL_NAME":"FOSTER SHELL MART, INC.","LONGITUDE":-87.71340954570594},
{"STATE":"IL","ZIP":60656,"LATTITUDE":41.981027631859,"ADDRESS":"7201 W HIGGINS AVE 1ST ","YEAR":2015,"DOING_BUSINESS_AS_NAME":"HARLEM HIGGINS SHELL","POP_AT_RISK":59228,"BUSINESS_TYPE":"Filling Station","LEGAL_NAME":"HIGGINS SHELL MART INC.","LONGITUDE":-87.80708076227056},
{"STATE":"IL","ZIP":60617,"LATTITUDE":41.73364644902699,"ADDRESS":"8903 S SOUTH CHICAGO AVE 1ST ","YEAR":2015,"DOING_BUSINESS_AS_NAME":"MOBIL FUEL & MINI MART","POP_AT_RISK":66238,"BUSINESS_TYPE":"Filling Station","LEGAL_NAME":"SOUTH CHICAGO GAS, INC.","LONGITUDE":-87.5605530337763},
{"STATE":"IL","ZIP":60636,"LATTITUDE":41.772401759937566,"ADDRESS":"6646-6658 S WESTERN AVE 1ST ","YEAR":2015,"DOING_BUSINESS_AS_NAME":"SHELL GAS STATION","POP_AT_RISK":42948,"BUSINESS_TYPE":"Filling Station","LEGAL_NAME":"V-R-5 ENTERPRISES, INC.","LONGITUDE":-87.68360273081268},
{"STATE":"IL","ZIP":60638,"LATTITUDE":41.79205441797499,"ADDRESS":"6751 W ARCHER AVE GROUND ","YEAR":2015,"DOING_BUSINESS_AS_NAME":"ARCHER BP","POP_AT_RISK":18797,"BUSINESS_TYPE":"Filling Station","LEGAL_NAME":"ARCHER BP PETROLEUM, INC.","LONGITUDE":-87.79117217776604},
{"STATE":"IL","ZIP":60628,"LATTITUDE":41.68250990843376,"ADDRESS":"11600-11604 S MICHIGAN AVE 1ST ","YEAR":2015,"DOING_BUSINESS_AS_NAME":"CITGO FUEL & MINI MART","POP_AT_RISK":149750,"BUSINESS_TYPE":"Filling Station","LEGAL_NAME":"HALA GAS & MINI MART INC.","LONGITUDE":-87.62080340282495},
{"STATE":"IL","ZIP":60629,"LATTITUDE":41.77858188926328,"ADDRESS":"3905-3911 W 63RD ST 1 1","YEAR":2015,"DOING_BUSINESS_AS_NAME":"PHILLIPS 66","POP_AT_RISK":401716,"BUSINESS_TYPE":"Filling Station","LEGAL_NAME":"GAS DEPOT & MINI MART, INC.","LONGITUDE":-87.72057970724508},
{"STATE":"IL","ZIP":60622,"LATTITUDE":41.90281332978524,"ADDRESS":"2805 W DIVISION ST  ","YEAR":2015,"DOING_BUSINESS_AS_NAME":"DIVISION CITGO & FOOD MART","POP_AT_RISK":60998,"BUSINESS_TYPE":"Filling Station","LEGAL_NAME":"MM BUSINESS ENTERPRISE INC.","LONGITUDE":-87.69712881362462},
{"STATE":"IL","ZIP":60827,"LATTITUDE":41.6486883798811,"ADDRESS":"13547 S INDIANA AVE  ","YEAR":2015,"DOING_BUSINESS_AS_NAME":"GAS SHOP AND MINI MART","POP_AT_RISK":33762,"BUSINESS_TYPE":"Filling Station","LEGAL_NAME":"GAS SHOP AND MINI MART, INC.","LONGITUDE":-87.61707897789567},
{"STATE":"IL","ZIP":60637,"LATTITUDE":41.77304782188627,"ADDRESS":"6700 S COTTAGE GROVE AVE  ","YEAR":2015,"DOING_BUSINESS_AS_NAME":"CITGO FUEL & MINI MART","POP_AT_RISK":148648,"BUSINESS_TYPE":"Filling Station","LEGAL_NAME":"CHICAGO FUEL & MINI MART, INC.","LONGITUDE":-87.6059130528716},
}