{
{"STATE":"IL","ZIP":60619,"LATTITUDE":41.76468344291175,"ADDRESS":"7127 S STATE ST 1ST ","YEAR":2015,"DOING_BUSINESS_AS_NAME":"MARKET FISH COOKED & FRESH","POP_AT_RISK":31588,"BUSINESS_TYPE":"Wholesale Food Establishment","LEGAL_NAME":"HAIM BRODY","LONGITUDE":-87.62474219585987},
{"STATE":"IL","ZIP":60827,"LATTITUDE":41.64471651864612,"ADDRESS":"612 E 138TH ST  ","YEAR":2015,"DOING_BUSINESS_AS_NAME":"INNOPHOS INC.","POP_AT_RISK":40143,"BUSINESS_TYPE":"Wholesale Food Establishment","LEGAL_NAME":"INNOPHOS INC.","LONGITUDE":-87.60679330792205},
{"STATE":"IL","ZIP":60622,"LATTITUDE":41.90306317045896,"ADDRESS":"2642 W DIVISION ST  ","YEAR":2015,"DOING_BUSINESS_AS_NAME":"PALETERIA FLOR DE MICHOACAN","POP_AT_RISK":178002,"BUSINESS_TYPE":"Wholesale Food Establishment","LEGAL_NAME":"EDGAR MARTINEZ","LONGITUDE":-87.69368260743562},
{"STATE":"IL","ZIP":60628,"LATTITUDE":41.69652101160591,"ADDRESS":"10839 S LANGLEY AVE  ","YEAR":2015,"DOING_BUSINESS_AS_NAME":"KEEBLER COMPANY","POP_AT_RISK":77945,"BUSINESS_TYPE":"Wholesale Food Establishment","LEGAL_NAME":"KEEBLER COMPANY","LONGITUDE":-87.6059247612974},
{"STATE":"IL","ZIP":60647,"LATTITUDE":41.92794689609416,"ADDRESS":"2547-2559 N ELSTON AVE 1ST ","YEAR":2015,"DOING_BUSINESS_AS_NAME":"Garrett Popcorn Shops","POP_AT_RISK":52573,"BUSINESS_TYPE":"Wholesale Food Establishment","LEGAL_NAME":"CARAMELCRISP LLC","LONGITUDE":-87.68144823905257},
{"STATE":"IL","ZIP":60639,"LATTITUDE":41.931364039044325,"ADDRESS":"4951 W DIVERSEY AVE 1ST ","YEAR":2015,"DOING_BUSINESS_AS_NAME":"ALEX DELI","POP_AT_RISK":469574,"BUSINESS_TYPE":"Wholesale Food Establishment","LEGAL_NAME":"ENDY'S DELI, INC.","LONGITUDE":-87.75107606731656},
{"STATE":"IL","ZIP":60613,"LATTITUDE":41.95180634357866,"ADDRESS":"3830 N CLARK ST  ","YEAR":2015,"DOING_BUSINESS_AS_NAME":"NUTS ON CLARK INC","POP_AT_RISK":996720,"BUSINESS_TYPE":"Wholesale Food Establishment","LEGAL_NAME":"NUTS ON CLARK INC","LONGITUDE":-87.66038145990446},
{"STATE":"IL","ZIP":60617,"LATTITUDE":41.739684595079034,"ADDRESS":"8544  -08546 S COMMERCIAL AVE 1ST ","YEAR":2015,"DOING_BUSINESS_AS_NAME":"CECY'S MOLINO DE MASA","POP_AT_RISK":85845,"BUSINESS_TYPE":"Wholesale Food Establishment","LEGAL_NAME":"CECILIA VILLARRUEL","LONGITUDE":-87.55162081518151},
{"STATE":"IL","ZIP":60620,"LATTITUDE":41.75445964628522,"ADDRESS":"7637 S WESTERN AVE  ","YEAR":2015,"DOING_BUSINESS_AS_NAME":"CUPID CANDIES INC","POP_AT_RISK":89301,"BUSINESS_TYPE":"Wholesale Food Establishment","LEGAL_NAME":"CUPID CANDIES, INC","LONGITUDE":-87.6828164498929},
{"STATE":"IL","ZIP":60707,"LATTITUDE":41.9289626042484,"ADDRESS":"2701 N HARLEM AVE 1ST ","YEAR":2015,"DOING_BUSINESS_AS_NAME":"MICHAELANGELO'S FOODS","POP_AT_RISK":87052,"BUSINESS_TYPE":"Wholesale Food Establishment","LEGAL_NAME":"MICHAEL CIAMPANELLI","LONGITUDE":-87.80628280360719},
{"STATE":"IL","ZIP":60641,"LATTITUDE":41.95904241688873,"ADDRESS":"4316 N ELSTON AVE  ","YEAR":2015,"DOING_BUSINESS_AS_NAME":"V&V WHOLESALE, INC.","POP_AT_RISK":61558,"BUSINESS_TYPE":"Wholesale Food Establishment","LEGAL_NAME":"V&V WHOLESALE, INC.","LONGITUDE":-87.72717554498958},
{"STATE":"IL","ZIP":60618,"LATTITUDE":41.957814601626694,"ADDRESS":"4207-4211 N KEDZIE AVE 1 ","YEAR":2015,"DOING_BUSINESS_AS_NAME":"Sanabel Bakery","POP_AT_RISK":284276,"BUSINESS_TYPE":"Wholesale Food Establishment","LEGAL_NAME":"AL-AMIR BAKERY, INC.","LONGITUDE":-87.70799144267416},
{"STATE":"IL","ZIP":60631,"LATTITUDE":41.99412935894236,"ADDRESS":"6186 N NORTHWEST HWY 1ST ","YEAR":2015,"DOING_BUSINESS_AS_NAME":"UNION FISHERIES CORP","POP_AT_RISK":95712,"BUSINESS_TYPE":"Wholesale Food Establishment","LEGAL_NAME":"UNION FISHERIES CORP","LONGITUDE":-87.80226201134202},
{"STATE":"IL","ZIP":60610,"LATTITUDE":41.89213347860132,"ADDRESS":"545 N WELLS ST # 1ST","YEAR":2015,"DOING_BUSINESS_AS_NAME":"ANICHINI BROS INC","POP_AT_RISK":463968,"BUSINESS_TYPE":"Wholesale Food Establishment","LEGAL_NAME":"ANICHINI BROTHERS INC","LONGITUDE":-87.63393294670098},
{"STATE":"IL","ZIP":60634,"LATTITUDE":41.952632794111594,"ADDRESS":"6851 W IRVING PARK RD 1ST ","YEAR":2015,"DOING_BUSINESS_AS_NAME":"GOOD FOODS GROUP, LLC","POP_AT_RISK":288128,"BUSINESS_TYPE":"Wholesale Food Establishment","LEGAL_NAME":"GOOD FOODS GROUP, LLC","LONGITUDE":-87.79830631114467},
{"STATE":"IL","ZIP":60620,"LATTITUDE":41.750165222683236,"ADDRESS":"1835-1845 W 79TH ST  ","YEAR":2015,"DOING_BUSINESS_AS_NAME":"DEARBORN WHOLESALE GROCERS","POP_AT_RISK":208506,"BUSINESS_TYPE":"Wholesale Food Establishment","LEGAL_NAME":"DEARBORN WHOLESALE LLC","LONGITUDE":-87.66963679219731},
{"STATE":"IL","ZIP":60621,"LATTITUDE":41.78566325269064,"ADDRESS":"5950 S WALLACE ST 1 1","YEAR":2015,"DOING_BUSINESS_AS_NAME":"SUSTAINABLE FOODS, LLC","POP_AT_RISK":26308,"BUSINESS_TYPE":"Wholesale Food Establishment","LEGAL_NAME":"SUSTAINABLE FOODS, LLC","LONGITUDE":-87.64028544536903},
{"STATE":"IL","ZIP":60618,"LATTITUDE":41.9337999487675,"ADDRESS":"2711 W GEORGE ST  ","YEAR":2015,"DOING_BUSINESS_AS_NAME":"CRESTONE GROUP, LLC","POP_AT_RISK":112254,"BUSINESS_TYPE":"Wholesale Food Establishment","LEGAL_NAME":"CRESTONE   GROUP , LLC.","LONGITUDE":-87.69568416955207},
{"STATE":"IL","ZIP":60609,"LATTITUDE":41.81901264253939,"ADDRESS":"215 W ROOT ST  ","YEAR":2015,"DOING_BUSINESS_AS_NAME":"DANIELSON FOOD PROD INC","POP_AT_RISK":82748,"BUSINESS_TYPE":"Wholesale Food Establishment","LEGAL_NAME":"DANIELSON FOOD PROD INC","LONGITUDE":-87.63184863563215},
{"STATE":"IL","ZIP":60619,"LATTITUDE":41.72565184476607,"ADDRESS":"945 E 93RD ST  ","YEAR":2015,"DOING_BUSINESS_AS_NAME":"FOOD & PAPER SUPPLY CO.","POP_AT_RISK":205460,"BUSINESS_TYPE":"Wholesale Food Establishment","LEGAL_NAME":"FOOD & PAPER SUPPLY CO.","LONGITUDE":-87.60079152053679},
{"STATE":"IL","ZIP":60619,"LATTITUDE":41.763518738292134,"ADDRESS":"7247-7249 S SOUTH CHICAGO AVE  1ST","YEAR":2015,"DOING_BUSINESS_AS_NAME":"FOOD & PAPER SUPPLY CO.","POP_AT_RISK":142640,"BUSINESS_TYPE":"Wholesale Food Establishment","LEGAL_NAME":"FOOD & PAPER SUPPLY CO.","LONGITUDE":-87.6020811928112},
{"STATE":"IL","ZIP":60640,"LATTITUDE":41.964177038368376,"ADDRESS":"4527 N RAVENSWOOD AVE 1ST 106","YEAR":2015,"DOING_BUSINESS_AS_NAME":"Lucila's Homemade","POP_AT_RISK":111130,"BUSINESS_TYPE":"Wholesale Food Establishment","LEGAL_NAME":"LUCILA' S HOMEMADE, LLC","LONGITUDE":-87.67390421656927},
{"STATE":"IL","ZIP":60707,"LATTITUDE":41.92146349194392,"ADDRESS":"2248 N NATCHEZ AVE  ","YEAR":2015,"DOING_BUSINESS_AS_NAME":"HOME CITY ICE","POP_AT_RISK":49523,"BUSINESS_TYPE":"Wholesale Food Establishment","LEGAL_NAME":"THE HOME CITY ICE COMPANY","LONGITUDE":-87.78797215316628},
{"STATE":"IL","ZIP":60639,"LATTITUDE":41.91367648368323,"ADDRESS":"1800 N PULASKI RD 1ST ","YEAR":2015,"DOING_BUSINESS_AS_NAME":"JOSEPH ANTOGNOLI & CO","POP_AT_RISK":141850,"BUSINESS_TYPE":"Wholesale Food Establishment","LEGAL_NAME":"JOSEPH ANTOGNOLI & COMPANY","LONGITUDE":-87.72659749981536},
{"STATE":"IL","ZIP":60659,"LATTITUDE":41.99729435558112,"ADDRESS":"6348 N MAPLEWOOD AVE 1ST ","YEAR":2015,"DOING_BUSINESS_AS_NAME":"MUGHAL BAKERY","POP_AT_RISK":391716,"BUSINESS_TYPE":"Wholesale Food Establishment","LEGAL_NAME":"MUGHAL BAKERY CHICAGO INC.","LONGITUDE":-87.69367981624458},
{"STATE":"IL","ZIP":60638,"LATTITUDE":41.78519267395424,"ADDRESS":"5757 W 59TH ST 1ST ","YEAR":2015,"DOING_BUSINESS_AS_NAME":"OLYMPIA FOOD INDUSTRIES INC","POP_AT_RISK":139165,"BUSINESS_TYPE":"Wholesale Food Establishment","LEGAL_NAME":"OLYMPIA FOOD INDUSTRIES INC","LONGITUDE":-87.7667534323291},
{"STATE":"IL","ZIP":60620,"LATTITUDE":41.74169192075343,"ADDRESS":"101 W 84TH ST 1ST ","YEAR":2015,"DOING_BUSINESS_AS_NAME":"BEST VALUE DISTRIBUTORS INC.","POP_AT_RISK":95592,"BUSINESS_TYPE":"Wholesale Food Establishment","LEGAL_NAME":"BEST VALUE DISTRIBUTORS INC.","LONGITUDE":-87.62684750615163},
{"STATE":"IL","ZIP":60639,"LATTITUDE":41.91685499598848,"ADDRESS":"4649 W ARMITAGE AVE  ","YEAR":2015,"DOING_BUSINESS_AS_NAME":"BEST CHICAGO MEAT COMPANY, LLC","POP_AT_RISK":64704,"BUSINESS_TYPE":"Wholesale Food Establishment","LEGAL_NAME":"BEST CHICAGO MEAT COMPANY, LLC","LONGITUDE":-87.74335307652304},
{"STATE":"IL","ZIP":60638,"LATTITUDE":41.79468154402482,"ADDRESS":"5370 S CICERO AVE 1ST ","YEAR":2015,"DOING_BUSINESS_AS_NAME":"FLYING FOOD FARE MIDWAY L.L.C.","POP_AT_RISK":28658,"BUSINESS_TYPE":"Wholesale Food Establishment","LEGAL_NAME":"FLYING FOOD FARE MIDWAY, L.L.C.","LONGITUDE":-87.74292108541009},
{"STATE":"IL","ZIP":60639,"LATTITUDE":41.91272939470666,"ADDRESS":"5750 W BLOOMINGDALE AVE  ","YEAR":2015,"DOING_BUSINESS_AS_NAME":"JM DISTRIBUTION ENTERPRISES","POP_AT_RISK":47566,"BUSINESS_TYPE":"Wholesale Food Establishment","LEGAL_NAME":"JM DISTRIBUTION ENTERPRISES LTD.","LONGITUDE":-87.76944064303055},
{"STATE":"IL","ZIP":60616,"LATTITUDE":41.85096722084695,"ADDRESS":"15-19 E 23RD ST 1 ","YEAR":2015,"DOING_BUSINESS_AS_NAME":"Chicago Oriental Wholesale Market","POP_AT_RISK":39535,"BUSINESS_TYPE":"Wholesale Food Establishment","LEGAL_NAME":"CHICAGO ORIENTAL WHOLESALE MARKET, INC.","LONGITUDE":-87.62631731778754},
{"STATE":"IL","ZIP":60617,"LATTITUDE":41.682696264898055,"ADDRESS":"11700 S TORRENCE AVE  ","YEAR":2015,"DOING_BUSINESS_AS_NAME":"CHICAGO & ILLINOIS RIVER MARKETING,  LLC","POP_AT_RISK":3233,"BUSINESS_TYPE":"Wholesale Food Establishment","LEGAL_NAME":"CHICAGO & ILLINOIS  RIVER MARKETING,  LLC","LONGITUDE":-87.55950138523278},
{"STATE":"IL","ZIP":60659,"LATTITUDE":41.98670038894606,"ADDRESS":"2405 W ARDMORE AVE 1ST ","YEAR":2015,"DOING_BUSINESS_AS_NAME":"BA LE MEAT PROCESSING & WHLSLE","POP_AT_RISK":216124,"BUSINESS_TYPE":"Wholesale Food Establishment","LEGAL_NAME":"BA LE MEAT PROCESSING & WHOLESALE COMPANY, INC.","LONGITUDE":-87.68979217379174},
}