{
{"STATE":"IL","ZIP":60630,"LATTITUDE":41.9679174064144,"ADDRESS":"5510 W LAWRENCE AVE  1","YEAR":2011,"DOING_BUSINESS_AS_NAME":"PINK POODLE DOG BOUTIQUE","POP_AT_RISK":91226,"BUSINESS_TYPE":"Grooming Facility","LEGAL_NAME":"DORIS GRGIN","LONGITUDE":-87.76548452271193},
{"STATE":"IL","ZIP":60632,"LATTITUDE":41.82098754788502,"ADDRESS":"4008 S ARCHER AVE 1 ","YEAR":2011,"DOING_BUSINESS_AS_NAME":"CACHORRO PET","POP_AT_RISK":509832,"BUSINESS_TYPE":"Grooming Facility","LEGAL_NAME":"JUAN ZARATE","LONGITUDE":-87.6932314725678},
{"STATE":"IL","ZIP":60610,"LATTITUDE":41.911053246073564,"ADDRESS":"109 W NORTH AVE  ","YEAR":2011,"DOING_BUSINESS_AS_NAME":"PAWS-A-TIVELY","POP_AT_RISK":63836,"BUSINESS_TYPE":"Grooming Facility","LEGAL_NAME":"BARSHUVAL INC","LONGITUDE":-87.63207656730064},
{"STATE":"IL","ZIP":60617,"LATTITUDE":41.725362607953755,"ADDRESS":"9335 S ESCANABA AVE 1ST ","YEAR":2011,"DOING_BUSINESS_AS_NAME":"PET GROOMERS","POP_AT_RISK":129003,"BUSINESS_TYPE":"Grooming Facility","LEGAL_NAME":"FLORENDO WAIR","LONGITUDE":-87.55375842875418},
{"STATE":"IL","ZIP":60634,"LATTITUDE":41.938076444262066,"ADDRESS":"7500 W BELMONT AVE 1ST ","YEAR":2011,"DOING_BUSINESS_AS_NAME":"POM POM PALACE","POP_AT_RISK":84766,"BUSINESS_TYPE":"Grooming Facility","LEGAL_NAME":"JULIE HERBERT","LONGITUDE":-87.81413766781473},
{"STATE":"IL","ZIP":60611,"LATTITUDE":41.893341296312244,"ADDRESS":"401 E ONTARIO ST 1 ","YEAR":2011,"DOING_BUSINESS_AS_NAME":"STREETVILLE PET SPA & BOUTIQUE","POP_AT_RISK":173247,"BUSINESS_TYPE":"Grooming Facility","LEGAL_NAME":"HYDE PARK INC.","LONGITUDE":-87.61758915120579},
{"STATE":"IL","ZIP":60607,"LATTITUDE":41.86888971111206,"ADDRESS":"1101 S CANAL ST  ","YEAR":2011,"DOING_BUSINESS_AS_NAME":"PETSMART","POP_AT_RISK":32478,"BUSINESS_TYPE":"Grooming Facility","LEGAL_NAME":"PETSMART, INC.","LONGITUDE":-87.63909892808796},
{"STATE":"IL","ZIP":60656,"LATTITUDE":41.97462951006733,"ADDRESS":"7220 W FOSTER AVE 1ST ","YEAR":2011,"DOING_BUSINESS_AS_NAME":"PET SUPPLIES PLUS","POP_AT_RISK":125060,"BUSINESS_TYPE":"Grooming Facility","LEGAL_NAME":"PSP STORES LLC","LONGITUDE":-87.80798109934157},
{"STATE":"IL","ZIP":60609,"LATTITUDE":41.82727787410544,"ADDRESS":"556 W 37TH ST 1ST FL ","YEAR":2011,"DOING_BUSINESS_AS_NAME":"THREE PUPS IN A TUB","POP_AT_RISK":185874,"BUSINESS_TYPE":"Grooming Facility","LEGAL_NAME":"EDWARD SIDABRAS","LONGITUDE":-87.6409992314425},
{"STATE":"IL","ZIP":60625,"LATTITUDE":41.9667779014412,"ADDRESS":"2316 W LELAND AVE 1 ","YEAR":2011,"DOING_BUSINESS_AS_NAME":"SP2","POP_AT_RISK":211239,"BUSINESS_TYPE":"Grooming Facility","LEGAL_NAME":"SOGGY PAWS, INC","LONGITUDE":-87.68811596983174},
{"STATE":"IL","ZIP":60616,"LATTITUDE":41.856013501435896,"ADDRESS":"1925 S ARCHER AVE 1 ","YEAR":2011,"DOING_BUSINESS_AS_NAME":"SOGGY PAWS","POP_AT_RISK":33206,"BUSINESS_TYPE":"Grooming Facility","LEGAL_NAME":"SOGGY PAWS, INC","LONGITUDE":-87.62802795457878},
{"STATE":"IL","ZIP":60640,"LATTITUDE":41.967311213619794,"ADDRESS":"1148 W LELAND AVE  ","YEAR":2011,"DOING_BUSINESS_AS_NAME":"SOGGY  PAWS  INC","POP_AT_RISK":67069,"BUSINESS_TYPE":"Grooming Facility","LEGAL_NAME":"SOGGY PAWS, INC","LONGITUDE":-87.65948778391727},
{"STATE":"IL","ZIP":60647,"LATTITUDE":41.91765358245522,"ADDRESS":"2526 W ARMITAGE AVE 1 ","YEAR":2011,"DOING_BUSINESS_AS_NAME":"SOGGY PAWS, INC.","POP_AT_RISK":232224,"BUSINESS_TYPE":"Grooming Facility","LEGAL_NAME":"SOGGY PAWS, INC","LONGITUDE":-87.69103634902459},
{"STATE":"IL","ZIP":60605,"LATTITUDE":41.86909622173524,"ADDRESS":"1103 S STATE ST 1ST ","YEAR":2011,"DOING_BUSINESS_AS_NAME":"KRISERS FEEDIN PETS FOR LIFE","POP_AT_RISK":87682,"BUSINESS_TYPE":"Grooming Facility","LEGAL_NAME":"STATE\/11TH, LLC","LONGITUDE":-87.62731806769206},
{"STATE":"IL","ZIP":60640,"LATTITUDE":41.979049716032925,"ADDRESS":"1476-78 W SUMMERDALE AVE  ","YEAR":2011,"DOING_BUSINESS_AS_NAME":"Scrub A Dub Dub","POP_AT_RISK":394038,"BUSINESS_TYPE":"Grooming Facility","LEGAL_NAME":"Teresa A. Boris","LONGITUDE":-87.66777435661234},
{"STATE":"IL","ZIP":60645,"LATTITUDE":42.017295118461554,"ADDRESS":"7448 N WESTERN AVE 1ST ","YEAR":2011,"DOING_BUSINESS_AS_NAME":"DOG SPLASH","POP_AT_RISK":99670,"BUSINESS_TYPE":"Grooming Facility","LEGAL_NAME":"WASH N WAG CORP","LONGITUDE":-87.6903452644412},
{"STATE":"IL","ZIP":60641,"LATTITUDE":41.953392106880344,"ADDRESS":"5232 W IRVING PARK RD  ","YEAR":2011,"DOING_BUSINESS_AS_NAME":"BARK OUT LOUD","POP_AT_RISK":95188,"BUSINESS_TYPE":"Grooming Facility","LEGAL_NAME":"ANNE MARIE ZWICK","LONGITUDE":-87.75849574816502},
{"STATE":"IL","ZIP":60622,"LATTITUDE":41.892086802610415,"ADDRESS":"535 N ASHLAND AVE 1 ","YEAR":2011,"DOING_BUSINESS_AS_NAME":"CLEANDOG","POP_AT_RISK":37500,"BUSINESS_TYPE":"Grooming Facility","LEGAL_NAME":"CLEANDOG, L.L.C.","LONGITUDE":-87.66702764356063},
{"STATE":"IL","ZIP":60707,"LATTITUDE":41.90909396170177,"ADDRESS":"6916 W NORTH AVE  ","YEAR":2011,"DOING_BUSINESS_AS_NAME":"LE POOCH SALON","POP_AT_RISK":72654,"BUSINESS_TYPE":"Grooming Facility","LEGAL_NAME":"SANDRA S PORRATA","LONGITUDE":-87.79796341179787},
{"STATE":"IL","ZIP":60637,"LATTITUDE":41.76921322872776,"ADDRESS":"361 E 69TH ST 1ST ","YEAR":2011,"DOING_BUSINESS_AS_NAME":"DOGS ONLY GROOMING SALON","POP_AT_RISK":436020,"BUSINESS_TYPE":"Grooming Facility","LEGAL_NAME":"ARLETTA M BENNETT","LONGITUDE":-87.61623688906927},
{"STATE":"IL","ZIP":60608,"LATTITUDE":41.83609692076121,"ADDRESS":"3203 S HALSTED ST 1ST ","YEAR":2011,"DOING_BUSINESS_AS_NAME":"BROOKLYN'S DOGGIE STYLES","POP_AT_RISK":192515,"BUSINESS_TYPE":"Grooming Facility","LEGAL_NAME":"KELLY L. MARUSARZ","LONGITUDE":-87.64608423691962},
{"STATE":"IL","ZIP":60608,"LATTITUDE":41.85186827166058,"ADDRESS":"2551 W CERMAK RD 1ST 703\/714","YEAR":2011,"DOING_BUSINESS_AS_NAME":"ACUARIO PISCIS \/ ESTETICA CANINA","POP_AT_RISK":548197,"BUSINESS_TYPE":"Grooming Facility","LEGAL_NAME":"VICTOR M. PACHECO","LONGITUDE":-87.69007512129495},
{"STATE":"IL","ZIP":60643,"LATTITUDE":41.71080448383775,"ADDRESS":"10035 S WESTERN AVE  1","YEAR":2011,"DOING_BUSINESS_AS_NAME":"BEVERLY PET","POP_AT_RISK":75272,"BUSINESS_TYPE":"Grooming Facility","LEGAL_NAME":"AUDREY ANN FISCHER","LONGITUDE":-87.68160723017458},
{"STATE":"IL","ZIP":60629,"LATTITUDE":41.778569004502664,"ADDRESS":"4656 W 63RD ST  ","YEAR":2011,"DOING_BUSINESS_AS_NAME":"Tres Chic Dog Grooming","POP_AT_RISK":76539,"BUSINESS_TYPE":"Grooming Facility","LEGAL_NAME":"Gary E. Paczkowski","LONGITUDE":-87.73970151969735},
{"STATE":"IL","ZIP":60639,"LATTITUDE":41.91698872689966,"ADDRESS":"4914 W ARMITAGE AVE 1ST ","YEAR":2011,"DOING_BUSINESS_AS_NAME":"WOOF & MEOW","POP_AT_RISK":885450,"BUSINESS_TYPE":"Grooming Facility","LEGAL_NAME":"LIZANDRO E. MOLINA","LONGITUDE":-87.7501283540482},
{"STATE":"IL","ZIP":60632,"LATTITUDE":41.80961326807215,"ADDRESS":"4609 S ARCHER AVE 1 1","YEAR":2011,"DOING_BUSINESS_AS_NAME":"VICKY'S PET GROOMING SHOP","POP_AT_RISK":141564,"BUSINESS_TYPE":"Grooming Facility","LEGAL_NAME":"JOSE DAVID GONZALEZ","LONGITUDE":-87.71130770275475},
{"STATE":"IL","ZIP":60630,"LATTITUDE":41.97709066969314,"ADDRESS":"5281 N ELSTON AVE 1 ","YEAR":2011,"DOING_BUSINESS_AS_NAME":"SHEAR CRITTERS","POP_AT_RISK":25353,"BUSINESS_TYPE":"Grooming Facility","LEGAL_NAME":"SHEAR CRITTERS CORP","LONGITUDE":-87.75450854076577},
{"STATE":"IL","ZIP":60646,"LATTITUDE":41.986481135652845,"ADDRESS":"5759 N NAGLE AVE  60646","YEAR":2011,"DOING_BUSINESS_AS_NAME":"RUB -A - DUB DOG, INC","POP_AT_RISK":72628,"BUSINESS_TYPE":"Grooming Facility","LEGAL_NAME":"RUB - A- DUB DOG, UNC","LONGITUDE":-87.78752100299114},
{"STATE":"IL","ZIP":60641,"LATTITUDE":41.95802527771329,"ADDRESS":"4232 N CICERO AVE 1ST ","YEAR":2011,"DOING_BUSINESS_AS_NAME":"ALL 4 DIRTY PAWS, INC.","POP_AT_RISK":209770,"BUSINESS_TYPE":"Grooming Facility","LEGAL_NAME":"ALL 4 DIRTY PAWS, INC.","LONGITUDE":-87.74759475433692},
{"STATE":"IL","ZIP":60638,"LATTITUDE":41.792120050968975,"ADDRESS":"6621 W ARCHER AVE 1 ","YEAR":2011,"DOING_BUSINESS_AS_NAME":"BARKIN' BEAUTIES","POP_AT_RISK":177690,"BUSINESS_TYPE":"Grooming Facility","LEGAL_NAME":"BARKIN' BEAUTIES, INC.","LONGITUDE":-87.78766374908565},
{"STATE":"IL","ZIP":60628,"LATTITUDE":41.662549681874204,"ADDRESS":"12721 S HALSTED ST 1ST ","YEAR":2011,"DOING_BUSINESS_AS_NAME":"PINK POODLE PALACE","POP_AT_RISK":167321,"BUSINESS_TYPE":"Grooming Facility","LEGAL_NAME":"GLORIA & TRACY MCBRIDE","LONGITUDE":-87.64125124497521},
{"STATE":"IL","ZIP":60643,"LATTITUDE":41.69493985416419,"ADDRESS":"10918 S WESTERN AVE  ","YEAR":2011,"DOING_BUSINESS_AS_NAME":"DAZZLE PET GROOMING","POP_AT_RISK":65016,"BUSINESS_TYPE":"Grooming Facility","LEGAL_NAME":"LORRAINE THERESE LYMAN","LONGITUDE":-87.68140343358414},
{"STATE":"IL","ZIP":60652,"LATTITUDE":41.74602291961784,"ADDRESS":"8057 S CICERO AVE  ","YEAR":2011,"DOING_BUSINESS_AS_NAME":"PET LUV PET CENTER INC","POP_AT_RISK":80444,"BUSINESS_TYPE":"Grooming Facility","LEGAL_NAME":"PET LUV PET CENTER INC","LONGITUDE":-87.7411015602688},
{"STATE":"IL","ZIP":60617,"LATTITUDE":41.7430521776672,"ADDRESS":"8338 S STONY ISLAND AVE 1ST ","YEAR":2011,"DOING_BUSINESS_AS_NAME":"PET SALON","POP_AT_RISK":292689,"BUSINESS_TYPE":"Grooming Facility","LEGAL_NAME":"CECELIA S BROADUS-JONES","LONGITUDE":-87.58593027264192},
{"STATE":"IL","ZIP":60707,"LATTITUDE":41.92394480190854,"ADDRESS":"2411 N NEWLAND AVE 1 ","YEAR":2011,"DOING_BUSINESS_AS_NAME":"PRETTY PAW'S","POP_AT_RISK":200992,"BUSINESS_TYPE":"Grooming Facility","LEGAL_NAME":"PRETTY PAW'S CORPORATION","LONGITUDE":-87.79877077387005},
{"STATE":"IL","ZIP":60626,"LATTITUDE":42.00067466621544,"ADDRESS":"6526 N CLARK ST 1 ","YEAR":2011,"DOING_BUSINESS_AS_NAME":"D'ART OF GROOMING PET SPA","POP_AT_RISK":467406,"BUSINESS_TYPE":"Grooming Facility","LEGAL_NAME":"D'ART OF GROOMING PET SPA","LONGITUDE":-87.67164548448788},
{"STATE":"IL","ZIP":60647,"LATTITUDE":41.93000745783491,"ADDRESS":"2651 N MILWAUKEE AVE 1ST 1","YEAR":2011,"DOING_BUSINESS_AS_NAME":"LOGAN PETS GROOMING, INC.","POP_AT_RISK":407705,"BUSINESS_TYPE":"Grooming Facility","LEGAL_NAME":"LOGAN PETS GROOMING, INC.","LONGITUDE":-87.70871114016123},
{"STATE":"IL","ZIP":60631,"LATTITUDE":41.99108872833804,"ADDRESS":"6048 N AVONDALE AVE 1ST ","YEAR":2011,"DOING_BUSINESS_AS_NAME":"SMOOCH A POOCH GROOMING LLC","POP_AT_RISK":26137,"BUSINESS_TYPE":"Grooming Facility","LEGAL_NAME":"SMOOCH A POOCH GROOMING LLC","LONGITUDE":-87.7992260923261},
{"STATE":"IL","ZIP":60631,"LATTITUDE":42.011790966822375,"ADDRESS":"7236 W TOUHY AVE 1ST ","YEAR":2011,"DOING_BUSINESS_AS_NAME":"PAW & CLAW CAT GROOMING","POP_AT_RISK":95800,"BUSINESS_TYPE":"Grooming Facility","LEGAL_NAME":"CAROLE RINKO & DIANA DEMPSEY","LONGITUDE":-87.8080824261318},
{"STATE":"IL","ZIP":60618,"LATTITUDE":41.96125126209583,"ADDRESS":"3332 W MONTROSE AVE 1 ","YEAR":2011,"DOING_BUSINESS_AS_NAME":"CHICAGO GROOMING ACADEMY","POP_AT_RISK":849332,"BUSINESS_TYPE":"Grooming Facility","LEGAL_NAME":"CHICAGO GROOMING ACADEMY INC.","LONGITUDE":-87.7120521820261},
{"STATE":"IL","ZIP":60655,"LATTITUDE":41.69163263867864,"ADDRESS":"3308 W 111TH ST  ","YEAR":2011,"DOING_BUSINESS_AS_NAME":"MIDWEST CANINE CHOPPERS , INC.","POP_AT_RISK":63009,"BUSINESS_TYPE":"Grooming Facility","LEGAL_NAME":"MIDWEST CANINE CHOPPERS, INC.","LONGITUDE":-87.70371420559297},
{"STATE":"IL","ZIP":60626,"LATTITUDE":42.01594338357489,"ADDRESS":"1447 W JARVIS AVE  ","YEAR":2011,"DOING_BUSINESS_AS_NAME":"ROGERS BARK PET SALON","POP_AT_RISK":62296,"BUSINESS_TYPE":"Grooming Facility","LEGAL_NAME":"ROGERS BARK PET SERVICES, INC.","LONGITUDE":-87.66796786700539},
{"STATE":"IL","ZIP":60607,"LATTITUDE":41.88035142248382,"ADDRESS":"843 W MONROE ST 1 1-A","YEAR":2011,"DOING_BUSINESS_AS_NAME":"MONROE ST GROOMING STUDIO","POP_AT_RISK":75370,"BUSINESS_TYPE":"Grooming Facility","LEGAL_NAME":"LOGAN SQUARE GROOMING STUDIO INC.","LONGITUDE":-87.64903114992849},
{"STATE":"IL","ZIP":60613,"LATTITUDE":41.95284795297084,"ADDRESS":"810 W SHERIDAN RD 1ST ","YEAR":2011,"DOING_BUSINESS_AS_NAME":"PARADISE PET SALON & SPA TOO! INC.","POP_AT_RISK":70645,"BUSINESS_TYPE":"Grooming Facility","LEGAL_NAME":"PARADISE PET SALON & SPA TOO! INC.","LONGITUDE":-87.65015180182598},
}