{
{"STATE":"IL","ZIP":60651,"LATTITUDE":41.90449024158752,"ADDRESS":"3421 W POTOMAC AVE 3RD FLOOR ","YEAR":2015,"DOING_BUSINESS_AS_NAME":"Steracle Press","POP_AT_RISK":55668,"BUSINESS_TYPE":"Manufacturing Establishments","LEGAL_NAME":"STACEY STERN","LONGITUDE":-87.71252024398746},
{"STATE":"IL","ZIP":60827,"LATTITUDE":41.64471651864612,"ADDRESS":"612 E 138TH ST  ","YEAR":2015,"DOING_BUSINESS_AS_NAME":"INNOPHOS INC.","POP_AT_RISK":13381,"BUSINESS_TYPE":"Manufacturing Establishments","LEGAL_NAME":"INNOPHOS INC.","LONGITUDE":-87.60679330792205},
{"STATE":"IL","ZIP":60644,"LATTITUDE":41.871148477361615,"ADDRESS":"739 S CICERO AVE 1ST ","YEAR":2015,"DOING_BUSINESS_AS_NAME":"J.A.P. PALLETS","POP_AT_RISK":44076,"BUSINESS_TYPE":"Manufacturing Establishments","LEGAL_NAME":"LUIS HUGO LUZ","LONGITUDE":-87.7447783586233},
{"STATE":"IL","ZIP":60629,"LATTITUDE":41.760155020496875,"ADDRESS":"7300 S KOSTNER AVE 1ST ","YEAR":2015,"DOING_BUSINESS_AS_NAME":"ADP PALLET","POP_AT_RISK":35546,"BUSINESS_TYPE":"Manufacturing Establishments","LEGAL_NAME":"ADP PALLET INC","LONGITUDE":-87.7327092485806},
{"STATE":"IL","ZIP":60617,"LATTITUDE":41.72956057945945,"ADDRESS":"9112 S SOUTH CHICAGO A AVE  1ST","YEAR":2015,"DOING_BUSINESS_AS_NAME":"EXCLUSIVE WROUGHT IRON","POP_AT_RISK":35404,"BUSINESS_TYPE":"Manufacturing Establishments","LEGAL_NAME":"ARTURO L VALLES","LONGITUDE":-87.55530910741057},
{"STATE":"IL","ZIP":60622,"LATTITUDE":41.90802551053135,"ADDRESS":"927 W BLACKHAWK ST  ","YEAR":2015,"DOING_BUSINESS_AS_NAME":"CARBIT PAINT CO","POP_AT_RISK":48629,"BUSINESS_TYPE":"Manufacturing Establishments","LEGAL_NAME":"CARBIT PAINT CO","LONGITUDE":-87.65188288329598},
{"STATE":"IL","ZIP":60632,"LATTITUDE":41.80279975754018,"ADDRESS":"4940 S KILBOURN AVE 1ST ","YEAR":2015,"DOING_BUSINESS_AS_NAME":"CS CABINET, LLC","POP_AT_RISK":70008,"BUSINESS_TYPE":"Manufacturing Establishments","LEGAL_NAME":"CS CABINET, LLC","LONGITUDE":-87.73582677283797},
{"STATE":"IL","ZIP":60626,"LATTITUDE":42.02266026807753,"ADDRESS":"1832 W JUNEWAY TER  NW CO","YEAR":2015,"DOING_BUSINESS_AS_NAME":"DURO DECAL CO INC","POP_AT_RISK":482180,"BUSINESS_TYPE":"Manufacturing Establishments","LEGAL_NAME":"DURO DECAL CO INC","LONGITUDE":-87.67664723812041},
{"STATE":"IL","ZIP":60638,"LATTITUDE":41.774471369513115,"ADDRESS":"5654 W 65TH ST  ","YEAR":2015,"DOING_BUSINESS_AS_NAME":"EXCEL MACHINING INC","POP_AT_RISK":19217,"BUSINESS_TYPE":"Manufacturing Establishments","LEGAL_NAME":"EXCEL MACHINING INC","LONGITUDE":-87.76375997030551},
{"STATE":"IL","ZIP":60640,"LATTITUDE":41.96234130119015,"ADDRESS":"4426 N RAVENSWOOD AVE 1ST ","YEAR":2015,"DOING_BUSINESS_AS_NAME":"MANIFOLD CHICAGO","POP_AT_RISK":134726,"BUSINESS_TYPE":"Manufacturing Establishments","LEGAL_NAME":"RF METALWORKS, INC.","LONGITUDE":-87.67469227181125},
{"STATE":"IL","ZIP":60638,"LATTITUDE":41.7947047678449,"ADDRESS":"5432 W 54TH ST  ","YEAR":2015,"DOING_BUSINESS_AS_NAME":"STERLING SPRING LLC","POP_AT_RISK":19549,"BUSINESS_TYPE":"Manufacturing Establishments","LEGAL_NAME":"STERLING SPRING LLC","LONGITUDE":-87.75883544408453},
{"STATE":"IL","ZIP":60630,"LATTITUDE":41.97294967720821,"ADDRESS":"5068 N KIMBERLY AVE FIRST B","YEAR":2015,"DOING_BUSINESS_AS_NAME":"bakri machinery inc","POP_AT_RISK":33289,"BUSINESS_TYPE":"Manufacturing Establishments","LEGAL_NAME":"bakri machinery inc","LONGITUDE":-87.74386550279597},
{"STATE":"IL","ZIP":60609,"LATTITUDE":41.81597853695627,"ADDRESS":"4310 S SHIELDS AVE 2ND ","YEAR":2015,"DOING_BUSINESS_AS_NAME":"YE LI FOOD BOX, INC.","POP_AT_RISK":19692,"BUSINESS_TYPE":"Manufacturing Establishments","LEGAL_NAME":"YE LI FOOD BOX, INC.","LONGITUDE":-87.63485303039089},
{"STATE":"IL","ZIP":60618,"LATTITUDE":41.95550545107342,"ADDRESS":"4050 N ROCKWELL ST  ","YEAR":2015,"DOING_BUSINESS_AS_NAME":"CUSTOM MAGNETICS INC.","POP_AT_RISK":107920,"BUSINESS_TYPE":"Manufacturing Establishments","LEGAL_NAME":"CUSTOM MAGNETICS INC.","LONGITUDE":-87.69341820121035},
{"STATE":"IL","ZIP":60707,"LATTITUDE":41.91648314822957,"ADDRESS":"6600 W ARMITAGE AVE  ","YEAR":2015,"DOING_BUSINESS_AS_NAME":"PETRA MANUFACTURING CO.","POP_AT_RISK":38658,"BUSINESS_TYPE":"Manufacturing Establishments","LEGAL_NAME":"PETRA MANUFACTURING CO","LONGITUDE":-87.79021640159694},
{"STATE":"IL","ZIP":60619,"LATTITUDE":41.73662782135372,"ADDRESS":"1037 E 87TH ST 1ST ","YEAR":2015,"DOING_BUSINESS_AS_NAME":"AKERS PACKAGING SERVICE","POP_AT_RISK":66140,"BUSINESS_TYPE":"Manufacturing Establishments","LEGAL_NAME":"AKERS PACKAGING SERVICE","LONGITUDE":-87.59846416343471},
{"STATE":"IL","ZIP":60638,"LATTITUDE":41.77750446371041,"ADDRESS":"6255 S HARLEM AVE  ","YEAR":2015,"DOING_BUSINESS_AS_NAME":"ARMBRUST PAPER TUBES INC","POP_AT_RISK":23658,"BUSINESS_TYPE":"Manufacturing Establishments","LEGAL_NAME":"ARMBRUST PAPER TUBES INC","LONGITUDE":-87.80076866830747},
{"STATE":"IL","ZIP":60609,"LATTITUDE":41.82088004242324,"ADDRESS":"328 W 40TH PL  ","YEAR":2015,"DOING_BUSINESS_AS_NAME":"JERNBERG INDUSTRIES, INC.","POP_AT_RISK":28832,"BUSINESS_TYPE":"Manufacturing Establishments","LEGAL_NAME":"JERNBERG INDUSTRIES INC.","LONGITUDE":-87.63424403899519},
{"STATE":"IL","ZIP":60617,"LATTITUDE":41.72248103224291,"ADDRESS":"1650 E 95TH ST  1","YEAR":2015,"DOING_BUSINESS_AS_NAME":"DELTA PLASTICS CORP OF IL","POP_AT_RISK":22526,"BUSINESS_TYPE":"Manufacturing Establishments","LEGAL_NAME":"DELTA PLASTICS CORP OF IL","LONGITUDE":-87.58307620116788},
{"STATE":"IL","ZIP":60652,"LATTITUDE":41.74792864132101,"ADDRESS":"3339 W COLUMBUS AVE FIRST SUITE B","YEAR":2015,"DOING_BUSINESS_AS_NAME":"Farrell Fabricating","POP_AT_RISK":100620,"BUSINESS_TYPE":"Manufacturing Establishments","LEGAL_NAME":"Philip A Bresnahan Junior","LONGITUDE":-87.7056856905428},
{"STATE":"IL","ZIP":60636,"LATTITUDE":41.78741253524762,"ADDRESS":"5830 S WESTERN AVE 1ST ","YEAR":2015,"DOING_BUSINESS_AS_NAME":"M FURNITURE WAREHOUSE INC.","POP_AT_RISK":106426,"BUSINESS_TYPE":"Manufacturing Establishments","LEGAL_NAME":"M FURNITURE WAREHOUSE INC.","LONGITUDE":-87.68400312578896},
{"STATE":"IL","ZIP":60633,"LATTITUDE":41.67245417674511,"ADDRESS":"12200 S CARONDOLET AVE 1 ","YEAR":2015,"DOING_BUSINESS_AS_NAME":"SAVAGE SERVICES CORPORATION","POP_AT_RISK":6628,"BUSINESS_TYPE":"Manufacturing Establishments","LEGAL_NAME":"SAVAGE SERVICES CORPORATION","LONGITUDE":-87.54972577199817},
{"STATE":"IL","ZIP":60618,"LATTITUDE":41.93531651309345,"ADDRESS":"2945 N MOZART ST  ","YEAR":2015,"DOING_BUSINESS_AS_NAME":"CHICAGO TEMPERED GLASS, INC.","POP_AT_RISK":47628,"BUSINESS_TYPE":"Manufacturing Establishments","LEGAL_NAME":"CHICAGO TEMPERED GLASS, INC.","LONGITUDE":-87.69877228396713},
{"STATE":"IL","ZIP":60628,"LATTITUDE":41.66092623284513,"ADDRESS":"12900 S DOTY AVE 0 ","YEAR":2015,"DOING_BUSINESS_AS_NAME":"KLOECKNER METALS CORPORATION","POP_AT_RISK":6482,"BUSINESS_TYPE":"Manufacturing Establishments","LEGAL_NAME":"KLOECKNER METALS CORPORATION","LONGITUDE":-87.59223888177645},
{"STATE":"IL","ZIP":60618,"LATTITUDE":41.933870112387304,"ADDRESS":"2419 W GEORGE ST  ","YEAR":2015,"DOING_BUSINESS_AS_NAME":"PRECISION FORMING & STAMPING","POP_AT_RISK":102716,"BUSINESS_TYPE":"Manufacturing Establishments","LEGAL_NAME":"PRECISION FORMING & STAMPING","LONGITUDE":-87.68874063224455},
{"STATE":"IL","ZIP":60628,"LATTITUDE":41.681277785202234,"ADDRESS":"11700 S COTTAGE GROVE AVE  ","YEAR":2015,"DOING_BUSINESS_AS_NAME":"THE SHERWIN-WILLIAMS CO (#CEP)","POP_AT_RISK":20350,"BUSINESS_TYPE":"Manufacturing Establishments","LEGAL_NAME":"THE SHERWIN-WILLIAMS COMPANY","LONGITUDE":-87.61109788271568},
{"STATE":"IL","ZIP":60634,"LATTITUDE":41.93825635558769,"ADDRESS":"6237 W BELMONT AVE 1 1","YEAR":2015,"DOING_BUSINESS_AS_NAME":"CHICAGO DENTAL LABORATORY INC","POP_AT_RISK":106694,"BUSINESS_TYPE":"Manufacturing Establishments","LEGAL_NAME":"CHICAGO DENTAL LABORATORY INC","LONGITUDE":-87.78255104026032},
{"STATE":"IL","ZIP":60622,"LATTITUDE":41.89882320921656,"ADDRESS":"945 N CALIFORNIA AVE 1ST ","YEAR":2015,"DOING_BUSINESS_AS_NAME":"Granite Design of Midwest","POP_AT_RISK":106312,"BUSINESS_TYPE":"Manufacturing Establishments","LEGAL_NAME":"Granite Design of Midwest, Inc","LONGITUDE":-87.6966330573693},
{"STATE":"IL","ZIP":60620,"LATTITUDE":41.72693151174752,"ADDRESS":"9160 S GREEN ST  ","YEAR":2015,"DOING_BUSINESS_AS_NAME":"REPUBLIC PACKAGING CORPORATION","POP_AT_RISK":253456,"BUSINESS_TYPE":"Manufacturing Establishments","LEGAL_NAME":"REPUBLIC PACKAGING CORPORATION","LONGITUDE":-87.64472341828854},
{"STATE":"IL","ZIP":60619,"LATTITUDE":41.75832067891438,"ADDRESS":"431 E 75TH ST  ","YEAR":2015,"DOING_BUSINESS_AS_NAME":"GREATER CHICAGO DENTAL LAB","POP_AT_RISK":114438,"BUSINESS_TYPE":"Manufacturing Establishments","LEGAL_NAME":"GREATER CHICAGO DENTAL LAB INC.","LONGITUDE":-87.6139407392573},
{"STATE":"IL","ZIP":60655,"LATTITUDE":41.69172972597,"ADDRESS":"3004 W 111TH ST 1ST ","YEAR":2015,"DOING_BUSINESS_AS_NAME":"BEVERLY SHEAR MFG CORP","POP_AT_RISK":128358,"BUSINESS_TYPE":"Manufacturing Establishments","LEGAL_NAME":"BEVERLY SHEAR MANUFACTURING CORP","LONGITUDE":-87.6963775207205},
{"STATE":"IL","ZIP":60657,"LATTITUDE":41.939094818078736,"ADDRESS":"860 W FLETCHER ST  ","YEAR":2015,"DOING_BUSINESS_AS_NAME":"ERIE BRUSH & MANUFACTURING CORP.","POP_AT_RISK":454555,"BUSINESS_TYPE":"Manufacturing Establishments","LEGAL_NAME":"ERIE BRUSH & MANUFACTURING CORP.","LONGITUDE":-87.65155455766002},
{"STATE":"IL","ZIP":60613,"LATTITUDE":41.948077626553534,"ADDRESS":"3625 N HALSTED ST  ","YEAR":2015,"DOING_BUSINESS_AS_NAME":"PHOENIX ELECTRIC MFG CO","POP_AT_RISK":256293,"BUSINESS_TYPE":"Manufacturing Establishments","LEGAL_NAME":"PHOENIX ELECTRIC MANUFACTURING CO","LONGITUDE":-87.64936304335718},
{"STATE":"IL","ZIP":60641,"LATTITUDE":41.93924066350372,"ADDRESS":"3210-3212 N KILPATRICK AVE 1ST ","YEAR":2015,"DOING_BUSINESS_AS_NAME":"LUXURY MARBLE & GRANITE DESIGN INC.","POP_AT_RISK":194190,"BUSINESS_TYPE":"Manufacturing Establishments","LEGAL_NAME":"LUXURY MARBLE & GRANITE DESIGN INC.","LONGITUDE":-87.74405257578307},
{"STATE":"IL","ZIP":60636,"LATTITUDE":41.78847524117184,"ADDRESS":"2300 - 2310 W 58TH ST 1ST ","YEAR":2015,"DOING_BUSINESS_AS_NAME":"ROLL & ROLL METAL FABRICATORS, INC.","POP_AT_RISK":52581,"BUSINESS_TYPE":"Manufacturing Establishments","LEGAL_NAME":"ROLL & ROLL METAL FABRICATORS, INC.","LONGITUDE":-87.68121724402383},
{"STATE":"IL","ZIP":60628,"LATTITUDE":41.69294383281871,"ADDRESS":"720 E 111TH ST ENTIRE BUILDING ","YEAR":2015,"DOING_BUSINESS_AS_NAME":"People Against Dirty Manufacturing, PBC","POP_AT_RISK":46767,"BUSINESS_TYPE":"Manufacturing Establishments","LEGAL_NAME":"People Against Dirty Manufacturing, PBC","LONGITUDE":-87.60441244342984},
{"STATE":"IL","ZIP":60616,"LATTITUDE":41.831596425369504,"ADDRESS":"3440 S DEARBORN ST 3RD 300","YEAR":2015,"DOING_BUSINESS_AS_NAME":"Therapeutic Proteins International, LLC","POP_AT_RISK":163950,"BUSINESS_TYPE":"Manufacturing Establishments","LEGAL_NAME":"Therapeutic Proteins International, LLC","LONGITUDE":-87.62793057725152},
}