{
{"STATE":"IL","ZIP":60629,"LATTITUDE":41.78855519478186,"ADDRESS":"5754 S CAMPBELL AVE  ","YEAR":2008,"DOING_BUSINESS_AS_NAME":"JORGE NOVOA","POP_AT_RISK":110056,"BUSINESS_TYPE":"Peddler,food - (fruits and vegetables only) - special","LEGAL_NAME":"JORGE NOVOA","LONGITUDE":-87.68648173066627},
{"STATE":"IL","ZIP":60616,"LATTITUDE":41.852261392815805,"ADDRESS":"238 W 22ND PL  ","YEAR":2008,"DOING_BUSINESS_AS_NAME":"MEI B FONG","POP_AT_RISK":59754,"BUSINESS_TYPE":"Peddler,food - (fruits and vegetables only) - special","LEGAL_NAME":"MEI B. FONG","LONGITUDE":-87.63354182591202},
{"STATE":"IL","ZIP":60630,"LATTITUDE":41.963183921265326,"ADDRESS":"4536 N ELSTON AVE  ","YEAR":2008,"DOING_BUSINESS_AS_NAME":"BYRON YABLON","POP_AT_RISK":92054,"BUSINESS_TYPE":"Peddler,food - (fruits and vegetables only) - special","LEGAL_NAME":"BYRON YABLON","LONGITUDE":-87.73318715325468},
{"STATE":"IL","ZIP":60623,"LATTITUDE":41.85290607395713,"ADDRESS":"2830 W 21ST PL 1 1","YEAR":2008,"DOING_BUSINESS_AS_NAME":"DANIEL TOVAR","POP_AT_RISK":100954,"BUSINESS_TYPE":"Peddler,food - (fruits and vegetables only) - special","LEGAL_NAME":"DANIEL TOVAR","LONGITUDE":-87.69671213380181},
{"STATE":"IL","ZIP":60632,"LATTITUDE":41.82017985360166,"ADDRESS":"4030 S ROCKWELL ST  1ST","YEAR":2008,"DOING_BUSINESS_AS_NAME":"RAMIRO SILVA","POP_AT_RISK":52991,"BUSINESS_TYPE":"Peddler,food - (fruits and vegetables only) - special","LEGAL_NAME":"RAMIRO SILVA","LONGITUDE":-87.68980565513284},
{"STATE":"IL","ZIP":60639,"LATTITUDE":41.92062330871917,"ADDRESS":"4305 W PALMER ST  ","YEAR":2008,"DOING_BUSINESS_AS_NAME":"CIRILO GANTES","POP_AT_RISK":128398,"BUSINESS_TYPE":"Peddler,food - (fruits and vegetables only) - special","LEGAL_NAME":"CIRILO GANTES","LONGITUDE":-87.73421758023801},
{"STATE":"IL","ZIP":60619,"LATTITUDE":41.75619457777317,"ADDRESS":"7612 S EBERHART AVE  ","YEAR":2008,"DOING_BUSINESS_AS_NAME":"HOGAN","POP_AT_RISK":290661,"BUSINESS_TYPE":"Peddler,food - (fruits and vegetables only) - special","LEGAL_NAME":"EARNEST HOGAN","LONGITUDE":-87.61276996803532},
{"STATE":"IL","ZIP":60608,"LATTITUDE":41.84075355633836,"ADDRESS":"2931 S THROOP ST  ","YEAR":2008,"DOING_BUSINESS_AS_NAME":"XING PING TAN","POP_AT_RISK":239214,"BUSINESS_TYPE":"Peddler,food - (fruits and vegetables only) - special","LEGAL_NAME":"XING PING TAN","LONGITUDE":-87.6515982156798},
{"STATE":"IL","ZIP":60623,"LATTITUDE":41.84017289140799,"ADDRESS":"2809 S TRIPP AVE  ","YEAR":2008,"DOING_BUSINESS_AS_NAME":"BALTAZAR PEREZ","POP_AT_RISK":97616,"BUSINESS_TYPE":"Peddler,food - (fruits and vegetables only) - special","LEGAL_NAME":"BALTAZAR PEREZ","LONGITUDE":-87.73037481802437},
{"STATE":"IL","ZIP":60649,"LATTITUDE":41.76417279420217,"ADDRESS":"7244 S COLES AVE 1ST ","YEAR":2008,"DOING_BUSINESS_AS_NAME":"ELIZABETH TIMS","POP_AT_RISK":227976,"BUSINESS_TYPE":"Peddler,food - (fruits and vegetables only) - special","LEGAL_NAME":"ELIZABETH TIMS","LONGITUDE":-87.56286579632362},
{"STATE":"IL","ZIP":60659,"LATTITUDE":41.98406962960285,"ADDRESS":"3236 W OLIVE AVE 2 ","YEAR":2008,"DOING_BUSINESS_AS_NAME":"JOSE A TELLEZ","POP_AT_RISK":407096,"BUSINESS_TYPE":"Peddler,food - (fruits and vegetables only) - special","LEGAL_NAME":"JOSE A. TELLEZ","LONGITUDE":-87.71047297716964},
{"STATE":"IL","ZIP":60647,"LATTITUDE":41.9246013755922,"ADDRESS":"2343 N SACRAMENTO AVE  ","YEAR":2008,"DOING_BUSINESS_AS_NAME":"JOSE RODRIGUEZ","POP_AT_RISK":207789,"BUSINESS_TYPE":"Peddler,food - (fruits and vegetables only) - special","LEGAL_NAME":"JOSE RODRIGUEZ","LONGITUDE":-87.70216682412824},
{"STATE":"IL","ZIP":60610,"LATTITUDE":41.900432775078606,"ADDRESS":"171 W OAK ST  7R","YEAR":2008,"DOING_BUSINESS_AS_NAME":"PAUL W. WILLIS","POP_AT_RISK":1361616,"BUSINESS_TYPE":"Peddler,food - (fruits and vegetables only) - special","LEGAL_NAME":"PAUL W. WILLIS","LONGITUDE":-87.63419286634776},
{"STATE":"IL","ZIP":60623,"LATTITUDE":41.84525562231124,"ADDRESS":"2532 S TRUMBULL AVE  ","YEAR":2008,"DOING_BUSINESS_AS_NAME":"SANTOS PERALTA","POP_AT_RISK":140632,"BUSINESS_TYPE":"Peddler,food - (fruits and vegetables only) - special","LEGAL_NAME":"SANTOS PERALTA","LONGITUDE":-87.71129907879453},
{"STATE":"IL","ZIP":60623,"LATTITUDE":41.83603035492032,"ADDRESS":"3131 S HAMLIN AVE  ","YEAR":2008,"DOING_BUSINESS_AS_NAME":"TERESA JIMENEZ","POP_AT_RISK":48425,"BUSINESS_TYPE":"Peddler,food - (fruits and vegetables only) - special","LEGAL_NAME":"TERESA JIMENEZ","LONGITUDE":-87.7193012149726},
{"STATE":"IL","ZIP":60623,"LATTITUDE":41.84213271436611,"ADDRESS":"2707 S KOMENSKY AVE  ","YEAR":2008,"DOING_BUSINESS_AS_NAME":"BARTOLO ANTUNEZ","POP_AT_RISK":55417,"BUSINESS_TYPE":"Peddler,food - (fruits and vegetables only) - special","LEGAL_NAME":"BARTOLO ANTUNEZ","LONGITUDE":-87.72556171874471},
{"STATE":"IL","ZIP":60608,"LATTITUDE":41.8588811255851,"ADDRESS":"1412 W 17TH ST  ","YEAR":2008,"DOING_BUSINESS_AS_NAME":"EPIFANIO LOZANO","POP_AT_RISK":232308,"BUSINESS_TYPE":"Peddler,food - (fruits and vegetables only) - special","LEGAL_NAME":"EPIFANIO LOZANO","LONGITUDE":-87.66192236162263},
{"STATE":"IL","ZIP":60639,"LATTITUDE":41.91240920606679,"ADDRESS":"5008 W ST PAUL AVE  ","YEAR":2008,"DOING_BUSINESS_AS_NAME":"FRANCISCO ROMAN","POP_AT_RISK":297927,"BUSINESS_TYPE":"Peddler,food - (fruits and vegetables only) - special","LEGAL_NAME":"FRANCISCO ROMAN","LONGITUDE":-87.75159167860129},
{"STATE":"IL","ZIP":60632,"LATTITUDE":41.808625875492034,"ADDRESS":"4644 S TROY ST  ","YEAR":2008,"DOING_BUSINESS_AS_NAME":"MARIA CONTRERAS","POP_AT_RISK":47708,"BUSINESS_TYPE":"Peddler,food - (fruits and vegetables only) - special","LEGAL_NAME":"MARIA CONTRERAS","LONGITUDE":-87.70292445353302},
{"STATE":"IL","ZIP":60618,"LATTITUDE":41.96077984306484,"ADDRESS":"4350 N ST LOUIS AVE 1 ","YEAR":2008,"DOING_BUSINESS_AS_NAME":"PEDRO MEJIA","POP_AT_RISK":453960,"BUSINESS_TYPE":"Peddler,food - (fruits and vegetables only) - special","LEGAL_NAME":"PEDRO MEJIA SR.","LONGITUDE":-87.71572411783474},
{"STATE":"IL","ZIP":60632,"LATTITUDE":41.79519551927019,"ADDRESS":"5355 S TRIPP AVE  ","YEAR":2008,"DOING_BUSINESS_AS_NAME":"REMBERTO FLORES","POP_AT_RISK":352782,"BUSINESS_TYPE":"Peddler,food - (fruits and vegetables only) - special","LEGAL_NAME":"REMBERTO FLORES","LONGITUDE":-87.72919729095125},
{"STATE":"IL","ZIP":60620,"LATTITUDE":41.73343751070247,"ADDRESS":"8820 S THROOP ST  ","YEAR":2008,"DOING_BUSINESS_AS_NAME":"THOMAS E TAYLOR","POP_AT_RISK":320790,"BUSINESS_TYPE":"Peddler,food - (fruits and vegetables only) - special","LEGAL_NAME":"THOMAS E TAYLOR","LONGITUDE":-87.65584506880892},
{"STATE":"IL","ZIP":60619,"LATTITUDE":41.72754546251406,"ADDRESS":"536 E 92ND ST  ","YEAR":2008,"DOING_BUSINESS_AS_NAME":"ERNESTINE MARTIN","POP_AT_RISK":22916,"BUSINESS_TYPE":"Peddler,food - (fruits and vegetables only) - special","LEGAL_NAME":"ERNESTINE MARTIN","LONGITUDE":-87.6103938277523},
{"STATE":"IL","ZIP":60624,"LATTITUDE":41.87452774221336,"ADDRESS":"3836 W CONGRESS PKWY  ","YEAR":2008,"DOING_BUSINESS_AS_NAME":"GWENDOLYN MONROE","POP_AT_RISK":919296,"BUSINESS_TYPE":"Peddler,food - (fruits and vegetables only) - special","LEGAL_NAME":"GWENDOLYN MONROE","LONGITUDE":-87.72215815269054},
{"STATE":"IL","ZIP":60639,"LATTITUDE":41.92756492880243,"ADDRESS":"2605 N MULLIGAN AVE 2ND ","YEAR":2008,"DOING_BUSINESS_AS_NAME":"FRANCISCA SALGADO","POP_AT_RISK":429408,"BUSINESS_TYPE":"Peddler,food - (fruits and vegetables only) - special","LEGAL_NAME":"FRANCISCA SALGADO","LONGITUDE":-87.7842099126972},
{"STATE":"IL","ZIP":60629,"LATTITUDE":41.77329866153785,"ADDRESS":"3439 W 66TH ST  ","YEAR":2008,"DOING_BUSINESS_AS_NAME":"HERIBERTO SANCHEZ","POP_AT_RISK":461448,"BUSINESS_TYPE":"Peddler,food - (fruits and vegetables only) - special","LEGAL_NAME":"HERIBERTO SANCHEZ","LONGITUDE":-87.70940257256397},
{"STATE":"IL","ZIP":60647,"LATTITUDE":41.91867717151086,"ADDRESS":"2730 W FRANCIS PL  ","YEAR":2008,"DOING_BUSINESS_AS_NAME":"JOSE P. HERNANDEZ","POP_AT_RISK":515880,"BUSINESS_TYPE":"Peddler,food - (fruits and vegetables only) - special","LEGAL_NAME":"JOSE P. HERNANDEZ","LONGITUDE":-87.69520989091893},
{"STATE":"IL","ZIP":60609,"LATTITUDE":41.830312232730016,"ADDRESS":"1851 W 35TH ST 2ND FL ","YEAR":2008,"DOING_BUSINESS_AS_NAME":"MARIA EVA RAMIREZ","POP_AT_RISK":26804,"BUSINESS_TYPE":"Peddler,food - (fruits and vegetables only) - special","LEGAL_NAME":"MARIA EVA RAMIREZ","LONGITUDE":-87.67244075372784},
{"STATE":"IL","ZIP":60617,"LATTITUDE":41.71590186001373,"ADDRESS":"9816 S MERRION AVE # 1ST","YEAR":2008,"DOING_BUSINESS_AS_NAME":"ANTOINETTE JOHNSON","POP_AT_RISK":69712,"BUSINESS_TYPE":"Peddler,food - (fruits and vegetables only) - special","LEGAL_NAME":"ANTOINETTE JOHNSON","LONGITUDE":-87.5696927426852},
{"STATE":"IL","ZIP":60647,"LATTITUDE":41.91468616336857,"ADDRESS":"1832 N KIMBALL AVE  ","YEAR":2008,"DOING_BUSINESS_AS_NAME":"NICOLASA MENA ZENON","POP_AT_RISK":262808,"BUSINESS_TYPE":"Peddler,food - (fruits and vegetables only) - special","LEGAL_NAME":"NICOLASA MENA ZENON","LONGITUDE":-87.71197917807974},
{"STATE":"IL","ZIP":60619,"LATTITUDE":41.75365461438658,"ADDRESS":"7747 S AVALON AVE 1ST ","YEAR":2008,"DOING_BUSINESS_AS_NAME":"RICHARD D COOPER SR.","POP_AT_RISK":79606,"BUSINESS_TYPE":"Peddler,food - (fruits and vegetables only) - special","LEGAL_NAME":"RICHARD D COOPER SR.","LONGITUDE":-87.59418031137687},
{"STATE":"IL","ZIP":60653,"LATTITUDE":41.81514037142536,"ADDRESS":"4351 S DR MARTIN LUTHER KING JR DR  ","YEAR":2008,"DOING_BUSINESS_AS_NAME":"CAROLYN JEAN HARDWICK","POP_AT_RISK":606640,"BUSINESS_TYPE":"Peddler,food - (fruits and vegetables only) - special","LEGAL_NAME":"CAROLYN JEAN HARDWICK","LONGITUDE":-87.61660400011394},
{"STATE":"IL","ZIP":60616,"LATTITUDE":41.83475726864901,"ADDRESS":"400 E 33RD ST  2214","YEAR":2008,"DOING_BUSINESS_AS_NAME":"JOSEPH T. VALLIER JR.","POP_AT_RISK":212488,"BUSINESS_TYPE":"Peddler,food - (fruits and vegetables only) - special","LEGAL_NAME":"JOSEPH T. VALLIER JR.","LONGITUDE":-87.6170103485163},
{"STATE":"IL","ZIP":60644,"LATTITUDE":41.891778319782105,"ADDRESS":"5955 W ERIE ST 1ST ","YEAR":2008,"DOING_BUSINESS_AS_NAME":"LEONARD D. PALMER JR.","POP_AT_RISK":625248,"BUSINESS_TYPE":"Peddler,food - (fruits and vegetables only) - special","LEGAL_NAME":"LEONARD D. PALMER JR.","LONGITUDE":-87.77436451803972},
{"STATE":"IL","ZIP":60637,"LATTITUDE":41.78212505889971,"ADDRESS":"803 E 62ND ST  2W","YEAR":2008,"DOING_BUSINESS_AS_NAME":"THOMAS AGUST HILLARD","POP_AT_RISK":492780,"BUSINESS_TYPE":"Peddler,food - (fruits and vegetables only) - special","LEGAL_NAME":"THOMAS AUGUST HILLARD","LONGITUDE":-87.60580346110031},
{"STATE":"IL","ZIP":60647,"LATTITUDE":41.925060747037335,"ADDRESS":"2416 N SPRINGFIELD AVE 2ND FL ","YEAR":2008,"DOING_BUSINESS_AS_NAME":"ELIAS VILLAGOMEZ ORDAZ","POP_AT_RISK":309060,"BUSINESS_TYPE":"Peddler,food - (fruits and vegetables only) - special","LEGAL_NAME":"ELIAS VILLAGOMEZ ORDAZ","LONGITUDE":-87.72448999486085},
}