{
{"STATE":"IL","ZIP":60621,"LATTITUDE":41.77365127547508,"ADDRESS":"6629 S WENTWORTH AVE  1","YEAR":2011,"DOING_BUSINESS_AS_NAME":"AUTOTRUCK PARKING & STOR INC","POP_AT_RISK":176580,"BUSINESS_TYPE":"Public Garage","LEGAL_NAME":"JOHN STILP","LONGITUDE":-87.62985023814868},
{"STATE":"IL","ZIP":60641,"LATTITUDE":41.95959039346352,"ADDRESS":"4319-4321 N KNOX AVE ROOF ROOF","YEAR":2011,"DOING_BUSINESS_AS_NAME":"MG KNOX, LLC","POP_AT_RISK":183432,"BUSINESS_TYPE":"Public Garage","LEGAL_NAME":"MG KNOX, LLC","LONGITUDE":-87.7448133413211},
{"STATE":"IL","ZIP":60615,"LATTITUDE":41.802238709769085,"ADDRESS":"500 E 51ST ST  INDOO","YEAR":2011,"DOING_BUSINESS_AS_NAME":"INTERPARK","POP_AT_RISK":291912,"BUSINESS_TYPE":"Public Garage","LEGAL_NAME":"INTERPARK LLC","LONGITUDE":-87.61399572714086},
{"STATE":"IL","ZIP":60649,"LATTITUDE":41.765323060530186,"ADDRESS":"7139 S EXCHANGE AVE  ","YEAR":2011,"DOING_BUSINESS_AS_NAME":"7139 SELF PARK","POP_AT_RISK":364947,"BUSINESS_TYPE":"Public Garage","LEGAL_NAME":"JOHN R BOLDEN","LONGITUDE":-87.56547170951188},
{"STATE":"IL","ZIP":60609,"LATTITUDE":41.83067697104952,"ADDRESS":"3501 S EMERALD AVE  ","YEAR":2011,"DOING_BUSINESS_AS_NAME":"RAMEL PHILLIPS 66","POP_AT_RISK":33924,"BUSINESS_TYPE":"Public Garage","LEGAL_NAME":"JOSEPH M RAMEL","LONGITUDE":-87.6447405582136},
{"STATE":"IL","ZIP":60638,"LATTITUDE":41.80771214039897,"ADDRESS":"4832 - 34 W 47TH ST  ","YEAR":2011,"DOING_BUSINESS_AS_NAME":"AIRPORT PARKING","POP_AT_RISK":61434,"BUSINESS_TYPE":"Public Garage","LEGAL_NAME":"AIRPORT PARKING","LONGITUDE":-87.74443951507291},
{"STATE":"IL","ZIP":60631,"LATTITUDE":41.98118072487806,"ADDRESS":"8500 W BRYN MAWR AVE  ","YEAR":2011,"DOING_BUSINESS_AS_NAME":"RENAISSANCE CHICAGO O'HARE HOTEL AS OF 7\/25\/2013 Paying under account 381630","POP_AT_RISK":21169,"BUSINESS_TYPE":"Public Garage","LEGAL_NAME":"RCO Hotel, Inc.","LONGITUDE":-87.83916755770461},
{"STATE":"IL","ZIP":60641,"LATTITUDE":41.93511935803638,"ADDRESS":"4625 W WELLINGTON AVE  ","YEAR":2011,"DOING_BUSINESS_AS_NAME":"ALLS STORAGE L.L.C.","POP_AT_RISK":574915,"BUSINESS_TYPE":"Public Garage","LEGAL_NAME":"ALLS STORAGE LCC.","LONGITUDE":-87.74322159707353},
{"STATE":"IL","ZIP":60619,"LATTITUDE":41.722004352021465,"ADDRESS":"939 E 95TH ST  ","YEAR":2011,"DOING_BUSINESS_AS_NAME":"PUBLIC STORAGE","POP_AT_RISK":38634,"BUSINESS_TYPE":"Public Garage","LEGAL_NAME":"PS ILLINOIS TRUST","LONGITUDE":-87.60055240343662},
{"STATE":"IL","ZIP":60630,"LATTITUDE":41.969196775538116,"ADDRESS":"4849 N MILWAUKEE AVE 1ST ","YEAR":2011,"DOING_BUSINESS_AS_NAME":"MEGA PROPERTIES INC","POP_AT_RISK":228474,"BUSINESS_TYPE":"Public Garage","LEGAL_NAME":"MEGA PROPERTIES INC","LONGITUDE":-87.76171988022168},
{"STATE":"IL","ZIP":60647,"LATTITUDE":41.91801539468696,"ADDRESS":"2021 N POINT ST  ","YEAR":2011,"DOING_BUSINESS_AS_NAME":"CONGRESS CORPORATION","POP_AT_RISK":773820,"BUSINESS_TYPE":"Public Garage","LEGAL_NAME":"ONE STOP LOANS, LLC","LONGITUDE":-87.69454143776636},
{"STATE":"IL","ZIP":60657,"LATTITUDE":41.838743926273445,"ADDRESS":"3050 S MOE DR  ","YEAR":2011,"DOING_BUSINESS_AS_NAME":"STANDARD PARKING","POP_AT_RISK":18838,"BUSINESS_TYPE":"Public Garage","LEGAL_NAME":"SP PLUS CORPORATION","LONGITUDE":-87.61002325300002},
{"STATE":"IL","ZIP":60626,"LATTITUDE":42.017626469706016,"ADDRESS":"7474 N ROGERS AVE  ","YEAR":2011,"DOING_BUSINESS_AS_NAME":"STANDARD PARKING","POP_AT_RISK":58321,"BUSINESS_TYPE":"Public Garage","LEGAL_NAME":"SP PLUS CORPORATION","LONGITUDE":-87.67216983627618},
{"STATE":"IL","ZIP":60632,"LATTITUDE":41.79319266338371,"ADDRESS":"4532 W 55TH ST  OUTDO","YEAR":2011,"DOING_BUSINESS_AS_NAME":"AIRWAYS PARKING","POP_AT_RISK":37692,"BUSINESS_TYPE":"Public Garage","LEGAL_NAME":"AIRWAYS PARKING CORP","LONGITUDE":-87.73684553047367},
{"STATE":"IL","ZIP":60625,"LATTITUDE":41.981447658191406,"ADDRESS":"2524-2532 W CATALPA AVE 1ST 1","YEAR":2011,"DOING_BUSINESS_AS_NAME":"LATIN BLISS CAFE","POP_AT_RISK":51156,"BUSINESS_TYPE":"Public Garage","LEGAL_NAME":"CLUB CONTINENTAL, INC.","LONGITUDE":-87.6927851305354},
{"STATE":"IL","ZIP":60638,"LATTITUDE":41.79277959844571,"ADDRESS":"5720 W 55TH ST  ","YEAR":2011,"DOING_BUSINESS_AS_NAME":"MIDWAY EASY PARK","POP_AT_RISK":62295,"BUSINESS_TYPE":"Public Garage","LEGAL_NAME":"MIDWAY EASY PARK, INC.","LONGITUDE":-87.76567665357288},
{"STATE":"IL","ZIP":60647,"LATTITUDE":41.93071896144334,"ADDRESS":"2630 N EMMETT ST  ","YEAR":2011,"DOING_BUSINESS_AS_NAME":"LAZ PARKING","POP_AT_RISK":858473,"BUSINESS_TYPE":"Public Garage","LEGAL_NAME":"LAZ PARKING CHICAGO, LLC","LONGITUDE":-87.70840576518123},
{"STATE":"IL","ZIP":60641,"LATTITUDE":41.95435207313259,"ADDRESS":"4030 N LAPORTE AVE  ","YEAR":2011,"DOING_BUSINESS_AS_NAME":"LAZ PARKING","POP_AT_RISK":94668,"BUSINESS_TYPE":"Public Garage","LEGAL_NAME":"LAZ PARKING CHICAGO, LLC","LONGITUDE":-87.75120692919445},
{"STATE":"IL","ZIP":60642,"LATTITUDE":41.903898125801966,"ADDRESS":"1217 N BOSWORTH AVE  ","YEAR":2011,"DOING_BUSINESS_AS_NAME":"LAZ PARKING","POP_AT_RISK":339504,"BUSINESS_TYPE":"Public Garage","LEGAL_NAME":"LAZ PARKING CHICAGO, LLC","LONGITUDE":-87.6660339615258},
{"STATE":"IL","ZIP":60615,"LATTITUDE":41.80012337866838,"ADDRESS":"5230 S LAKE PARK AVE  ","YEAR":2011,"DOING_BUSINESS_AS_NAME":"LAZ PARKING","POP_AT_RISK":38939,"BUSINESS_TYPE":"Public Garage","LEGAL_NAME":"LAZ PARKING CHICAGO, LLC","LONGITUDE":-87.58750991043027},
{"STATE":"IL","ZIP":60623,"LATTITUDE":41.83964358422834,"ADDRESS":"2842 S KEDZIE AVE 1 ","YEAR":2011,"DOING_BUSINESS_AS_NAME":"M & M USA TRUCKING, INC.","POP_AT_RISK":173271,"BUSINESS_TYPE":"Public Garage","LEGAL_NAME":"M & M USA TRUCKING, INC.","LONGITUDE":-87.70504096609815},
{"STATE":"IL","ZIP":60632,"LATTITUDE":41.82622692878115,"ADDRESS":"3701 S KEDZIE AVE 1ST FLOOR 1","YEAR":2011,"DOING_BUSINESS_AS_NAME":"MCA TRUCKING CORPORATION","POP_AT_RISK":319487,"BUSINESS_TYPE":"Public Garage","LEGAL_NAME":"MCA TRUCKING CORPORATION","LONGITUDE":-87.70435688748027},
{"STATE":"IL","ZIP":60636,"LATTITUDE":41.79216504745647,"ADDRESS":"2220 W 56TH ST  ","YEAR":2011,"DOING_BUSINESS_AS_NAME":"AMERICAN SELF-STORAGE LLC","POP_AT_RISK":774288,"BUSINESS_TYPE":"Public Garage","LEGAL_NAME":"AMERICAN SELF-STORAGE LLC","LONGITUDE":-87.67975328180451},
{"STATE":"IL","ZIP":60629,"LATTITUDE":41.78562796054326,"ADDRESS":"4607 W 59TH ST  ","YEAR":2011,"DOING_BUSINESS_AS_NAME":"MIDWAY PARK SAVER","POP_AT_RISK":96774,"BUSINESS_TYPE":"Public Garage","LEGAL_NAME":"CAPITAL COUNSELORS LIMITED","LONGITUDE":-87.73804241580194},
{"STATE":"IL","ZIP":60645,"LATTITUDE":41.99802216925381,"ADDRESS":"6411 N ROCKWELL ST 2-4 ","YEAR":2011,"DOING_BUSINESS_AS_NAME":"DEVON PARKING","POP_AT_RISK":367806,"BUSINESS_TYPE":"Public Garage","LEGAL_NAME":"S&S PARKING MANAGEMENT INC.","LONGITUDE":-87.69463112667239},
{"STATE":"IL","ZIP":60638,"LATTITUDE":41.782720864325285,"ADDRESS":"7101-7159 W 60TH ST  ","YEAR":2011,"DOING_BUSINESS_AS_NAME":"EXTRA SPACE STORAGE # 8130","POP_AT_RISK":167934,"BUSINESS_TYPE":"Public Garage","LEGAL_NAME":"EXTRA SPACE MANAGEMENT, INC.","LONGITUDE":-87.79877010441864},
{"STATE":"IL","ZIP":60626,"LATTITUDE":42.00054322556378,"ADDRESS":"1210 W ARTHUR AVE 1ST - 4TH ","YEAR":2011,"DOING_BUSINESS_AS_NAME":"IMPARK","POP_AT_RISK":200577,"BUSINESS_TYPE":"Public Garage","LEGAL_NAME":"IMPERIAL PARKING (U.S.), LLC","LONGITUDE":-87.66119449470573},
{"STATE":"IL","ZIP":60608,"LATTITUDE":41.85069579976238,"ADDRESS":"2244 S WESTERN AVE 1ST ","YEAR":2011,"DOING_BUSINESS_AS_NAME":"SMARTSTOP SELF STORAGE WESTERN AVE","POP_AT_RISK":39017,"BUSINESS_TYPE":"Public Garage","LEGAL_NAME":"SSTI 2244 S WESTERN AVE, LLC","LONGITUDE":-87.68575157435998},
{"STATE":"IL","ZIP":60608,"LATTITUDE":41.86093729800648,"ADDRESS":"2705 W 15TH ST  ","YEAR":2011,"DOING_BUSINESS_AS_NAME":"MT SINAI HOSPITAL MEDICAL CENTER","POP_AT_RISK":211330,"BUSINESS_TYPE":"Public Garage","LEGAL_NAME":"MT SINAI HOSPITAL MEDICAL CENTER","LONGITUDE":-87.69368470776661},
}