{
{"STATE":"IL","ZIP":60645,"LATTITUDE":42.01848842353082,"ADDRESS":"2850 W JEROME ST  ","YEAR":2008,"DOING_BUSINESS_AS_NAME":"ARIEL FADIDA","POP_AT_RISK":66064,"BUSINESS_TYPE":"Peddler, non-food","LEGAL_NAME":"ARIEL FADIDA","LONGITUDE":-87.70155500093841},
{"STATE":"IL","ZIP":60655,"LATTITUDE":41.7081148384795,"ADDRESS":"10201 S ARTESIAN AVE  ","YEAR":2008,"DOING_BUSINESS_AS_NAME":"DARVIA MUNOZ","POP_AT_RISK":24497,"BUSINESS_TYPE":"Peddler, non-food","LEGAL_NAME":"DARVIA MUNOZ","LONGITUDE":-87.6828051976356},
{"STATE":"IL","ZIP":60656,"LATTITUDE":41.974858280777724,"ADDRESS":"5134 N NASHVILLE AVE  ","YEAR":2008,"DOING_BUSINESS_AS_NAME":"DAWN M. HYNES","POP_AT_RISK":27536,"BUSINESS_TYPE":"Peddler, non-food","LEGAL_NAME":"DAWN M. HYNES","LONGITUDE":-87.79167115323568},
{"STATE":"IL","ZIP":60628,"LATTITUDE":41.67179732313836,"ADDRESS":"118 E 122ND PL  ","YEAR":2008,"DOING_BUSINESS_AS_NAME":"LACHAUN VANCE","POP_AT_RISK":20908,"BUSINESS_TYPE":"Peddler, non-food","LEGAL_NAME":"LACHAUN VANCE","LONGITUDE":-87.61949544238014},
{"STATE":"IL","ZIP":60656,"LATTITUDE":41.9777291628376,"ADDRESS":"7711 W BALMORAL AVE  ","YEAR":2008,"DOING_BUSINESS_AS_NAME":"MARIA D LOPEZ","POP_AT_RISK":45300,"BUSINESS_TYPE":"Peddler, non-food","LEGAL_NAME":"MARIA D LOPEZ","LONGITUDE":-87.81985380461929},
{"STATE":"IL","ZIP":60707,"LATTITUDE":41.9171319323781,"ADDRESS":"2030 N HARLEM AVE 1ST A-3","YEAR":2008,"DOING_BUSINESS_AS_NAME":"NICOLO RADOSTA","POP_AT_RISK":34367,"BUSINESS_TYPE":"Peddler, non-food","LEGAL_NAME":"NICOLO RADOSTA","LONGITUDE":-87.80618410223347},
{"STATE":"IL","ZIP":60644,"LATTITUDE":41.89091016932336,"ADDRESS":"5919 W OHIO ST HSE ","YEAR":2008,"DOING_BUSINESS_AS_NAME":"DEBRA D. TAYLOR","POP_AT_RISK":47682,"BUSINESS_TYPE":"Peddler, non-food","LEGAL_NAME":"DEBRA D. TAYLOR","LONGITUDE":-87.7729787447001},
{"STATE":"IL","ZIP":60655,"LATTITUDE":41.68556100263544,"ADDRESS":"11431 S ST LOUIS AVE  ","YEAR":2008,"DOING_BUSINESS_AS_NAME":"JOSHUA JAMES SOICH","POP_AT_RISK":36946,"BUSINESS_TYPE":"Peddler, non-food","LEGAL_NAME":"JOSHUA J. SOICH","LONGITUDE":-87.70778792327808},
{"STATE":"IL","ZIP":60466,"LATTITUDE":41.82888144770453,"ADDRESS":"3546 S WESTERN AVE  ","YEAR":2008,"DOING_BUSINESS_AS_NAME":"TAJUDEEN DANYIWO","POP_AT_RISK":47060,"BUSINESS_TYPE":"Peddler, non-food","LEGAL_NAME":"TAJUDEEN DANYIWO","LONGITUDE":-87.68513736989858},
{"STATE":"IL","ZIP":60634,"LATTITUDE":41.94851545018277,"ADDRESS":"3768 N OLEANDER AVE  ","YEAR":2008,"DOING_BUSINESS_AS_NAME":"NICHOLAS F. LAMONICA","POP_AT_RISK":35104,"BUSINESS_TYPE":"Peddler, non-food","LEGAL_NAME":"NICHOLAS F. LAMONICA","LONGITUDE":-87.8158249260561},
{"STATE":"IL","ZIP":60631,"LATTITUDE":42.01219322871207,"ADDRESS":"7715 W JARLATH ST  ","YEAR":2008,"DOING_BUSINESS_AS_NAME":"JOSE M TORRES SR.","POP_AT_RISK":78960,"BUSINESS_TYPE":"Peddler, non-food","LEGAL_NAME":"JOSE MANUEL TORRES SR.","LONGITUDE":-87.81948791220417},
{"STATE":"IL","ZIP":60638,"LATTITUDE":41.77502533729492,"ADDRESS":"6456 W 64TH PL 3S ","YEAR":2008,"DOING_BUSINESS_AS_NAME":"RICHARD  G.  LADD, JR.","POP_AT_RISK":22742,"BUSINESS_TYPE":"Peddler, non-food","LEGAL_NAME":"RICHARD   G.  LADD, JR.","LONGITUDE":-87.78340774656445},
}