{
{"STATE":"IL","ZIP":60609,"LATTITUDE":41.811851070860186,"ADDRESS":"4510 S ASHLAND AVE  ","YEAR":2008,"DOING_BUSINESS_AS_NAME":"NEREIDA NEW & RECONDITIONED APPLIANCES","POP_AT_RISK":34260,"BUSINESS_TYPE":"Secondhand Dealer (Includes Valuable Objects)","LEGAL_NAME":"MARIA CHAVEZ","LONGITUDE":-87.66520176293083},
{"STATE":"IL","ZIP":60607,"LATTITUDE":41.87743070168073,"ADDRESS":"310 S RACINE AVE 1-4 ","YEAR":2008,"DOING_BUSINESS_AS_NAME":"HELIX LIMITED-COLOR SERVICE- SPEEDOTRON CORP","POP_AT_RISK":39868,"BUSINESS_TYPE":"Secondhand Dealer (Includes Valuable Objects)","LEGAL_NAME":"HELIX LIMITED","LONGITUDE":-87.6571579846684},
{"STATE":"IL","ZIP":60631,"LATTITUDE":42.012198711314255,"ADDRESS":"7214 N HARLEM AVE 1ST ","YEAR":2008,"DOING_BUSINESS_AS_NAME":"THE ANTIQUE & RESALE SHOPPE","POP_AT_RISK":53364,"BUSINESS_TYPE":"Secondhand Dealer (Includes Valuable Objects)","LEGAL_NAME":"SUZANNE LAZER","LONGITUDE":-87.80677987610609},
{"STATE":"IL","ZIP":60609,"LATTITUDE":41.79440875533432,"ADDRESS":"5444 S DAMEN AVE 1ST ","YEAR":2008,"DOING_BUSINESS_AS_NAME":"ANOTHER MAN'S TREASURES","POP_AT_RISK":153681,"BUSINESS_TYPE":"Secondhand Dealer (Includes Valuable Objects)","LEGAL_NAME":"WILBURN GREEN","LONGITUDE":-87.6744635796009},
{"STATE":"IL","ZIP":60632,"LATTITUDE":41.817920989121255,"ADDRESS":"4155 S ARCHER AVE 1 ","YEAR":2008,"DOING_BUSINESS_AS_NAME":"UNIQUE FURNITURE","POP_AT_RISK":181472,"BUSINESS_TYPE":"Secondhand Dealer (Includes Valuable Objects)","LEGAL_NAME":"CONRAD CARRANO","LONGITUDE":-87.69775971346888},
{"STATE":"IL","ZIP":60607,"LATTITUDE":41.86580802350966,"ADDRESS":"1252 S CANAL ST  ","YEAR":2008,"DOING_BUSINESS_AS_NAME":"GAMESTOP #476","POP_AT_RISK":62314,"BUSINESS_TYPE":"Secondhand Dealer (Includes Valuable Objects)","LEGAL_NAME":"GAMESTOP, INC.","LONGITUDE":-87.6393486005042},
{"STATE":"IL","ZIP":60652,"LATTITUDE":41.74819420327024,"ADDRESS":"7945 S CICERO AVE  ","YEAR":2008,"DOING_BUSINESS_AS_NAME":"GAMESTOP #573","POP_AT_RISK":26720,"BUSINESS_TYPE":"Secondhand Dealer (Includes Valuable Objects)","LEGAL_NAME":"GAMESTOP, INC.","LONGITUDE":-87.74115846516214},
{"STATE":"IL","ZIP":60609,"LATTITUDE":41.796234875219376,"ADDRESS":"5401 S WENTWORTH AVE  ","YEAR":2008,"DOING_BUSINESS_AS_NAME":"GAMESTOP #1569","POP_AT_RISK":167072,"BUSINESS_TYPE":"Secondhand Dealer (Includes Valuable Objects)","LEGAL_NAME":"GAMESTOP, INC.","LONGITUDE":-87.63040492438661},
{"STATE":"IL","ZIP":60636,"LATTITUDE":41.767328200940014,"ADDRESS":"6940 S ASHLAND AVE 1ST ","YEAR":2008,"DOING_BUSINESS_AS_NAME":"GAMESTOP #6098","POP_AT_RISK":207435,"BUSINESS_TYPE":"Secondhand Dealer (Includes Valuable Objects)","LEGAL_NAME":"GAMESTOP, INC.","LONGITUDE":-87.66400242735763},
{"STATE":"IL","ZIP":60643,"LATTITUDE":41.67759605873797,"ADDRESS":"1700 W 119TH ST 1ST ","YEAR":2008,"DOING_BUSINESS_AS_NAME":"GAMESTOP #6161","POP_AT_RISK":25454,"BUSINESS_TYPE":"Secondhand Dealer (Includes Valuable Objects)","LEGAL_NAME":"GAMESTOP, INC.","LONGITUDE":-87.66419631320602},
{"STATE":"IL","ZIP":60653,"LATTITUDE":41.80979548271692,"ADDRESS":"1400 E 47TH DR  B","YEAR":2008,"DOING_BUSINESS_AS_NAME":"GAMESTOP # 2674","POP_AT_RISK":141212,"BUSINESS_TYPE":"Secondhand Dealer (Includes Valuable Objects)","LEGAL_NAME":"GAMESTOP, INC.","LONGITUDE":-87.59237386663331},
{"STATE":"IL","ZIP":60621,"LATTITUDE":41.78724351391953,"ADDRESS":"5853 S HALSTED ST  ","YEAR":2008,"DOING_BUSINESS_AS_NAME":"LANDMARK LIQUIDATIONS","POP_AT_RISK":81405,"BUSINESS_TYPE":"Secondhand Dealer (Includes Valuable Objects)","LEGAL_NAME":"SHIRLEY MCGARY","LONGITUDE":-87.64482844631563},
{"STATE":"IL","ZIP":60616,"LATTITUDE":41.85275353218208,"ADDRESS":"77 E CERMAK RD 1 E","YEAR":2008,"DOING_BUSINESS_AS_NAME":"DIAMONDMINE","POP_AT_RISK":105792,"BUSINESS_TYPE":"Secondhand Dealer (Includes Valuable Objects)","LEGAL_NAME":"DONALD  SWINTEK","LONGITUDE":-87.62404575524121},
{"STATE":"IL","ZIP":60620,"LATTITUDE":41.74821708853622,"ADDRESS":"8018 S HALSTED ST  ","YEAR":2008,"DOING_BUSINESS_AS_NAME":"CRYSTAL THRIFT SHOP","POP_AT_RISK":354051,"BUSINESS_TYPE":"Secondhand Dealer (Includes Valuable Objects)","LEGAL_NAME":"WILLIE F. SHIPP","LONGITUDE":-87.64411876933347},
{"STATE":"IL","ZIP":60630,"LATTITUDE":41.97693688769671,"ADDRESS":"5316 N MILWAUKEE AVE  ","YEAR":2008,"DOING_BUSINESS_AS_NAME":"BLOCKBUSTER VIDEO #17046","POP_AT_RISK":101268,"BUSINESS_TYPE":"Secondhand Dealer (Includes Valuable Objects)","LEGAL_NAME":"BLOCKBUSTER INC.","LONGITUDE":-87.76907431197014},
{"STATE":"IL","ZIP":60638,"LATTITUDE":41.795485520771,"ADDRESS":"5907 S ARCHER AVE  ","YEAR":2008,"DOING_BUSINESS_AS_NAME":"BLOCKBUSTER VIDEO #17320","POP_AT_RISK":23175,"BUSINESS_TYPE":"Secondhand Dealer (Includes Valuable Objects)","LEGAL_NAME":"BLOCKBUSTER INC.","LONGITUDE":-87.76312350643026},
{"STATE":"IL","ZIP":60608,"LATTITUDE":41.836468347729024,"ADDRESS":"3145 S ASHLAND AVE  ","YEAR":2008,"DOING_BUSINESS_AS_NAME":"BLOCKBUSTER VIDEO #17353","POP_AT_RISK":30028,"BUSINESS_TYPE":"Secondhand Dealer (Includes Valuable Objects)","LEGAL_NAME":"BLOCKBUSTER INC.","LONGITUDE":-87.66556690213167},
{"STATE":"IL","ZIP":60656,"LATTITUDE":41.963837023211276,"ADDRESS":"4626 N CUMBERLAND AVE  ","YEAR":2008,"DOING_BUSINESS_AS_NAME":"BLOCKBUSTER VIDEO #17370","POP_AT_RISK":68328,"BUSINESS_TYPE":"Secondhand Dealer (Includes Valuable Objects)","LEGAL_NAME":"BLOCKBUSTER INC.","LONGITUDE":-87.8368386547161},
{"STATE":"IL","ZIP":60645,"LATTITUDE":42.0193136911786,"ADDRESS":"7572 N WESTERN AVE  ","YEAR":2008,"DOING_BUSINESS_AS_NAME":"BLOCKBUSTER VIDEO #17417","POP_AT_RISK":49835,"BUSINESS_TYPE":"Secondhand Dealer (Includes Valuable Objects)","LEGAL_NAME":"BLOCKBUSTER INC.","LONGITUDE":-87.69032390155122},
{"STATE":"IL","ZIP":60656,"LATTITUDE":41.9808087771316,"ADDRESS":"7137-7139 W HIGGINS AVE 1 ","YEAR":2008,"DOING_BUSINESS_AS_NAME":"STAMP KING","POP_AT_RISK":177684,"BUSINESS_TYPE":"Secondhand Dealer (Includes Valuable Objects)","LEGAL_NAME":"CHARLES BERG JR.","LONGITUDE":-87.80607126225902},
{"STATE":"IL","ZIP":60643,"LATTITUDE":41.71366768134889,"ADDRESS":"9912 S VINCENNES AVE 1ST ","YEAR":2008,"DOING_BUSINESS_AS_NAME":"CATO'S RESALE SHOP","POP_AT_RISK":90204,"BUSINESS_TYPE":"Secondhand Dealer (Includes Valuable Objects)","LEGAL_NAME":"MARGARET A. CATO","LONGITUDE":-87.65362527896444},
{"STATE":"IL","ZIP":60638,"LATTITUDE":41.79218916857037,"ADDRESS":"6455 W ARCHER AVE  ","YEAR":2008,"DOING_BUSINESS_AS_NAME":"CHICAGO COIN CO INC","POP_AT_RISK":30725,"BUSINESS_TYPE":"Secondhand Dealer (Includes Valuable Objects)","LEGAL_NAME":"CHICAGO COIN CO INC","LONGITUDE":-87.7840169671266},
{"STATE":"IL","ZIP":60643,"LATTITUDE":41.67801263164476,"ADDRESS":"11832 S WESTERN AVE  ","YEAR":2008,"DOING_BUSINESS_AS_NAME":"MR. PEABODY RECORDS","POP_AT_RISK":19493,"BUSINESS_TYPE":"Secondhand Dealer (Includes Valuable Objects)","LEGAL_NAME":"MR. PEABODY RECORDS","LONGITUDE":-87.6808735880967},
{"STATE":"IL","ZIP":60646,"LATTITUDE":42.01189420932856,"ADDRESS":"6141 W TOUHY AVE 1ST A","YEAR":2008,"DOING_BUSINESS_AS_NAME":"ASAYA SOLUTIONS, INC.","POP_AT_RISK":10753,"BUSINESS_TYPE":"Secondhand Dealer (Includes Valuable Objects)","LEGAL_NAME":"ASAYA SOLUTIONS INC.","LONGITUDE":-87.78085546874075},
{"STATE":"IL","ZIP":60608,"LATTITUDE":41.8532081585976,"ADDRESS":"1956 W 21ST PL 1ST ","YEAR":2008,"DOING_BUSINESS_AS_NAME":"CASA MAURICIO","POP_AT_RISK":41361,"BUSINESS_TYPE":"Secondhand Dealer (Includes Valuable Objects)","LEGAL_NAME":"ELVIRA ROSE MAURICIO","LONGITUDE":-87.67567380767541},
{"STATE":"IL","ZIP":60643,"LATTITUDE":41.71839819308241,"ADDRESS":"9623 S WESTERN AVE  ","YEAR":2008,"DOING_BUSINESS_AS_NAME":"FYE #447","POP_AT_RISK":47066,"BUSINESS_TYPE":"Secondhand Dealer (Includes Valuable Objects)","LEGAL_NAME":"RECORD TOWN USA, LLC","LONGITUDE":-87.68183836584416},
{"STATE":"IL","ZIP":60620,"LATTITUDE":41.72294343487872,"ADDRESS":"9401 S ASHLAND AVE  ","YEAR":2008,"DOING_BUSINESS_AS_NAME":"SELECT FURNITURE INC","POP_AT_RISK":29055,"BUSINESS_TYPE":"Secondhand Dealer (Includes Valuable Objects)","LEGAL_NAME":"SELECT FURNITURE INC.","LONGITUDE":-87.6625698449265},
{"STATE":"IL","ZIP":60646,"LATTITUDE":41.997218561842885,"ADDRESS":"5413 W DEVON AVE 1ST ","YEAR":2008,"DOING_BUSINESS_AS_NAME":"MY SISTER'S CLOSET","POP_AT_RISK":17956,"BUSINESS_TYPE":"Secondhand Dealer (Includes Valuable Objects)","LEGAL_NAME":"MY SISTER'S CLOSET, LTD.","LONGITUDE":-87.7643229386157},
{"STATE":"IL","ZIP":60629,"LATTITUDE":41.77887289718704,"ADDRESS":"3143 W 63RD ST 1ST ","YEAR":2008,"DOING_BUSINESS_AS_NAME":"SERGIO VAZQUEZ","POP_AT_RISK":62644,"BUSINESS_TYPE":"Secondhand Dealer (Includes Valuable Objects)","LEGAL_NAME":"SERGIO V JEWELRY LIMITED","LONGITUDE":-87.70239790499876},
{"STATE":"IL","ZIP":60634,"LATTITUDE":41.93816832161998,"ADDRESS":"7032 W BELMONT AVE 1 100","YEAR":2008,"DOING_BUSINESS_AS_NAME":"BYTE COMPUTER SYSTEM, INC.","POP_AT_RISK":160248,"BUSINESS_TYPE":"Secondhand Dealer (Includes Valuable Objects)","LEGAL_NAME":"BYTE COMPUTER SYSTEM, INC.","LONGITUDE":-87.80246326831103},
{"STATE":"IL","ZIP":60614,"LATTITUDE":41.92740673874206,"ADDRESS":"2471 N CLARK ST  ","YEAR":2008,"DOING_BUSINESS_AS_NAME":"STEVE QUICK JEWELERS","POP_AT_RISK":65458,"BUSINESS_TYPE":"Secondhand Dealer (Includes Valuable Objects)","LEGAL_NAME":"STEVE QUICK JEWELERS, INC.","LONGITUDE":-87.6414081991043},
{"STATE":"IL","ZIP":60616,"LATTITUDE":41.830986702567515,"ADDRESS":"329 E 35TH ST 1 ","YEAR":2008,"DOING_BUSINESS_AS_NAME":"CHICAGO COMPUTER CLUB","POP_AT_RISK":29759,"BUSINESS_TYPE":"Secondhand Dealer (Includes Valuable Objects)","LEGAL_NAME":"CHICAGO COMPUTER CLUB, CORP.","LONGITUDE":-87.61807593164153},
{"STATE":"IL","ZIP":60637,"LATTITUDE":41.76785685952764,"ADDRESS":"7000 S SOUTH CHICAGO AVE 1ST ","YEAR":2008,"DOING_BUSINESS_AS_NAME":"REO MOVERS & VAN LINES","POP_AT_RISK":278496,"BUSINESS_TYPE":"Secondhand Dealer (Includes Valuable Objects)","LEGAL_NAME":"REO MOVERS & VAN LINES, INC.","LONGITUDE":-87.60857315537989},
{"STATE":"IL","ZIP":60644,"LATTITUDE":41.880495475126516,"ADDRESS":"5134 W MADISON ST  ","YEAR":2008,"DOING_BUSINESS_AS_NAME":"MADISON STREET GOLD EXCHANGE INC","POP_AT_RISK":288174,"BUSINESS_TYPE":"Secondhand Dealer (Includes Valuable Objects)","LEGAL_NAME":"MADISON STREET GOLD EXCHANGE, INC.","LONGITUDE":-87.75403138255727},
{"STATE":"IL","ZIP":60659,"LATTITUDE":41.99717640012952,"ADDRESS":"3521 W DEVON AVE  1","YEAR":2008,"DOING_BUSINESS_AS_NAME":"HOLLYWOOD VIDEO #013-933","POP_AT_RISK":33364,"BUSINESS_TYPE":"Secondhand Dealer (Includes Valuable Objects)","LEGAL_NAME":"HOLLYWOOD ENTERTAINMENT CORPORATION","LONGITUDE":-87.71753464854655},
{"STATE":"IL","ZIP":60638,"LATTITUDE":41.790043968551885,"ADDRESS":"5601 S HARLEM AVE  GROUN","YEAR":2008,"DOING_BUSINESS_AS_NAME":"HOLLYWOOD VIDEO #013-994","POP_AT_RISK":24498,"BUSINESS_TYPE":"Secondhand Dealer (Includes Valuable Objects)","LEGAL_NAME":"HOLLYWOOD ENTERTAINMENT CORPORATION","LONGITUDE":-87.80130039473886},
{"STATE":"IL","ZIP":60644,"LATTITUDE":41.866006039366866,"ADDRESS":"4800 W ROOSEVELT RD 3 ","YEAR":2008,"DOING_BUSINESS_AS_NAME":"BUSINESS ESSENTIALS SERVICE TEAM","POP_AT_RISK":165624,"BUSINESS_TYPE":"Secondhand Dealer (Includes Valuable Objects)","LEGAL_NAME":"BUSINESS ESSENTIALS SERVICE TEAM, LLC","LONGITUDE":-87.74481737620984},
}