{
{"STATE":"IL","ZIP":60629,"LATTITUDE":41.77860941710039,"ADDRESS":"4534 W 63RD ST  1ST","YEAR":2012,"DOING_BUSINESS_AS_NAME":"DR L MUNSAYAK","POP_AT_RISK":34673,"BUSINESS_TYPE":"Veterinary Hospital","LEGAL_NAME":"DR L MUNSAYAC","LONGITUDE":-87.73633539185526},
{"STATE":"IL","ZIP":60632,"LATTITUDE":41.82474601386171,"ADDRESS":"3779 S ARCHER AVE 1ST ","YEAR":2012,"DOING_BUSINESS_AS_NAME":"BRIGHTON PARK ANIMAL HOSPITAL","POP_AT_RISK":304024,"BUSINESS_TYPE":"Veterinary Hospital","LEGAL_NAME":"ERNESTO PEREZ","LONGITUDE":-87.68666196926235},
{"STATE":"IL","ZIP":60639,"LATTITUDE":41.93139771341409,"ADDRESS":"5540 W DIVERSEY AVE  1","YEAR":2012,"DOING_BUSINESS_AS_NAME":"DIVERSEY ANIMAL HOSPITAL","POP_AT_RISK":200781,"BUSINESS_TYPE":"Veterinary Hospital","LEGAL_NAME":"GEORGE STASULA","LONGITUDE":-87.76547720196638},
{"STATE":"IL","ZIP":60651,"LATTITUDE":41.894654799658774,"ADDRESS":"5837 W CHICAGO AVE 1ST ","YEAR":2012,"DOING_BUSINESS_AS_NAME":"PETRO POPOWYCZ","POP_AT_RISK":514950,"BUSINESS_TYPE":"Veterinary Hospital","LEGAL_NAME":"PETRO POPOWYCZ","LONGITUDE":-87.77165481600393},
{"STATE":"IL","ZIP":60639,"LATTITUDE":41.90975958200588,"ADDRESS":"4712 W NORTH AVE  1","YEAR":2012,"DOING_BUSINESS_AS_NAME":"SELIGMAN ANIMAL HOSPITAL","POP_AT_RISK":155184,"BUSINESS_TYPE":"Veterinary Hospital","LEGAL_NAME":"BATHALA BHASKAR","LONGITUDE":-87.74412927450804},
{"STATE":"IL","ZIP":60647,"LATTITUDE":41.92763086042492,"ADDRESS":"2543 N MILWAUKEE AVE 1ST FLOOR ","YEAR":2012,"DOING_BUSINESS_AS_NAME":"LOGAN SQUARE ANIMAL HOSPITAL","POP_AT_RISK":609768,"BUSINESS_TYPE":"Veterinary Hospital","LEGAL_NAME":"GURDIAL S BASRAN","LONGITUDE":-87.7048217284522},
{"STATE":"IL","ZIP":60647,"LATTITUDE":41.91765570324503,"ADDRESS":"2520 W ARMITAGE AVE 1ST ","YEAR":2012,"DOING_BUSINESS_AS_NAME":"INTEGRATIVE PET CARE","POP_AT_RISK":167463,"BUSINESS_TYPE":"Veterinary Hospital","LEGAL_NAME":"INK2K9 GROUP INC.","LONGITUDE":-87.69079717342971},
{"STATE":"IL","ZIP":60617,"LATTITUDE":41.72542026345421,"ADDRESS":"9333 S ESCANABA AVE 1ST ","YEAR":2012,"DOING_BUSINESS_AS_NAME":"ESCANABA ANIMAL HOSPITAL","POP_AT_RISK":129003,"BUSINESS_TYPE":"Veterinary Hospital","LEGAL_NAME":"SUBBARAJU LIMITED","LONGITUDE":-87.55375989955488},
{"STATE":"IL","ZIP":60620,"LATTITUDE":41.72629173006071,"ADDRESS":"9210 S ASHLAND AVE 1 ","YEAR":2012,"DOING_BUSINESS_AS_NAME":"ASHLAND ANIMAL HOSPITAL","POP_AT_RISK":140835,"BUSINESS_TYPE":"Veterinary Hospital","LEGAL_NAME":"TANYA LARESA DAVIS","LONGITUDE":-87.66294433982236},
{"STATE":"IL","ZIP":60630,"LATTITUDE":41.96820759243381,"ADDRESS":"4490 W LAWRENCE AVE 1ST ","YEAR":2012,"DOING_BUSINESS_AS_NAME":"JEFFERSON PARK ANIMAL HOSPITAL","POP_AT_RISK":45900,"BUSINESS_TYPE":"Veterinary Hospital","LEGAL_NAME":"ROBERTO C. GERONIMO","LONGITUDE":-87.74124035698242},
{"STATE":"IL","ZIP":60632,"LATTITUDE":41.79426937887318,"ADDRESS":"5424 S PULASKI RD  ","YEAR":2012,"DOING_BUSINESS_AS_NAME":"Pulaski Animal Hospital","POP_AT_RISK":256610,"BUSINESS_TYPE":"Veterinary Hospital","LEGAL_NAME":"Adam Szpindor DVM, PC","LONGITUDE":-87.72333668984069},
{"STATE":"IL","ZIP":60638,"LATTITUDE":41.79207533023176,"ADDRESS":"6721 W ARCHER AVE 1ST ","YEAR":2012,"DOING_BUSINESS_AS_NAME":"ABBOT ANIMAL HOSPITAL","POP_AT_RISK":177690,"BUSINESS_TYPE":"Veterinary Hospital","LEGAL_NAME":"KOTIPYINA SUBRAMANYAM","LONGITUDE":-87.79003453870169},
{"STATE":"IL","ZIP":60632,"LATTITUDE":41.81209528799374,"ADDRESS":"4472 S ARCHER AVE 1ST ","YEAR":2012,"DOING_BUSINESS_AS_NAME":"ARCHER ANIMAL HOSPITAL","POP_AT_RISK":122970,"BUSINESS_TYPE":"Veterinary Hospital","LEGAL_NAME":"NAMMALWAR VINUTHAMANI","LONGITUDE":-87.7077249960549},
{"STATE":"IL","ZIP":60610,"LATTITUDE":41.89242478465077,"ADDRESS":"600 N WELLS ST  ","YEAR":2012,"DOING_BUSINESS_AS_NAME":"CITY CAT DOCTOR","POP_AT_RISK":72484,"BUSINESS_TYPE":"Veterinary Hospital","LEGAL_NAME":"PET PARTNERS OF CHICAGO","LONGITUDE":-87.63423713563589},
{"STATE":"IL","ZIP":60630,"LATTITUDE":41.97790582639089,"ADDRESS":"5324 N ELSTON AVE  ","YEAR":2012,"DOING_BUSINESS_AS_NAME":"FOREST GLEN ANIMAL HOSPITAL","POP_AT_RISK":122428,"BUSINESS_TYPE":"Veterinary Hospital","LEGAL_NAME":"ANDREW D. ORALS, LIMITED","LONGITUDE":-87.756301262075},
{"STATE":"IL","ZIP":60641,"LATTITUDE":41.95900172751513,"ADDRESS":"4314 N ELSTON AVE 1ST ","YEAR":2012,"DOING_BUSINESS_AS_NAME":"MAYFAIR ANIMAL CLINIC P C","POP_AT_RISK":246232,"BUSINESS_TYPE":"Veterinary Hospital","LEGAL_NAME":"MAYFAIR ANIMAL CLINIC PC","LONGITUDE":-87.72711637463455},
{"STATE":"IL","ZIP":60620,"LATTITUDE":41.74322146923827,"ADDRESS":"8256 S ASHLAND AVE 1ST ","YEAR":2012,"DOING_BUSINESS_AS_NAME":"AUBURN ANIMAL HOSPITAL","POP_AT_RISK":301456,"BUSINESS_TYPE":"Veterinary Hospital","LEGAL_NAME":"SHEILA M DAVIS CARPENTER","LONGITUDE":-87.66340065682246},
{"STATE":"IL","ZIP":60637,"LATTITUDE":41.77589421633337,"ADDRESS":"6523 S DR MARTIN LUTHER KING JR DR  1ST","YEAR":2012,"DOING_BUSINESS_AS_NAME":"WOODLAWN ANIMAL HOSPITAL","POP_AT_RISK":656384,"BUSINESS_TYPE":"Veterinary Hospital","LEGAL_NAME":"WOODLAWN ANIMAL HOSPITAL","LONGITUDE":-87.61537050544857},
{"STATE":"IL","ZIP":60631,"LATTITUDE":41.99884963756694,"ADDRESS":"6468 N MILWAUKEE AVE  ","YEAR":2012,"DOING_BUSINESS_AS_NAME":"TLC FIRST ANIMAL HOSPITAL","POP_AT_RISK":40382,"BUSINESS_TYPE":"Veterinary Hospital","LEGAL_NAME":"TLC FIRST ANIMAL HOSPITAL","LONGITUDE":-87.78942289172674},
{"STATE":"IL","ZIP":60641,"LATTITUDE":41.94283219845567,"ADDRESS":"3383 N MILWAUKEE AVE 1ST ","YEAR":2012,"DOING_BUSINESS_AS_NAME":"MILWAUKEE ANIMAL HOSPITAL","POP_AT_RISK":108504,"BUSINESS_TYPE":"Veterinary Hospital","LEGAL_NAME":"AURELIO HERBOSA ALMAZAN JR","LONGITUDE":-87.72974611781098},
{"STATE":"IL","ZIP":60613,"LATTITUDE":41.95365394998408,"ADDRESS":"3941 N ASHLAND AVE 1ST ","YEAR":2012,"DOING_BUSINESS_AS_NAME":"DUKE ANIMAL HOSPITAL, INC.","POP_AT_RISK":229476,"BUSINESS_TYPE":"Veterinary Hospital","LEGAL_NAME":"DUKE ANIMAL HOSPITAL, INC.","LONGITUDE":-87.66888347552636},
{"STATE":"IL","ZIP":60660,"LATTITUDE":41.99797926932041,"ADDRESS":"1545 W DEVON AVE  ","YEAR":2012,"DOING_BUSINESS_AS_NAME":"VCA MISENER-HOLLEY ANIMAL HOSPITAL","POP_AT_RISK":254526,"BUSINESS_TYPE":"Veterinary Hospital","LEGAL_NAME":"VCA ANIMAL HOSPITALS, INC.","LONGITUDE":-87.66952582402313},
{"STATE":"IL","ZIP":60628,"LATTITUDE":41.6694883863093,"ADDRESS":"12335 S HALSTED ST 1ST ","YEAR":2012,"DOING_BUSINESS_AS_NAME":"MORGAN PARK ANIMAL HOSPITAL","POP_AT_RISK":247896,"BUSINESS_TYPE":"Veterinary Hospital","LEGAL_NAME":"MORGAN PARK ANIMAL HOSPITAL","LONGITUDE":-87.64148341136242},
{"STATE":"IL","ZIP":60618,"LATTITUDE":41.95613992891168,"ADDRESS":"4108 N ROCKWELL ST 1 B","YEAR":2012,"DOING_BUSINESS_AS_NAME":"HEAL VETERINARY CLINIC","POP_AT_RISK":48643,"BUSINESS_TYPE":"Veterinary Hospital","LEGAL_NAME":"ANIMAL ARK ON ROCKWELL, P.C.","LONGITUDE":-87.69343504249869},
{"STATE":"IL","ZIP":60622,"LATTITUDE":41.8969906591363,"ADDRESS":"840 N WESTERN AVE 1 1","YEAR":2012,"DOING_BUSINESS_AS_NAME":"VILLAGE WEST VETERINARY","POP_AT_RISK":506997,"BUSINESS_TYPE":"Veterinary Hospital","LEGAL_NAME":"BRUCE E. SILVERMAN VMD, P.C.","LONGITUDE":-87.68701940298968},
{"STATE":"IL","ZIP":60639,"LATTITUDE":41.92428482294284,"ADDRESS":"4303 W FULLERTON AVE 1ST ","YEAR":2012,"DOING_BUSINESS_AS_NAME":"FULLERTON ANIMAL CLINIC P.C.","POP_AT_RISK":291376,"BUSINESS_TYPE":"Veterinary Hospital","LEGAL_NAME":"FULLERTON ANIMAL CLINIC P.C.","LONGITUDE":-87.7342554691183},
{"STATE":"IL","ZIP":60628,"LATTITUDE":41.68826727431972,"ADDRESS":"11332 S DOTY AVE 1ST ","YEAR":2012,"DOING_BUSINESS_AS_NAME":"KRAGNESS ANIMAL HOSPITAL INC","POP_AT_RISK":64370,"BUSINESS_TYPE":"Veterinary Hospital","LEGAL_NAME":"KRAGNESS ANIMAL HOSPITAL INC","LONGITUDE":-87.60096235998701},
{"STATE":"IL","ZIP":60616,"LATTITUDE":41.838257021640345,"ADDRESS":"203-205 E 31ST ST 1ST ","YEAR":2012,"DOING_BUSINESS_AS_NAME":"BRONZEVILLE ANIMAL CLINIC","POP_AT_RISK":581346,"BUSINESS_TYPE":"Veterinary Hospital","LEGAL_NAME":"SOPHIA H. GILL, D.V.M., P.C.","LONGITUDE":-87.62176873928115},
{"STATE":"IL","ZIP":60640,"LATTITUDE":41.98303858430736,"ADDRESS":"5545 N CLARK ST 1 ","YEAR":2012,"DOING_BUSINESS_AS_NAME":"UPTOWN ANIMAL HOSPITAL INC","POP_AT_RISK":464142,"BUSINESS_TYPE":"Veterinary Hospital","LEGAL_NAME":"UPTOWN ANIMAL HOSPITAL, INC.","LONGITUDE":-87.66851088960311},
{"STATE":"IL","ZIP":60631,"LATTITUDE":41.993226659363295,"ADDRESS":"6146 N NORTHWEST HWY  ","YEAR":2012,"DOING_BUSINESS_AS_NAME":"AVONDALE ANIMAL HOSPITAL","POP_AT_RISK":55018,"BUSINESS_TYPE":"Veterinary Hospital","LEGAL_NAME":"AVONDALE ANIMAL HOSPITAL, LTD","LONGITUDE":-87.80074267157521},
{"STATE":"IL","ZIP":60615,"LATTITUDE":41.79938949027767,"ADDRESS":"1363 E 53RD ST 1ST ","YEAR":2012,"DOING_BUSINESS_AS_NAME":"HYDE PARK ANIMAL CLINIC","POP_AT_RISK":653429,"BUSINESS_TYPE":"Veterinary Hospital","LEGAL_NAME":"HYDE PARK ANIMAL CLINIC, P.C.","LONGITUDE":-87.59268914036797},
{"STATE":"IL","ZIP":60649,"LATTITUDE":41.76869276344308,"ADDRESS":"6937 S STONY ISLAND AVE 1 ","YEAR":2012,"DOING_BUSINESS_AS_NAME":"HYDE PARK ANIMAL CLINIC","POP_AT_RISK":409167,"BUSINESS_TYPE":"Veterinary Hospital","LEGAL_NAME":"HYDE PARK ANIMAL CLINIC, P.C.","LONGITUDE":-87.58584581329808},
{"STATE":"IL","ZIP":60609,"LATTITUDE":41.80015376711059,"ADDRESS":"5132 S WESTERN AVE 1ST ","YEAR":2012,"DOING_BUSINESS_AS_NAME":"SOUTH WESTERN ANIMAL HOSPITAL","POP_AT_RISK":604608,"BUSINESS_TYPE":"Veterinary Hospital","LEGAL_NAME":"SOUTH WESTERN ANIMAL HOSPITAL","LONGITUDE":-87.68434530108541},
{"STATE":"IL","ZIP":60641,"LATTITUDE":41.9531224517527,"ADDRESS":"5419 W IRVING PARK RD 1ST ","YEAR":2012,"DOING_BUSINESS_AS_NAME":"PORTAGE PK ANIMAL HOSP\/DENTAL","POP_AT_RISK":111192,"BUSINESS_TYPE":"Veterinary Hospital","LEGAL_NAME":"PORTAGE PARK ANIMAL HOSP\/DENTAL","LONGITUDE":-87.76288477607557},
{"STATE":"IL","ZIP":60659,"LATTITUDE":41.9843310868185,"ADDRESS":"5638 N WESTERN AVE 1ST ","YEAR":2012,"DOING_BUSINESS_AS_NAME":"MILAKNIS ANIMAL HOSPITAL LTD","POP_AT_RISK":172275,"BUSINESS_TYPE":"Veterinary Hospital","LEGAL_NAME":"MILAKNIS ANIMAL HOSPITAL LIMITED","LONGITUDE":-87.68961649627795},
{"STATE":"IL","ZIP":60657,"LATTITUDE":41.943751690028435,"ADDRESS":"3413 N BROADWAY  1ST ","YEAR":2012,"DOING_BUSINESS_AS_NAME":"PETS FIRST VETERINARY CLINIC, LLC","POP_AT_RISK":73998,"BUSINESS_TYPE":"Veterinary Hospital","LEGAL_NAME":"PETS FIRST VETERINARY CLINIC, LLC","LONGITUDE":-87.64491582401713},
{"STATE":"IL","ZIP":60607,"LATTITUDE":41.883062566989665,"ADDRESS":"1248 W WASHINGTON BLVD 1ST FLOOR ","YEAR":2012,"DOING_BUSINESS_AS_NAME":"Animal Care Center","POP_AT_RISK":167236,"BUSINESS_TYPE":"Veterinary Hospital","LEGAL_NAME":"Animal Care Center of Chicago, LLC","LONGITUDE":-87.658654670347},
{"STATE":"IL","ZIP":60707,"LATTITUDE":41.923691374039635,"ADDRESS":"6854 W GRAND AVE 1ST ","YEAR":2012,"DOING_BUSINESS_AS_NAME":"MONT CLARE ANIMAL HOSPITAL LTD","POP_AT_RISK":401984,"BUSINESS_TYPE":"Veterinary Hospital","LEGAL_NAME":"MONT CLARE ANIMAL HOSPITAL LIMITED","LONGITUDE":-87.79737653121663},
{"STATE":"IL","ZIP":60643,"LATTITUDE":41.704647523426544,"ADDRESS":"10359 S WESTERN AVE  ","YEAR":2012,"DOING_BUSINESS_AS_NAME":"BEVERLY HILLS ANIMAL HOSPITAL, LTD.","POP_AT_RISK":221792,"BUSINESS_TYPE":"Veterinary Hospital","LEGAL_NAME":"BEVERLY HILLS ANIMAL HOSPITAL, LTD.","LONGITUDE":-87.68142039840245},
{"STATE":"IL","ZIP":60607,"LATTITUDE":41.86888971111206,"ADDRESS":"1101 S CANAL ST 1ST ","YEAR":2012,"DOING_BUSINESS_AS_NAME":"BANFIELD, THE PET HOSPITAL #1658","POP_AT_RISK":32478,"BUSINESS_TYPE":"Veterinary Hospital","LEGAL_NAME":"MEDICAL MANAGEMENT INTERNATIONAL, INC.","LONGITUDE":-87.63909892808796},
{"STATE":"IL","ZIP":60625,"LATTITUDE":41.968644613011605,"ADDRESS":"2752 W LAWRENCE AVE  ","YEAR":2012,"DOING_BUSINESS_AS_NAME":"ANIMAL HOUSE OF CHICAGO","POP_AT_RISK":135840,"BUSINESS_TYPE":"Veterinary Hospital","LEGAL_NAME":"ANIMAL HOUSE OF CHICAGO COMPLETE VETERINARY CARE, INC.","LONGITUDE":-87.69828568537154},
}