{
{"STATE":"IL","ZIP":60629,"LATTITUDE":41.78855519478186,"ADDRESS":"5754 S CAMPBELL AVE  ","YEAR":2009,"DOING_BUSINESS_AS_NAME":"JORGE NOVOA","POP_AT_RISK":55028,"BUSINESS_TYPE":"Peddler,food - (fruits and vegetables only) - special","LEGAL_NAME":"JORGE NOVOA","LONGITUDE":-87.68648173066627},
{"STATE":"IL","ZIP":60630,"LATTITUDE":41.963183921265326,"ADDRESS":"4536 N ELSTON AVE  ","YEAR":2009,"DOING_BUSINESS_AS_NAME":"BYRON YABLON","POP_AT_RISK":92054,"BUSINESS_TYPE":"Peddler,food - (fruits and vegetables only) - special","LEGAL_NAME":"BYRON YABLON","LONGITUDE":-87.73318715325468},
{"STATE":"IL","ZIP":60623,"LATTITUDE":41.85290607395713,"ADDRESS":"2830 W 21ST PL  ","YEAR":2009,"DOING_BUSINESS_AS_NAME":"ROMANA TOVAR","POP_AT_RISK":50477,"BUSINESS_TYPE":"Peddler,food - (fruits and vegetables only) - special","LEGAL_NAME":"ROMANA TOVAR","LONGITUDE":-87.69671213380181},
{"STATE":"IL","ZIP":60619,"LATTITUDE":41.75619457777317,"ADDRESS":"7612 S EBERHART AVE  ","YEAR":2009,"DOING_BUSINESS_AS_NAME":"HOGAN","POP_AT_RISK":83046,"BUSINESS_TYPE":"Peddler,food - (fruits and vegetables only) - special","LEGAL_NAME":"EARNEST HOGAN","LONGITUDE":-87.61276996803532},
{"STATE":"IL","ZIP":60659,"LATTITUDE":41.984075769507854,"ADDRESS":"3222 W OLIVE AVE  ","YEAR":2009,"DOING_BUSINESS_AS_NAME":"JOSE A TELLEZ","POP_AT_RISK":305322,"BUSINESS_TYPE":"Peddler,food - (fruits and vegetables only) - special","LEGAL_NAME":"JOSE A TELLEZ","LONGITUDE":-87.70999154828564},
{"STATE":"IL","ZIP":60628,"LATTITUDE":41.667145379963394,"ADDRESS":"12456 S EGGLESTON AVE 1 ","YEAR":2009,"DOING_BUSINESS_AS_NAME":"LOUISE THOMAS","POP_AT_RISK":103865,"BUSINESS_TYPE":"Peddler,food - (fruits and vegetables only) - special","LEGAL_NAME":"LOUISE THOMAS","LONGITUDE":-87.63326830376171},
{"STATE":"IL","ZIP":60625,"LATTITUDE":41.969701993691935,"ADDRESS":"4842 N SPAULDING AVE  ","YEAR":2009,"DOING_BUSINESS_AS_NAME":"SANTOS GUERRA","POP_AT_RISK":142036,"BUSINESS_TYPE":"Peddler,food - (fruits and vegetables only) - special","LEGAL_NAME":"SANTOS GUERRA","LONGITUDE":-87.71110172807315},
{"STATE":"IL","ZIP":60623,"LATTITUDE":41.84017289140799,"ADDRESS":"2809 S TRIPP AVE  ","YEAR":2009,"DOING_BUSINESS_AS_NAME":"BALTAZAR PEREZ","POP_AT_RISK":97616,"BUSINESS_TYPE":"Peddler,food - (fruits and vegetables only) - special","LEGAL_NAME":"BALTAZAR PEREZ","LONGITUDE":-87.73037481802437},
{"STATE":"IL","ZIP":60626,"LATTITUDE":42.0140411322766,"ADDRESS":"7301 N SHERIDAN RD 3 302","YEAR":2009,"DOING_BUSINESS_AS_NAME":"GALE MCDANIELS","POP_AT_RISK":59887,"BUSINESS_TYPE":"Peddler,food - (fruits and vegetables only) - special","LEGAL_NAME":"GALE MCDANIELS","LONGITUDE":-87.6639709089456},
{"STATE":"IL","ZIP":60647,"LATTITUDE":41.9246013755922,"ADDRESS":"2343 N SACRAMENTO AVE  ","YEAR":2009,"DOING_BUSINESS_AS_NAME":"JOSE RODRIGUEZ","POP_AT_RISK":207789,"BUSINESS_TYPE":"Peddler,food - (fruits and vegetables only) - special","LEGAL_NAME":"JOSE RODRIGUEZ","LONGITUDE":-87.70216682412824},
{"STATE":"IL","ZIP":60624,"LATTITUDE":41.87469136245131,"ADDRESS":"3328 W CONGRESS PKWY  ","YEAR":2009,"DOING_BUSINESS_AS_NAME":"NELLIE M. LOVE","POP_AT_RISK":703836,"BUSINESS_TYPE":"Peddler,food - (fruits and vegetables only) - special","LEGAL_NAME":"NELLIE M. LOVE","LONGITUDE":-87.70952533709307},
{"STATE":"IL","ZIP":60632,"LATTITUDE":41.81941714811052,"ADDRESS":"4052 S MONTGOMERY AVE  ","YEAR":2009,"DOING_BUSINESS_AS_NAME":"NEUSA C BRASIL","POP_AT_RISK":52698,"BUSINESS_TYPE":"Peddler,food - (fruits and vegetables only) - special","LEGAL_NAME":"NEUSA C BRASIL","LONGITUDE":-87.69226996121246},
{"STATE":"IL","ZIP":60623,"LATTITUDE":41.84525562231124,"ADDRESS":"2532 S TRUMBULL AVE  ","YEAR":2009,"DOING_BUSINESS_AS_NAME":"SANTOS PERALTA","POP_AT_RISK":70316,"BUSINESS_TYPE":"Peddler,food - (fruits and vegetables only) - special","LEGAL_NAME":"SANTOS PERALTA","LONGITUDE":-87.71129907879453},
{"STATE":"IL","ZIP":60623,"LATTITUDE":41.84213271436611,"ADDRESS":"2707 S KOMENSKY AVE  ","YEAR":2009,"DOING_BUSINESS_AS_NAME":"BARTOLO ANTUNEZ","POP_AT_RISK":55417,"BUSINESS_TYPE":"Peddler,food - (fruits and vegetables only) - special","LEGAL_NAME":"BARTOLO ANTUNEZ","LONGITUDE":-87.72556171874471},
{"STATE":"IL","ZIP":60644,"LATTITUDE":41.89302579273671,"ADDRESS":"4909 W HURON ST 1 1","YEAR":2009,"DOING_BUSINESS_AS_NAME":"DARRIN ROBINSON","POP_AT_RISK":510048,"BUSINESS_TYPE":"Peddler,food - (fruits and vegetables only) - special","LEGAL_NAME":"DARRIN ROBINSON","LONGITUDE":-87.7486177936501},
{"STATE":"IL","ZIP":60608,"LATTITUDE":41.8588811255851,"ADDRESS":"1412 W 17TH ST  ","YEAR":2009,"DOING_BUSINESS_AS_NAME":"EPIFANIO LOZANO","POP_AT_RISK":309744,"BUSINESS_TYPE":"Peddler,food - (fruits and vegetables only) - special","LEGAL_NAME":"EPIFANIO LOZANO","LONGITUDE":-87.66192236162263},
{"STATE":"IL","ZIP":60610,"LATTITUDE":41.901935877547665,"ADDRESS":"150 W MAPLE ST  2010","YEAR":2009,"DOING_BUSINESS_AS_NAME":"JAMES K. NELSEN","POP_AT_RISK":77432,"BUSINESS_TYPE":"Peddler,food - (fruits and vegetables only) - special","LEGAL_NAME":"JAMES K. NELSEN","LONGITUDE":-87.63341001535879},
{"STATE":"IL","ZIP":60632,"LATTITUDE":41.808625875492034,"ADDRESS":"4644 S TROY ST  ","YEAR":2009,"DOING_BUSINESS_AS_NAME":"MARIA CONTRERAS","POP_AT_RISK":47708,"BUSINESS_TYPE":"Peddler,food - (fruits and vegetables only) - special","LEGAL_NAME":"MARIA CONTRERAS","LONGITUDE":-87.70292445353302},
{"STATE":"IL","ZIP":60632,"LATTITUDE":41.797791827561255,"ADDRESS":"5242 S TROY ST  B","YEAR":2009,"DOING_BUSINESS_AS_NAME":"MODESTO FUENTES","POP_AT_RISK":57338,"BUSINESS_TYPE":"Peddler,food - (fruits and vegetables only) - special","LEGAL_NAME":"MODESTO FUENTES","LONGITUDE":-87.7026045885535},
{"STATE":"IL","ZIP":60632,"LATTITUDE":41.79519551927019,"ADDRESS":"5355 S TRIPP AVE  ","YEAR":2009,"DOING_BUSINESS_AS_NAME":"REMBERTO FLORES","POP_AT_RISK":274386,"BUSINESS_TYPE":"Peddler,food - (fruits and vegetables only) - special","LEGAL_NAME":"REMBERTO FLORES","LONGITUDE":-87.72919729095125},
{"STATE":"IL","ZIP":60620,"LATTITUDE":41.73343751070247,"ADDRESS":"8820 S THROOP ST  ","YEAR":2009,"DOING_BUSINESS_AS_NAME":"THOMAS E TAYLOR","POP_AT_RISK":320790,"BUSINESS_TYPE":"Peddler,food - (fruits and vegetables only) - special","LEGAL_NAME":"THOMAS E TAYLOR","LONGITUDE":-87.65584506880892},
{"STATE":"IL","ZIP":60617,"LATTITUDE":41.7422940163043,"ADDRESS":"1633 E 84TH ST 1 ","YEAR":2009,"DOING_BUSINESS_AS_NAME":"TOMMIE H. COSBY","POP_AT_RISK":130084,"BUSINESS_TYPE":"Peddler,food - (fruits and vegetables only) - special","LEGAL_NAME":"TOMMIE H. COSBY","LONGITUDE":-87.58398026219766},
{"STATE":"IL","ZIP":60626,"LATTITUDE":42.007578791408434,"ADDRESS":"6930 N GREENVIEW AVE 4TH 401","YEAR":2009,"DOING_BUSINESS_AS_NAME":"WALTER L. WELCH","POP_AT_RISK":388725,"BUSINESS_TYPE":"Peddler,food - (fruits and vegetables only) - special","LEGAL_NAME":"WALTER L. WELCH","LONGITUDE":-87.66799873215723},
{"STATE":"IL","ZIP":60619,"LATTITUDE":41.72754546251406,"ADDRESS":"536 E 92ND ST  ","YEAR":2009,"DOING_BUSINESS_AS_NAME":"ERNESTINE MARTIN","POP_AT_RISK":22916,"BUSINESS_TYPE":"Peddler,food - (fruits and vegetables only) - special","LEGAL_NAME":"ERNESTINE MARTIN","LONGITUDE":-87.6103938277523},
{"STATE":"IL","ZIP":60639,"LATTITUDE":41.9224178590441,"ADDRESS":"5108 W BELDEN AVE 1ST 1","YEAR":2009,"DOING_BUSINESS_AS_NAME":"DOMINGO HERNANDEZ","POP_AT_RISK":825708,"BUSINESS_TYPE":"Peddler,food - (fruits and vegetables only) - special","LEGAL_NAME":"DOMINGO HERNANDEZ","LONGITUDE":-87.75401287967503},
{"STATE":"IL","ZIP":60647,"LATTITUDE":41.91867717151086,"ADDRESS":"2730 W FRANCIS PL  ","YEAR":2009,"DOING_BUSINESS_AS_NAME":"JOSE P. HERNANDEZ","POP_AT_RISK":515880,"BUSINESS_TYPE":"Peddler,food - (fruits and vegetables only) - special","LEGAL_NAME":"JOSE P. HERNANDEZ","LONGITUDE":-87.69520989091893},
{"STATE":"IL","ZIP":60629,"LATTITUDE":41.77851334839378,"ADDRESS":"6319 S WASHTENAW AVE 1 ","YEAR":2009,"DOING_BUSINESS_AS_NAME":"LUIS SOTO-DURAN","POP_AT_RISK":355494,"BUSINESS_TYPE":"Peddler,food - (fruits and vegetables only) - special","LEGAL_NAME":"LUIS SOTO - DURAN","LONGITUDE":-87.69079325777614},
{"STATE":"IL","ZIP":60609,"LATTITUDE":41.830312232730016,"ADDRESS":"1851 W 35TH ST 2ND FL ","YEAR":2009,"DOING_BUSINESS_AS_NAME":"MARIA EVA RAMIREZ","POP_AT_RISK":134020,"BUSINESS_TYPE":"Peddler,food - (fruits and vegetables only) - special","LEGAL_NAME":"MARIA EVA RAMIREZ","LONGITUDE":-87.67244075372784},
{"STATE":"IL","ZIP":60649,"LATTITUDE":41.75177320331363,"ADDRESS":"2150 E 79TH ST  1W","YEAR":2009,"DOING_BUSINESS_AS_NAME":"STONEWALL JACKSON","POP_AT_RISK":303096,"BUSINESS_TYPE":"Peddler,food - (fruits and vegetables only) - special","LEGAL_NAME":"STONEWALL JACKSON","LONGITUDE":-87.5715070347143},
{"STATE":"IL","ZIP":60617,"LATTITUDE":41.71590186001373,"ADDRESS":"9816 S MERRION AVE # 1ST","YEAR":2009,"DOING_BUSINESS_AS_NAME":"ANTOINETTE JOHNSON","POP_AT_RISK":69712,"BUSINESS_TYPE":"Peddler,food - (fruits and vegetables only) - special","LEGAL_NAME":"ANTOINETTE JOHNSON","LONGITUDE":-87.5696927426852},
{"STATE":"IL","ZIP":60647,"LATTITUDE":41.91503473944297,"ADDRESS":"1845 N KIMBALL AVE 1 ","YEAR":2009,"DOING_BUSINESS_AS_NAME":"NICOLASA FERNANDEZ","POP_AT_RISK":293568,"BUSINESS_TYPE":"Peddler,food - (fruits and vegetables only) - special","LEGAL_NAME":"NICOLASA FERNANDEZ","LONGITUDE":-87.71169597853321},
{"STATE":"IL","ZIP":60653,"LATTITUDE":41.81514037142536,"ADDRESS":"4351 S DR MARTIN LUTHER KING JR DR  ","YEAR":2009,"DOING_BUSINESS_AS_NAME":"CAROLYN JEAN HARDWICK","POP_AT_RISK":606640,"BUSINESS_TYPE":"Peddler,food - (fruits and vegetables only) - special","LEGAL_NAME":"CAROLYN JEAN HARDWICK","LONGITUDE":-87.61660400011394},
{"STATE":"IL","ZIP":60616,"LATTITUDE":41.83475726864901,"ADDRESS":"400 E 33RD ST  2214","YEAR":2009,"DOING_BUSINESS_AS_NAME":"JOSEPH T. VALLIER JR.","POP_AT_RISK":292171,"BUSINESS_TYPE":"Peddler,food - (fruits and vegetables only) - special","LEGAL_NAME":"JOSEPH T. VALLIER JR.","LONGITUDE":-87.6170103485163},
{"STATE":"IL","ZIP":60637,"LATTITUDE":41.78212505889971,"ADDRESS":"803 E 62ND ST  2W","YEAR":2009,"DOING_BUSINESS_AS_NAME":"THOMAS AGUST HILLARD","POP_AT_RISK":459928,"BUSINESS_TYPE":"Peddler,food - (fruits and vegetables only) - special","LEGAL_NAME":"THOMAS AUGUST HILLARD","LONGITUDE":-87.60580346110031},
{"STATE":"IL","ZIP":60618,"LATTITUDE":41.951395073705534,"ADDRESS":"3837 N KEDZIE AVE  ","YEAR":2009,"DOING_BUSINESS_AS_NAME":"VIBENCIO CONSUEGRA","POP_AT_RISK":390660,"BUSINESS_TYPE":"Peddler,food - (fruits and vegetables only) - special","LEGAL_NAME":"VIBENCIO D. CONSUEGRA","LONGITUDE":-87.70779981796335},
{"STATE":"IL","ZIP":60647,"LATTITUDE":41.925060747037335,"ADDRESS":"2416 N SPRINGFIELD AVE 2ND FL ","YEAR":2009,"DOING_BUSINESS_AS_NAME":"ELIAS VILLAGOMEZ ORDAZ","POP_AT_RISK":618120,"BUSINESS_TYPE":"Peddler,food - (fruits and vegetables only) - special","LEGAL_NAME":"ELIAS VILLAGOMEZ ORDAZ","LONGITUDE":-87.72448999486085},
}