{
{"STATE":"IL","ZIP":60622,"LATTITUDE":41.90029331631682,"ADDRESS":"1022 N WOOD ST 3RD 3","YEAR":2014,"DOING_BUSINESS_AS_NAME":"ANER BEN-AMI","POP_AT_RISK":376362,"BUSINESS_TYPE":"Home Occupation","LEGAL_NAME":"ANER BEN-AMI","LONGITUDE":-87.6724492364631},
{"STATE":"IL","ZIP":60639,"LATTITUDE":41.91131926021591,"ADDRESS":"1649 N KEYSTONE AVE 2ND ","YEAR":2014,"DOING_BUSINESS_AS_NAME":"ENTONCE, INC","POP_AT_RISK":595386,"BUSINESS_TYPE":"Home Occupation","LEGAL_NAME":"ENTONCE, INC","LONGITUDE":-87.72745266958079},
{"STATE":"IL","ZIP":60631,"LATTITUDE":42.00845368905135,"ADDRESS":"7021 N ORIOLE AVE 1ST ","YEAR":2014,"DOING_BUSINESS_AS_NAME":"LA VALET INC.","POP_AT_RISK":98700,"BUSINESS_TYPE":"Home Occupation","LEGAL_NAME":"LA VALET INC.","LONGITUDE":-87.81627776976458},
{"STATE":"IL","ZIP":60624,"LATTITUDE":41.8944193176833,"ADDRESS":"723 N SPAULDING AVE 1ST ","YEAR":2014,"DOING_BUSINESS_AS_NAME":"TIDY MAID","POP_AT_RISK":209385,"BUSINESS_TYPE":"Home Occupation","LEGAL_NAME":"TIDY MAID CO.","LONGITUDE":-87.70881660431085},
{"STATE":"IL","ZIP":60655,"LATTITUDE":41.6835414425406,"ADDRESS":"11531 S MAPLEWOOD AVE 1 ","YEAR":2014,"DOING_BUSINESS_AS_NAME":"BETHS'BABYBLANKETS&CUSTOM MADE BASKETS.","POP_AT_RISK":52206,"BUSINESS_TYPE":"Home Occupation","LEGAL_NAME":"BYTHELLA BAKER","LONGITUDE":-87.68443197440554},
{"STATE":"IL","ZIP":60639,"LATTITUDE":41.92812528363905,"ADDRESS":"4314 W WRIGHTWOOD AVE 1 ","YEAR":2014,"DOING_BUSINESS_AS_NAME":"L.P. GLASS COMPANY","POP_AT_RISK":703690,"BUSINESS_TYPE":"Home Occupation","LEGAL_NAME":"HECTOR W LOPEZ","LONGITUDE":-87.73484605506096},
{"STATE":"IL","ZIP":60625,"LATTITUDE":41.96792294947534,"ADDRESS":"2100 W GIDDINGS ST 3 ","YEAR":2014,"DOING_BUSINESS_AS_NAME":"Pawlosophy LLC","POP_AT_RISK":644303,"BUSINESS_TYPE":"Home Occupation","LEGAL_NAME":"Pawlosophy LLC","LONGITUDE":-87.68085974027309},
{"STATE":"IL","ZIP":60612,"LATTITUDE":41.89493286655878,"ADDRESS":"2404 W SUPERIOR ST  3W","YEAR":2014,"DOING_BUSINESS_AS_NAME":"DEMETRIA'S CROCHET","POP_AT_RISK":56517,"BUSINESS_TYPE":"Home Occupation","LEGAL_NAME":"DEMETRIA THOMAS","LONGITUDE":-87.68709719329236},
{"STATE":"IL","ZIP":60641,"LATTITUDE":41.93383511208716,"ADDRESS":"2923 N LUNA AVE 1ST ","YEAR":2014,"DOING_BUSINESS_AS_NAME":"MILAH PRODUCTIONS","POP_AT_RISK":669270,"BUSINESS_TYPE":"Home Occupation","LEGAL_NAME":"MILAH PRODUCTIONS","LONGITUDE":-87.76495874449746},
{"STATE":"IL","ZIP":60607,"LATTITUDE":41.87363225619394,"ADDRESS":"614 S LAFLIN ST 1ST D","YEAR":2014,"DOING_BUSINESS_AS_NAME":"PHOENIX STAR INC.","POP_AT_RISK":285903,"BUSINESS_TYPE":"Home Occupation","LEGAL_NAME":"PHOENIX STAR INC.","LONGITUDE":-87.66435911446936},
{"STATE":"IL","ZIP":60611,"LATTITUDE":41.892349267241,"ADDRESS":"540 N LAKE SHORE DR 5 540","YEAR":2014,"DOING_BUSINESS_AS_NAME":"ALLSWELL SUPPLY CO","POP_AT_RISK":236040,"BUSINESS_TYPE":"Home Occupation","LEGAL_NAME":"ALLSWELL SUPPLY CO","LONGITUDE":-87.61455717025085},
{"STATE":"IL","ZIP":60640,"LATTITUDE":41.96691437428808,"ADDRESS":"4660 N WINTHROP AVE 3 3N","YEAR":2014,"DOING_BUSINESS_AS_NAME":"Idea Excursion","POP_AT_RISK":1125936,"BUSINESS_TYPE":"Home Occupation","LEGAL_NAME":"Idea Excursion, LLC","LONGITUDE":-87.65758317593469},
{"STATE":"IL","ZIP":60629,"LATTITUDE":41.78143255868504,"ADDRESS":"6122 S KOLMAR AVE 2ND 3","YEAR":2014,"DOING_BUSINESS_AS_NAME":"TAXES FROM HOME LLC","POP_AT_RISK":212303,"BUSINESS_TYPE":"Home Occupation","LEGAL_NAME":"TAXES FROM HOME LLC","LONGITUDE":-87.73642315210009},
{"STATE":"IL","ZIP":60639,"LATTITUDE":41.91143232530873,"ADDRESS":"1707 N PARKSIDE AVE 1ST ","YEAR":2014,"DOING_BUSINESS_AS_NAME":"UNICA PACKAGING LLC","POP_AT_RISK":184992,"BUSINESS_TYPE":"Home Occupation","LEGAL_NAME":"UNICA PACKAGING LLC","LONGITUDE":-87.76666921920992},
{"STATE":"IL","ZIP":60707,"LATTITUDE":41.9153476267584,"ADDRESS":"1931 N NORDICA AVE 1ST ","YEAR":2014,"DOING_BUSINESS_AS_NAME":"JUAQUIN HERNANDEZ TAX & NOTARY SERVICE","POP_AT_RISK":133572,"BUSINESS_TYPE":"Home Occupation","LEGAL_NAME":"JUANQUIN A HERNANDEZ","LONGITUDE":-87.80216586922583},
{"STATE":"IL","ZIP":60655,"LATTITUDE":41.68244261172221,"ADDRESS":"3450 W 116TH ST  ","YEAR":2014,"DOING_BUSINESS_AS_NAME":"J FERMIN GARCIA FLORES","POP_AT_RISK":15425,"BUSINESS_TYPE":"Home Occupation","LEGAL_NAME":"J FERMIN GARCIA FLORES","LONGITUDE":-87.7073626832621},
{"STATE":"IL","ZIP":60634,"LATTITUDE":41.95670274451791,"ADDRESS":"6314 W BERTEAU AVE 1 ","YEAR":2014,"DOING_BUSINESS_AS_NAME":"F. Cwynar Trucking, LLC","POP_AT_RISK":325665,"BUSINESS_TYPE":"Home Occupation","LEGAL_NAME":"F. Cwynar Trucking, LLC","LONGITUDE":-87.78494399230911},
{"STATE":"IL","ZIP":60653,"LATTITUDE":41.82132217879517,"ADDRESS":"4005 S DREXEL BLVD  ","YEAR":2014,"DOING_BUSINESS_AS_NAME":"COMPLIANCE PLANNING CORP","POP_AT_RISK":113904,"BUSINESS_TYPE":"Home Occupation","LEGAL_NAME":"COMPLIANCE PLANNING CORP","LONGITUDE":-87.60507316226501},
{"STATE":"IL","ZIP":60659,"LATTITUDE":41.99435740791979,"ADDRESS":"6220 N RIDGEWAY AVE 1ST ","YEAR":2014,"DOING_BUSINESS_AS_NAME":"IDESIGNS CHICAGO, L.L.C.","POP_AT_RISK":143130,"BUSINESS_TYPE":"Home Occupation","LEGAL_NAME":"IDESIGNS CHICAGO, L.L.C.","LONGITUDE":-87.7228406125707},
{"STATE":"IL","ZIP":60661,"LATTITUDE":41.88557552134349,"ADDRESS":"180 N JEFFERSON ST  #2308","YEAR":2014,"DOING_BUSINESS_AS_NAME":"METAL DOG CONSULTING LLC","POP_AT_RISK":194448,"BUSINESS_TYPE":"Home Occupation","LEGAL_NAME":"METAL DOG CONSULTING LLC","LONGITUDE":-87.64291678864573},
{"STATE":"IL","ZIP":60649,"LATTITUDE":41.77232854205903,"ADDRESS":"6739 S MERRILL AVE 1 1","YEAR":2014,"DOING_BUSINESS_AS_NAME":"NORTHSTAR MARKETING INC.","POP_AT_RISK":326678,"BUSINESS_TYPE":"Home Occupation","LEGAL_NAME":"NORTHSTAR MARKETING INC.","LONGITUDE":-87.57265277538872},
{"STATE":"IL","ZIP":60651,"LATTITUDE":41.89613192076,"ADDRESS":"844 N MASSASOIT AVE 2 ","YEAR":2014,"DOING_BUSINESS_AS_NAME":"NEW STRATEGY INCORPORATED","POP_AT_RISK":390180,"BUSINESS_TYPE":"Home Occupation","LEGAL_NAME":"NEW STRATEGY INCORPORATED","LONGITUDE":-87.76923569063756},
{"STATE":"IL","ZIP":60622,"LATTITUDE":41.909259195676086,"ADDRESS":"1527 N TALMAN AVE 1 1","YEAR":2014,"DOING_BUSINESS_AS_NAME":"Madriska Media Group, Inc.","POP_AT_RISK":964405,"BUSINESS_TYPE":"Home Occupation","LEGAL_NAME":"MADRISKA MEDIA GROUP, INC.","LONGITUDE":-87.69315124526918},
{"STATE":"IL","ZIP":60626,"LATTITUDE":42.01267816422827,"ADDRESS":"1908 W TOUHY AVE 2 UNIT 2","YEAR":2014,"DOING_BUSINESS_AS_NAME":"GLOBAL CROWN HEALTHCARE INC.","POP_AT_RISK":1236656,"BUSINESS_TYPE":"Home Occupation","LEGAL_NAME":"GLOBAL CROWN HEALTHCARE INC.","LONGITUDE":-87.67859513866782},
{"STATE":"IL","ZIP":60653,"LATTITUDE":41.81319585080523,"ADDRESS":"544 E 45TH ST 1 1","YEAR":2014,"DOING_BUSINESS_AS_NAME":"DHSC PROPERTY MANAGEMENT, LLC","POP_AT_RISK":423665,"BUSINESS_TYPE":"Home Occupation","LEGAL_NAME":"DHSC PROPERTY MANAGEMENT, LLC","LONGITUDE":-87.61209720795883},
{"STATE":"IL","ZIP":60655,"LATTITUDE":41.7030482920499,"ADDRESS":"10436 S LAWNDALE AVE  ","YEAR":2014,"DOING_BUSINESS_AS_NAME":"JED'S PACKAGING SUPPLIES. LLC","POP_AT_RISK":86676,"BUSINESS_TYPE":"Home Occupation","LEGAL_NAME":"JED'S PACKAGING SUPPLIES, LLC","LONGITUDE":-87.7135981011078},
{"STATE":"IL","ZIP":60604,"LATTITUDE":41.8779878069696,"ADDRESS":"310 S MICHIGAN AVE  1705","YEAR":2014,"DOING_BUSINESS_AS_NAME":"Metropolitan Diversified Services Corporation","POP_AT_RISK":121068,"BUSINESS_TYPE":"Home Occupation","LEGAL_NAME":"Metropolitan Diversified Services Corporation","LONGITUDE":-87.62445980070322},
}