{
{"STATE":"IL","ZIP":60656,"LATTITUDE":41.97331138411917,"ADDRESS":"9696 W FOSTER AVE  ","YEAR":2011,"DOING_BUSINESS_AS_NAME":"5 STAR FLASH, INC.","POP_AT_RISK":16526,"BUSINESS_TYPE":"License Broker","LEGAL_NAME":"5 STAR FLASH, INC.","LONGITUDE":-87.86672075423944},
{"STATE":"IL","ZIP":60659,"LATTITUDE":41.990360615151424,"ADDRESS":"2601 W PETERSON AVE  ","YEAR":2011,"DOING_BUSINESS_AS_NAME":"TAXI CONSULTING, CORP.","POP_AT_RISK":648637,"BUSINESS_TYPE":"License Broker","LEGAL_NAME":"TAXI CONSULTING, CORP.","LONGITUDE":-87.69459321220984},
{"STATE":"IL","ZIP":60646,"LATTITUDE":41.992025442366575,"ADDRESS":"4020 W GLENLAKE AVE  ","YEAR":2011,"DOING_BUSINESS_AS_NAME":"BLUE RIBBON SERVICES, INC.","POP_AT_RISK":53922,"BUSINESS_TYPE":"License Broker","LEGAL_NAME":"BLUE RIBBON SERVICES, INC.","LONGITUDE":-87.72984048928724},
{"STATE":"IL","ZIP":60661,"LATTITUDE":41.88326270465594,"ADDRESS":"724 W WASHINGTON BLVD  ","YEAR":2011,"DOING_BUSINESS_AS_NAME":"LAW OFFICE OF CHARLES GOODBAR","POP_AT_RISK":209565,"BUSINESS_TYPE":"License Broker","LEGAL_NAME":"LAW OFFICE OF CHARLES GOODBAR","LONGITUDE":-87.64649415136276},
{"STATE":"IL","ZIP":60618,"LATTITUDE":41.946464369592555,"ADDRESS":"3351 W ADDISON ST 3 ","YEAR":2011,"DOING_BUSINESS_AS_NAME":"TAXI AFFILIATION SERVICES LLC","POP_AT_RISK":816946,"BUSINESS_TYPE":"License Broker","LEGAL_NAME":"TAXI AFFILIATION SERVICES LLC","LONGITUDE":-87.71233717594026},
{"STATE":"IL","ZIP":60616,"LATTITUDE":41.8451088467216,"ADDRESS":"2617 S WABASH AVE 1 ","YEAR":2011,"DOING_BUSINESS_AS_NAME":"CHICAGO MEDALLION BROKERS, INC.","POP_AT_RISK":354312,"BUSINESS_TYPE":"License Broker","LEGAL_NAME":"CHICAGO MEDALLION BROKERS, INC.","LONGITUDE":-87.62516554312204},
{"STATE":"IL","ZIP":60630,"LATTITUDE":41.963183921265326,"ADDRESS":"4536 N ELSTON AVE  ","YEAR":2011,"DOING_BUSINESS_AS_NAME":"DISPATCH BROKERAGE SERVICES LLC","POP_AT_RISK":92054,"BUSINESS_TYPE":"License Broker","LEGAL_NAME":"DISPATCH BROKERAGE SERVICES LLC","LONGITUDE":-87.73318715325468},
{"STATE":"IL","ZIP":60601,"LATTITUDE":41.884779704626446,"ADDRESS":"161 N CLARK ST  4700","YEAR":2011,"DOING_BUSINESS_AS_NAME":"WINDY CITY MEDALLION BROKERS INC","POP_AT_RISK":122286,"BUSINESS_TYPE":"License Broker","LEGAL_NAME":"WINDY CITY MEDALLION BROKERS INC.","LONGITUDE":-87.63080066748626},
}