{
{"STATE":"IL","ZIP":60652,"LATTITUDE":41.74299303153854,"ADDRESS":"8233-8237 S PULASKI RD 1ST ","YEAR":2013,"DOING_BUSINESS_AS_NAME":"THE LEARNING TREE II","POP_AT_RISK":63684,"BUSINESS_TYPE":"Children's Services Facility License","LEGAL_NAME":"GIA GROUP INC.","LONGITUDE":-87.72155821260196},
{"STATE":"IL","ZIP":60617,"LATTITUDE":41.72280463075272,"ADDRESS":"3501 E 95TH ST 1 1","YEAR":2013,"DOING_BUSINESS_AS_NAME":"RESTORING THE SEED","POP_AT_RISK":13632,"BUSINESS_TYPE":"Children's Services Facility License","LEGAL_NAME":"DEBORAH JOHNSON","LONGITUDE":-87.53885914827828},
{"STATE":"IL","ZIP":60645,"LATTITUDE":42.017637330007524,"ADDRESS":"7463 N RIDGE BLVD 1 ","YEAR":2013,"DOING_BUSINESS_AS_NAME":"EL RUISENOR - DAYCARE CENTER","POP_AT_RISK":133924,"BUSINESS_TYPE":"Children's Services Facility License","LEGAL_NAME":"MARIA D. CALVILLO","LONGITUDE":-87.6842790144969},
{"STATE":"IL","ZIP":60631,"LATTITUDE":42.011776152755054,"ADDRESS":"7250 W TOUHY AVE  ","YEAR":2013,"DOING_BUSINESS_AS_NAME":"CHILDREN CAMPUS INC","POP_AT_RISK":38320,"BUSINESS_TYPE":"Children's Services Facility License","LEGAL_NAME":"CHILDREN'S CAMPUS, INC.","LONGITUDE":-87.80864354261232},
{"STATE":"IL","ZIP":60646,"LATTITUDE":42.003175359269584,"ADDRESS":"6736 N LOLETA AVE  ","YEAR":2013,"DOING_BUSINESS_AS_NAME":"EDGEBROOK COMMUNITY CHURCH","POP_AT_RISK":11252,"BUSINESS_TYPE":"Children's Services Facility License","LEGAL_NAME":"EDGEBROOK COMMUNITY CHURCH","LONGITUDE":-87.77183707699314},
{"STATE":"IL","ZIP":60638,"LATTITUDE":41.7932347787373,"ADDRESS":"6287 S ARCHER AVE  1ST F","YEAR":2013,"DOING_BUSINESS_AS_NAME":"KID'Z COLONY DAYCARE, INC.","POP_AT_RISK":31161,"BUSINESS_TYPE":"Children's Services Facility License","LEGAL_NAME":"KID'Z COLONY DAYCARE. INC.","LONGITUDE":-87.77777643611029},
{"STATE":"IL","ZIP":60646,"LATTITUDE":41.995446645749816,"ADDRESS":"4008 W ROSEMONT AVE  1ST F","YEAR":2013,"DOING_BUSINESS_AS_NAME":"ALL ABOARD LEARNING EXPRESS","POP_AT_RISK":20014,"BUSINESS_TYPE":"Children's Services Facility License","LEGAL_NAME":"ALL ABOARD LEARNING EXPRESS","LONGITUDE":-87.72932153283107},
{"STATE":"IL","ZIP":60633,"LATTITUDE":41.652511409051534,"ADDRESS":"13338-40 S BRANDON AVE BASEMENT & 1ST FLOOR ","YEAR":2013,"DOING_BUSINESS_AS_NAME":"EAST SIDE CHILD DEVELOPMENT CENTER","POP_AT_RISK":27264,"BUSINESS_TYPE":"Children's Services Facility License","LEGAL_NAME":"THE MARTIN GROUP 13338, LLC","LONGITUDE":-87.54606578976836},
{"STATE":"IL","ZIP":60656,"LATTITUDE":41.97436750072286,"ADDRESS":"7626-7630 W FOSTER AVE 1ST ","YEAR":2013,"DOING_BUSINESS_AS_NAME":"CZERWONY KAPTUREK","POP_AT_RISK":14234,"BUSINESS_TYPE":"Children's Services Facility License","LEGAL_NAME":"LITTLE RED RIDING HOOD, INC.","LONGITUDE":-87.81804729501805},
{"STATE":"IL","ZIP":60643,"LATTITUDE":41.67801263164476,"ADDRESS":"11832 S WESTERN AVE 1ST ","YEAR":2013,"DOING_BUSINESS_AS_NAME":"LITTLE SHEPHERDS ACADEMY","POP_AT_RISK":19493,"BUSINESS_TYPE":"Children's Services Facility License","LEGAL_NAME":"LITTLE SHEPHERDS ACADEMY, INC.","LONGITUDE":-87.6808735880967},
{"STATE":"IL","ZIP":60656,"LATTITUDE":41.9793096533148,"ADDRESS":"8622 W CATALPA AVE 1ST ","YEAR":2013,"DOING_BUSINESS_AS_NAME":"BRICKTON MONTESSORI SCHOOL","POP_AT_RISK":63507,"BUSINESS_TYPE":"Children's Services Facility License","LEGAL_NAME":"THE BRICKTON MONTESSORI SCHOOL","LONGITUDE":-87.84247838940561},
{"STATE":"IL","ZIP":60616,"LATTITUDE":41.835954885922824,"ADDRESS":"501 E 32ND ST  1ST","YEAR":2013,"DOING_BUSINESS_AS_NAME":"THE CHILDREN'S HOUSE-LK MEADOW","POP_AT_RISK":22026,"BUSINESS_TYPE":"Children's Services Facility License","LEGAL_NAME":"THE CHILDREN'S HOUSE LAKE MEAD","LONGITUDE":-87.61335015397036},
{"STATE":"IL","ZIP":60628,"LATTITUDE":41.661326016281905,"ADDRESS":"12801-12803 S HALSTED ST  ","YEAR":2013,"DOING_BUSINESS_AS_NAME":"CHILDREN'S CENTER INC","POP_AT_RISK":16278,"BUSINESS_TYPE":"Children's Services Facility License","LEGAL_NAME":"CHILDREN'S CENTER, INCORPORATED","LONGITUDE":-87.64121030558698},
{"STATE":"IL","ZIP":60652,"LATTITUDE":41.75466012439374,"ADDRESS":"7601 S CICERO AVE 1 T86","YEAR":2013,"DOING_BUSINESS_AS_NAME":"JOLLY EXPRESS TRAIN","POP_AT_RISK":77466,"BUSINESS_TYPE":"Children's Services Facility License","LEGAL_NAME":"JOLLY ENTERTAINMENT GROUP, INC.","LONGITUDE":-87.74138475860521},
{"STATE":"IL","ZIP":60656,"LATTITUDE":41.977374595498965,"ADDRESS":"6514-6516 W HIGGINS AVE  ","YEAR":2013,"DOING_BUSINESS_AS_NAME":"MT ARARAT DAYCARE CENTER","POP_AT_RISK":32029,"BUSINESS_TYPE":"Children's Services Facility License","LEGAL_NAME":"MT. ARARAT DAYCARE CENTER, L.L.C.","LONGITUDE":-87.79085428202548},
{"STATE":"IL","ZIP":60655,"LATTITUDE":41.69148728951806,"ADDRESS":"3656 W 111TH ST 1 ","YEAR":2013,"DOING_BUSINESS_AS_NAME":"MUSTARDSEED LEARNING CENTER, INC.","POP_AT_RISK":28636,"BUSINESS_TYPE":"Children's Services Facility License","LEGAL_NAME":"MUSTARDSEED LEARNING CENTER, INC.","LONGITUDE":-87.71287071367232},
{"STATE":"IL","ZIP":60644,"LATTITUDE":41.865605626722484,"ADDRESS":"5858 W ROOSEVELT RD 1 ","YEAR":2013,"DOING_BUSINESS_AS_NAME":"CHILDREN INTERNATIONAL ACADEMY","POP_AT_RISK":314508,"BUSINESS_TYPE":"Children's Services Facility License","LEGAL_NAME":"CHILDREN INTERNATIONAL ACADEMY,LLC","LONGITUDE":-87.77161387921645},
{"STATE":"IL","ZIP":60632,"LATTITUDE":41.80943923636859,"ADDRESS":"4606-4610 S PULASKI RD 1ST ","YEAR":2013,"DOING_BUSINESS_AS_NAME":"LIZ-NEY-LAND LEARNING CENTER, INC.","POP_AT_RISK":23993,"BUSINESS_TYPE":"Children's Services Facility License","LEGAL_NAME":"LIZ-NEY-LAND LEARNING CENTER, INC.","LONGITUDE":-87.723789019846},
{"STATE":"IL","ZIP":60638,"LATTITUDE":41.80325513926886,"ADDRESS":"4922 S CICERO AVE 1ST ","YEAR":2013,"DOING_BUSINESS_AS_NAME":"SANCTUARY CHILDCARE DEVELOPMENT CENTER","POP_AT_RISK":24242,"BUSINESS_TYPE":"Children's Services Facility License","LEGAL_NAME":"SANCTUARY OF THE LIVING GOD CHURCH","LONGITUDE":-87.74318434425263},
{"STATE":"IL","ZIP":60623,"LATTITUDE":41.84346389123191,"ADDRESS":"2629 S LAWNDALE AVE 1ST ","YEAR":2013,"DOING_BUSINESS_AS_NAME":"A-ZMALL WORLD CHILD DEVELOPMENT CENTER","POP_AT_RISK":66506,"BUSINESS_TYPE":"Children's Services Facility License","LEGAL_NAME":"A-ZMALL WORLD CHILD DEVELOPMENT CENTER CORP.","LONGITUDE":-87.71705500300543},
}