{
{"STATE":"IL","ZIP":60634,"LATTITUDE":41.952023715154134,"ADDRESS":"8227 W IRVING PARK RD  ","YEAR":2007,"DOING_BUSINESS_AS_NAME":"MISKA LIQUORS","POP_AT_RISK":17783,"BUSINESS_TYPE":"Package Goods","LEGAL_NAME":"ISLS INC.","LONGITUDE":-87.83295904792494},
{"STATE":"IL","ZIP":60633,"LATTITUDE":41.652964611693584,"ADDRESS":"13322-13324 S BALTIMORE AVE  ","YEAR":2007,"DOING_BUSINESS_AS_NAME":"Baltimore Food & Liquor","POP_AT_RISK":40896,"BUSINESS_TYPE":"Package Goods","LEGAL_NAME":"QVAC, Inc.","LONGITUDE":-87.547298652826},
{"STATE":"IL","ZIP":60645,"LATTITUDE":42.018017439434125,"ADDRESS":"7510 N WESTERN AVE 1ST ","YEAR":2007,"DOING_BUSINESS_AS_NAME":"WALGREENS #252","POP_AT_RISK":49835,"BUSINESS_TYPE":"Package Goods","LEGAL_NAME":"WALGREEN CO.","LONGITUDE":-87.69033736821223},
{"STATE":"IL","ZIP":60659,"LATTITUDE":41.99713137588713,"ADDRESS":"3949 W DEVON AVE 1ST ","YEAR":2007,"DOING_BUSINESS_AS_NAME":"EDENS # 2 INC","POP_AT_RISK":20014,"BUSINESS_TYPE":"Package Goods","LEGAL_NAME":"EDENS #2, INC.","LONGITUDE":-87.72831703541054},
{"STATE":"IL","ZIP":60644,"LATTITUDE":41.873094832519136,"ADDRESS":"600 S CICERO AVE 1ST ","YEAR":2007,"DOING_BUSINESS_AS_NAME":"BELMONTE LIQUORS","POP_AT_RISK":45640,"BUSINESS_TYPE":"Package Goods","LEGAL_NAME":"600 S CICERO INC","LONGITUDE":-87.74514386884542},
{"STATE":"IL","ZIP":60631,"LATTITUDE":42.0043992612229,"ADDRESS":"6783 N NORTHWEST HWY  ","YEAR":2007,"DOING_BUSINESS_AS_NAME":"HAPPY FOODS","POP_AT_RISK":19740,"BUSINESS_TYPE":"Package Goods","LEGAL_NAME":"HAPPY FOODS, INC.","LONGITUDE":-87.81848575539418},
{"STATE":"IL","ZIP":60628,"LATTITUDE":41.67080641359029,"ADDRESS":"12258 S MICHIGAN AVE 1ST #","YEAR":2007,"DOING_BUSINESS_AS_NAME":"J & B LIQUORS INC","POP_AT_RISK":26253,"BUSINESS_TYPE":"Package Goods","LEGAL_NAME":"J & B LIQUORS INC","LONGITUDE":-87.62043825491395},
{"STATE":"IL","ZIP":60617,"LATTITUDE":41.71572434969255,"ADDRESS":"9901-9903 S EWING AVE  ","YEAR":2007,"DOING_BUSINESS_AS_NAME":"LA NACIONAL LIQUORS","POP_AT_RISK":15008,"BUSINESS_TYPE":"Package Goods","LEGAL_NAME":"LA NACIONAL, INC.","LONGITUDE":-87.5351299420226},
{"STATE":"IL","ZIP":60632,"LATTITUDE":41.799877878563336,"ADDRESS":"5114 S KNOX AVE  ","YEAR":2007,"DOING_BUSINESS_AS_NAME":"LIQUOR DEPOT","POP_AT_RISK":29168,"BUSINESS_TYPE":"Package Goods","LEGAL_NAME":"LIQUOR DEPOT, INC.","LONGITUDE":-87.73942146302164},
{"STATE":"IL","ZIP":60645,"LATTITUDE":42.01197715588615,"ADDRESS":"3150 W TOUHY AVE  ","YEAR":2007,"DOING_BUSINESS_AS_NAME":"NEW YORK PANTRY","POP_AT_RISK":37841,"BUSINESS_TYPE":"Package Goods","LEGAL_NAME":"RADHESHYAM FOODS, INC.","LONGITUDE":-87.70867163416553},
{"STATE":"IL","ZIP":60827,"LATTITUDE":41.65197281855635,"ADDRESS":"13355 S INDIANA AVE  ","YEAR":2007,"DOING_BUSINESS_AS_NAME":"KEY FOOD LIQUOR","POP_AT_RISK":5714,"BUSINESS_TYPE":"Package Goods","LEGAL_NAME":"KEY FOOD & LIQUOR, INC.","LONGITUDE":-87.61708373629855},
{"STATE":"IL","ZIP":60707,"LATTITUDE":41.909134570904456,"ADDRESS":"6800 W NORTH AVE  ","YEAR":2007,"DOING_BUSINESS_AS_NAME":"7 - ELEVEN","POP_AT_RISK":28778,"BUSINESS_TYPE":"Package Goods","LEGAL_NAME":"SMOCK ENTERPRISES, INC.","LONGITUDE":-87.79492813078483},
{"STATE":"IL","ZIP":60644,"LATTITUDE":41.874620484855676,"ADDRESS":"5575 W VAN BUREN ST  ","YEAR":2007,"DOING_BUSINESS_AS_NAME":"VAN-CENTRAL FOOD & LIQUOR","POP_AT_RISK":134529,"BUSINESS_TYPE":"Package Goods","LEGAL_NAME":"DAR-RAF FOOD & LIQUOR INC","LONGITUDE":-87.76450473922907},
{"STATE":"IL","ZIP":60623,"LATTITUDE":41.85132422344611,"ADDRESS":"4265 W CERMAK RD  ","YEAR":2007,"DOING_BUSINESS_AS_NAME":"FERAS FOOD & LIQUOR, INC.","POP_AT_RISK":56213,"BUSINESS_TYPE":"Package Goods","LEGAL_NAME":"FERAS FOOD & LIQUOR, INC.","LONGITUDE":-87.73219217780218},
{"STATE":"IL","ZIP":60652,"LATTITUDE":41.74929401251509,"ADDRESS":"4047 W 79TH ST  ","YEAR":2007,"DOING_BUSINESS_AS_NAME":"KWIK MART INC","POP_AT_RISK":31914,"BUSINESS_TYPE":"Package Goods","LEGAL_NAME":"Kwik Mart 5500 W. Montrose, Inc.","LONGITUDE":-87.72385229030567},
{"STATE":"IL","ZIP":60655,"LATTITUDE":41.700355274179636,"ADDRESS":"10601 S PULASKI RD 1ST ","YEAR":2007,"DOING_BUSINESS_AS_NAME":"FAMILY PRIDE","POP_AT_RISK":30932,"BUSINESS_TYPE":"Package Goods","LEGAL_NAME":"FAMILY PRIDE FOODS OF CHICAGO, INC.","LONGITUDE":-87.72054089644553},
{"STATE":"IL","ZIP":60628,"LATTITUDE":41.6919240926713,"ADDRESS":"11112 S HALSTED ST 1ST ","YEAR":2007,"DOING_BUSINESS_AS_NAME":"SHELDON LIQUORS","POP_AT_RISK":34675,"BUSINESS_TYPE":"Package Goods","LEGAL_NAME":"11112 South Halsted Street Corporation","LONGITUDE":-87.64251437633585},
{"STATE":"IL","ZIP":60638,"LATTITUDE":41.79183960250139,"ADDRESS":"7147 W ARCHER AVE  ","YEAR":2007,"DOING_BUSINESS_AS_NAME":"JOE & FRANK'S MARKET","POP_AT_RISK":48996,"BUSINESS_TYPE":"Package Goods","LEGAL_NAME":"JOE & FRANK'S HOMEMADE SAUSAGE, L.L.C.","LONGITUDE":-87.8008893081132},
}