{
{"STATE":"IL","ZIP":60632,"LATTITUDE":41.82098754788502,"ADDRESS":"4008 S ARCHER AVE 1 ","YEAR":2009,"DOING_BUSINESS_AS_NAME":"CACHORRO PET","POP_AT_RISK":566480,"BUSINESS_TYPE":"Pet Shop","LEGAL_NAME":"JUAN ZARATE","LONGITUDE":-87.6932314725678},
{"STATE":"IL","ZIP":60609,"LATTITUDE":41.80865270371698,"ADDRESS":"1836 W 47TH ST 1ST ","YEAR":2009,"DOING_BUSINESS_AS_NAME":"PARADISE DE AVES","POP_AT_RISK":143380,"BUSINESS_TYPE":"Pet Shop","LEGAL_NAME":"JOSE M PEREZ","LONGITUDE":-87.67127397220543},
{"STATE":"IL","ZIP":60632,"LATTITUDE":41.797991869962225,"ADDRESS":"5220 S PULASKI RD  ","YEAR":2009,"DOING_BUSINESS_AS_NAME":"Super Pets","POP_AT_RISK":81404,"BUSINESS_TYPE":"Pet Shop","LEGAL_NAME":"MARTIN ZARATE","LONGITUDE":-87.723443740796},
{"STATE":"IL","ZIP":60640,"LATTITUDE":41.98079618888139,"ADDRESS":"5430 N CLARK ST  1","YEAR":2009,"DOING_BUSINESS_AS_NAME":"RUFF N STUFF","POP_AT_RISK":1288086,"BUSINESS_TYPE":"Pet Shop","LEGAL_NAME":"RUFF N' STUFF","LONGITUDE":-87.66850258743811},
{"STATE":"IL","ZIP":60607,"LATTITUDE":41.86888971111206,"ADDRESS":"1101 S CANAL ST  ","YEAR":2009,"DOING_BUSINESS_AS_NAME":"PETSMART","POP_AT_RISK":162390,"BUSINESS_TYPE":"Pet Shop","LEGAL_NAME":"PETSMART, INC.","LONGITUDE":-87.63909892808796},
{"STATE":"IL","ZIP":60657,"LATTITUDE":41.933744310558,"ADDRESS":"2832 N BROADWAY   ","YEAR":2009,"DOING_BUSINESS_AS_NAME":"PETSMART  Store #1241","POP_AT_RISK":77909,"BUSINESS_TYPE":"Pet Shop","LEGAL_NAME":"PETSMART, INC.","LONGITUDE":-87.64474183878589},
{"STATE":"IL","ZIP":60632,"LATTITUDE":41.79326180955464,"ADDRESS":"4222 W 55TH ST  1","YEAR":2009,"DOING_BUSINESS_AS_NAME":"FRANK KOLODZIEJ","POP_AT_RISK":180900,"BUSINESS_TYPE":"Pet Shop","LEGAL_NAME":"FRANK KOLODZIEJ","LONGITUDE":-87.72913638586823},
{"STATE":"IL","ZIP":60608,"LATTITUDE":41.851806334793636,"ADDRESS":"2733 W CERMAK RD 1 ","YEAR":2009,"DOING_BUSINESS_AS_NAME":"JOE'S PET SALON","POP_AT_RISK":56511,"BUSINESS_TYPE":"Pet Shop","LEGAL_NAME":"JOE'S PET SALON","LONGITUDE":-87.69434919225381},
{"STATE":"IL","ZIP":60608,"LATTITUDE":41.85186827166058,"ADDRESS":"2551 W CERMAK RD 1 W17-W","YEAR":2009,"DOING_BUSINESS_AS_NAME":"CHICAGO PET STORE II","POP_AT_RISK":42169,"BUSINESS_TYPE":"Pet Shop","LEGAL_NAME":"SOFIA N. OCAMPO","LONGITUDE":-87.69007512129495},
{"STATE":"IL","ZIP":60630,"LATTITUDE":41.977464175215516,"ADDRESS":"5342 N NORTHWEST HWY  ","YEAR":2009,"DOING_BUSINESS_AS_NAME":"Blue Planet Aquarium Services","POP_AT_RISK":284432,"BUSINESS_TYPE":"Pet Shop","LEGAL_NAME":"AQUARICLEAN, INC","LONGITUDE":-87.77274573784965},
{"STATE":"IL","ZIP":60632,"LATTITUDE":41.80103192267782,"ADDRESS":"2417 W 51ST ST 1ST ","YEAR":2009,"DOING_BUSINESS_AS_NAME":"CERMAK PETS & SUPPLYS","POP_AT_RISK":193712,"BUSINESS_TYPE":"Pet Shop","LEGAL_NAME":"MARIA F. DELGADO","LONGITUDE":-87.68502893957555},
{"STATE":"IL","ZIP":60638,"LATTITUDE":41.77776662058085,"ADDRESS":"5941 W 63RD ST  1","YEAR":2009,"DOING_BUSINESS_AS_NAME":"MIDWAY PET & HOBBIE","POP_AT_RISK":75752,"BUSINESS_TYPE":"Pet Shop","LEGAL_NAME":"VICTORIA KRASHAK","LONGITUDE":-87.77072412243025},
{"STATE":"IL","ZIP":60639,"LATTITUDE":41.924095643270135,"ADDRESS":"5550 1\/2-52 W FULLERTON AVE  ","YEAR":2009,"DOING_BUSINESS_AS_NAME":"BIT O TROPICS","POP_AT_RISK":68079,"BUSINESS_TYPE":"Pet Shop","LEGAL_NAME":"BIT O TROPICS INC","LONGITUDE":-87.76561615253081},
{"STATE":"IL","ZIP":60707,"LATTITUDE":41.92345973283187,"ADDRESS":"6919 W GRAND AVE  ","YEAR":2009,"DOING_BUSINESS_AS_NAME":"TOP DOGS","POP_AT_RISK":351736,"BUSINESS_TYPE":"Pet Shop","LEGAL_NAME":"DARRELL B LINDSEY","LONGITUDE":-87.79884307511517},
{"STATE":"IL","ZIP":60618,"LATTITUDE":41.935364501560954,"ADDRESS":"2980 N MILWAUKEE AVE  ","YEAR":2009,"DOING_BUSINESS_AS_NAME":"ANIMAL KINGDOM INCORPORATED","POP_AT_RISK":121270,"BUSINESS_TYPE":"Pet Shop","LEGAL_NAME":"ANIMAL KINGDOM INC","LONGITUDE":-87.71795714421246},
{"STATE":"IL","ZIP":60622,"LATTITUDE":41.89563034854132,"ADDRESS":"2403 W CHICAGO AVE 1ST ","YEAR":2009,"DOING_BUSINESS_AS_NAME":"LIZ'S PET SHOP","POP_AT_RISK":901328,"BUSINESS_TYPE":"Pet Shop","LEGAL_NAME":"ELIZABETH M VARELA","LONGITUDE":-87.68703920845005},
{"STATE":"IL","ZIP":60639,"LATTITUDE":41.92395990947855,"ADDRESS":"5311 W FULLERTON AVE  ","YEAR":2009,"DOING_BUSINESS_AS_NAME":"FURRY FRIENDS INC.","POP_AT_RISK":65371,"BUSINESS_TYPE":"Pet Shop","LEGAL_NAME":"FURRY FRIENDS INC.","LONGITUDE":-87.75906120549509},
{"STATE":"IL","ZIP":60655,"LATTITUDE":41.703470270354465,"ADDRESS":"10429 S KEDZIE AVE 1ST ","YEAR":2009,"DOING_BUSINESS_AS_NAME":"PARK PET SHOP INC","POP_AT_RISK":183127,"BUSINESS_TYPE":"Pet Shop","LEGAL_NAME":"PARK PET SHOP INC.","LONGITUDE":-87.70110404556713},
{"STATE":"IL","ZIP":60649,"LATTITUDE":41.75196502179656,"ADDRESS":"2734 E 79TH ST 1ST ","YEAR":2009,"DOING_BUSINESS_AS_NAME":"BLUE MAGIC PET SHOP","POP_AT_RISK":524052,"BUSINESS_TYPE":"Pet Shop","LEGAL_NAME":"JACQUELINE R WILSON","LONGITUDE":-87.55701855522801},
{"STATE":"IL","ZIP":60609,"LATTITUDE":41.83032222426684,"ADDRESS":"3512 S HALSTED ST 1ST 1","YEAR":2009,"DOING_BUSINESS_AS_NAME":"PAWS AND CLAWS","POP_AT_RISK":211428,"BUSINESS_TYPE":"Pet Shop","LEGAL_NAME":"JOSEPH J. BUDVAITIS","LONGITUDE":-87.64624317525018},
{"STATE":"IL","ZIP":60608,"LATTITUDE":41.84653404320674,"ADDRESS":"2516 S HALSTED ST  ","YEAR":2009,"DOING_BUSINESS_AS_NAME":"BUYER SOLUTION","POP_AT_RISK":512440,"BUSINESS_TYPE":"Pet Shop","LEGAL_NAME":"GOLDEN AQUARIUM INC.","LONGITUDE":-87.64661506620588},
{"STATE":"IL","ZIP":60639,"LATTITUDE":41.90976452703277,"ADDRESS":"4650 W NORTH AVE  ","YEAR":2009,"DOING_BUSINESS_AS_NAME":"WALMART #5402","POP_AT_RISK":336744,"BUSINESS_TYPE":"Pet Shop","LEGAL_NAME":"WAL-MART STORES, INC.","LONGITUDE":-87.74337629570627},
{"STATE":"IL","ZIP":60628,"LATTITUDE":41.662549681874204,"ADDRESS":"12721 S HALSTED ST 1ST ","YEAR":2009,"DOING_BUSINESS_AS_NAME":"PINK POODLE PALACE","POP_AT_RISK":143418,"BUSINESS_TYPE":"Pet Shop","LEGAL_NAME":"GLORIA & TRACY MCBRIDE","LONGITUDE":-87.64125124497521},
{"STATE":"IL","ZIP":60652,"LATTITUDE":41.74602291961784,"ADDRESS":"8057 S CICERO AVE  ","YEAR":2009,"DOING_BUSINESS_AS_NAME":"PET LUV PET CENTER INC","POP_AT_RISK":80444,"BUSINESS_TYPE":"Pet Shop","LEGAL_NAME":"PET LUV PET CENTER INC","LONGITUDE":-87.7411015602688},
{"STATE":"IL","ZIP":60639,"LATTITUDE":41.9242635842671,"ADDRESS":"4343 W FULLERTON AVE 1ST ","YEAR":2009,"DOING_BUSINESS_AS_NAME":"CHICAGO PUPPY PLACE","POP_AT_RISK":358000,"BUSINESS_TYPE":"Pet Shop","LEGAL_NAME":"FRANCISCO DAMIAN MOLINA","LONGITUDE":-87.73587348927045},
{"STATE":"IL","ZIP":60657,"LATTITUDE":41.94354549152354,"ADDRESS":"3404 N ASHLAND AVE  1","YEAR":2009,"DOING_BUSINESS_AS_NAME":"LET'S PET","POP_AT_RISK":129302,"BUSINESS_TYPE":"Pet Shop","LEGAL_NAME":"MARY SOPIARZ & TARA ADLIN","LONGITUDE":-87.6689158099772},
{"STATE":"IL","ZIP":60634,"LATTITUDE":41.95298420287931,"ADDRESS":"6500 W IRVING PARK RD  1","YEAR":2009,"DOING_BUSINESS_AS_NAME":"OCEAN DESIGN AQUARIUM","POP_AT_RISK":385101,"BUSINESS_TYPE":"Pet Shop","LEGAL_NAME":"OCEAN DESIGN AQUARIUM INC","LONGITUDE":-87.78908383095457},
{"STATE":"IL","ZIP":60618,"LATTITUDE":41.94734998687162,"ADDRESS":"3640 N ELSTON AVE 1ST ","YEAR":2009,"DOING_BUSINESS_AS_NAME":"PET SUPPLY PLUS","POP_AT_RISK":370224,"BUSINESS_TYPE":"Pet Shop","LEGAL_NAME":"H WEAVER,J BERRY,H SHALLOP","LONGITUDE":-87.71012228783088},
{"STATE":"IL","ZIP":60647,"LATTITUDE":41.91870069748277,"ADDRESS":"2062-2064 N MILWAUKEE AVE  1","YEAR":2009,"DOING_BUSINESS_AS_NAME":"JULE'S 5 cent TO $1 STORES, INC","POP_AT_RISK":542853,"BUSINESS_TYPE":"Pet Shop","LEGAL_NAME":"JULE'S 5 cent TO $1 STORES, INC","LONGITUDE":-87.69070292634873},
{"STATE":"IL","ZIP":60617,"LATTITUDE":41.703336347386745,"ADDRESS":"10540 S EWING AVE 1ST ","YEAR":2009,"DOING_BUSINESS_AS_NAME":"ALL ABOUT PETS","POP_AT_RISK":146982,"BUSINESS_TYPE":"Pet Shop","LEGAL_NAME":"VALERIE DAVIS AND LAMONT E WILSON","LONGITUDE":-87.5354317383637},
{"STATE":"IL","ZIP":60614,"LATTITUDE":41.91758179156386,"ADDRESS":"2000 N CLYBOURN AVE 1ST ","YEAR":2009,"DOING_BUSINESS_AS_NAME":"PETCO #869","POP_AT_RISK":219396,"BUSINESS_TYPE":"Pet Shop","LEGAL_NAME":"PETCO ANIMAL SUPPLIES STORES, INC.","LONGITUDE":-87.6590228976662},
{"STATE":"IL","ZIP":60610,"LATTITUDE":41.890341971280506,"ADDRESS":"440 N ORLEANS ST  ","YEAR":2009,"DOING_BUSINESS_AS_NAME":"PETCO #1965","POP_AT_RISK":527608,"BUSINESS_TYPE":"Pet Shop","LEGAL_NAME":"PETCO ANIMAL SUPPLIES STORES, INC.","LONGITUDE":-87.63714472645873},
{"STATE":"IL","ZIP":60643,"LATTITUDE":41.68064793017087,"ADDRESS":"11720 S MARSHFIELD AVE 1 ","YEAR":2009,"DOING_BUSINESS_AS_NAME":"PETCO #1983","POP_AT_RISK":88464,"BUSINESS_TYPE":"Pet Shop","LEGAL_NAME":"PETCO ANIMAL SUPPLIES STORES, INC.","LONGITUDE":-87.66259019890877},
{"STATE":"IL","ZIP":60656,"LATTITUDE":41.97462951006733,"ADDRESS":"7220 W FOSTER AVE  ","YEAR":2009,"DOING_BUSINESS_AS_NAME":"PET SUPPLIES PLUS # 53","POP_AT_RISK":156325,"BUSINESS_TYPE":"Pet Shop","LEGAL_NAME":"PET SUPPLIES PLUS  CHICAGO CITY CENTER LIMITED PARTNERSHIP","LONGITUDE":-87.80798109934157},
}