{
{"STATE":"IL","ZIP":60707,"LATTITUDE":41.93070783891614,"ADDRESS":"7001 W DIVERSEY AVE  ","YEAR":2015,"DOING_BUSINESS_AS_NAME":"JACQUELINE LOUNGE","POP_AT_RISK":78120,"BUSINESS_TYPE":"Tavern","LEGAL_NAME":"DINJER INC","LONGITUDE":-87.80106867172118},
{"STATE":"IL","ZIP":60609,"LATTITUDE":41.80327898483532,"ADDRESS":"4957 S ASHLAND AVE 1ST ","YEAR":2015,"DOING_BUSINESS_AS_NAME":"EL BARON RAJO LOUNGE","POP_AT_RISK":38502,"BUSINESS_TYPE":"Tavern","LEGAL_NAME":"FLORES INC","LONGITUDE":-87.66468195980194},
{"STATE":"IL","ZIP":60623,"LATTITUDE":41.851320569821226,"ADDRESS":"4309 W CERMAK RD 1ST ","YEAR":2015,"DOING_BUSINESS_AS_NAME":"EASY LIVING LOUNGE","POP_AT_RISK":56213,"BUSINESS_TYPE":"Tavern","LEGAL_NAME":"LAKE SMITH","LONGITUDE":-87.7323795777196},
{"STATE":"IL","ZIP":60621,"LATTITUDE":41.7871761020304,"ADDRESS":"700 W 59TH ST 1ST ","YEAR":2015,"DOING_BUSINESS_AS_NAME":"SANDERS LOUNGE","POP_AT_RISK":51190,"BUSINESS_TYPE":"Tavern","LEGAL_NAME":"O C SANDERS","LONGITUDE":-87.64259901750826},
{"STATE":"IL","ZIP":60649,"LATTITUDE":41.76484806989517,"ADDRESS":"7159 S EXCHANGE AVE 1ST ","YEAR":2015,"DOING_BUSINESS_AS_NAME":"EXCHANGE TAP","POP_AT_RISK":99531,"BUSINESS_TYPE":"Tavern","LEGAL_NAME":"C & F II Inc","LONGITUDE":-87.56504513907144},
{"STATE":"IL","ZIP":60631,"LATTITUDE":41.99840430798829,"ADDRESS":"6448 N MILWAUKEE AVE 1ST ","YEAR":2015,"DOING_BUSINESS_AS_NAME":"ROMANS INN","POP_AT_RISK":20191,"BUSINESS_TYPE":"Tavern","LEGAL_NAME":"ROMAN MYTNIK","LONGITUDE":-87.78901421649417},
{"STATE":"IL","ZIP":60623,"LATTITUDE":41.8388353981231,"ADDRESS":"3000 S ST LOUIS AVE 1ST ","YEAR":2015,"DOING_BUSINESS_AS_NAME":"LA ROKA CORP.","POP_AT_RISK":136012,"BUSINESS_TYPE":"Tavern","LEGAL_NAME":"LA ROKA CORP.","LONGITUDE":-87.71234420552848},
{"STATE":"IL","ZIP":60646,"LATTITUDE":41.99022935589884,"ADDRESS":"4032 W PETERSON AVE # 1ST","YEAR":2015,"DOING_BUSINESS_AS_NAME":"MEE MAH","POP_AT_RISK":71896,"BUSINESS_TYPE":"Tavern","LEGAL_NAME":"MEE MAH, INC.","LONGITUDE":-87.72992361555443},
{"STATE":"IL","ZIP":60623,"LATTITUDE":41.844488413442164,"ADDRESS":"3608 W 26TH ST  ","YEAR":2015,"DOING_BUSINESS_AS_NAME":"JACARANDA SPORTS BAR","POP_AT_RISK":60458,"BUSINESS_TYPE":"Tavern","LEGAL_NAME":"SMALL TIME INC","LONGITUDE":-87.71521744232979},
{"STATE":"IL","ZIP":60609,"LATTITUDE":41.79924059614758,"ADDRESS":"5200 S WESTERN AVE  1","YEAR":2015,"DOING_BUSINESS_AS_NAME":"KOPY KAT","POP_AT_RISK":235248,"BUSINESS_TYPE":"Tavern","LEGAL_NAME":"U.S. ONE, INC.","LONGITUDE":-87.68432188020958},
{"STATE":"IL","ZIP":60659,"LATTITUDE":41.9903656885798,"ADDRESS":"2535-2537 W PETERSON AVE  ","YEAR":2015,"DOING_BUSINESS_AS_NAME":"BLACK SHEEP","POP_AT_RISK":58967,"BUSINESS_TYPE":"Tavern","LEGAL_NAME":"D C HENNING INC","LONGITUDE":-87.69353289993734},
{"STATE":"IL","ZIP":60655,"LATTITUDE":41.691406189233774,"ADDRESS":"3908 W 111TH ST  1","YEAR":2015,"DOING_BUSINESS_AS_NAME":"T R'S PUB","POP_AT_RISK":39322,"BUSINESS_TYPE":"Tavern","LEGAL_NAME":"LEANN-CAOL CORP","LONGITUDE":-87.71830607808162},
{"STATE":"IL","ZIP":60609,"LATTITUDE":41.81979679814973,"ADDRESS":"4046 S WESTERN AVE  ","YEAR":2015,"DOING_BUSINESS_AS_NAME":"CONFESSION","POP_AT_RISK":136479,"BUSINESS_TYPE":"Tavern","LEGAL_NAME":"ADAME & RUIZ INC","LONGITUDE":-87.68488112119262},
{"STATE":"IL","ZIP":60620,"LATTITUDE":41.727041452634225,"ADDRESS":"9149 S ASHLAND AVE 1ST ","YEAR":2015,"DOING_BUSINESS_AS_NAME":"GIL-TIKIE LOUNGE","POP_AT_RISK":28167,"BUSINESS_TYPE":"Tavern","LEGAL_NAME":"GILBERT HARDEMAN","LONGITUDE":-87.66266831572061},
{"STATE":"IL","ZIP":60634,"LATTITUDE":41.93814776750089,"ADDRESS":"3147 N CENTRAL AVE 1 ","YEAR":2015,"DOING_BUSINESS_AS_NAME":"HARRITY'S SPORTS BAR & GRILL","POP_AT_RISK":59744,"BUSINESS_TYPE":"Tavern","LEGAL_NAME":"MISS LILYS, INC.","LONGITUDE":-87.76633680997013},
{"STATE":"IL","ZIP":60639,"LATTITUDE":41.917269324979415,"ADDRESS":"4010 W ARMITAGE AVE  ","YEAR":2015,"DOING_BUSINESS_AS_NAME":"TRIER LAD'S, INC.","POP_AT_RISK":222555,"BUSINESS_TYPE":"Tavern","LEGAL_NAME":"TRIER LAD'S INC.","LONGITUDE":-87.7270806717635},
{"STATE":"IL","ZIP":60659,"LATTITUDE":41.99616896480926,"ADDRESS":"6306 N WESTERN AVE  ","YEAR":2015,"DOING_BUSINESS_AS_NAME":"SMILIN' JIM'S SALOON","POP_AT_RISK":68863,"BUSINESS_TYPE":"Tavern","LEGAL_NAME":"P & E CORPORATION","LONGITUDE":-87.68997916163592},
{"STATE":"IL","ZIP":60617,"LATTITUDE":41.72818926732291,"ADDRESS":"3201 E 92ND ST  ","YEAR":2015,"DOING_BUSINESS_AS_NAME":"LONCARS","POP_AT_RISK":53106,"BUSINESS_TYPE":"Tavern","LEGAL_NAME":"R & T CHICO, INC.","LONGITUDE":-87.54681785120488},
{"STATE":"IL","ZIP":60624,"LATTITUDE":41.87345680137812,"ADDRESS":"3601 W HARRISON ST 1ST ","YEAR":2015,"DOING_BUSINESS_AS_NAME":"SKYBOX SPORTS BAR","POP_AT_RISK":86726,"BUSINESS_TYPE":"Tavern","LEGAL_NAME":"G H W INCORPORATED","LONGITUDE":-87.7157776166529},
{"STATE":"IL","ZIP":60624,"LATTITUDE":41.88054624098773,"ADDRESS":"4223 W MADISON ST 1ST ","YEAR":2015,"DOING_BUSINESS_AS_NAME":"WASH'S PLACE","POP_AT_RISK":179885,"BUSINESS_TYPE":"Tavern","LEGAL_NAME":"MATTHEW WASHINGTON","LONGITUDE":-87.73153134233262},
{"STATE":"IL","ZIP":60615,"LATTITUDE":41.79946965773025,"ADDRESS":"1603 -1605 E 53RD ST  ","YEAR":2015,"DOING_BUSINESS_AS_NAME":"THE FALCON","POP_AT_RISK":36005,"BUSINESS_TYPE":"Tavern","LEGAL_NAME":"THE EAGLE II, INC.","LONGITUDE":-87.58633098847555},
{"STATE":"IL","ZIP":60616,"LATTITUDE":41.831169482324235,"ADDRESS":"200-210 E 35TH ST 2ND ","YEAR":2015,"DOING_BUSINESS_AS_NAME":"GOOD TIMES SPORTS BAR","POP_AT_RISK":34354,"BUSINESS_TYPE":"Tavern","LEGAL_NAME":"ANDREA STEWART INC.","LONGITUDE":-87.62170520883589},
{"STATE":"IL","ZIP":60636,"LATTITUDE":41.767300033477646,"ADDRESS":"6946 S RACINE AVE  ","YEAR":2015,"DOING_BUSINESS_AS_NAME":"FAMILY LOUNGE","POP_AT_RISK":126297,"BUSINESS_TYPE":"Tavern","LEGAL_NAME":"FAMILY LOUNGE, INC.","LONGITUDE":-87.6543206847795},
{"STATE":"IL","ZIP":60652,"LATTITUDE":41.73696532128921,"ADDRESS":"8550 S PULASKI RD 1 ","YEAR":2015,"DOING_BUSINESS_AS_NAME":"GEE JAYS","POP_AT_RISK":126165,"BUSINESS_TYPE":"Tavern","LEGAL_NAME":"NICKEL LIQUORS INC.","LONGITUDE":-87.72165211814503},
{"STATE":"IL","ZIP":60707,"LATTITUDE":41.923755883896405,"ADDRESS":"7171-7173 W GRAND AVE  ","YEAR":2015,"DOING_BUSINESS_AS_NAME":"MISKA'S\/ EVA'S SPORTS BAR","POP_AT_RISK":103278,"BUSINESS_TYPE":"Tavern","LEGAL_NAME":"RICCHIO & SONS, INC.","LONGITUDE":-87.8053568587367},
{"STATE":"IL","ZIP":60639,"LATTITUDE":41.93128017479497,"ADDRESS":"5219 W DIVERSEY AVE 1ST ","YEAR":2015,"DOING_BUSINESS_AS_NAME":"STOKROTKA LOUNGE INC","POP_AT_RISK":65716,"BUSINESS_TYPE":"Tavern","LEGAL_NAME":"STOTROTKA LOUNGE,INC","LONGITUDE":-87.75722559333362},
{"STATE":"IL","ZIP":60655,"LATTITUDE":41.69142166739826,"ADDRESS":"3259 W 111TH ST 1ST ","YEAR":2015,"DOING_BUSINESS_AS_NAME":"MAC KELL'S INN","POP_AT_RISK":21003,"BUSINESS_TYPE":"Tavern","LEGAL_NAME":"CONNAUGHT HOMES, INC.","LONGITUDE":-87.70325706559925},
{"STATE":"IL","ZIP":60622,"LATTITUDE":41.89608917059594,"ADDRESS":"2944 W GRAND AVE  ","YEAR":2015,"DOING_BUSINESS_AS_NAME":"RICHMOND TAVERN","POP_AT_RISK":90560,"BUSINESS_TYPE":"Tavern","LEGAL_NAME":"RICHMOND TAVERN, INC.","LONGITUDE":-87.70074823336402},
{"STATE":"IL","ZIP":60639,"LATTITUDE":41.9095303523046,"ADDRESS":"4735 W NORTH AVE 1 ","YEAR":2015,"DOING_BUSINESS_AS_NAME":"SHORTY'S CITY LOUNGE","POP_AT_RISK":51728,"BUSINESS_TYPE":"Tavern","LEGAL_NAME":"SURVELL COMPANY, INC.","LONGITUDE":-87.74499255895704},
{"STATE":"IL","ZIP":60639,"LATTITUDE":41.909286362278905,"ADDRESS":"5525 W NORTH AVE  1","YEAR":2015,"DOING_BUSINESS_AS_NAME":"DOGGIE INN LOUNGE","POP_AT_RISK":181707,"BUSINESS_TYPE":"Tavern","LEGAL_NAME":"ALFRED & JEAN WILLIAMS","LONGITUDE":-87.76404426441256},
{"STATE":"IL","ZIP":60619,"LATTITUDE":41.72589431975462,"ADDRESS":"1008 E 93RD ST 1ST ","YEAR":2015,"DOING_BUSINESS_AS_NAME":"HIDIRI","POP_AT_RISK":37026,"BUSINESS_TYPE":"Tavern","LEGAL_NAME":"KENNY & HELEN ROBINSON","LONGITUDE":-87.5992976431851},
{"STATE":"IL","ZIP":60630,"LATTITUDE":41.96100873289663,"ADDRESS":"4411-4413 N MILWAUKEE AVE 1ST ","YEAR":2015,"DOING_BUSINESS_AS_NAME":"MISKA LIQUORS","POP_AT_RISK":133566,"BUSINESS_TYPE":"Tavern","LEGAL_NAME":"P. J. A., INCORPORATED","LONGITUDE":-87.75462692971466},
{"STATE":"IL","ZIP":60616,"LATTITUDE":41.79517302761119,"ADDRESS":"1168 -1172 E 55TH ST  1ST","YEAR":2015,"DOING_BUSINESS_AS_NAME":"THE WOODLAWN TAP","POP_AT_RISK":107631,"BUSINESS_TYPE":"Tavern","LEGAL_NAME":"THE WOODLAWN TAP, INC.","LONGITUDE":-87.59685083960005},
{"STATE":"IL","ZIP":60649,"LATTITUDE":41.768967018931015,"ADDRESS":"6924 S STONY ISLAND AVE 1ST ","YEAR":2015,"DOING_BUSINESS_AS_NAME":"RED'S NEW GENERATION","POP_AT_RISK":74394,"BUSINESS_TYPE":"Tavern","LEGAL_NAME":"JONES, JONES, & SON INC","LONGITUDE":-87.5864632658377},
{"STATE":"IL","ZIP":60630,"LATTITUDE":41.96757484163005,"ADDRESS":"5901 W LAWRENCE AVE 1ST ","YEAR":2015,"DOING_BUSINESS_AS_NAME":"GALVIN'S PUBLIC HOUSE","POP_AT_RISK":87848,"BUSINESS_TYPE":"Tavern","LEGAL_NAME":"GALVIN ENTERPRISES, INC.","LONGITUDE":-87.77493763409912},
{"STATE":"IL","ZIP":60617,"LATTITUDE":41.74445686220236,"ADDRESS":"2020  -02022 E 83RD ST 1ST ","YEAR":2015,"DOING_BUSINESS_AS_NAME":"NEW CELEBRITY LOUNGE INC","POP_AT_RISK":111246,"BUSINESS_TYPE":"Tavern","LEGAL_NAME":"NEW CELEBRITY LOUNGE INC","LONGITUDE":-87.57491002150282},
{"STATE":"IL","ZIP":60612,"LATTITUDE":41.86907805736995,"ADDRESS":"939 S WESTERN AVE 1ST ","YEAR":2015,"DOING_BUSINESS_AS_NAME":"RICK'S BAR","POP_AT_RISK":30299,"BUSINESS_TYPE":"Tavern","LEGAL_NAME":"R J MEAD ENTERPRISES INC","LONGITUDE":-87.68595793037022},
{"STATE":"IL","ZIP":60660,"LATTITUDE":41.990871804795034,"ADDRESS":"6001 N PAULINA ST 1ST ","YEAR":2015,"DOING_BUSINESS_AS_NAME":"BARRELMAN TAVERN","POP_AT_RISK":362435,"BUSINESS_TYPE":"Tavern","LEGAL_NAME":"THE BARRELMAN TAVERN, INC.","LONGITUDE":-87.67163250929616},
{"STATE":"IL","ZIP":60615,"LATTITUDE":41.801566341051846,"ADDRESS":"5114 S PRAIRIE AVE 1ST ","YEAR":2015,"DOING_BUSINESS_AS_NAME":"TAC'S COCKTAIL LOUNGE","POP_AT_RISK":59642,"BUSINESS_TYPE":"Tavern","LEGAL_NAME":"TAC'S COCKTAIL LOUNGE, INC.","LONGITUDE":-87.61953994048041},
{"STATE":"IL","ZIP":60626,"LATTITUDE":42.01933112574914,"ADDRESS":"1951 W HOWARD ST 1ST ","YEAR":2015,"DOING_BUSINESS_AS_NAME":"MONSEN 'S TALLY HO PUB","POP_AT_RISK":52386,"BUSINESS_TYPE":"Tavern","LEGAL_NAME":"MONSEN'S TALLY- HO PUB, INC.","LONGITUDE":-87.67972844082122},
{"STATE":"IL","ZIP":60621,"LATTITUDE":41.77974512594566,"ADDRESS":"1116 W 63RD ST  ","YEAR":2015,"DOING_BUSINESS_AS_NAME":"THE KEYNOTE LOUNGE","POP_AT_RISK":102834,"BUSINESS_TYPE":"Tavern","LEGAL_NAME":"THE NEW KEYNOTE LOUNGE, INC.","LONGITUDE":-87.65280821431756},
{"STATE":"IL","ZIP":60643,"LATTITUDE":41.70047177429385,"ADDRESS":"10612-10614 S WESTERN AVE 1 ","YEAR":2015,"DOING_BUSINESS_AS_NAME":"Cork And Kerry","POP_AT_RISK":129138,"BUSINESS_TYPE":"Tavern","LEGAL_NAME":"Chicago Pizza Department Corp.","LONGITUDE":-87.6815792920862},
{"STATE":"IL","ZIP":60646,"LATTITUDE":41.985594877372456,"ADDRESS":"5734 N ELSTON AVE 1ST ","YEAR":2015,"DOING_BUSINESS_AS_NAME":"The Nil Tap","POP_AT_RISK":31977,"BUSINESS_TYPE":"Tavern","LEGAL_NAME":"O'BRIEN INDUSTRIES CORPORATION","LONGITUDE":-87.76969819623302},
{"STATE":"IL","ZIP":60638,"LATTITUDE":41.789329323265385,"ADDRESS":"5700 S CICERO AVE # TC07","YEAR":2015,"DOING_BUSINESS_AS_NAME":"REILLY'S DAUGHTER","POP_AT_RISK":75477,"BUSINESS_TYPE":"Tavern","LEGAL_NAME":"REILLY'S DAUGHTER, INCORPORATED","LONGITUDE":-87.74164564419637},
{"STATE":"IL","ZIP":60618,"LATTITUDE":41.95377450976464,"ADDRESS":"3932 W IRVING PARK RD 1ST ","YEAR":2015,"DOING_BUSINESS_AS_NAME":"INDEPENDENCE TAP","POP_AT_RISK":65479,"BUSINESS_TYPE":"Tavern","LEGAL_NAME":"3932 WEST IRVING PARK CORPORATION","LONGITUDE":-87.7264587067583},
}