{
{"STATE":"IL","ZIP":60619,"LATTITUDE":41.758834131342915,"ADDRESS":"1400 E 75TH ST 1ST ","YEAR":2013,"DOING_BUSINESS_AS_NAME":"DORCHESTER ANIMAL HOSPITAL","POP_AT_RISK":245147,"BUSINESS_TYPE":"Animal Care License","LEGAL_NAME":"JAGJIT BRAR","LONGITUDE":-87.59074086260878},
{"STATE":"IL","ZIP":60651,"LATTITUDE":41.894654799658774,"ADDRESS":"5837 W CHICAGO AVE 1 ","YEAR":2013,"DOING_BUSINESS_AS_NAME":"West Side Animal Hospital","POP_AT_RISK":360465,"BUSINESS_TYPE":"Animal Care License","LEGAL_NAME":"Lesley Luka","LONGITUDE":-87.77165481600393},
{"STATE":"IL","ZIP":60623,"LATTITUDE":41.84432191601632,"ADDRESS":"3435 1\/2 W 26TH ST 1ST ","YEAR":2013,"DOING_BUSINESS_AS_NAME":"EL ARCA DE NOE","POP_AT_RISK":70316,"BUSINESS_TYPE":"Animal Care License","LEGAL_NAME":"AGUSTIN MARIN","LONGITUDE":-87.7112736592086},
{"STATE":"IL","ZIP":60631,"LATTITUDE":42.011790966822375,"ADDRESS":"7236 W TOUHY AVE 1ST ","YEAR":2013,"DOING_BUSINESS_AS_NAME":"PAW & CLAW CAT GROOMING","POP_AT_RISK":76640,"BUSINESS_TYPE":"Animal Care License","LEGAL_NAME":"DIANA DEMPSEY","LONGITUDE":-87.8080824261318},
{"STATE":"IL","ZIP":60632,"LATTITUDE":41.82453433956464,"ADDRESS":"3789 S ARCHER AVE  ","YEAR":2013,"DOING_BUSINESS_AS_NAME":"BRIGHTON PARK ANIMAL HOSPITAL","POP_AT_RISK":45493,"BUSINESS_TYPE":"Animal Care License","LEGAL_NAME":"ERNESTO PEREZ","LONGITUDE":-87.68699720971264},
{"STATE":"IL","ZIP":60634,"LATTITUDE":41.938076444262066,"ADDRESS":"7500 W BELMONT AVE 1ST ","YEAR":2013,"DOING_BUSINESS_AS_NAME":"POM POM PALACE","POP_AT_RISK":42383,"BUSINESS_TYPE":"Animal Care License","LEGAL_NAME":"JULIE HERBERT","LONGITUDE":-87.81413766781473},
{"STATE":"IL","ZIP":60633,"LATTITUDE":41.65330346047707,"ADDRESS":"13311 S BRANDON AVE 1ST ","YEAR":2013,"DOING_BUSINESS_AS_NAME":"7 SEAS TROPAQUARIUM","POP_AT_RISK":40896,"BUSINESS_TYPE":"Animal Care License","LEGAL_NAME":"ROBERT ELLMAN","LONGITUDE":-87.54576881121099},
{"STATE":"IL","ZIP":60623,"LATTITUDE":41.838056965816975,"ADDRESS":"3020 S PULASKI RD 1 ","YEAR":2013,"DOING_BUSINESS_AS_NAME":"CHIQUI'S #8 PET GROOMING","POP_AT_RISK":142350,"BUSINESS_TYPE":"Animal Care License","LEGAL_NAME":"DORIS TRUJILLO","LONGITUDE":-87.72452747756931},
{"STATE":"IL","ZIP":60615,"LATTITUDE":41.79521863458298,"ADDRESS":"1340-1342 E 55TH ST 1 1","YEAR":2013,"DOING_BUSINESS_AS_NAME":"Parker's Pets","POP_AT_RISK":734587,"BUSINESS_TYPE":"Animal Care License","LEGAL_NAME":"HYDE BARK, LLC","LONGITUDE":-87.59329840236423},
{"STATE":"IL","ZIP":60656,"LATTITUDE":41.97462951006733,"ADDRESS":"7220 W FOSTER AVE 1ST ","YEAR":2013,"DOING_BUSINESS_AS_NAME":"PET SUPPLIES PLUS","POP_AT_RISK":31265,"BUSINESS_TYPE":"Animal Care License","LEGAL_NAME":"PSP STORES LLC","LONGITUDE":-87.80798109934157},
{"STATE":"IL","ZIP":60628,"LATTITUDE":41.662549681874204,"ADDRESS":"12721 S HALSTED ST  ","YEAR":2013,"DOING_BUSINESS_AS_NAME":"PINK POODLE PALACE","POP_AT_RISK":23903,"BUSINESS_TYPE":"Animal Care License","LEGAL_NAME":"TRACEY McBRIDE","LONGITUDE":-87.64125124497521},
{"STATE":"IL","ZIP":60652,"LATTITUDE":41.744208291187135,"ADDRESS":"3537 W COLUMBUS AVE  1ST","YEAR":2013,"DOING_BUSINESS_AS_NAME":"Collar and Leash Inc","POP_AT_RISK":49338,"BUSINESS_TYPE":"Animal Care License","LEGAL_NAME":"BARBARA FLEMING","LONGITUDE":-87.71042911352212},
{"STATE":"IL","ZIP":60609,"LATTITUDE":41.82727787410544,"ADDRESS":"556 W 37TH ST 1ST FL ","YEAR":2013,"DOING_BUSINESS_AS_NAME":"THREE PUPS IN A TUB","POP_AT_RISK":185874,"BUSINESS_TYPE":"Animal Care License","LEGAL_NAME":"EDWARD SIDABRAS","LONGITUDE":-87.6409992314425},
{"STATE":"IL","ZIP":60616,"LATTITUDE":41.856013501435896,"ADDRESS":"1925 S ARCHER AVE 1 ","YEAR":2013,"DOING_BUSINESS_AS_NAME":"SOGGY PAWS","POP_AT_RISK":33206,"BUSINESS_TYPE":"Animal Care License","LEGAL_NAME":"SOGGY PAWS, INC","LONGITUDE":-87.62802795457878},
{"STATE":"IL","ZIP":60645,"LATTITUDE":42.017295118461554,"ADDRESS":"7448 N WESTERN AVE 1ST ","YEAR":2013,"DOING_BUSINESS_AS_NAME":"DOG SPLASH","POP_AT_RISK":99670,"BUSINESS_TYPE":"Animal Care License","LEGAL_NAME":"WASH N WAG CORP","LONGITUDE":-87.6903452644412},
{"STATE":"IL","ZIP":60637,"LATTITUDE":41.76921322872776,"ADDRESS":"361 E 69TH ST 1ST ","YEAR":2013,"DOING_BUSINESS_AS_NAME":"DOGS ONLY GROOMING SALON","POP_AT_RISK":33540,"BUSINESS_TYPE":"Animal Care License","LEGAL_NAME":"ARLETTA M BENNETT","LONGITUDE":-87.61623688906927},
{"STATE":"IL","ZIP":60608,"LATTITUDE":41.83609692076121,"ADDRESS":"3203 S HALSTED ST 1ST ","YEAR":2013,"DOING_BUSINESS_AS_NAME":"BROOKLYN'S DOGGIE STYLES","POP_AT_RISK":77006,"BUSINESS_TYPE":"Animal Care License","LEGAL_NAME":"KELLY L. MARUSARZ","LONGITUDE":-87.64608423691962},
{"STATE":"IL","ZIP":60623,"LATTITUDE":41.851920612971924,"ADDRESS":"3040 W CERMAK RD  ","YEAR":2013,"DOING_BUSINESS_AS_NAME":"ACUARIO PISCIS \/ ESTETICA CANINA","POP_AT_RISK":70390,"BUSINESS_TYPE":"Animal Care License","LEGAL_NAME":"VICTOR M. PACHECO","LONGITUDE":-87.70201706310796},
{"STATE":"IL","ZIP":60656,"LATTITUDE":41.97813515025596,"ADDRESS":"5335 N HARLEM AVE 1ST ","YEAR":2013,"DOING_BUSINESS_AS_NAME":"SPABARK-THE SALON","POP_AT_RISK":29614,"BUSINESS_TYPE":"Animal Care License","LEGAL_NAME":"BARK CHICAGO, INC.","LONGITUDE":-87.80685241111333},
{"STATE":"IL","ZIP":60634,"LATTITUDE":41.93781175129148,"ADDRESS":"3138 N AUSTIN AVE 1ST ","YEAR":2013,"DOING_BUSINESS_AS_NAME":"WOOF & MEOW","POP_AT_RISK":54111,"BUSINESS_TYPE":"Animal Care License","LEGAL_NAME":"LIZANDRO E. MOLINA","LONGITUDE":-87.77634149324408},
{"STATE":"IL","ZIP":60643,"LATTITUDE":41.721228613887874,"ADDRESS":"1850 W 95TH ST  ","YEAR":2013,"DOING_BUSINESS_AS_NAME":"BEVERLY HILLS PUPS","POP_AT_RISK":116430,"BUSINESS_TYPE":"Animal Care License","LEGAL_NAME":"DAMEAN BRIAN MOLINA","LONGITUDE":-87.66957168112752},
{"STATE":"IL","ZIP":60647,"LATTITUDE":41.91347165926542,"ADDRESS":"1757 N KIMBALL AVE  ","YEAR":2013,"DOING_BUSINESS_AS_NAME":"FOR DOGS SAKE","POP_AT_RISK":58132,"BUSINESS_TYPE":"Animal Care License","LEGAL_NAME":"FOR DOG'S SAKE, INC.","LONGITUDE":-87.7116469589254},
{"STATE":"IL","ZIP":60608,"LATTITUDE":41.834311070719124,"ADDRESS":"1514 W 33RD ST 1ST J","YEAR":2013,"DOING_BUSINESS_AS_NAME":"GOLDEN AQUARIUM INC.","POP_AT_RISK":68216,"BUSINESS_TYPE":"Animal Care License","LEGAL_NAME":"GOLDEN AQUARIUM INC.","LONGITUDE":-87.66389989325327},
{"STATE":"IL","ZIP":60637,"LATTITUDE":41.7811377052545,"ADDRESS":"6224 S WABASH AVE  ","YEAR":2013,"DOING_BUSINESS_AS_NAME":"ANIMAL WELFARE LEAGUE","POP_AT_RISK":135852,"BUSINESS_TYPE":"Animal Care License","LEGAL_NAME":"ANIMAL WELFARE LEAGUE","LONGITUDE":-87.62387647008038},
{"STATE":"IL","ZIP":60632,"LATTITUDE":41.81209528799374,"ADDRESS":"4472 S ARCHER AVE 1ST ","YEAR":2013,"DOING_BUSINESS_AS_NAME":"ARCHER ANIMAL HOSPITAL","POP_AT_RISK":81980,"BUSINESS_TYPE":"Animal Care License","LEGAL_NAME":"NAMMALWAR VINUTHAMANI","LONGITUDE":-87.7077249960549},
{"STATE":"IL","ZIP":60707,"LATTITUDE":41.90913139554721,"ADDRESS":"6804 W NORTH AVE  ","YEAR":2013,"DOING_BUSINESS_AS_NAME":"ONE LUCKY PUPPY, INC.","POP_AT_RISK":86334,"BUSINESS_TYPE":"Animal Care License","LEGAL_NAME":"ONE LUCKY PUPPY, INC.","LONGITUDE":-87.79516676645979},
{"STATE":"IL","ZIP":60639,"LATTITUDE":41.90976452703277,"ADDRESS":"4650 W NORTH AVE  ","YEAR":2013,"DOING_BUSINESS_AS_NAME":"WALMART #5402","POP_AT_RISK":280620,"BUSINESS_TYPE":"Animal Care License","LEGAL_NAME":"WAL-MART STORES, INC.","LONGITUDE":-87.74337629570627},
{"STATE":"IL","ZIP":60643,"LATTITUDE":41.69493985416419,"ADDRESS":"10918 S WESTERN AVE  ","YEAR":2013,"DOING_BUSINESS_AS_NAME":"DAZZLE PET GROOMING","POP_AT_RISK":43344,"BUSINESS_TYPE":"Animal Care License","LEGAL_NAME":"LORRAINE THERESE LYMAN","LONGITUDE":-87.68140343358414},
{"STATE":"IL","ZIP":60652,"LATTITUDE":41.74602291961784,"ADDRESS":"8057 S CICERO AVE  ","YEAR":2013,"DOING_BUSINESS_AS_NAME":"PET LUV PET CENTER INC","POP_AT_RISK":80444,"BUSINESS_TYPE":"Animal Care License","LEGAL_NAME":"PET LUV PET CENTER INC","LONGITUDE":-87.7411015602688},
{"STATE":"IL","ZIP":60646,"LATTITUDE":41.99021854392249,"ADDRESS":"4054 W PETERSON AVE  1","YEAR":2013,"DOING_BUSINESS_AS_NAME":"BEST FRIENDS VETERINARY CENTER","POP_AT_RISK":17974,"BUSINESS_TYPE":"Animal Care License","LEGAL_NAME":"ELIZABETH B SURGI DVM PC","LONGITUDE":-87.73080815750058},
{"STATE":"IL","ZIP":60637,"LATTITUDE":41.77589421633337,"ADDRESS":"6523 S DR MARTIN LUTHER KING JR DR  1ST","YEAR":2013,"DOING_BUSINESS_AS_NAME":"WOODLAWN ANIMAL HOSPITAL","POP_AT_RISK":41024,"BUSINESS_TYPE":"Animal Care License","LEGAL_NAME":"WOODLAWN ANIMAL HOSPITAL","LONGITUDE":-87.61537050544857},
{"STATE":"IL","ZIP":60628,"LATTITUDE":41.6694883863093,"ADDRESS":"12335 S HALSTED ST 1ST ","YEAR":2013,"DOING_BUSINESS_AS_NAME":"MORGAN PARK ANIMAL HOSPITAL","POP_AT_RISK":30987,"BUSINESS_TYPE":"Animal Care License","LEGAL_NAME":"MORGAN PARK ANIMAL HOSPITAL","LONGITUDE":-87.64148341136242},
{"STATE":"IL","ZIP":60628,"LATTITUDE":41.68826727431972,"ADDRESS":"11332 S DOTY AVE 1ST ","YEAR":2013,"DOING_BUSINESS_AS_NAME":"KRAGNESS ANIMAL HOSPITAL INC","POP_AT_RISK":38622,"BUSINESS_TYPE":"Animal Care License","LEGAL_NAME":"KRAGNESS ANIMAL HOSPITAL INC","LONGITUDE":-87.60096235998701},
{"STATE":"IL","ZIP":60649,"LATTITUDE":41.75182172827668,"ADDRESS":"2320 E 79TH ST 1ST ","YEAR":2013,"DOING_BUSINESS_AS_NAME":"SOUTH SHORE ANIMAL CLINIC","POP_AT_RISK":400970,"BUSINESS_TYPE":"Animal Care License","LEGAL_NAME":"SOUTH SHORE ANIMAL CLINIC INC","LONGITUDE":-87.56776651199185},
{"STATE":"IL","ZIP":60626,"LATTITUDE":42.01594338357489,"ADDRESS":"1447 W JARVIS AVE  ","YEAR":2013,"DOING_BUSINESS_AS_NAME":"ROGERS BARK PET SALON","POP_AT_RISK":62296,"BUSINESS_TYPE":"Animal Care License","LEGAL_NAME":"ROGERS BARK PET SERVICES, INC.","LONGITUDE":-87.66796786700539},
{"STATE":"IL","ZIP":60646,"LATTITUDE":41.99721824029716,"ADDRESS":"5301 W DEVON AVE  ","YEAR":2013,"DOING_BUSINESS_AS_NAME":"Chicago Cat Clinic","POP_AT_RISK":35912,"BUSINESS_TYPE":"Animal Care License","LEGAL_NAME":"John D. Nordwall, Jr. DVM, P.C.","LONGITUDE":-87.76082958451794},
{"STATE":"IL","ZIP":60643,"LATTITUDE":41.68064793017087,"ADDRESS":"11720 S MARSHFIELD AVE 1 ","YEAR":2013,"DOING_BUSINESS_AS_NAME":"PETCO #1983","POP_AT_RISK":44232,"BUSINESS_TYPE":"Animal Care License","LEGAL_NAME":"PETCO ANIMAL SUPPLIES STORES, INC.","LONGITUDE":-87.66259019890877},
{"STATE":"IL","ZIP":60630,"LATTITUDE":41.969408393949635,"ADDRESS":"4840 N PULASKI RD 1 100","YEAR":2013,"DOING_BUSINESS_AS_NAME":"Petco # 1987","POP_AT_RISK":63203,"BUSINESS_TYPE":"Animal Care License","LEGAL_NAME":"PETCO ANIMAL SUPPLIES STORES, INC.","LONGITUDE":-87.72820946652502},
{"STATE":"IL","ZIP":60610,"LATTITUDE":41.90791055539471,"ADDRESS":"1407 N WELLS ST  GW","YEAR":2013,"DOING_BUSINESS_AS_NAME":"ANIMALSENSE CANINE TRAINING AND BEHAVIOR, INC.","POP_AT_RISK":123380,"BUSINESS_TYPE":"Animal Care License","LEGAL_NAME":"ANIMALSENSE CANINE TRAINING AND BEHAVIOR, INC.","LONGITUDE":-87.63446505875015},
}