{
{"STATE":"IL","ZIP":60612,"LATTITUDE":41.873228628922746,"ADDRESS":"619 S CAMPBELL AVE 1ST ","YEAR":2008,"DOING_BUSINESS_AS_NAME":"JERRY HENRY","POP_AT_RISK":26198,"BUSINESS_TYPE":"Peddler, food (fruits and vegtables only)","LEGAL_NAME":"JERRY HENRY","LONGITUDE":-87.68849939024032},
{"STATE":"IL","ZIP":60620,"LATTITUDE":41.72701045280523,"ADDRESS":"9147 S PAULINA ST  ","YEAR":2008,"DOING_BUSINESS_AS_NAME":"JOYYA JONES","POP_AT_RISK":66624,"BUSINESS_TYPE":"Peddler, food (fruits and vegtables only)","LEGAL_NAME":"JOYYA JONES","LONGITUDE":-87.66510137603376},
{"STATE":"IL","ZIP":60637,"LATTITUDE":41.77252218978502,"ADDRESS":"1526 E 67TH PL  3E","YEAR":2008,"DOING_BUSINESS_AS_NAME":"K. C. OLIVE","POP_AT_RISK":110070,"BUSINESS_TYPE":"Peddler, food (fruits and vegtables only)","LEGAL_NAME":"K. C. OLIVE","LONGITUDE":-87.5876320773693},
{"STATE":"IL","ZIP":60617,"LATTITUDE":41.75126537137126,"ADDRESS":"7919 S BURNHAM AVE  ","YEAR":2008,"DOING_BUSINESS_AS_NAME":"LINDA DILLON","POP_AT_RISK":125724,"BUSINESS_TYPE":"Peddler, food (fruits and vegtables only)","LEGAL_NAME":"LINDA DILLON","LONGITUDE":-87.55637631558733},
{"STATE":"IL","ZIP":60613,"LATTITUDE":41.95591686684476,"ADDRESS":"824 W CUYLER AVE 3 331","YEAR":2008,"DOING_BUSINESS_AS_NAME":"PEDRO PINEDA","POP_AT_RISK":226635,"BUSINESS_TYPE":"Peddler, food (fruits and vegtables only)","LEGAL_NAME":"PEDRO PINEDA","LONGITUDE":-87.6507365467513},
{"STATE":"IL","ZIP":60642,"LATTITUDE":41.895343497833196,"ADDRESS":"730 N WILLARD CT  ","YEAR":2008,"DOING_BUSINESS_AS_NAME":"RODNEY L FOX","POP_AT_RISK":39050,"BUSINESS_TYPE":"Peddler, food (fruits and vegtables only)","LEGAL_NAME":"RODNEY L FOX","LONGITUDE":-87.65863041176753},
{"STATE":"IL","ZIP":60620,"LATTITUDE":41.74471132460997,"ADDRESS":"8205 S JUSTINE ST  ","YEAR":2008,"DOING_BUSINESS_AS_NAME":"ANDRE L RILEY","POP_AT_RISK":42731,"BUSINESS_TYPE":"Peddler, food (fruits and vegtables only)","LEGAL_NAME":"ANDRE L RILEY","LONGITUDE":-87.66193626197463},
{"STATE":"IL","ZIP":60644,"LATTITUDE":41.873285322246446,"ADDRESS":"521 S LAVERGNE AVE 1ST ","YEAR":2008,"DOING_BUSINESS_AS_NAME":"KECIA LEGRIER","POP_AT_RISK":43245,"BUSINESS_TYPE":"Peddler, food (fruits and vegtables only)","LEGAL_NAME":"KECIA LEGRIER","LONGITUDE":-87.7490076138498},
{"STATE":"IL","ZIP":60707,"LATTITUDE":41.92972324122959,"ADDRESS":"2725 N NEVA AVE  ","YEAR":2008,"DOING_BUSINESS_AS_NAME":"LUIGI ADDANTE","POP_AT_RISK":50813,"BUSINESS_TYPE":"Peddler, food (fruits and vegtables only)","LEGAL_NAME":"LUIGI ADDANTE","LONGITUDE":-87.80508781506443},
{"STATE":"IL","ZIP":60160,"LATTITUDE":41.903490999380665,"ADDRESS":"905 W DIVISION   ","YEAR":2008,"DOING_BUSINESS_AS_NAME":"FLORES","POP_AT_RISK":298092,"BUSINESS_TYPE":"Peddler, food (fruits and vegtables only)","LEGAL_NAME":"GERARDO FLORES","LONGITUDE":-87.65122983251717},
{"STATE":"IL","ZIP":60617,"LATTITUDE":41.70630204741836,"ADDRESS":"10400 S AVENUE L   ","YEAR":2008,"DOING_BUSINESS_AS_NAME":"ISAI F. PAGAZA","POP_AT_RISK":21953,"BUSINESS_TYPE":"Peddler, food (fruits and vegtables only)","LEGAL_NAME":"ISAI F. PAGAZA","LONGITUDE":-87.5366401357901},
{"STATE":"IL","ZIP":60623,"LATTITUDE":41.860701985148445,"ADDRESS":"1459 S TRIPP AVE  ","YEAR":2008,"DOING_BUSINESS_AS_NAME":"MARIA A. TOVAR","POP_AT_RISK":81800,"BUSINESS_TYPE":"Peddler, food (fruits and vegtables only)","LEGAL_NAME":"MARIA A. TOVAR","LONGITUDE":-87.73097606717535},
{"STATE":"IL","ZIP":60617,"LATTITUDE":41.69689210805197,"ADDRESS":"10912 S GREEN BAY AVE  ","YEAR":2008,"DOING_BUSINESS_AS_NAME":"BEATRIZ MORALES","POP_AT_RISK":17150,"BUSINESS_TYPE":"Peddler, food (fruits and vegtables only)","LEGAL_NAME":"BEATRIZ MORALES","LONGITUDE":-87.54149604078766},
{"STATE":"IL","ZIP":60615,"LATTITUDE":41.796559584697,"ADDRESS":"5454 S HARPER AVE BSMT ","YEAR":2008,"DOING_BUSINESS_AS_NAME":"CARLOS ESPINOZA","POP_AT_RISK":437520,"BUSINESS_TYPE":"Peddler, food (fruits and vegtables only)","LEGAL_NAME":"CARLOS ESPINOZA","LONGITUDE":-87.58917365183045},
{"STATE":"IL","ZIP":60617,"LATTITUDE":41.749422563456335,"ADDRESS":"8013 S PHILLIPS AVE 1ST ","YEAR":2008,"DOING_BUSINESS_AS_NAME":"CHARLEY CARROLL","POP_AT_RISK":34051,"BUSINESS_TYPE":"Peddler, food (fruits and vegtables only)","LEGAL_NAME":"CHARLEY CARROLL","LONGITUDE":-87.5648359299573},
{"STATE":"IL","ZIP":60652,"LATTITUDE":41.74415996477245,"ADDRESS":"8138 S KILBOURN AVE  ","YEAR":2008,"DOING_BUSINESS_AS_NAME":"MARIA CASTANEDA","POP_AT_RISK":26052,"BUSINESS_TYPE":"Peddler, food (fruits and vegtables only)","LEGAL_NAME":"MARIA CASTANEDA","LONGITUDE":-87.73406292529194},
{"STATE":"IL","ZIP":60612,"LATTITUDE":41.88206863158385,"ADDRESS":"2125 W WARREN BLVD 1ST 1","YEAR":2008,"DOING_BUSINESS_AS_NAME":"MICHAEL D AVERY","POP_AT_RISK":31656,"BUSINESS_TYPE":"Peddler, food (fruits and vegtables only)","LEGAL_NAME":"MICHAEL D AVERY","LONGITUDE":-87.68013011731564},
{"STATE":"IL","ZIP":60652,"LATTITUDE":41.74628218148853,"ADDRESS":"2553 W 81ST ST  ","YEAR":2008,"DOING_BUSINESS_AS_NAME":"PEDRO VELAZQUEZ","POP_AT_RISK":57014,"BUSINESS_TYPE":"Peddler, food (fruits and vegtables only)","LEGAL_NAME":"PEDRO VELAZQUEZ","LONGITUDE":-87.68727125262342},
{"STATE":"IL","ZIP":60634,"LATTITUDE":41.94927103006539,"ADDRESS":"6105 W GRACE ST  ","YEAR":2008,"DOING_BUSINESS_AS_NAME":"RONNIE J VARGAS","POP_AT_RISK":35629,"BUSINESS_TYPE":"Peddler, food (fruits and vegtables only)","LEGAL_NAME":"RONNIE J VARGAS","LONGITUDE":-87.7793527710824},
{"STATE":"IL","ZIP":60638,"LATTITUDE":41.777069083609454,"ADDRESS":"5533 W 63RD PL  ","YEAR":2008,"DOING_BUSINESS_AS_NAME":"YOLANDA PANTOJA","POP_AT_RISK":13531,"BUSINESS_TYPE":"Peddler, food (fruits and vegtables only)","LEGAL_NAME":"YOLANDA PANTOJA","LONGITUDE":-87.76058559758407},
{"STATE":"IL","ZIP":60640,"LATTITUDE":41.98159071793636,"ADDRESS":"5454 N BROADWAY   ","YEAR":2008,"DOING_BUSINESS_AS_NAME":"ESMERALDA RIDLEY","POP_AT_RISK":70300,"BUSINESS_TYPE":"Peddler, food (fruits and vegtables only)","LEGAL_NAME":"ESMERALDA RIDLEY","LONGITUDE":-87.66016046975379},
{"STATE":"IL","ZIP":60624,"LATTITUDE":41.89266354524787,"ADDRESS":"629 N HAMLIN AVE 1 ","YEAR":2008,"DOING_BUSINESS_AS_NAME":"JOHN H. WILLIAMS","POP_AT_RISK":79564,"BUSINESS_TYPE":"Peddler, food (fruits and vegtables only)","LEGAL_NAME":"JOHN H. WILLIAMS","LONGITUDE":-87.72096093597833},
{"STATE":"IL","ZIP":60640,"LATTITUDE":41.96561422474166,"ADDRESS":"4608 N BEACON ST  A-1","YEAR":2008,"DOING_BUSINESS_AS_NAME":"JOSEFA RODRIGUEZ","POP_AT_RISK":199290,"BUSINESS_TYPE":"Peddler, food (fruits and vegtables only)","LEGAL_NAME":"JOSEFA RODRIGUEZ","LONGITUDE":-87.66403511172471},
{"STATE":"IL","ZIP":60643,"LATTITUDE":41.695212098174196,"ADDRESS":"10925 S RACINE AVE  ","YEAR":2008,"DOING_BUSINESS_AS_NAME":"KENNETH C. HARDY","POP_AT_RISK":73617,"BUSINESS_TYPE":"Peddler, food (fruits and vegtables only)","LEGAL_NAME":"KENNETH C. HARDY","LONGITUDE":-87.65204416433163},
{"STATE":"IL","ZIP":60646,"LATTITUDE":41.98363667560743,"ADDRESS":"5627 N KARLOV AVE  ","YEAR":2008,"DOING_BUSINESS_AS_NAME":"RAFAEL MAGDALENO","POP_AT_RISK":35446,"BUSINESS_TYPE":"Peddler, food (fruits and vegtables only)","LEGAL_NAME":"RAFAEL MAGDALENO","LONGITUDE":-87.73074605481447},
{"STATE":"IL","ZIP":60619,"LATTITUDE":41.73419069670633,"ADDRESS":"8814 S CALUMET AVE 1ST ","YEAR":2008,"DOING_BUSINESS_AS_NAME":"WILLIAM S MARTIN","POP_AT_RISK":57892,"BUSINESS_TYPE":"Peddler, food (fruits and vegtables only)","LEGAL_NAME":"WILLIAM S MARTIN","LONGITUDE":-87.61622754774335},
{"STATE":"IL","ZIP":60647,"LATTITUDE":41.91641714935846,"ADDRESS":"1921 N CAMPBELL AVE 1ST ","YEAR":2008,"DOING_BUSINESS_AS_NAME":"BERNARDO HERNANDEZ","POP_AT_RISK":57691,"BUSINESS_TYPE":"Peddler, food (fruits and vegtables only)","LEGAL_NAME":"BERNARDO HERNANDEZ","LONGITUDE":-87.68967923839017},
{"STATE":"IL","ZIP":60653,"LATTITUDE":41.82400116460606,"ADDRESS":"3939 S LAKE PARK AVE # 802","YEAR":2008,"DOING_BUSINESS_AS_NAME":"JAMES J. JORDAN JR.","POP_AT_RISK":56000,"BUSINESS_TYPE":"Peddler, food (fruits and vegtables only)","LEGAL_NAME":"JAMES J.JORDAN JR.","LONGITUDE":-87.60312264009514},
{"STATE":"IL","ZIP":60609,"LATTITUDE":41.821665785072376,"ADDRESS":"4004 S DEARBORN ST 1 1F","YEAR":2008,"DOING_BUSINESS_AS_NAME":"LAVERNE WILLIAMSON","POP_AT_RISK":32412,"BUSINESS_TYPE":"Peddler, food (fruits and vegtables only)","LEGAL_NAME":"LAVERNE WILLIAMSON","LONGITUDE":-87.6276912071156},
{"STATE":"IL","ZIP":60637,"LATTITUDE":41.792038577110816,"ADDRESS":"5629 S INDIANA AVE 2ND 2S","YEAR":2008,"DOING_BUSINESS_AS_NAME":"ORON FRESH PRODUCE","POP_AT_RISK":79731,"BUSINESS_TYPE":"Peddler, food (fruits and vegtables only)","LEGAL_NAME":"SAADYAH BEN SHLOMO","LONGITUDE":-87.62063024788739},
{"STATE":"IL","ZIP":60644,"LATTITUDE":41.8765215325819,"ADDRESS":"5255 W JACKSON BLVD  ","YEAR":2008,"DOING_BUSINESS_AS_NAME":"SHANETTA C. HOWARD","POP_AT_RISK":73660,"BUSINESS_TYPE":"Peddler, food (fruits and vegtables only)","LEGAL_NAME":"SHANETTA C. HOWARD","LONGITUDE":-87.75711635443172},
{"STATE":"IL","ZIP":60628,"LATTITUDE":41.702914574309354,"ADDRESS":"10520 S INDIANA AVE  ","YEAR":2008,"DOING_BUSINESS_AS_NAME":"DR FRESH FRUITS & VEGETABLES (LESLY GATHERIGHT JR.)","POP_AT_RISK":105048,"BUSINESS_TYPE":"Peddler, food (fruits and vegtables only)","LEGAL_NAME":"LESLY GATHERIGHT JR.","LONGITUDE":-87.61867125598516},
{"STATE":"IL","ZIP":60643,"LATTITUDE":41.674052619031144,"ADDRESS":"12056 S JUSTINE ST  ","YEAR":2008,"DOING_BUSINESS_AS_NAME":"ROBERT L. JOHNSON JR.","POP_AT_RISK":101440,"BUSINESS_TYPE":"Peddler, food (fruits and vegtables only)","LEGAL_NAME":"ROBERT L. JOHNSON, JR","LONGITUDE":-87.66020570250922},
{"STATE":"IL","ZIP":60623,"LATTITUDE":41.85765914352671,"ADDRESS":"1644 S ST LOUIS AVE  ","YEAR":2008,"DOING_BUSINESS_AS_NAME":"SHEILA C. JEMISON","POP_AT_RISK":47670,"BUSINESS_TYPE":"Peddler, food (fruits and vegtables only)","LEGAL_NAME":"SHEILA CORTEZ JEMISON","LONGITUDE":-87.71288036332152},
{"STATE":"IL","ZIP":60638,"LATTITUDE":41.78971045826102,"ADDRESS":"5630 S MEADE AVE HSE ","YEAR":2008,"DOING_BUSINESS_AS_NAME":"GUADALUPE ALCAZAR","POP_AT_RISK":139724,"BUSINESS_TYPE":"Peddler, food (fruits and vegtables only)","LEGAL_NAME":"GUADALUPE RASO ALCAZAR","LONGITUDE":-87.77454233286855},
{"STATE":"IL","ZIP":60634,"LATTITUDE":41.95966347848037,"ADDRESS":"5632 W PENSACOLA AVE  ","YEAR":2008,"DOING_BUSINESS_AS_NAME":"EMPERATRIZ FRUIT","POP_AT_RISK":205996,"BUSINESS_TYPE":"Peddler, food (fruits and vegtables only)","LEGAL_NAME":"EMPERATRIZ M. MALDONADO","LONGITUDE":-87.76855204500197},
{"STATE":"IL","ZIP":60644,"LATTITUDE":41.87778865366394,"ADDRESS":"4826 W QUINCY ST  ","YEAR":2008,"DOING_BUSINESS_AS_NAME":"SHARI ANDREWLEE WATKINS","POP_AT_RISK":44549,"BUSINESS_TYPE":"Peddler, food (fruits and vegtables only)","LEGAL_NAME":"SHARI ANDREWLEE WATKINS","LONGITUDE":-87.74625531056763},
{"STATE":"IL","ZIP":60616,"LATTITUDE":41.83484291738416,"ADDRESS":"500 E 33RD ST 20TH 2005","YEAR":2008,"DOING_BUSINESS_AS_NAME":"BRADIE BRUNO CALHOUN JR.","POP_AT_RISK":47412,"BUSINESS_TYPE":"Peddler, food (fruits and vegtables only)","LEGAL_NAME":"BRADIE BRUNO CALHOUN JR.","LONGITUDE":-87.613390014491},
{"STATE":"IL","ZIP":60657,"LATTITUDE":41.94303831725289,"ADDRESS":"3352 N RAVENSWOOD AVE  ","YEAR":2008,"DOING_BUSINESS_AS_NAME":"JENNIFER DORON BORCHARDT","POP_AT_RISK":681876,"BUSINESS_TYPE":"Peddler, food (fruits and vegtables only)","LEGAL_NAME":"JENNIFER DORON BORCHARDT","LONGITUDE":-87.67412619487052},
{"STATE":"IL","ZIP":60620,"LATTITUDE":41.748983480303316,"ADDRESS":"47 W 80TH ST  1","YEAR":2008,"DOING_BUSINESS_AS_NAME":"JOSEPH CARL HANDFORD JR.","POP_AT_RISK":31258,"BUSINESS_TYPE":"Peddler, food (fruits and vegtables only)","LEGAL_NAME":"JOSEPH CARL HANDFORD JR.","LONGITUDE":-87.62641971971063},
{"STATE":"IL","ZIP":60615,"LATTITUDE":41.807559506475755,"ADDRESS":"4801 S VINCENNES AVE  ","YEAR":2008,"DOING_BUSINESS_AS_NAME":"REGINALD JAMES MASON JR.","POP_AT_RISK":143592,"BUSINESS_TYPE":"Peddler, food (fruits and vegtables only)","LEGAL_NAME":"REGINALD JAMES MASON JR.","LONGITUDE":-87.61371080590622},
{"STATE":"IL","ZIP":60619,"LATTITUDE":41.73494978528568,"ADDRESS":"824 E 88TH ST  ","YEAR":2008,"DOING_BUSINESS_AS_NAME":"ROBERT S. CHILDRESS, JR.","POP_AT_RISK":144836,"BUSINESS_TYPE":"Peddler, food (fruits and vegtables only)","LEGAL_NAME":"ROBERT S. CHILDRESS, JR.","LONGITUDE":-87.60371938792152},
{"STATE":"IL","ZIP":60619,"LATTITUDE":41.75817649224904,"ADDRESS":"7505 S CALUMET AVE  ","YEAR":2008,"DOING_BUSINESS_AS_NAME":"ORON BENISRAEL MONTGOMERY","POP_AT_RISK":34086,"BUSINESS_TYPE":"Peddler, food (fruits and vegtables only)","LEGAL_NAME":"ORON BENISRAEL MONTGOMERY","LONGITUDE":-87.61655362985208},
{"STATE":"IL","ZIP":60453,"LATTITUDE":41.71079394114223,"ADDRESS":"10016 S PULASKI   ","YEAR":2008,"DOING_BUSINESS_AS_NAME":"SUSANA FURLONG","POP_AT_RISK":136960,"BUSINESS_TYPE":"Peddler, food (fruits and vegtables only)","LEGAL_NAME":"MARIA SUSANA FURLONG-ESTRADA","LONGITUDE":-87.72122110079165},
}