{
{"STATE":"IL","ZIP":60649,"LATTITUDE":41.765323060530186,"ADDRESS":"7139 S EXCHANGE AVE  ","YEAR":2015,"DOING_BUSINESS_AS_NAME":"7139 SELF PARK","POP_AT_RISK":364947,"BUSINESS_TYPE":"Public Garage","LEGAL_NAME":"JOHN R BOLDEN","LONGITUDE":-87.56547170951188},
{"STATE":"IL","ZIP":60609,"LATTITUDE":41.83067697104952,"ADDRESS":"3501 S EMERALD AVE  ","YEAR":2015,"DOING_BUSINESS_AS_NAME":"RAMEL PHILLIPS 66","POP_AT_RISK":33924,"BUSINESS_TYPE":"Public Garage","LEGAL_NAME":"JOSEPH M RAMEL","LONGITUDE":-87.6447405582136},
{"STATE":"IL","ZIP":60613,"LATTITUDE":41.95443244141688,"ADDRESS":"4000 N CLARK ST  1","YEAR":2015,"DOING_BUSINESS_AS_NAME":"IRVING & CLARK SHELL","POP_AT_RISK":70607,"BUSINESS_TYPE":"Public Garage","LEGAL_NAME":"ORESTES GARCIA","LONGITUDE":-87.66244625914061},
{"STATE":"IL","ZIP":60638,"LATTITUDE":41.80771214039897,"ADDRESS":"4832 - 34 W 47TH ST  ","YEAR":2015,"DOING_BUSINESS_AS_NAME":"AIRPORT PARKING","POP_AT_RISK":102390,"BUSINESS_TYPE":"Public Garage","LEGAL_NAME":"AIRPORT PARKING","LONGITUDE":-87.74443951507291},
{"STATE":"IL","ZIP":60619,"LATTITUDE":41.722004352021465,"ADDRESS":"939 E 95TH ST  ","YEAR":2015,"DOING_BUSINESS_AS_NAME":"PUBLIC STORAGE","POP_AT_RISK":173853,"BUSINESS_TYPE":"Public Garage","LEGAL_NAME":"PS ILLINOIS TRUST","LONGITUDE":-87.60055240343662},
{"STATE":"IL","ZIP":60639,"LATTITUDE":41.92927457851317,"ADDRESS":"2638 N PULASKI RD  ","YEAR":2015,"DOING_BUSINESS_AS_NAME":"PUBLIC STORAGE","POP_AT_RISK":1439220,"BUSINESS_TYPE":"Public Garage","LEGAL_NAME":"PS ILLINOIS TRUST","LONGITUDE":-87.72705384311328},
{"STATE":"IL","ZIP":60646,"LATTITUDE":41.98730270745669,"ADDRESS":"5838 N PULASKI RD  ","YEAR":2015,"DOING_BUSINESS_AS_NAME":"PUBLIC STORAGE","POP_AT_RISK":121480,"BUSINESS_TYPE":"Public Garage","LEGAL_NAME":"PS ILLINOIS TRUST","LONGITUDE":-87.7286982518199},
{"STATE":"IL","ZIP":60629,"LATTITUDE":41.75691376058714,"ADDRESS":"7455 S PULASKI RD  ","YEAR":2015,"DOING_BUSINESS_AS_NAME":"PUBLIC STORAGE","POP_AT_RISK":147120,"BUSINESS_TYPE":"Public Garage","LEGAL_NAME":"PS ILLINOIS TRUST","LONGITUDE":-87.72202831369083},
{"STATE":"IL","ZIP":60707,"LATTITUDE":41.920730582059456,"ADDRESS":"2222 N NATCHEZ AVE  ","YEAR":2015,"DOING_BUSINESS_AS_NAME":"PUBLIC STORAGE","POP_AT_RISK":278250,"BUSINESS_TYPE":"Public Garage","LEGAL_NAME":"PS ILLINOIS TRUST","LONGITUDE":-87.78794979364922},
{"STATE":"IL","ZIP":60609,"LATTITUDE":41.827053935435,"ADDRESS":"3659 S ASHLAND AVE  ","YEAR":2015,"DOING_BUSINESS_AS_NAME":"PUBLIC STORAGE","POP_AT_RISK":251440,"BUSINESS_TYPE":"Public Garage","LEGAL_NAME":"PS ILLINOIS TRUST","LONGITUDE":-87.66533779011704},
{"STATE":"IL","ZIP":60626,"LATTITUDE":42.01912234648231,"ADDRESS":"1425 W HOWARD ST 1ST ","YEAR":2015,"DOING_BUSINESS_AS_NAME":"KELLEE'S STORAGE","POP_AT_RISK":501880,"BUSINESS_TYPE":"Public Garage","LEGAL_NAME":"NORM'S SERVICE INC","LONGITUDE":-87.66709798122243},
{"STATE":"IL","ZIP":60647,"LATTITUDE":41.92866978990974,"ADDRESS":"2600 N WESTERN AVE 1ST AND MEZZANINE ","YEAR":2015,"DOING_BUSINESS_AS_NAME":"REGAL CINEMAS CITY NORTH","POP_AT_RISK":400368,"BUSINESS_TYPE":"Public Garage","LEGAL_NAME":"REGAL CINEMAS, INC.","LONGITUDE":-87.68792223553898},
{"STATE":"IL","ZIP":60607,"LATTITUDE":41.87343456580039,"ADDRESS":"625 S ASHLAND AVE  ","YEAR":2015,"DOING_BUSINESS_AS_NAME":"MARIOTT CHICAGO at MEDICAL DISTRICT\/ UIC","POP_AT_RISK":33458,"BUSINESS_TYPE":"Public Garage","LEGAL_NAME":"DAVIDSON HOTEL COMPANY","LONGITUDE":-87.66643368144297},
{"STATE":"IL","ZIP":60638,"LATTITUDE":41.79277959844571,"ADDRESS":"5720 W 55TH ST  ","YEAR":2015,"DOING_BUSINESS_AS_NAME":"MIDWAY EASY PARK","POP_AT_RISK":83060,"BUSINESS_TYPE":"Public Garage","LEGAL_NAME":"MIDWAY EASY PARK, INC.","LONGITUDE":-87.76567665357288},
{"STATE":"IL","ZIP":60615,"LATTITUDE":41.79721495496043,"ADDRESS":"5424 S KIMBARK AVE  ","YEAR":2015,"DOING_BUSINESS_AS_NAME":"FORGIEN CAR HOSPITAL INC","POP_AT_RISK":171788,"BUSINESS_TYPE":"Public Garage","LEGAL_NAME":"FORGIEN CAR HOSPITAL INC","LONGITUDE":-87.5951211603824},
{"STATE":"IL","ZIP":60623,"LATTITUDE":41.83964358422834,"ADDRESS":"2842 S KEDZIE AVE 1 ","YEAR":2015,"DOING_BUSINESS_AS_NAME":"M & M USA TRUCKING, INC.","POP_AT_RISK":750841,"BUSINESS_TYPE":"Public Garage","LEGAL_NAME":"M & M USA TRUCKING, INC.","LONGITUDE":-87.70504096609815},
{"STATE":"IL","ZIP":60652,"LATTITUDE":41.75016369410169,"ADDRESS":"2644-2740 W 79TH ST GROUND ","YEAR":2015,"DOING_BUSINESS_AS_NAME":"METRO SELF STORAGE","POP_AT_RISK":129180,"BUSINESS_TYPE":"Public Garage","LEGAL_NAME":"CHICAGO 79TH STORAGE, LLC","LONGITUDE":-87.69037960940156},
{"STATE":"IL","ZIP":60615,"LATTITUDE":41.798202951290776,"ADDRESS":"1538 E 54TH ST GROUND ","YEAR":2015,"DOING_BUSINESS_AS_NAME":"Parking Spaces, Inc.","POP_AT_RISK":37671,"BUSINESS_TYPE":"Public Garage","LEGAL_NAME":"PARKING SPACES INCORPORATED","LONGITUDE":-87.58765106333168},
{"STATE":"IL","ZIP":60614,"LATTITUDE":41.91945719524642,"ADDRESS":"2036 N CLARK ST  ","YEAR":2015,"DOING_BUSINESS_AS_NAME":"BUDDY'S PARKING COMPANCY, LLC.","POP_AT_RISK":139132,"BUSINESS_TYPE":"Public Garage","LEGAL_NAME":"BUDDY'S PARKING COMPANY, LLC","LONGITUDE":-87.63692876659579},
{"STATE":"IL","ZIP":60616,"LATTITUDE":41.8529242143299,"ADDRESS":"2155 S WENTWORTH AVE  ","YEAR":2015,"DOING_BUSINESS_AS_NAME":"CPS Parking","POP_AT_RISK":80766,"BUSINESS_TYPE":"Public Garage","LEGAL_NAME":"CENTRAL PARKING SYSTEM, INC.","LONGITUDE":-87.63163260612059},
{"STATE":"IL","ZIP":60618,"LATTITUDE":41.942911965629584,"ADDRESS":"3355 N WESTERN AVE  ","YEAR":2015,"DOING_BUSINESS_AS_NAME":"ROSCOE WESTERN","POP_AT_RISK":50186,"BUSINESS_TYPE":"Public Garage","LEGAL_NAME":"DIVISION WESTERN GARAGE INC.","LONGITUDE":-87.68796546102429},
{"STATE":"IL","ZIP":60632,"LATTITUDE":41.81624004639141,"ADDRESS":"4222 S PULASKI RD  ","YEAR":2015,"DOING_BUSINESS_AS_NAME":"EXTRA SPACE STORAGE #8131","POP_AT_RISK":121425,"BUSINESS_TYPE":"Public Garage","LEGAL_NAME":"EXTRA SPACE MANAGEMENT, INC.","LONGITUDE":-87.72403498424252},
{"STATE":"IL","ZIP":60638,"LATTITUDE":41.782720864325285,"ADDRESS":"7101-7159 W 60TH ST  ","YEAR":2015,"DOING_BUSINESS_AS_NAME":"EXTRA SPACE STORAGE # 8130","POP_AT_RISK":167934,"BUSINESS_TYPE":"Public Garage","LEGAL_NAME":"EXTRA SPACE MANAGEMENT, INC.","LONGITUDE":-87.79877010441864},
{"STATE":"IL","ZIP":60609,"LATTITUDE":41.827339819897354,"ADDRESS":"3658 S WENTWORTH AVE 1 ","YEAR":2015,"DOING_BUSINESS_AS_NAME":"PROGRESSIVE PARKING LOT, LLC","POP_AT_RISK":29229,"BUSINESS_TYPE":"Public Garage","LEGAL_NAME":"PROGRESSIVE PARKING LOT, LLC","LONGITUDE":-87.63156878978693},
}