{
{"STATE":"IL","ZIP":60628,"LATTITUDE":41.72160797021744,"ADDRESS":"646 W 95TH ST 1ST ","YEAR":2012,"DOING_BUSINESS_AS_NAME":"TIREWORLD & RIMS","POP_AT_RISK":202884,"BUSINESS_TYPE":"Tire Facilty Class I (100 - 1,000 Tires)","LEGAL_NAME":"EDDIE RUFUS","LONGITUDE":-87.64022528749041},
{"STATE":"IL","ZIP":60620,"LATTITUDE":41.73948850835696,"ADDRESS":"8501 S RACINE AVE  1ST","YEAR":2012,"DOING_BUSINESS_AS_NAME":"E & J TIRE SERVICE","POP_AT_RISK":40287,"BUSINESS_TYPE":"Tire Facilty Class I (100 - 1,000 Tires)","LEGAL_NAME":"JOHN WARREN","LONGITUDE":-87.65329105074261},
{"STATE":"IL","ZIP":60628,"LATTITUDE":41.694688042592915,"ADDRESS":"10952 S MICHIGAN AVE  1","YEAR":2012,"DOING_BUSINESS_AS_NAME":"4 ACES TIRES","POP_AT_RISK":186216,"BUSINESS_TYPE":"Tire Facilty Class I (100 - 1,000 Tires)","LEGAL_NAME":"JAMES GORDON","LONGITUDE":-87.62092998827042},
{"STATE":"IL","ZIP":60608,"LATTITUDE":41.83358535998523,"ADDRESS":"3342 S HALSTED ST  ","YEAR":2012,"DOING_BUSINESS_AS_NAME":"QUINTANILLA TIRE CENTER","POP_AT_RISK":38114,"BUSINESS_TYPE":"Tire Facilty Class I (100 - 1,000 Tires)","LEGAL_NAME":"CARLOS ARAIZA","LONGITUDE":-87.64631950543792},
{"STATE":"IL","ZIP":60640,"LATTITUDE":41.96683643050501,"ADDRESS":"4653 N CLARK ST 1ST ","YEAR":2012,"DOING_BUSINESS_AS_NAME":"MEDINAS TIRE SHOP","POP_AT_RISK":72533,"BUSINESS_TYPE":"Tire Facilty Class I (100 - 1,000 Tires)","LEGAL_NAME":"JAVIER MEDINA","LONGITUDE":-87.66691800048767},
{"STATE":"IL","ZIP":60624,"LATTITUDE":41.880510935421306,"ADDRESS":"4339 W MADISON ST  ","YEAR":2012,"DOING_BUSINESS_AS_NAME":"B & K TIRES","POP_AT_RISK":33859,"BUSINESS_TYPE":"Tire Facilty Class I (100 - 1,000 Tires)","LEGAL_NAME":"BILLY L. DAVIS","LONGITUDE":-87.7345907206353},
{"STATE":"IL","ZIP":60624,"LATTITUDE":41.88477491108602,"ADDRESS":"3410 W LAKE ST 1ST ","YEAR":2012,"DOING_BUSINESS_AS_NAME":"CAPS AUTO REPAIR & REBUILDERS","POP_AT_RISK":214236,"BUSINESS_TYPE":"Tire Facilty Class I (100 - 1,000 Tires)","LEGAL_NAME":"CECIL R. PRUDE","LONGITUDE":-87.71160875938149},
{"STATE":"IL","ZIP":60643,"LATTITUDE":41.70993287163702,"ADDRESS":"10101 S WESTERN AVE  ","YEAR":2012,"DOING_BUSINESS_AS_NAME":"EXOTIC WHEEL BOUTIQUE","POP_AT_RISK":65901,"BUSINESS_TYPE":"Tire Facilty Class I (100 - 1,000 Tires)","LEGAL_NAME":"GERARD HARTMAN","LONGITUDE":-87.68158186704345},
{"STATE":"IL","ZIP":60628,"LATTITUDE":41.66035373956465,"ADDRESS":"12836 S HALSTED ST  ","YEAR":2012,"DOING_BUSINESS_AS_NAME":"J-Evans & Sons","POP_AT_RISK":48834,"BUSINESS_TYPE":"Tire Facilty Class I (100 - 1,000 Tires)","LEGAL_NAME":"J-Evans & Sons","LONGITUDE":-87.64147062649928},
{"STATE":"IL","ZIP":60646,"LATTITUDE":41.99164795039224,"ADDRESS":"6067 N MILWAUKEE AVE FIRST ","YEAR":2012,"DOING_BUSINESS_AS_NAME":"Speed Motion Performance & Automotive","POP_AT_RISK":48684,"BUSINESS_TYPE":"Tire Facilty Class I (100 - 1,000 Tires)","LEGAL_NAME":"car toy's, Inc","LONGITUDE":-87.78227955343459},
{"STATE":"IL","ZIP":60643,"LATTITUDE":41.684971438520385,"ADDRESS":"1448 W 115TH ST  1","YEAR":2012,"DOING_BUSINESS_AS_NAME":"PEE WEES TIRE REPAIR","POP_AT_RISK":140922,"BUSINESS_TYPE":"Tire Facilty Class I (100 - 1,000 Tires)","LEGAL_NAME":"ANTHONY MADISON","LONGITUDE":-87.65862382673185},
{"STATE":"IL","ZIP":60628,"LATTITUDE":41.67803889572355,"ADDRESS":"336 W 119TH ST  1","YEAR":2012,"DOING_BUSINESS_AS_NAME":"BABY DO'S TIRE & REPAIR AUTOS","POP_AT_RISK":23129,"BUSINESS_TYPE":"Tire Facilty Class I (100 - 1,000 Tires)","LEGAL_NAME":"CHARLIE JACKSON","LONGITUDE":-87.63129803056498},
{"STATE":"IL","ZIP":60645,"LATTITUDE":42.012259334394074,"ADDRESS":"2628 W TOUHY AVE  ","YEAR":2012,"DOING_BUSINESS_AS_NAME":"MARCUS TIRE & WHEELS","POP_AT_RISK":61171,"BUSINESS_TYPE":"Tire Facilty Class I (100 - 1,000 Tires)","LEGAL_NAME":"EDMOND E. MARCUS","LONGITUDE":-87.69617252350876},
{"STATE":"IL","ZIP":60649,"LATTITUDE":41.76842299198831,"ADDRESS":"6942 S STONY ISLAND AVE 1ST ","YEAR":2012,"DOING_BUSINESS_AS_NAME":"EAST SIDE TIRES","POP_AT_RISK":297576,"BUSINESS_TYPE":"Tire Facilty Class I (100 - 1,000 Tires)","LEGAL_NAME":"RAYMOND P. JONES","LONGITUDE":-87.58653313011507},
{"STATE":"IL","ZIP":60608,"LATTITUDE":41.85789530438478,"ADDRESS":"1802 S CARPENTER ST 1ST ","YEAR":2012,"DOING_BUSINESS_AS_NAME":"MIKE'S TIRE SHOP","POP_AT_RISK":38457,"BUSINESS_TYPE":"Tire Facilty Class I (100 - 1,000 Tires)","LEGAL_NAME":"ARMARDO RODRIGUEZ","LONGITUDE":-87.65335578975505},
{"STATE":"IL","ZIP":60617,"LATTITUDE":41.70707653528184,"ADDRESS":"10336 S INDIANAPOLIS AVE 1ST ","YEAR":2012,"DOING_BUSINESS_AS_NAME":"JALPA AUTO REPAIR","POP_AT_RISK":20498,"BUSINESS_TYPE":"Tire Facilty Class I (100 - 1,000 Tires)","LEGAL_NAME":"JALPA AUTO REPAIR","LONGITUDE":-87.52929141090065},
{"STATE":"IL","ZIP":60619,"LATTITUDE":41.74622788224334,"ADDRESS":"8146 S COTTAGE GROVE AVE 1ST ","YEAR":2012,"DOING_BUSINESS_AS_NAME":"D. & GU WHEELS INC.","POP_AT_RISK":178965,"BUSINESS_TYPE":"Tire Facilty Class I (100 - 1,000 Tires)","LEGAL_NAME":"D. & GU WHEELS INC.","LONGITUDE":-87.60524303022015},
{"STATE":"IL","ZIP":60634,"LATTITUDE":41.93808446822169,"ADDRESS":"3200 N HARLEM AVE  ","YEAR":2012,"DOING_BUSINESS_AS_NAME":"OMEGA AUTOTECH, INC.","POP_AT_RISK":48366,"BUSINESS_TYPE":"Tire Facilty Class I (100 - 1,000 Tires)","LEGAL_NAME":"OMEGA AUTOTECH, INC.","LONGITUDE":-87.80689674887883},
{"STATE":"IL","ZIP":60621,"LATTITUDE":41.7641330858758,"ADDRESS":"7146 S VINCENNES AVE 1ST ","YEAR":2012,"DOING_BUSINESS_AS_NAME":"ORTIZ TIRE SHOP INC.","POP_AT_RISK":34227,"BUSINESS_TYPE":"Tire Facilty Class I (100 - 1,000 Tires)","LEGAL_NAME":"ORTIZ TIRE SHOP INC.","LONGITUDE":-87.62870196655422},
{"STATE":"IL","ZIP":60652,"LATTITUDE":41.74979595119637,"ADDRESS":"3706 W 79TH ST  ","YEAR":2012,"DOING_BUSINESS_AS_NAME":"PREMIER CAR SPA","POP_AT_RISK":86148,"BUSINESS_TYPE":"Tire Facilty Class I (100 - 1,000 Tires)","LEGAL_NAME":"PREMIER CAR SPA, INC.","LONGITUDE":-87.71446463091758},
{"STATE":"IL","ZIP":60632,"LATTITUDE":41.80808535176826,"ADDRESS":"3642 W 47TH ST  ","YEAR":2012,"DOING_BUSINESS_AS_NAME":"J B HUNT TRANSPORT INC","POP_AT_RISK":115149,"BUSINESS_TYPE":"Tire Facilty Class I (100 - 1,000 Tires)","LEGAL_NAME":"J.B.HUNT TRANSPORT INC","LONGITUDE":-87.71539543726277},
{"STATE":"IL","ZIP":60626,"LATTITUDE":42.00543102284807,"ADDRESS":"1714 W PRATT BLVD 1 ","YEAR":2012,"DOING_BUSINESS_AS_NAME":"PRATT AUTO WORKS, INC.","POP_AT_RISK":82682,"BUSINESS_TYPE":"Tire Facilty Class I (100 - 1,000 Tires)","LEGAL_NAME":"PRATT AUTO WORKS, INC.","LONGITUDE":-87.67372964979899},
{"STATE":"IL","ZIP":60637,"LATTITUDE":41.772475585338476,"ADDRESS":"6707 S STATE ST  ","YEAR":2012,"DOING_BUSINESS_AS_NAME":"AUTO EMPIRE CORPORATION","POP_AT_RISK":65024,"BUSINESS_TYPE":"Tire Facilty Class I (100 - 1,000 Tires)","LEGAL_NAME":"EMPIRE TIRE CORPORATION","LONGITUDE":-87.62497487382564},
{"STATE":"IL","ZIP":60609,"LATTITUDE":41.80911509826692,"ADDRESS":"452 W 47TH ST 1ST ","YEAR":2012,"DOING_BUSINESS_AS_NAME":"CITY TIRE INC","POP_AT_RISK":108672,"BUSINESS_TYPE":"Tire Facilty Class I (100 - 1,000 Tires)","LEGAL_NAME":"CITY TIRE & SUPPLY CORP.","LONGITUDE":-87.637968543859},
{"STATE":"IL","ZIP":60617,"LATTITUDE":41.702862777708724,"ADDRESS":"3434 E 106TH ST 1ST ","YEAR":2012,"DOING_BUSINESS_AS_NAME":"TWINS AUTO SERVICE, INC.","POP_AT_RISK":24497,"BUSINESS_TYPE":"Tire Facilty Class I (100 - 1,000 Tires)","LEGAL_NAME":"TWINS AUTO SERVICE, INC.","LONGITUDE":-87.53995629211946},
{"STATE":"IL","ZIP":60644,"LATTITUDE":41.88003666620055,"ADDRESS":"5829 W MADISON ST 1 A","YEAR":2012,"DOING_BUSINESS_AS_NAME":"One Stop Tire Center","POP_AT_RISK":298116,"BUSINESS_TYPE":"Tire Facilty Class I (100 - 1,000 Tires)","LEGAL_NAME":"One Stop Tire Center Inc.","LONGITUDE":-87.77098503103548},
{"STATE":"IL","ZIP":60622,"LATTITUDE":41.88976106624319,"ADDRESS":"1627 W HUBBARD ST  ","YEAR":2012,"DOING_BUSINESS_AS_NAME":"CARSON TIRE SERVICE, INC","POP_AT_RISK":47191,"BUSINESS_TYPE":"Tire Facilty Class I (100 - 1,000 Tires)","LEGAL_NAME":"CARSON'S TIRE SERVICE, INC.","LONGITUDE":-87.66819417636863},
{"STATE":"IL","ZIP":60646,"LATTITUDE":41.996166547688986,"ADDRESS":"6301 N CENTRAL AVE  ","YEAR":2012,"DOING_BUSINESS_AS_NAME":"CENTRAL AND CALDWELL SERVICE","POP_AT_RISK":35912,"BUSINESS_TYPE":"Tire Facilty Class I (100 - 1,000 Tires)","LEGAL_NAME":"CENTRAL AND CALDWELL SERVICE","LONGITUDE":-87.76404923745231},
{"STATE":"IL","ZIP":60616,"LATTITUDE":41.844614022638424,"ADDRESS":"2635 S WABASH AVE  ","YEAR":2012,"DOING_BUSINESS_AS_NAME":"ROADRUNNER AUTO REPAIR, INC.","POP_AT_RISK":206682,"BUSINESS_TYPE":"Tire Facilty Class I (100 - 1,000 Tires)","LEGAL_NAME":"ROADRUNNER AUTO REPAIR, INC.","LONGITUDE":-87.6251535376535},
{"STATE":"IL","ZIP":60634,"LATTITUDE":41.94568596538189,"ADDRESS":"3613-3621 N HARLEM AVE 1 ","YEAR":2012,"DOING_BUSINESS_AS_NAME":"EVRIS AUTOMOTIVE SUPPLY, INC.","POP_AT_RISK":75544,"BUSINESS_TYPE":"Tire Facilty Class I (100 - 1,000 Tires)","LEGAL_NAME":"EVRIS AUTOMOTIVE SUPPLY, INC.","LONGITUDE":-87.80687364707372},
{"STATE":"IL","ZIP":60644,"LATTITUDE":41.87259260164885,"ADDRESS":"617 - 625 S CICERO AVE 1 1","YEAR":2012,"DOING_BUSINESS_AS_NAME":"PRO AUTO TIRES & WHEELS, INC.","POP_AT_RISK":176304,"BUSINESS_TYPE":"Tire Facilty Class I (100 - 1,000 Tires)","LEGAL_NAME":"PRO AUTO TIRES & WHEELS, INC.","LONGITUDE":-87.74481299731524},
{"STATE":"IL","ZIP":60637,"LATTITUDE":41.76984129082536,"ADDRESS":"6859 S SOUTH CHICAGO AVE 1ST ","YEAR":2012,"DOING_BUSINESS_AS_NAME":"PRO AUTO TIRES & WHEELS, INC.","POP_AT_RISK":70596,"BUSINESS_TYPE":"Tire Facilty Class I (100 - 1,000 Tires)","LEGAL_NAME":"PRO AUTO TIRES & WHEELS, INC.","LONGITUDE":-87.61091339082485},
{"STATE":"IL","ZIP":60629,"LATTITUDE":41.77859832329389,"ADDRESS":"4556 W 63RD ST GROUND ","YEAR":2012,"DOING_BUSINESS_AS_NAME":"MEDINA SUPER TIRE SHOP","POP_AT_RISK":25513,"BUSINESS_TYPE":"Tire Facilty Class I (100 - 1,000 Tires)","LEGAL_NAME":"ANDREWS SUPER AUTO REPAIR INC.","LONGITUDE":-87.73727487800448},
{"STATE":"IL","ZIP":60607,"LATTITUDE":41.872769646119295,"ADDRESS":"727 S JEFFERSON ST  ","YEAR":2012,"DOING_BUSINESS_AS_NAME":"LEE'S FOREIGN CAR SER INC","POP_AT_RISK":89146,"BUSINESS_TYPE":"Tire Facilty Class I (100 - 1,000 Tires)","LEGAL_NAME":"LEE'S FOREIGN CAR SERVICE, INC.","LONGITUDE":-87.6422265708572},
{"STATE":"IL","ZIP":60636,"LATTITUDE":41.76642349307935,"ADDRESS":"7000  -07018 S WESTERN AVE  1ST F","YEAR":2012,"DOING_BUSINESS_AS_NAME":"TOYOTA ON WESTERN, INC.","POP_AT_RISK":36218,"BUSINESS_TYPE":"Tire Facilty Class I (100 - 1,000 Tires)","LEGAL_NAME":"SOUTH WESTERN MOTOR SALES, INC.","LONGITUDE":-87.68343755851733},
{"STATE":"IL","ZIP":60657,"LATTITUDE":41.943436740327506,"ADDRESS":"3401 N ASHLAND AVE  ","YEAR":2012,"DOING_BUSINESS_AS_NAME":"RELIABLE AUTO REPAIR CENTR INC","POP_AT_RISK":452557,"BUSINESS_TYPE":"Tire Facilty Class I (100 - 1,000 Tires)","LEGAL_NAME":"RELIABLE AUTO REPAIR CENTER, INC.","LONGITUDE":-87.66861876714403},
{"STATE":"IL","ZIP":60638,"LATTITUDE":41.795273277421956,"ADDRESS":"5945 S ARCHER AVE  ","YEAR":2012,"DOING_BUSINESS_AS_NAME":"FIRESTONE","POP_AT_RISK":99940,"BUSINESS_TYPE":"Tire Facilty Class I (100 - 1,000 Tires)","LEGAL_NAME":"BRIDGESTONE RETAIL OPERATIONS, LLC","LONGITUDE":-87.7645092888821},
{"STATE":"IL","ZIP":60608,"LATTITUDE":41.8647450692821,"ADDRESS":"1301 S WESTERN AVE  ","YEAR":2012,"DOING_BUSINESS_AS_NAME":"FIRESTONE","POP_AT_RISK":322857,"BUSINESS_TYPE":"Tire Facilty Class I (100 - 1,000 Tires)","LEGAL_NAME":"BRIDGESTONE RETAIL OPERATIONS, LLC","LONGITUDE":-87.68584045468117},
{"STATE":"IL","ZIP":60643,"LATTITUDE":41.71948834302312,"ADDRESS":"9549 S WESTERN AVE  ","YEAR":2012,"DOING_BUSINESS_AS_NAME":"FIRESTONE","POP_AT_RISK":23533,"BUSINESS_TYPE":"Tire Facilty Class I (100 - 1,000 Tires)","LEGAL_NAME":"BRIDGESTONE RETAIL OPERATIONS, LLC","LONGITUDE":-87.68187257542179},
{"STATE":"IL","ZIP":60630,"LATTITUDE":41.97507133153229,"ADDRESS":"5215 N MILWAUKEE AVE  ","YEAR":2012,"DOING_BUSINESS_AS_NAME":"FIRESTONE","POP_AT_RISK":33756,"BUSINESS_TYPE":"Tire Facilty Class I (100 - 1,000 Tires)","LEGAL_NAME":"BRIDGESTONE RETAIL OPERATIONS, LLC","LONGITUDE":-87.76702884268},
{"STATE":"IL","ZIP":60614,"LATTITUDE":41.93280849685226,"ADDRESS":"824 W DIVERSEY PKWY  ","YEAR":2012,"DOING_BUSINESS_AS_NAME":"WM J CASSIDY TIRE & AUTO","POP_AT_RISK":341316,"BUSINESS_TYPE":"Tire Facilty Class I (100 - 1,000 Tires)","LEGAL_NAME":"WM. J. CASSIDY TIRE & AUTO SUPPLY CO.","LONGITUDE":-87.65000549071719},
{"STATE":"IL","ZIP":60652,"LATTITUDE":41.73628922702488,"ADDRESS":"8601-8611 S CICERO AVE 1 ","YEAR":2012,"DOING_BUSINESS_AS_NAME":"PAISANO MUFFLERS AND AUTO SERVICE, LLC","POP_AT_RISK":71769,"BUSINESS_TYPE":"Tire Facilty Class I (100 - 1,000 Tires)","LEGAL_NAME":"PAISANO MUFFLERS AND AUTO SERVICE, LLC","LONGITUDE":-87.74078193737448},
}