{
{"STATE":"IL","ZIP":60628,"LATTITUDE":41.72160797021744,"ADDRESS":"646 W 95TH ST 1ST ","YEAR":2009,"DOING_BUSINESS_AS_NAME":"TIREWORLD & RIMS","POP_AT_RISK":33814,"BUSINESS_TYPE":"Tire Facilty Class I (100 - 1,000 Tires)","LEGAL_NAME":"EDDIE RUFUS","LONGITUDE":-87.64022528749041},
{"STATE":"IL","ZIP":60620,"LATTITUDE":41.73948850835696,"ADDRESS":"8501 S RACINE AVE  1ST","YEAR":2009,"DOING_BUSINESS_AS_NAME":"E & J TIRE SERVICE","POP_AT_RISK":80574,"BUSINESS_TYPE":"Tire Facilty Class I (100 - 1,000 Tires)","LEGAL_NAME":"JOHN WARREN","LONGITUDE":-87.65329105074261},
{"STATE":"IL","ZIP":60626,"LATTITUDE":41.999988014812224,"ADDRESS":"6501 N CLARK ST  ","YEAR":2009,"DOING_BUSINESS_AS_NAME":"CLARK TIRE SERVICE","POP_AT_RISK":243315,"BUSINESS_TYPE":"Tire Facilty Class I (100 - 1,000 Tires)","LEGAL_NAME":"JOSE CHACON","LONGITUDE":-87.67109448986507},
{"STATE":"IL","ZIP":60645,"LATTITUDE":42.012259334394074,"ADDRESS":"2628 W TOUHY AVE  ","YEAR":2009,"DOING_BUSINESS_AS_NAME":"DANIEL TIRES","POP_AT_RISK":61171,"BUSINESS_TYPE":"Tire Facilty Class I (100 - 1,000 Tires)","LEGAL_NAME":"LAITH ORAHA","LONGITUDE":-87.69617252350876},
{"STATE":"IL","ZIP":60628,"LATTITUDE":41.694688042592915,"ADDRESS":"10952 S MICHIGAN AVE  1","YEAR":2009,"DOING_BUSINESS_AS_NAME":"4 ACES TIRES","POP_AT_RISK":155180,"BUSINESS_TYPE":"Tire Facilty Class I (100 - 1,000 Tires)","LEGAL_NAME":"JAMES GORDON","LONGITUDE":-87.62092998827042},
{"STATE":"IL","ZIP":60608,"LATTITUDE":41.83358535998523,"ADDRESS":"3342 S HALSTED ST  ","YEAR":2009,"DOING_BUSINESS_AS_NAME":"QUINTANILLA TIRE CENTER","POP_AT_RISK":114342,"BUSINESS_TYPE":"Tire Facilty Class I (100 - 1,000 Tires)","LEGAL_NAME":"CARLOS ARAIZA","LONGITUDE":-87.64631950543792},
{"STATE":"IL","ZIP":60640,"LATTITUDE":41.96683643050501,"ADDRESS":"4653 N CLARK ST 1ST ","YEAR":2009,"DOING_BUSINESS_AS_NAME":"MEDINAS TIRE SHOP","POP_AT_RISK":72533,"BUSINESS_TYPE":"Tire Facilty Class I (100 - 1,000 Tires)","LEGAL_NAME":"JAVIER MEDINA","LONGITUDE":-87.66691800048767},
{"STATE":"IL","ZIP":60640,"LATTITUDE":41.98233782248874,"ADDRESS":"5521 N CLARK ST  1ST","YEAR":2009,"DOING_BUSINESS_AS_NAME":"OCANA TIRE SHOP #2","POP_AT_RISK":370765,"BUSINESS_TYPE":"Tire Facilty Class I (100 - 1,000 Tires)","LEGAL_NAME":"FELIX OCANA JR","LONGITUDE":-87.66837894306158},
{"STATE":"IL","ZIP":60643,"LATTITUDE":41.70993287163702,"ADDRESS":"10101 S WESTERN AVE  ","YEAR":2009,"DOING_BUSINESS_AS_NAME":"EXOTIC WHEEL BOUTIQUE","POP_AT_RISK":65901,"BUSINESS_TYPE":"Tire Facilty Class I (100 - 1,000 Tires)","LEGAL_NAME":"GERARD HARTMAN","LONGITUDE":-87.68158186704345},
{"STATE":"IL","ZIP":60628,"LATTITUDE":41.66035373956465,"ADDRESS":"12836 S HALSTED ST  ","YEAR":2009,"DOING_BUSINESS_AS_NAME":"J-Evans & Sons","POP_AT_RISK":65112,"BUSINESS_TYPE":"Tire Facilty Class I (100 - 1,000 Tires)","LEGAL_NAME":"J-Evans & Sons","LONGITUDE":-87.64147062649928},
{"STATE":"IL","ZIP":60649,"LATTITUDE":41.76842299198831,"ADDRESS":"6942 S STONY ISLAND AVE 1ST ","YEAR":2009,"DOING_BUSINESS_AS_NAME":"KING RICHARD'S TRADING POST","POP_AT_RISK":297576,"BUSINESS_TYPE":"Tire Facilty Class I (100 - 1,000 Tires)","LEGAL_NAME":"RICHARD GEORGE","LONGITUDE":-87.58653313011507},
{"STATE":"IL","ZIP":60617,"LATTITUDE":41.702862777708724,"ADDRESS":"3434 E 106TH ST # 1ST","YEAR":2009,"DOING_BUSINESS_AS_NAME":"TWINS AUTO SERVICE TWINS AUTO","POP_AT_RISK":24497,"BUSINESS_TYPE":"Tire Facilty Class I (100 - 1,000 Tires)","LEGAL_NAME":"ROSARIO GARCIA","LONGITUDE":-87.53995629211946},
{"STATE":"IL","ZIP":60643,"LATTITUDE":41.684971438520385,"ADDRESS":"1448 W 115TH ST  1","YEAR":2009,"DOING_BUSINESS_AS_NAME":"PEE WEES TIRE REPAIR","POP_AT_RISK":140922,"BUSINESS_TYPE":"Tire Facilty Class I (100 - 1,000 Tires)","LEGAL_NAME":"ANTHONY MADISON","LONGITUDE":-87.65862382673185},
{"STATE":"IL","ZIP":60628,"LATTITUDE":41.67803889572355,"ADDRESS":"336 W 119TH ST  1","YEAR":2009,"DOING_BUSINESS_AS_NAME":"BABY DO'S TIRE & REPAIR AUTOS","POP_AT_RISK":69387,"BUSINESS_TYPE":"Tire Facilty Class I (100 - 1,000 Tires)","LEGAL_NAME":"CHARLIE JACKSON","LONGITUDE":-87.63129803056498},
{"STATE":"IL","ZIP":60620,"LATTITUDE":41.74561896282266,"ADDRESS":"8147 S HALSTED ST 1 ","YEAR":2009,"DOING_BUSINESS_AS_NAME":"RV MUFFLER","POP_AT_RISK":73870,"BUSINESS_TYPE":"Tire Facilty Class I (100 - 1,000 Tires)","LEGAL_NAME":"MARIA L VASQUEZ","LONGITUDE":-87.64374767916266},
{"STATE":"IL","ZIP":60620,"LATTITUDE":41.75719823796646,"ADDRESS":"1640 W 75TH PL 1ST ","YEAR":2009,"DOING_BUSINESS_AS_NAME":"K & G AUTO REPAIR","POP_AT_RISK":37156,"BUSINESS_TYPE":"Tire Facilty Class I (100 - 1,000 Tires)","LEGAL_NAME":"KAREEM BROUGHTON","LONGITUDE":-87.66522312562839},
{"STATE":"IL","ZIP":60632,"LATTITUDE":41.800358082137066,"ADDRESS":"5101 S KOLMAR AVE  ","YEAR":2009,"DOING_BUSINESS_AS_NAME":"PACHECO TIRE SHOP","POP_AT_RISK":63176,"BUSINESS_TYPE":"Tire Facilty Class I (100 - 1,000 Tires)","LEGAL_NAME":"SEFERINO PACHECO","LONGITUDE":-87.73670915443839},
{"STATE":"IL","ZIP":60607,"LATTITUDE":41.88476168481302,"ADDRESS":"160 N ELIZABETH ST  ","YEAR":2009,"DOING_BUSINESS_AS_NAME":"GATEWAY AUTO SERVICE","POP_AT_RISK":39684,"BUSINESS_TYPE":"Tire Facilty Class I (100 - 1,000 Tires)","LEGAL_NAME":"SHADI & SON, INC","LONGITUDE":-87.6589883360869},
{"STATE":"IL","ZIP":60655,"LATTITUDE":41.691582248132,"ADDRESS":"3424 W 111TH ST 1ST ","YEAR":2009,"DOING_BUSINESS_AS_NAME":"WHEEL WRIGHT INC","POP_AT_RISK":125100,"BUSINESS_TYPE":"Tire Facilty Class I (100 - 1,000 Tires)","LEGAL_NAME":"WHEEL WRIGHT INC","LONGITUDE":-87.70680199091622},
{"STATE":"IL","ZIP":60608,"LATTITUDE":41.85789530438478,"ADDRESS":"1802 S CARPENTER ST 1ST ","YEAR":2009,"DOING_BUSINESS_AS_NAME":"MIKE'S TIRE SHOP","POP_AT_RISK":38457,"BUSINESS_TYPE":"Tire Facilty Class I (100 - 1,000 Tires)","LEGAL_NAME":"ARMARDO RODRIGUEZ","LONGITUDE":-87.65335578975505},
{"STATE":"IL","ZIP":60624,"LATTITUDE":41.8807669005056,"ADDRESS":"3515 W MADISON ST 1ST ","YEAR":2009,"DOING_BUSINESS_AS_NAME":"AUTO SHOP","POP_AT_RISK":117135,"BUSINESS_TYPE":"Tire Facilty Class I (100 - 1,000 Tires)","LEGAL_NAME":"GLORIS B. GARNDER","LONGITUDE":-87.71422124392193},
{"STATE":"IL","ZIP":60622,"LATTITUDE":41.89958863869595,"ADDRESS":"1011-13 N CALIFORNIA AVE # 1ST","YEAR":2009,"DOING_BUSINESS_AS_NAME":"LOUIE'S TIRE & WHEELS","POP_AT_RISK":50952,"BUSINESS_TYPE":"Tire Facilty Class I (100 - 1,000 Tires)","LEGAL_NAME":"LOUIS A FELICIANO","LONGITUDE":-87.69665110508214},
{"STATE":"IL","ZIP":60644,"LATTITUDE":41.88656093449172,"ADDRESS":"4815 W LAKE ST  ","YEAR":2009,"DOING_BUSINESS_AS_NAME":"GONZALEZ TIRE SHOP","POP_AT_RISK":332208,"BUSINESS_TYPE":"Tire Facilty Class I (100 - 1,000 Tires)","LEGAL_NAME":"SANTIAGO GONZALEZ","LONGITUDE":-87.74616590260366},
{"STATE":"IL","ZIP":60630,"LATTITUDE":41.96784347056907,"ADDRESS":"5027 W LAWRENCE AVE # 1","YEAR":2009,"DOING_BUSINESS_AS_NAME":"LAWRENCE KENNEDY BP","POP_AT_RISK":40189,"BUSINESS_TYPE":"Tire Facilty Class I (100 - 1,000 Tires)","LEGAL_NAME":"PANAGIOTIS FLOUDAS","LONGITUDE":-87.7537418202215},
{"STATE":"IL","ZIP":60619,"LATTITUDE":41.757133415130944,"ADDRESS":"7549-7557 S COTTAGE GROVE AVE  ","YEAR":2009,"DOING_BUSINESS_AS_NAME":"BAROMAN TIRE SHOP","POP_AT_RISK":31461,"BUSINESS_TYPE":"Tire Facilty Class I (100 - 1,000 Tires)","LEGAL_NAME":"BAROMAN CORPORATION","LONGITUDE":-87.60521070562744},
{"STATE":"IL","ZIP":60634,"LATTITUDE":41.93808446822169,"ADDRESS":"3200 N HARLEM AVE  ","YEAR":2009,"DOING_BUSINESS_AS_NAME":"OMEGA AUTOTECH, INC.","POP_AT_RISK":48366,"BUSINESS_TYPE":"Tire Facilty Class I (100 - 1,000 Tires)","LEGAL_NAME":"OMEGA AUTOTECH, INC.","LONGITUDE":-87.80689674887883},
{"STATE":"IL","ZIP":60652,"LATTITUDE":41.74979595119637,"ADDRESS":"3706 W 79TH ST  ","YEAR":2009,"DOING_BUSINESS_AS_NAME":"PREMIER CAR SPA","POP_AT_RISK":86148,"BUSINESS_TYPE":"Tire Facilty Class I (100 - 1,000 Tires)","LEGAL_NAME":"PREMIER CAR SPA, INC.","LONGITUDE":-87.71446463091758},
{"STATE":"IL","ZIP":60632,"LATTITUDE":41.80808535176826,"ADDRESS":"3642 W 47TH ST  ","YEAR":2009,"DOING_BUSINESS_AS_NAME":"J B HUNT TRANSPORT INC","POP_AT_RISK":38383,"BUSINESS_TYPE":"Tire Facilty Class I (100 - 1,000 Tires)","LEGAL_NAME":"J.B.HUNT TRANSPORT INC","LONGITUDE":-87.71539543726277},
{"STATE":"IL","ZIP":60609,"LATTITUDE":41.80911509826692,"ADDRESS":"452 W 47TH ST 1ST ","YEAR":2009,"DOING_BUSINESS_AS_NAME":"CITY TIRE INC","POP_AT_RISK":126784,"BUSINESS_TYPE":"Tire Facilty Class I (100 - 1,000 Tires)","LEGAL_NAME":"CITY TIRE & SUPPLY CORP.","LONGITUDE":-87.637968543859},
{"STATE":"IL","ZIP":60621,"LATTITUDE":41.76431905817667,"ADDRESS":"7128 S HALSTED ST 1ST ","YEAR":2009,"DOING_BUSINESS_AS_NAME":"DANIEL'S TIRE SHOP","POP_AT_RISK":39281,"BUSINESS_TYPE":"Tire Facilty Class I (100 - 1,000 Tires)","LEGAL_NAME":"VILLEDA TIRE SERVICE INC.","LONGITUDE":-87.64453610177372},
{"STATE":"IL","ZIP":60656,"LATTITUDE":41.973298953304315,"ADDRESS":"9710 W FOSTER AVE 1 ","YEAR":2009,"DOING_BUSINESS_AS_NAME":"CAB-X AUTO BODY SHOP","POP_AT_RISK":16526,"BUSINESS_TYPE":"Tire Facilty Class I (100 - 1,000 Tires)","LEGAL_NAME":"CAB-X AUTO BODY SHOP, INC.","LONGITUDE":-87.86724238840318},
{"STATE":"IL","ZIP":60617,"LATTITUDE":41.737107323161766,"ADDRESS":"1816-1824 E 87TH ST 1ST ","YEAR":2009,"DOING_BUSINESS_AS_NAME":"BROWN TIRE CORPORATION","POP_AT_RISK":151425,"BUSINESS_TYPE":"Tire Facilty Class I (100 - 1,000 Tires)","LEGAL_NAME":"THE BROWN TIRE CORPORATION","LONGITUDE":-87.5798440983714},
{"STATE":"IL","ZIP":60619,"LATTITUDE":41.739733475995614,"ADDRESS":"8517 S COTTAGE GROVE AVE 1ST ","YEAR":2009,"DOING_BUSINESS_AS_NAME":"BROWN TIRE CORPORATION","POP_AT_RISK":307512,"BUSINESS_TYPE":"Tire Facilty Class I (100 - 1,000 Tires)","LEGAL_NAME":"THE BROWN TIRE CORPORATION","LONGITUDE":-87.60476326467969},
{"STATE":"IL","ZIP":60622,"LATTITUDE":41.88976106624319,"ADDRESS":"1627 W HUBBARD ST  ","YEAR":2009,"DOING_BUSINESS_AS_NAME":"CARSON TIRE SERVICE, INC","POP_AT_RISK":47191,"BUSINESS_TYPE":"Tire Facilty Class I (100 - 1,000 Tires)","LEGAL_NAME":"CARSON'S TIRE SERVICE, INC.","LONGITUDE":-87.66819417636863},
{"STATE":"IL","ZIP":60646,"LATTITUDE":41.996166547688986,"ADDRESS":"6301 N CENTRAL AVE  ","YEAR":2009,"DOING_BUSINESS_AS_NAME":"CENTRAL AND CALDWELL SERVICE","POP_AT_RISK":53868,"BUSINESS_TYPE":"Tire Facilty Class I (100 - 1,000 Tires)","LEGAL_NAME":"CENTRAL AND CALDWELL SERVICE","LONGITUDE":-87.76404923745231},
{"STATE":"IL","ZIP":60661,"LATTITUDE":41.88656838866374,"ADDRESS":"225 N DESPLAINES ST 1ST ","YEAR":2009,"DOING_BUSINESS_AS_NAME":"FULTON DESPLAINES GARAGE","POP_AT_RISK":88466,"BUSINESS_TYPE":"Tire Facilty Class I (100 - 1,000 Tires)","LEGAL_NAME":"FULTON DESPLAINES GARAGE INC","LONGITUDE":-87.64412365235546},
{"STATE":"IL","ZIP":60626,"LATTITUDE":42.005585621528056,"ADDRESS":"6807  -6809 N CLARK ST  1ST","YEAR":2009,"DOING_BUSINESS_AS_NAME":"P & J SUPER AUTO & BODY SHOP","POP_AT_RISK":73496,"BUSINESS_TYPE":"Tire Facilty Class I (100 - 1,000 Tires)","LEGAL_NAME":"P & J SUPER AUTO & BODY SHOP","LONGITUDE":-87.67302404562562},
{"STATE":"IL","ZIP":60621,"LATTITUDE":41.779779080299285,"ADDRESS":"1014 W 63RD ST 1 ","YEAR":2009,"DOING_BUSINESS_AS_NAME":"PRO TIRES AND WHEELS INC. #1","POP_AT_RISK":117366,"BUSINESS_TYPE":"Tire Facilty Class I (100 - 1,000 Tires)","LEGAL_NAME":"PRO TIRES AND WHEELS INC. #1","LONGITUDE":-87.65034495752677},
{"STATE":"IL","ZIP":60634,"LATTITUDE":41.94568596538189,"ADDRESS":"3613-3621 N HARLEM AVE 1 ","YEAR":2009,"DOING_BUSINESS_AS_NAME":"EVRIS AUTOMOTIVE SUPPLY, INC.","POP_AT_RISK":75544,"BUSINESS_TYPE":"Tire Facilty Class I (100 - 1,000 Tires)","LEGAL_NAME":"EVRIS AUTOMOTIVE SUPPLY, INC.","LONGITUDE":-87.80687364707372},
{"STATE":"IL","ZIP":60637,"LATTITUDE":41.76984129082536,"ADDRESS":"6859 S SOUTH CHICAGO AVE 1ST ","YEAR":2009,"DOING_BUSINESS_AS_NAME":"PRO AUTO TIRES & WHEELS, INC.","POP_AT_RISK":141192,"BUSINESS_TYPE":"Tire Facilty Class I (100 - 1,000 Tires)","LEGAL_NAME":"PRO AUTO TIRES & WHEELS, INC.","LONGITUDE":-87.61091339082485},
{"STATE":"IL","ZIP":60629,"LATTITUDE":41.77859832329389,"ADDRESS":"4556 W 63RD ST GROUND ","YEAR":2009,"DOING_BUSINESS_AS_NAME":"MEDINA SUPER TIRE SHOP","POP_AT_RISK":25513,"BUSINESS_TYPE":"Tire Facilty Class I (100 - 1,000 Tires)","LEGAL_NAME":"ANDREWS SUPER AUTO REPAIR INC.","LONGITUDE":-87.73727487800448},
{"STATE":"IL","ZIP":60639,"LATTITUDE":41.90920272512576,"ADDRESS":"5801-09 W NORTH AVE 1 ","YEAR":2009,"DOING_BUSINESS_AS_NAME":"CHICAGO MUFFLER AND BRAKE","POP_AT_RISK":98186,"BUSINESS_TYPE":"Tire Facilty Class I (100 - 1,000 Tires)","LEGAL_NAME":"CHICAGO MUFFLER AND BRAKE CORP.","LONGITUDE":-87.77078676719161},
{"STATE":"IL","ZIP":60607,"LATTITUDE":41.872769646119295,"ADDRESS":"727 S JEFFERSON ST  ","YEAR":2009,"DOING_BUSINESS_AS_NAME":"LEE'S FOREIGN CAR SER INC","POP_AT_RISK":89146,"BUSINESS_TYPE":"Tire Facilty Class I (100 - 1,000 Tires)","LEGAL_NAME":"LEE'S FOREIGN CAR SERVICE, INC.","LONGITUDE":-87.6422265708572},
{"STATE":"IL","ZIP":60636,"LATTITUDE":41.76642349307935,"ADDRESS":"7000  -07018 S WESTERN AVE  1ST F","YEAR":2009,"DOING_BUSINESS_AS_NAME":"TOYOTA ON WESTERN, INC.","POP_AT_RISK":36218,"BUSINESS_TYPE":"Tire Facilty Class I (100 - 1,000 Tires)","LEGAL_NAME":"SOUTH WESTERN MOTOR SALES, INC.","LONGITUDE":-87.68343755851733},
{"STATE":"IL","ZIP":60657,"LATTITUDE":41.943436740327506,"ADDRESS":"3401 N ASHLAND AVE  ","YEAR":2009,"DOING_BUSINESS_AS_NAME":"RELIABLE AUTO REPAIR CENTR INC","POP_AT_RISK":387906,"BUSINESS_TYPE":"Tire Facilty Class I (100 - 1,000 Tires)","LEGAL_NAME":"RELIABLE AUTO REPAIR CENTER, INC.","LONGITUDE":-87.66861876714403},
{"STATE":"IL","ZIP":60622,"LATTITUDE":41.91075692820796,"ADDRESS":"909 W NORTH AVE  ","YEAR":2009,"DOING_BUSINESS_AS_NAME":"FIRESTONE","POP_AT_RISK":130956,"BUSINESS_TYPE":"Tire Facilty Class I (100 - 1,000 Tires)","LEGAL_NAME":"BRIDGESTONE RETAIL OPERATIONS, LLC","LONGITUDE":-87.6515025651013},
{"STATE":"IL","ZIP":60638,"LATTITUDE":41.795273277421956,"ADDRESS":"5945 S ARCHER AVE  ","YEAR":2009,"DOING_BUSINESS_AS_NAME":"FIRESTONE","POP_AT_RISK":79952,"BUSINESS_TYPE":"Tire Facilty Class I (100 - 1,000 Tires)","LEGAL_NAME":"BRIDGESTONE RETAIL OPERATIONS, LLC","LONGITUDE":-87.7645092888821},
{"STATE":"IL","ZIP":60608,"LATTITUDE":41.8647450692821,"ADDRESS":"1301 S WESTERN AVE  ","YEAR":2009,"DOING_BUSINESS_AS_NAME":"FIRESTONE","POP_AT_RISK":35873,"BUSINESS_TYPE":"Tire Facilty Class I (100 - 1,000 Tires)","LEGAL_NAME":"BRIDGESTONE RETAIL OPERATIONS, LLC","LONGITUDE":-87.68584045468117},
{"STATE":"IL","ZIP":60643,"LATTITUDE":41.71948834302312,"ADDRESS":"9549 S WESTERN AVE  ","YEAR":2009,"DOING_BUSINESS_AS_NAME":"FIRESTONE","POP_AT_RISK":47066,"BUSINESS_TYPE":"Tire Facilty Class I (100 - 1,000 Tires)","LEGAL_NAME":"BRIDGESTONE RETAIL OPERATIONS, LLC","LONGITUDE":-87.68187257542179},
{"STATE":"IL","ZIP":60630,"LATTITUDE":41.97507133153229,"ADDRESS":"5215 N MILWAUKEE AVE  ","YEAR":2009,"DOING_BUSINESS_AS_NAME":"FIRESTONE","POP_AT_RISK":101268,"BUSINESS_TYPE":"Tire Facilty Class I (100 - 1,000 Tires)","LEGAL_NAME":"BRIDGESTONE RETAIL OPERATIONS, LLC","LONGITUDE":-87.76702884268},
{"STATE":"IL","ZIP":60614,"LATTITUDE":41.93280849685226,"ADDRESS":"824 W DIVERSEY PKWY  ","YEAR":2009,"DOING_BUSINESS_AS_NAME":"WM J CASSIDY TIRE & AUTO","POP_AT_RISK":1194606,"BUSINESS_TYPE":"Tire Facilty Class I (100 - 1,000 Tires)","LEGAL_NAME":"WM. J. CASSIDY TIRE & AUTO SUPPLY CO.","LONGITUDE":-87.65000549071719},
}