{
{"STATE":"IL","ZIP":60624,"LATTITUDE":41.88758777549686,"ADDRESS":"4255 W KINZIE ST 1ST ","YEAR":2009,"DOING_BUSINESS_AS_NAME":"H T 'S DISCOUNT GLASS CO","POP_AT_RISK":481250,"BUSINESS_TYPE":"Board-Up Work","LEGAL_NAME":"HERMON TONEY JR","LONGITUDE":-87.73296174326708},
{"STATE":"IL","ZIP":60639,"LATTITUDE":41.91547075644109,"ADDRESS":"4910 W GRAND AVE  ","YEAR":2009,"DOING_BUSINESS_AS_NAME":"ERS BOARD UP INC.","POP_AT_RISK":59030,"BUSINESS_TYPE":"Board-Up Work","LEGAL_NAME":"ERS BOARD UP,INC.","LONGITUDE":-87.74961764802936},
{"STATE":"IL","ZIP":60661,"LATTITUDE":41.88041818854342,"ADDRESS":"703 W MONROE ST 1 1","YEAR":2009,"DOING_BUSINESS_AS_NAME":"CLEANSLATE PROPERTY SERVICES, LLC","POP_AT_RISK":143958,"BUSINESS_TYPE":"Board-Up Work","LEGAL_NAME":"180 PROPERTIES LLC","LONGITUDE":-87.64423627788658},
{"STATE":"IL","ZIP":60605,"LATTITUDE":41.8702503903183,"ADDRESS":"910 S MICHIGAN AVE 8TH 802","YEAR":2009,"DOING_BUSINESS_AS_NAME":"BROOM AND BOARD LLC","POP_AT_RISK":131523,"BUSINESS_TYPE":"Board-Up Work","LEGAL_NAME":"BROOM AND BOARD LLC","LONGITUDE":-87.62427758029956},
{"STATE":"IL","ZIP":60609,"LATTITUDE":41.82708655394266,"ADDRESS":"1048 W 37TH ST 1ST ","YEAR":2009,"DOING_BUSINESS_AS_NAME":"NEIGHBOR SERVE, INC.","POP_AT_RISK":224712,"BUSINESS_TYPE":"Board-Up Work","LEGAL_NAME":"NEIGHBOR SERVE, INC.","LONGITUDE":-87.65270581956476},
{"STATE":"IL","ZIP":60608,"LATTITUDE":41.86406161894256,"ADDRESS":"1334 S ASHLAND AVE 1ST ","YEAR":2009,"DOING_BUSINESS_AS_NAME":"CLEANSLATE CHICAGO","POP_AT_RISK":220170,"BUSINESS_TYPE":"Board-Up Work","LEGAL_NAME":"CLEANSLATE CHICAGO, LLC","LONGITUDE":-87.66646027906991},
{"STATE":"IL","ZIP":60630,"LATTITUDE":41.980733083375114,"ADDRESS":"5460 N MILWAUKEE AVE  ","YEAR":2009,"DOING_BUSINESS_AS_NAME":"ACE BOARD-UP COMPANY","POP_AT_RISK":30761,"BUSINESS_TYPE":"Board-Up Work","LEGAL_NAME":"ACE BOARD-UP COMPANY INC","LONGITUDE":-87.77253948587003},
{"STATE":"IL","ZIP":60608,"LATTITUDE":41.8533014640748,"ADDRESS":"2150 S CANALPORT AVE  ","YEAR":2009,"DOING_BUSINESS_AS_NAME":"ALL PRO RESTORATION BOARD-UP","POP_AT_RISK":350120,"BUSINESS_TYPE":"Board-Up Work","LEGAL_NAME":"ALL PRO RESTORATION, INC.","LONGITUDE":-87.649929695282},
{"STATE":"IL","ZIP":60641,"LATTITUDE":41.95343222161391,"ADDRESS":"5112 W IRVING PARK RD 1ST ","YEAR":2009,"DOING_BUSINESS_AS_NAME":"ADVANCE GLASS SERVICE INC.","POP_AT_RISK":634776,"BUSINESS_TYPE":"Board-Up Work","LEGAL_NAME":"ADVANCE GLASS SERVICE INC.","LONGITUDE":-87.7552265374798},
{"STATE":"IL","ZIP":60639,"LATTITUDE":41.915093322076125,"ADDRESS":"4447 W CORTLAND ST 1ST ","YEAR":2009,"DOING_BUSINESS_AS_NAME":"RESTORE BOARD - UP INC.","POP_AT_RISK":421512,"BUSINESS_TYPE":"Board-Up Work","LEGAL_NAME":"RESTORE BOARD-UP CO., INC.","LONGITUDE":-87.7381484006334},
{"STATE":"IL","ZIP":60617,"LATTITUDE":41.7022756218349,"ADDRESS":"10614 S MACKINAW AVE 1 B","YEAR":2009,"DOING_BUSINESS_AS_NAME":"SECURE - IT BOARD UP","POP_AT_RISK":146982,"BUSINESS_TYPE":"Board-Up Work","LEGAL_NAME":"SECURE - IT BOARD UP, INC.","LONGITUDE":-87.5427086763228},
{"STATE":"IL","ZIP":60617,"LATTITUDE":41.74886837855013,"ADDRESS":"8041 S EXCHANGE AVE 1ST ","YEAR":2009,"DOING_BUSINESS_AS_NAME":"STAR & CRESCENT DECOR CORP","POP_AT_RISK":353280,"BUSINESS_TYPE":"Board-Up Work","LEGAL_NAME":"STAR & CRESCENT DECOR CORP","LONGITUDE":-87.55269532427468},
{"STATE":"IL","ZIP":60617,"LATTITUDE":41.7477492117195,"ADDRESS":"8100 S STONY ISLAND AVE 1ST 1 B","YEAR":2009,"DOING_BUSINESS_AS_NAME":"FIRST SECURITY BOARD UP","POP_AT_RISK":358420,"BUSINESS_TYPE":"Board-Up Work","LEGAL_NAME":"FIRST SECURITY BOARD UP, INC.","LONGITUDE":-87.58603741639237},
{"STATE":"IL","ZIP":60638,"LATTITUDE":41.774000947227286,"ADDRESS":"6201 W 65TH ST  ","YEAR":2009,"DOING_BUSINESS_AS_NAME":"LIGHTNING BOARDUP CORPORATION","POP_AT_RISK":113710,"BUSINESS_TYPE":"Board-Up Work","LEGAL_NAME":"LIGHTNING BOARDUP CORPORATION","LONGITUDE":-87.77635370103114},
{"STATE":"IL","ZIP":60618,"LATTITUDE":41.9376896243661,"ADDRESS":"3101 N WESTERN AVE  ","YEAR":2009,"DOING_BUSINESS_AS_NAME":"A Emergency Services and Restoration, Inc.","POP_AT_RISK":951660,"BUSINESS_TYPE":"Board-Up Work","LEGAL_NAME":"A EMERGENCY FIRE-BOARD UP, INC.","LONGITUDE":-87.68773947308173},
{"STATE":"IL","ZIP":60646,"LATTITUDE":41.985663511502565,"ADDRESS":"5738 N ELSTON AVE  ","YEAR":2009,"DOING_BUSINESS_AS_NAME":"AAA ALLIED BD - UP & GLASS","POP_AT_RISK":31977,"BUSINESS_TYPE":"Board-Up Work","LEGAL_NAME":"AAA ALLIED BOARD UP & GLASS INC.","LONGITUDE":-87.7698317730956},
{"STATE":"IL","ZIP":60602,"LATTITUDE":41.88323717511991,"ADDRESS":"100 N LA SALLE ST 17TH 1710","YEAR":2009,"DOING_BUSINESS_AS_NAME":"PRESTIGE PROPERTY PRESERVATION LLC","POP_AT_RISK":210540,"BUSINESS_TYPE":"Board-Up Work","LEGAL_NAME":"PRESTIGE PROPERTY PRESERVATION LLC","LONGITUDE":-87.63255557700788},
{"STATE":"IL","ZIP":60644,"LATTITUDE":41.89284740893607,"ADDRESS":"648 N CICERO AVE 1ST FL ","YEAR":2009,"DOING_BUSINESS_AS_NAME":"UNITED BOARD UP SERVICE OF CHICAGO, LTD","POP_AT_RISK":212520,"BUSINESS_TYPE":"Board-Up Work","LEGAL_NAME":"UNITED BOARD UP SERVICE OF CHICAGO, LTD","LONGITUDE":-87.74588079072211},
}