{
{"STATE":"IL","ZIP":60623,"LATTITUDE":41.844248490307756,"ADDRESS":"4344 W 26TH ST  1ST","YEAR":2015,"DOING_BUSINESS_AS_NAME":"BERNAL'S TAE KWON DO CENTER","POP_AT_RISK":45902,"BUSINESS_TYPE":"Children's Services Facility License","LEGAL_NAME":"TOMAS BERNAL","LONGITUDE":-87.73268068857368},
{"STATE":"IL","ZIP":60638,"LATTITUDE":41.79185628320908,"ADDRESS":"7121 W ARCHER AVE GROUND ","YEAR":2015,"DOING_BUSINESS_AS_NAME":"GERINI GUITAR STUDIO","POP_AT_RISK":73494,"BUSINESS_TYPE":"Children's Services Facility License","LEGAL_NAME":"GLEN M GERINI","LONGITUDE":-87.79986382761847},
{"STATE":"IL","ZIP":60629,"LATTITUDE":41.77877584447439,"ADDRESS":"3944 W 63RD ST 1ST ","YEAR":2015,"DOING_BUSINESS_AS_NAME":"WARRIORS MARTIAL ARTS","POP_AT_RISK":54952,"BUSINESS_TYPE":"Children's Services Facility License","LEGAL_NAME":"MAYOLO GARCIA","LONGITUDE":-87.72210746989846},
{"STATE":"IL","ZIP":60634,"LATTITUDE":41.94563582431377,"ADDRESS":"6101 W ADDISON ST 1ST ","YEAR":2015,"DOING_BUSINESS_AS_NAME":"BSI GROUP INC.","POP_AT_RISK":56337,"BUSINESS_TYPE":"Children's Services Facility License","LEGAL_NAME":"BSI GROUP INC.","LONGITUDE":-87.77905846188027},
{"STATE":"IL","ZIP":60623,"LATTITUDE":41.84438026740451,"ADDRESS":"3251-3253 W 26TH ST 1 ","YEAR":2015,"DOING_BUSINESS_AS_NAME":"DULCELANDIA","POP_AT_RISK":134868,"BUSINESS_TYPE":"Children's Services Facility License","LEGAL_NAME":"CANDYWORKS, INC.","LONGITUDE":-87.70704591361516},
{"STATE":"IL","ZIP":60616,"LATTITUDE":41.84109417789479,"ADDRESS":"2929 S WABASH AVE  1ST","YEAR":2015,"DOING_BUSINESS_AS_NAME":"HENRY BOOTH HOUSE","POP_AT_RISK":35865,"BUSINESS_TYPE":"Children's Services Facility License","LEGAL_NAME":"HENRY BOOTH HOUSE","LONGITUDE":-87.62506779220855},
{"STATE":"IL","ZIP":60633,"LATTITUDE":41.65908283643143,"ADDRESS":"2725 E 130TH ST 1ST 101","YEAR":2015,"DOING_BUSINESS_AS_NAME":"HEGEWISCH CHILD DEVELOPMENT CENTER","POP_AT_RISK":2798,"BUSINESS_TYPE":"Children's Services Facility License","LEGAL_NAME":"HENRY BOOTH HOUSE","LONGITUDE":-87.55699256526808},
{"STATE":"IL","ZIP":60651,"LATTITUDE":41.901086765978654,"ADDRESS":"1120 N LAMON AVE 1ST FL ","YEAR":2015,"DOING_BUSINESS_AS_NAME":"MOLADE' CHILD DEVELOPMENT CENTER","POP_AT_RISK":45691,"BUSINESS_TYPE":"Children's Services Facility License","LEGAL_NAME":"MARY CRANE LEAGUE","LONGITUDE":-87.74854019856667},
{"STATE":"IL","ZIP":60624,"LATTITUDE":41.885919645895974,"ADDRESS":"316 N PULASKI RD 1 AND 2 ","YEAR":2015,"DOING_BUSINESS_AS_NAME":"LAKE & PULASKI CHILD DEVELOPMENT CENTER","POP_AT_RISK":77888,"BUSINESS_TYPE":"Children's Services Facility License","LEGAL_NAME":"MARY CRANE LEAGUE","LONGITUDE":-87.72596362714377},
{"STATE":"IL","ZIP":60632,"LATTITUDE":41.81264929452027,"ADDRESS":"4422 S PULASKI RD 1ST ","YEAR":2015,"DOING_BUSINESS_AS_NAME":"KIDDIE CASTLE","POP_AT_RISK":68796,"BUSINESS_TYPE":"Children's Services Facility License","LEGAL_NAME":"KIDDIE CASTLE, LTD","LONGITUDE":-87.7239121397429},
{"STATE":"IL","ZIP":60629,"LATTITUDE":41.78654294207006,"ADDRESS":"2718 - 2724 W 59TH ST 1ST ","YEAR":2015,"DOING_BUSINESS_AS_NAME":"KEEPER'S KIDS","POP_AT_RISK":127710,"BUSINESS_TYPE":"Children's Services Facility License","LEGAL_NAME":"KEEPER'S KIDS, INC.","LONGITUDE":-87.69204396187506},
{"STATE":"IL","ZIP":60707,"LATTITUDE":41.90909072583769,"ADDRESS":"6922-6924 W NORTH AVE  ","YEAR":2015,"DOING_BUSINESS_AS_NAME":"FRESH START DAYCARE, INC.","POP_AT_RISK":48436,"BUSINESS_TYPE":"Children's Services Facility License","LEGAL_NAME":"FRESH START DAYCARE, INC.","LONGITUDE":-87.79816372279038},
{"STATE":"IL","ZIP":60608,"LATTITUDE":41.84049944072542,"ADDRESS":"2969 S ARCHER AVE 1ST ","YEAR":2015,"DOING_BUSINESS_AS_NAME":"PUI YING ART SCHOOL, INC.","POP_AT_RISK":31473,"BUSINESS_TYPE":"Children's Services Facility License","LEGAL_NAME":"PUI YING ART SCHOOL, INC.","LONGITUDE":-87.66006121999743},
{"STATE":"IL","ZIP":60607,"LATTITUDE":41.869219246745565,"ADDRESS":"1417 W TAYLOR ST 1ST - 3RD ","YEAR":2015,"DOING_BUSINESS_AS_NAME":"TAYLOR TOTS DAY CARE LTD.","POP_AT_RISK":111444,"BUSINESS_TYPE":"Children's Services Facility License","LEGAL_NAME":"TAYLOR TOTS DAY CARE LTD.","LONGITUDE":-87.6623354074544},
{"STATE":"IL","ZIP":60631,"LATTITUDE":41.98703322680841,"ADDRESS":"5801 N NORTHWEST HWY 1 1","YEAR":2015,"DOING_BUSINESS_AS_NAME":"HELEN LUCY CHILD CARE INC.","POP_AT_RISK":31060,"BUSINESS_TYPE":"Children's Services Facility License","LEGAL_NAME":"HELEN LUCY CHILD CARE INC.","LONGITUDE":-87.78938143174634},
{"STATE":"IL","ZIP":60638,"LATTITUDE":41.7932347787373,"ADDRESS":"6287 S ARCHER AVE  1ST F","YEAR":2015,"DOING_BUSINESS_AS_NAME":"KID'Z COLONY DAYCARE, INC.","POP_AT_RISK":31161,"BUSINESS_TYPE":"Children's Services Facility License","LEGAL_NAME":"KID'Z COLONY DAYCARE. INC.","LONGITUDE":-87.77777643611029},
{"STATE":"IL","ZIP":60609,"LATTITUDE":41.81318883822837,"ADDRESS":"4425 S WESTERN BLVD  ","YEAR":2015,"DOING_BUSINESS_AS_NAME":"BOMBERS TRAINING ACADEMY LLC","POP_AT_RISK":155835,"BUSINESS_TYPE":"Children's Services Facility License","LEGAL_NAME":"BOMBERS TRAINING ACADEMY LLC","LONGITUDE":-87.68385437787103},
{"STATE":"IL","ZIP":60634,"LATTITUDE":41.937854214856785,"ADDRESS":"7511 W BELMONT AVE 1ST ","YEAR":2015,"DOING_BUSINESS_AS_NAME":"JUST FOR FUN KIDS PARTY INC.","POP_AT_RISK":211915,"BUSINESS_TYPE":"Children's Services Facility License","LEGAL_NAME":"JUST FOR FUN KIDS PARTY INC.","LONGITUDE":-87.81455781824553},
{"STATE":"IL","ZIP":60653,"LATTITUDE":41.81672394640202,"ADDRESS":"4301 S COTTAGE GROVE AVE  ","YEAR":2015,"DOING_BUSINESS_AS_NAME":"CENTERS FOR NEW HORIZONS","POP_AT_RISK":42068,"BUSINESS_TYPE":"Children's Services Facility License","LEGAL_NAME":"CENTERS FOR NEW HORIZONS, INC.","LONGITUDE":-87.60656011499496},
{"STATE":"IL","ZIP":60643,"LATTITUDE":41.6920980711081,"ADDRESS":"1305-1307 W 111TH ST 1ST ","YEAR":2015,"DOING_BUSINESS_AS_NAME":"GIFT 4 KIDS DAYCARE CENTER LLC","POP_AT_RISK":58376,"BUSINESS_TYPE":"Children's Services Facility License","LEGAL_NAME":"GIFT 4 KIDS DAYCARE CENTER LLC","LONGITUDE":-87.6548091189968},
{"STATE":"IL","ZIP":60646,"LATTITUDE":41.98389736844486,"ADDRESS":"5636 N PULASKI RD 1ST ","YEAR":2015,"DOING_BUSINESS_AS_NAME":"WONDER MONTESSORI SCHOOL","POP_AT_RISK":28641,"BUSINESS_TYPE":"Children's Services Facility License","LEGAL_NAME":"WONDER MONTESSORI SCHOOL, INC.","LONGITUDE":-87.72860923179358},
{"STATE":"IL","ZIP":60612,"LATTITUDE":41.86931831972721,"ADDRESS":"1000 S WESTERN AVE 1 ","YEAR":2015,"DOING_BUSINESS_AS_NAME":"SOLID FOUNDATION KIDS CARE INC.","POP_AT_RISK":30299,"BUSINESS_TYPE":"Children's Services Facility License","LEGAL_NAME":"SOLID FOUNDATION KIDS CARE INC.","LONGITUDE":-87.68625822553413},
{"STATE":"IL","ZIP":60655,"LATTITUDE":41.69148728951806,"ADDRESS":"3656 W 111TH ST 1 ","YEAR":2015,"DOING_BUSINESS_AS_NAME":"MUSTARDSEED LEARNING CENTER, INC.","POP_AT_RISK":28636,"BUSINESS_TYPE":"Children's Services Facility License","LEGAL_NAME":"MUSTARDSEED LEARNING CENTER, INC.","LONGITUDE":-87.71287071367232},
{"STATE":"IL","ZIP":60634,"LATTITUDE":41.95687428646395,"ADDRESS":"4200 N CENTRAL AVE 1 B","YEAR":2015,"DOING_BUSINESS_AS_NAME":"ACADEMY OF CREATIVE THINKING, INC.","POP_AT_RISK":98426,"BUSINESS_TYPE":"Children's Services Facility License","LEGAL_NAME":"ACADEMY OF CREATIVE THINKING, INC.","LONGITUDE":-87.76727186013788},
{"STATE":"IL","ZIP":60638,"LATTITUDE":41.80325513926886,"ADDRESS":"4922 S CICERO AVE 1ST ","YEAR":2015,"DOING_BUSINESS_AS_NAME":"SANCTUARY CHILDCARE DEVELOPMENT CENTER","POP_AT_RISK":72726,"BUSINESS_TYPE":"Children's Services Facility License","LEGAL_NAME":"SANCTUARY OF THE LIVING GOD CHURCH","LONGITUDE":-87.74318434425263},
{"STATE":"IL","ZIP":60707,"LATTITUDE":41.915192484218764,"ADDRESS":"1927-1929 N HARLEM AVE  ","YEAR":2015,"DOING_BUSINESS_AS_NAME":"LOVING TOUCH DAYCARE PROVIDERS INC","POP_AT_RISK":33393,"BUSINESS_TYPE":"Children's Services Facility License","LEGAL_NAME":"LOVING TOUCH DAYCARE PROVIDERS, INC.","LONGITUDE":-87.80582794273202},
{"STATE":"IL","ZIP":60631,"LATTITUDE":41.98857518279947,"ADDRESS":"7435 W TALCOTT AVE 1ST ","YEAR":2015,"DOING_BUSINESS_AS_NAME":"PRESENCE RESURRECTION MEDICAL CENTER","POP_AT_RISK":21744,"BUSINESS_TYPE":"Children's Services Facility License","LEGAL_NAME":"PRESENCE RESURRECTION MEDICAL CENTER","LONGITUDE":-87.81297791219501},
{"STATE":"IL","ZIP":60616,"LATTITUDE":41.85445549916194,"ADDRESS":"2141 S TAN CT  ","YEAR":2015,"DOING_BUSINESS_AS_NAME":"LEAGUE CHILD DEVELOPMENT CENTER","POP_AT_RISK":60728,"BUSINESS_TYPE":"Children's Services Facility License","LEGAL_NAME":"CHINESE AMERICAN SERVICE LEAGUE, INC.","LONGITUDE":-87.63561121740251},
{"STATE":"IL","ZIP":60630,"LATTITUDE":41.966991428127784,"ADDRESS":"4719 N PULASKI RD 1ST ","YEAR":2015,"DOING_BUSINESS_AS_NAME":"MAYFAIR EARLY LEARNING","POP_AT_RISK":67391,"BUSINESS_TYPE":"Children's Services Facility License","LEGAL_NAME":"ALMA MATER EARLY LEARNING CENTERS, INC.","LONGITUDE":-87.72784541288395},
{"STATE":"IL","ZIP":60656,"LATTITUDE":41.97829269931736,"ADDRESS":"5341-5343 N HARLEM AVE 1ST\/ 2ND ","YEAR":2015,"DOING_BUSINESS_AS_NAME":"T. KOSCIUSZKO SCHOOL OF POLISH LANGUAGE","POP_AT_RISK":59228,"BUSINESS_TYPE":"Children's Services Facility License","LEGAL_NAME":"T. KOSCIUSZKO SCHOOL OF POLISH LANGUAGE","LONGITUDE":-87.80685048832387},
{"STATE":"IL","ZIP":60652,"LATTITUDE":41.74355478944242,"ADDRESS":"8225 - 8229 S KEDZIE AVE 1ST ","YEAR":2015,"DOING_BUSINESS_AS_NAME":"CHIPPER PRESCHOOL AND KINDERGARTEN, INC.","POP_AT_RISK":83454,"BUSINESS_TYPE":"Children's Services Facility License","LEGAL_NAME":"CHIPPER PRESCHOOL AND KINDERGARTEN, INC.","LONGITUDE":-87.70207306657721},
{"STATE":"IL","ZIP":60644,"LATTITUDE":41.88704321554462,"ADDRESS":"5819 W CORCORAN PL 1 ","YEAR":2015,"DOING_BUSINESS_AS_NAME":"LLOT AFTER SCHOOL PROGRAM","POP_AT_RISK":102624,"BUSINESS_TYPE":"Children's Services Facility License","LEGAL_NAME":"LITTLE LEADERS OF TOMORROW DAYCARE CENTER","LONGITUDE":-87.77081237223072},
{"STATE":"IL","ZIP":60628,"LATTITUDE":41.67810462150491,"ADDRESS":"106 W 119TH ST 1 ","YEAR":2015,"DOING_BUSINESS_AS_NAME":"LAUGHS AND GIGGLES CHILDREN'S ACADEMY, INC.","POP_AT_RISK":78180,"BUSINESS_TYPE":"Children's Services Facility License","LEGAL_NAME":"LAUGHS AND GIGGLES CHILDREN'S ACADEMY, INC.","LONGITUDE":-87.62543873888082},
{"STATE":"IL","ZIP":60625,"LATTITUDE":41.96854112673531,"ADDRESS":"2255-2257 W LAWRENCE AVE 1ST ","YEAR":2015,"DOING_BUSINESS_AS_NAME":"LADYBUG & FRIENDS DAYCARE AND PRESCHOOL","POP_AT_RISK":59605,"BUSINESS_TYPE":"Children's Services Facility License","LEGAL_NAME":"LADYBUG & FRIENDS DAYCARE AND PRESCHOOL, LLC","LONGITUDE":-87.68624087894379},
{"STATE":"IL","ZIP":60628,"LATTITUDE":41.70556659418179,"ADDRESS":"901 E 104TH ST 1 1","YEAR":2015,"DOING_BUSINESS_AS_NAME":"TEENCHY WEENCHY DAYCARE & LEARNING CENTER INC.,","POP_AT_RISK":14752,"BUSINESS_TYPE":"Children's Services Facility License","LEGAL_NAME":"TEENCHY WEENCHY DAYCARE & LEARNING CENTER INC.","LONGITUDE":-87.60107403032647},
{"STATE":"IL","ZIP":60644,"LATTITUDE":41.87681001637481,"ADDRESS":"5058 W JACKSON BLVD 2ND 201 & 202","YEAR":2015,"DOING_BUSINESS_AS_NAME":"VOCEL","POP_AT_RISK":104580,"BUSINESS_TYPE":"Children's Services Facility License","LEGAL_NAME":"VOCEL: VIEWING OUR CHILDREN AS EMERGING LEADERS NFP","LONGITUDE":-87.75169371208456},
{"STATE":"IL","ZIP":60617,"LATTITUDE":41.703336347386745,"ADDRESS":"10540 - 44 S EWING AVE 1 ","YEAR":2015,"DOING_BUSINESS_AS_NAME":"SHINING STAR CHILD DEVELOPMENT","POP_AT_RISK":48994,"BUSINESS_TYPE":"Children's Services Facility License","LEGAL_NAME":"SHINING STAR CHILD DEVELOPMENT INSTITUTE OF THE ARTS INC.","LONGITUDE":-87.5354317383637},
}