{
{"STATE":"IL","ZIP":60643,"LATTITUDE":41.692446016824746,"ADDRESS":"842 W 111TH ST  ","YEAR":2009,"DOING_BUSINESS_AS_NAME":"MERCY HALL","POP_AT_RISK":34675,"BUSINESS_TYPE":"Peddler, non-food, special","LEGAL_NAME":"MERCY HALL","LONGITUDE":-87.64408133336032},
{"STATE":"IL","ZIP":60612,"LATTITUDE":41.8663088793163,"ADDRESS":"3141 W ROOSEVELT RD 1ST ","YEAR":2009,"DOING_BUSINESS_AS_NAME":"RONALD DYE","POP_AT_RISK":209400,"BUSINESS_TYPE":"Peddler, non-food, special","LEGAL_NAME":"RONALD DYE","LONGITUDE":-87.70475896974072},
{"STATE":"IL","ZIP":60632,"LATTITUDE":41.79510430526137,"ADDRESS":"5412 S FAIRFIELD AVE  ","YEAR":2009,"DOING_BUSINESS_AS_NAME":"APRIL EVANS","POP_AT_RISK":482448,"BUSINESS_TYPE":"Peddler, non-food, special","LEGAL_NAME":"APRIL EVANS","LONGITUDE":-87.6927649511368},
{"STATE":"IL","ZIP":60609,"LATTITUDE":41.80622333464468,"ADDRESS":"4825 S UNION AVE 1ST ","YEAR":2009,"DOING_BUSINESS_AS_NAME":"JAMES PAYNE","POP_AT_RISK":35094,"BUSINESS_TYPE":"Peddler, non-food, special","LEGAL_NAME":"JAMES PAYNE","LONGITUDE":-87.64289387141828},
{"STATE":"IL","ZIP":60630,"LATTITUDE":41.963183921265326,"ADDRESS":"4536 N ELSTON AVE  ","YEAR":2009,"DOING_BUSINESS_AS_NAME":"BYRON YABLON","POP_AT_RISK":368216,"BUSINESS_TYPE":"Peddler, non-food, special","LEGAL_NAME":"BYRON YABLON","LONGITUDE":-87.73318715325468},
{"STATE":"IL","ZIP":60612,"LATTITUDE":41.87735668985701,"ADDRESS":"2045 W JACKSON BLVD  ","YEAR":2009,"DOING_BUSINESS_AS_NAME":"MICHAEL KIDD","POP_AT_RISK":22945,"BUSINESS_TYPE":"Peddler, non-food, special","LEGAL_NAME":"MICHAEL KIDD","LONGITUDE":-87.67843348318151},
{"STATE":"IL","ZIP":60622,"LATTITUDE":41.90922982418396,"ADDRESS":"2043 W PIERCE AVE 1ST ","YEAR":2009,"DOING_BUSINESS_AS_NAME":"HERMAN MILTON","POP_AT_RISK":1912768,"BUSINESS_TYPE":"Peddler, non-food, special","LEGAL_NAME":"HERMAN MILTON","LONGITUDE":-87.67914391414072},
{"STATE":"IL","ZIP":60618,"LATTITUDE":41.95915546157186,"ADDRESS":"4249 N WESTERN AVE  ","YEAR":2009,"DOING_BUSINESS_AS_NAME":"JAMES WALLACE","POP_AT_RISK":777108,"BUSINESS_TYPE":"Peddler, non-food, special","LEGAL_NAME":"JAMES WALLACE","LONGITUDE":-87.68847231103277},
{"STATE":"IL","ZIP":60646,"LATTITUDE":41.996574176494114,"ADDRESS":"6340 N KARLOV AVE  ","YEAR":2009,"DOING_BUSINESS_AS_NAME":"JOHN P. BUCARO","POP_AT_RISK":20014,"BUSINESS_TYPE":"Peddler, non-food, special","LEGAL_NAME":"JOHN P BUCARO","LONGITUDE":-87.73148738408855},
{"STATE":"IL","ZIP":60623,"LATTITUDE":41.85889945383759,"ADDRESS":"4214 W 16TH ST  ","YEAR":2009,"DOING_BUSINESS_AS_NAME":"OLA MAE EVANS","POP_AT_RISK":47675,"BUSINESS_TYPE":"Peddler, non-food, special","LEGAL_NAME":"OLA MAE EVANS","LONGITUDE":-87.73054680280109},
{"STATE":"IL","ZIP":60647,"LATTITUDE":41.914872525125695,"ADDRESS":"1842 N SPRINGFIELD AVE  1","YEAR":2009,"DOING_BUSINESS_AS_NAME":"RAMON  CORONEL","POP_AT_RISK":481964,"BUSINESS_TYPE":"Peddler, non-food, special","LEGAL_NAME":"RAMON CORONEL","LONGITUDE":-87.72419022922423},
{"STATE":"IL","ZIP":60617,"LATTITUDE":41.724956050405204,"ADDRESS":"9347 S MARQUETTE AVE 1ST ","YEAR":2009,"DOING_BUSINESS_AS_NAME":"ROBERT N. LEA","POP_AT_RISK":121525,"BUSINESS_TYPE":"Peddler, non-food, special","LEGAL_NAME":"ROBERT N. LEA","LONGITUDE":-87.55789208514238},
{"STATE":"IL","ZIP":60657,"LATTITUDE":41.935863313428065,"ADDRESS":"1823 W WELLINGTON AVE  ","YEAR":2009,"DOING_BUSINESS_AS_NAME":"RUBEN ALLEMAN","POP_AT_RISK":50055,"BUSINESS_TYPE":"Peddler, non-food, special","LEGAL_NAME":"RUBEN ALLEMAN","LONGITUDE":-87.67455775266669},
{"STATE":"IL","ZIP":60625,"LATTITUDE":41.969701993691935,"ADDRESS":"4842 N SPAULDING AVE  ","YEAR":2009,"DOING_BUSINESS_AS_NAME":"SANTOS GUERRA","POP_AT_RISK":71018,"BUSINESS_TYPE":"Peddler, non-food, special","LEGAL_NAME":"SANTOS GUERRA","LONGITUDE":-87.71110172807315},
{"STATE":"IL","ZIP":60620,"LATTITUDE":41.727384321321075,"ADDRESS":"9149 S WALLACE ST  ","YEAR":2009,"DOING_BUSINESS_AS_NAME":"GENEVA GLASPER","POP_AT_RISK":54606,"BUSINESS_TYPE":"Peddler, non-food, special","LEGAL_NAME":"GENEVA GLASPER","LONGITUDE":-87.63837083768685},
{"STATE":"IL","ZIP":60649,"LATTITUDE":41.7563710290834,"ADDRESS":"7733 S SOUTH SHORE DR  ","YEAR":2009,"DOING_BUSINESS_AS_NAME":"GEORGE GRIGSBY","POP_AT_RISK":53250,"BUSINESS_TYPE":"Peddler, non-food, special","LEGAL_NAME":"GEORGE GRIGSBY","LONGITUDE":-87.5525707335152},
{"STATE":"IL","ZIP":60617,"LATTITUDE":41.730660725451614,"ADDRESS":"9029 S CHAPPEL AVE  ","YEAR":2009,"DOING_BUSINESS_AS_NAME":"JALAINE A. MAY","POP_AT_RISK":18610,"BUSINESS_TYPE":"Peddler, non-food, special","LEGAL_NAME":"JALAINE A. MAY","LONGITUDE":-87.57419748759814},
{"STATE":"IL","ZIP":60608,"LATTITUDE":41.84074813969724,"ADDRESS":"2953 S ARCHER AVE  ","YEAR":2009,"DOING_BUSINESS_AS_NAME":"RONALD SPOSATO","POP_AT_RISK":94419,"BUSINESS_TYPE":"Peddler, non-food, special","LEGAL_NAME":"RONALD SPOSATO","LONGITUDE":-87.65954690780782},
{"STATE":"IL","ZIP":60827,"LATTITUDE":41.65576175146191,"ADDRESS":"13156 S FORRESTVILLE AVE  ","YEAR":2009,"DOING_BUSINESS_AS_NAME":"ANNA F. JAMISON","POP_AT_RISK":12964,"BUSINESS_TYPE":"Peddler, non-food, special","LEGAL_NAME":"ANNA F. JAMISON","LONGITUDE":-87.60868577123667},
{"STATE":"IL","ZIP":60636,"LATTITUDE":41.774977269912185,"ADDRESS":"6527 S PAULINA ST 1ST ","YEAR":2009,"DOING_BUSINESS_AS_NAME":"JAMES W PIPKINS","POP_AT_RISK":77264,"BUSINESS_TYPE":"Peddler, non-food, special","LEGAL_NAME":"JAMES W PIPKINS","LONGITUDE":-87.66641984657603},
{"STATE":"IL","ZIP":60623,"LATTITUDE":41.85096197926405,"ADDRESS":"2227 S TROY ST 1 ","YEAR":2009,"DOING_BUSINESS_AS_NAME":"JOAN MARIE CAIN","POP_AT_RISK":485975,"BUSINESS_TYPE":"Peddler, non-food, special","LEGAL_NAME":"JOAN MARIE CAIN","LONGITUDE":-87.70385886619235},
{"STATE":"IL","ZIP":60628,"LATTITUDE":41.70501718972912,"ADDRESS":"10418 S CORLISS AVE 1 ","YEAR":2009,"DOING_BUSINESS_AS_NAME":"MARGARET HOWARD","POP_AT_RISK":18643,"BUSINESS_TYPE":"Peddler, non-food, special","LEGAL_NAME":"MARGARET HOWARD","LONGITUDE":-87.60408780862248},
{"STATE":"IL","ZIP":60617,"LATTITUDE":41.74699935040858,"ADDRESS":"8135 S LUELLA AVE  ","YEAR":2009,"DOING_BUSINESS_AS_NAME":"GEORGE BLAKEMORE- AKA- GEORGE BLACKMAN","POP_AT_RISK":82056,"BUSINESS_TYPE":"Peddler, non-food, special","LEGAL_NAME":"GEORGE BLAKEMORE","LONGITUDE":-87.56966687570497},
{"STATE":"IL","ZIP":60619,"LATTITUDE":41.743873821011626,"ADDRESS":"8300 S COTTAGE GROVE AVE 4TH 406","YEAR":2009,"DOING_BUSINESS_AS_NAME":"JUDITH S. HOWARD","POP_AT_RISK":109122,"BUSINESS_TYPE":"Peddler, non-food, special","LEGAL_NAME":"JUDITH S. HOWARD","LONGITUDE":-87.60517616055651},
{"STATE":"IL","ZIP":60641,"LATTITUDE":41.935335737548286,"ADDRESS":"3001 N KNOX AVE  ","YEAR":2009,"DOING_BUSINESS_AS_NAME":"MICHAEL SPAGNOLA","POP_AT_RISK":156795,"BUSINESS_TYPE":"Peddler, non-food, special","LEGAL_NAME":"MICHAEL SPAGNOLA","LONGITUDE":-87.74296362743519},
{"STATE":"IL","ZIP":60639,"LATTITUDE":41.92883462788899,"ADDRESS":"2637 N LONG AVE  ","YEAR":2009,"DOING_BUSINESS_AS_NAME":"RADAMES SANTIAGO","POP_AT_RISK":198549,"BUSINESS_TYPE":"Peddler, non-food, special","LEGAL_NAME":"RADAMES SANTIAGO","LONGITUDE":-87.76109410316062},
{"STATE":"IL","ZIP":60620,"LATTITUDE":41.737875227554355,"ADDRESS":"8553 S ASHLAND AVE 2ND ","YEAR":2009,"DOING_BUSINESS_AS_NAME":"ROBERT LEE SMITH","POP_AT_RISK":35686,"BUSINESS_TYPE":"Peddler, non-food, special","LEGAL_NAME":"ROBERT LEE SMITH","LONGITUDE":-87.66297287561491},
{"STATE":"IL","ZIP":60630,"LATTITUDE":41.96221794371823,"ADDRESS":"4455 N LINDER AVE 2ND ","YEAR":2009,"DOING_BUSINESS_AS_NAME":"LORETTA M MATHEIS","POP_AT_RISK":476070,"BUSINESS_TYPE":"Peddler, non-food, special","LEGAL_NAME":"LORETTA M MATHEIS","LONGITUDE":-87.76469069317187},
{"STATE":"IL","ZIP":60646,"LATTITUDE":41.98395788346647,"ADDRESS":"5643 N KENNETH AVE  ","YEAR":2009,"DOING_BUSINESS_AS_NAME":"RICHARD W. GORNEY","POP_AT_RISK":18097,"BUSINESS_TYPE":"Peddler, non-food, special","LEGAL_NAME":"RICHARD W. GORNEY","LONGITUDE":-87.73950643230681},
{"STATE":"IL","ZIP":60617,"LATTITUDE":41.70262075649605,"ADDRESS":"3649 E 106TH ST  ","YEAR":2009,"DOING_BUSINESS_AS_NAME":"BOBBY LOUIS HOLIDAY","POP_AT_RISK":104835,"BUSINESS_TYPE":"Peddler, non-food, special","LEGAL_NAME":"BOBBY LOUIS HOLIDAY","LONGITUDE":-87.53455855561775},
{"STATE":"IL","ZIP":60659,"LATTITUDE":41.99360501680627,"ADDRESS":"3817 W GRANVILLE AVE  ","YEAR":2009,"DOING_BUSINESS_AS_NAME":"HERBERT HOFFMAN SR.","POP_AT_RISK":60076,"BUSINESS_TYPE":"Peddler, non-food, special","LEGAL_NAME":"HERBERT HOFFMAN SR.","LONGITUDE":-87.72467514813182},
{"STATE":"IL","ZIP":60645,"LATTITUDE":42.00639374235568,"ADDRESS":"2310 W FARWELL AVE  ","YEAR":2009,"DOING_BUSINESS_AS_NAME":"HOWARD L. WHISENTON","POP_AT_RISK":936576,"BUSINESS_TYPE":"Peddler, non-food, special","LEGAL_NAME":"HOWARD L. WHISENTON","LONGITUDE":-87.6884980558811},
{"STATE":"IL","ZIP":60629,"LATTITUDE":41.77183829668123,"ADDRESS":"3026 W MARQUETTE RD 3 ","YEAR":2009,"DOING_BUSINESS_AS_NAME":"NEDRA Y LOGAN-DYE","POP_AT_RISK":387904,"BUSINESS_TYPE":"Peddler, non-food, special","LEGAL_NAME":"NIEDRAH Y LOGAN-DYE","LONGITUDE":-87.69908243017711},
{"STATE":"IL","ZIP":60614,"LATTITUDE":41.92037082820344,"ADDRESS":"2111 N HALSTED ST  ","YEAR":2009,"DOING_BUSINESS_AS_NAME":"PATRICIA A NICHOLAS","POP_AT_RISK":218348,"BUSINESS_TYPE":"Peddler, non-food, special","LEGAL_NAME":"PATRICIA A. NICHOLAS","LONGITUDE":-87.64844080545275},
{"STATE":"IL","ZIP":60624,"LATTITUDE":41.88177474368886,"ADDRESS":"3833 W WASHINGTON BLVD  606","YEAR":2009,"DOING_BUSINESS_AS_NAME":"CHARLES ANTHONY GLASS","POP_AT_RISK":108537,"BUSINESS_TYPE":"Peddler, non-food, special","LEGAL_NAME":"CHARLES ANTHONY GLASS","LONGITUDE":-87.72208641476261},
{"STATE":"IL","ZIP":60643,"LATTITUDE":41.700741427626355,"ADDRESS":"10604 S WALDEN PKWY  ","YEAR":2009,"DOING_BUSINESS_AS_NAME":"JEANETTE MARIE HANSON","POP_AT_RISK":74142,"BUSINESS_TYPE":"Peddler, non-food, special","LEGAL_NAME":"JEANETTE MARIE HANSON","LONGITUDE":-87.66996835430386},
{"STATE":"IL","ZIP":60653,"LATTITUDE":41.82575322072134,"ADDRESS":"340 E 38TH ST 1 1008","YEAR":2009,"DOING_BUSINESS_AS_NAME":"LENORD S. MONTGOMERY","POP_AT_RISK":31173,"BUSINESS_TYPE":"Peddler, non-food, special","LEGAL_NAME":"LENORDE S. MONTGOMERY","LONGITUDE":-87.61751742817356},
{"STATE":"IL","ZIP":60613,"LATTITUDE":41.950542973283994,"ADDRESS":"3727 N PINE GROVE AVE 1 ","YEAR":2009,"DOING_BUSINESS_AS_NAME":"JOHN J. HOLTSCHLAG JR.","POP_AT_RISK":1270701,"BUSINESS_TYPE":"Peddler, non-food, special","LEGAL_NAME":"JOHN J. HOLTSCHLAG JR.","LONGITUDE":-87.64697530148996},
{"STATE":"IL","ZIP":60616,"LATTITUDE":41.83725186643035,"ADDRESS":"3127 S UNION AVE  ","YEAR":2009,"DOING_BUSINESS_AS_NAME":"MARSHALL ANTHONY GREEN","POP_AT_RISK":41247,"BUSINESS_TYPE":"Peddler, non-food, special","LEGAL_NAME":"MARSHALL ANTHONY GREEN","LONGITUDE":-87.64367442229945},
{"STATE":"IL","ZIP":60654,"LATTITUDE":41.896769734398916,"ADDRESS":"30 W CHICAGO AVE  2006","YEAR":2009,"DOING_BUSINESS_AS_NAME":"MICHAEL ANDREW KISCHUK","POP_AT_RISK":266187,"BUSINESS_TYPE":"Peddler, non-food, special","LEGAL_NAME":"MICHAEL ANDREW KISCHUK","LONGITUDE":-87.62944835451378},
{"STATE":"IL","ZIP":60620,"LATTITUDE":41.74705221439465,"ADDRESS":"8045 S DAMEN AVE  ","YEAR":2009,"DOING_BUSINESS_AS_NAME":"EMMETT M RUCKER","POP_AT_RISK":80222,"BUSINESS_TYPE":"Peddler, non-food, special","LEGAL_NAME":"EMMETT MANSFIELD RUCKER","LONGITUDE":-87.67290930869628},
{"STATE":"IL","ZIP":60628,"LATTITUDE":41.709734536063664,"ADDRESS":"10138 S PRAIRIE AVE  ","YEAR":2009,"DOING_BUSINESS_AS_NAME":"LONNIE GEORGE BUGGS","POP_AT_RISK":25120,"BUSINESS_TYPE":"Peddler, non-food, special","LEGAL_NAME":"LONNIE GEORGE BUGGS JR.","LONGITUDE":-87.61763033718914},
{"STATE":"IL","ZIP":60609,"LATTITUDE":41.81431029889535,"ADDRESS":"4346 S WESTERN AVE 2 ","YEAR":2009,"DOING_BUSINESS_AS_NAME":"J. ISMAEL PALOMAR PADILLA","POP_AT_RISK":107556,"BUSINESS_TYPE":"Peddler, non-food, special","LEGAL_NAME":"J ISMAEL PALOMAR PADILLA","LONGITUDE":-87.68473320613371},
{"STATE":"IL","ZIP":60618,"LATTITUDE":41.93751913227227,"ADDRESS":"3053 N DAMEN AVE  ","YEAR":2009,"DOING_BUSINESS_AS_NAME":"NEMIAH MITCHBAL MITCHELL","POP_AT_RISK":53225,"BUSINESS_TYPE":"Peddler, non-food, special","LEGAL_NAME":"NEMIAH MITCHBAL MITCHELL","LONGITUDE":-87.678142423717},
{"STATE":"IL","ZIP":60637,"LATTITUDE":41.78408897263871,"ADDRESS":"6100 S KIMBARK AVE  ","YEAR":2009,"DOING_BUSINESS_AS_NAME":"THEODORE ALTON REESE","POP_AT_RISK":38390,"BUSINESS_TYPE":"Peddler, non-food, special","LEGAL_NAME":"THEODORE ALTON REESE SR.","LONGITUDE":-87.59487642826379},
{"STATE":"IL","ZIP":60615,"LATTITUDE":41.8011100928242,"ADDRESS":"1448 E 52ND ST 1 ","YEAR":2009,"DOING_BUSINESS_AS_NAME":"BLENDA A. BALLENTINE-BURNLEY","POP_AT_RISK":37470,"BUSINESS_TYPE":"Peddler, non-food, special","LEGAL_NAME":"BLENDA A.  BALLENTINE-BURNLEY","LONGITUDE":-87.58988882392124},
}