{
{"STATE":"IL","ZIP":60607,"LATTITUDE":41.86888416001797,"ADDRESS":"1100 S CANAL ST  ","YEAR":2014,"DOING_BUSINESS_AS_NAME":"SP PLUS","POP_AT_RISK":64956,"BUSINESS_TYPE":"Accessory Garage","LEGAL_NAME":"SP PLUS CORPORATION","LONGITUDE":-87.63939254027898},
{"STATE":"IL","ZIP":60625,"LATTITUDE":41.96332407958265,"ADDRESS":"4501 N DAMEN AVE  ","YEAR":2014,"DOING_BUSINESS_AS_NAME":"STANDARD PARKING","POP_AT_RISK":675455,"BUSINESS_TYPE":"Accessory Garage","LEGAL_NAME":"SP PLUS CORPORATION","LONGITUDE":-87.67888358999184},
{"STATE":"IL","ZIP":60657,"LATTITUDE":41.939675644909386,"ADDRESS":"1333 W BELMONT AVE 1 ","YEAR":2014,"DOING_BUSINESS_AS_NAME":"STANDARD PARKING","POP_AT_RISK":622576,"BUSINESS_TYPE":"Accessory Garage","LEGAL_NAME":"SP PLUS CORPORATION","LONGITUDE":-87.66253481426286},
{"STATE":"IL","ZIP":60614,"LATTITUDE":41.911353496611625,"ADDRESS":"1622 N KINGSBURY ST  ","YEAR":2014,"DOING_BUSINESS_AS_NAME":"LIFE STORAGE OF LINCOLN PARK, LLC","POP_AT_RISK":48749,"BUSINESS_TYPE":"Accessory Garage","LEGAL_NAME":"LSC DEVELOPMENT, LLC","LONGITUDE":-87.65469120418622},
{"STATE":"IL","ZIP":60612,"LATTITUDE":41.86918399559772,"ADDRESS":"2108 W TAYLOR ST  ","YEAR":2014,"DOING_BUSINESS_AS_NAME":"MEDPARK MANAGEMENT INC","POP_AT_RISK":206406,"BUSINESS_TYPE":"Accessory Garage","LEGAL_NAME":"MEDPARK MANAGEMENT INC.","LONGITUDE":-87.67856708258655},
{"STATE":"IL","ZIP":60616,"LATTITUDE":41.853078001271854,"ADDRESS":"2138 S INDIANA AVE  ","YEAR":2014,"DOING_BUSINESS_AS_NAME":"LAZ PARKING","POP_AT_RISK":211584,"BUSINESS_TYPE":"Accessory Garage","LEGAL_NAME":"LAZ PARKING CHICAGO, LLC","LONGITUDE":-87.62238429660253},
{"STATE":"IL","ZIP":60615,"LATTITUDE":41.7950752068089,"ADDRESS":"800 E 55TH ST 1 1","YEAR":2014,"DOING_BUSINESS_AS_NAME":"THE UNIVERSITY OF CHICAGO","POP_AT_RISK":136863,"BUSINESS_TYPE":"Accessory Garage","LEGAL_NAME":"THE UNIVERSITY OF CHICAGO","LONGITUDE":-87.60609660928338},
{"STATE":"IL","ZIP":60637,"LATTITUDE":41.78427789351328,"ADDRESS":"6054 S DREXEL AVE 1 1","YEAR":2014,"DOING_BUSINESS_AS_NAME":"THE UNIVERSITY OF CHICAGO","POP_AT_RISK":37417,"BUSINESS_TYPE":"Accessory Garage","LEGAL_NAME":"THE UNIVERSITY OF CHICAGO","LONGITUDE":-87.60454108253046},
{"STATE":"IL","ZIP":60612,"LATTITUDE":41.87250627198435,"ADDRESS":"711 S PAULINA ST  ","YEAR":2014,"DOING_BUSINESS_AS_NAME":"ABM Parking Services","POP_AT_RISK":27944,"BUSINESS_TYPE":"Accessory Garage","LEGAL_NAME":"ABM PARKING SERVICES, INC.","LONGITUDE":-87.66891530306154},
{"STATE":"IL","ZIP":60615,"LATTITUDE":41.80909232285377,"ADDRESS":"4710-4712 S INGLESIDE AVE  ","YEAR":2014,"DOING_BUSINESS_AS_NAME":"AOV CONSULTING GROUP, INC.","POP_AT_RISK":192775,"BUSINESS_TYPE":"Accessory Garage","LEGAL_NAME":"AOV CONSULTING GROUP, INC.","LONGITUDE":-87.60294416123315},
{"STATE":"IL","ZIP":60660,"LATTITUDE":41.99651507410467,"ADDRESS":"6301 N SHERIDAN RD  ","YEAR":2014,"DOING_BUSINESS_AS_NAME":"SHORELINE TOWERS CONDO ASSOC","POP_AT_RISK":192150,"BUSINESS_TYPE":"Accessory Garage","LEGAL_NAME":"SHORELINE TOWERS CONDO ASSOC","LONGITUDE":-87.65543655802675},
{"STATE":"IL","ZIP":60631,"LATTITUDE":41.98118072487806,"ADDRESS":"8500 W BRYN MAWR AVE  ","YEAR":2014,"DOING_BUSINESS_AS_NAME":"RENAISSANCE CHICAGO O'HARE HOTEL","POP_AT_RISK":42338,"BUSINESS_TYPE":"Accessory Garage","LEGAL_NAME":"CHICAGO ORD HOTEL PARTNERS, LLC","LONGITUDE":-87.83916755770461},
}