{
{"STATE":"IL","ZIP":60649,"LATTITUDE":41.760280980603156,"ADDRESS":"7452 S COLES AVE  ","YEAR":2013,"DOING_BUSINESS_AS_NAME":"VICKIE CLARK","POP_AT_RISK":29611,"BUSINESS_TYPE":"Peddler,food - (fruits and vegetables only) - special","LEGAL_NAME":"VICKIE CLARK","LONGITUDE":-87.55919417744803},
{"STATE":"IL","ZIP":60652,"LATTITUDE":41.75188320409682,"ADDRESS":"7754 S KEDZIE AVE  ","YEAR":2013,"DOING_BUSINESS_AS_NAME":"WILLIE DIXON","POP_AT_RISK":92068,"BUSINESS_TYPE":"Peddler,food - (fruits and vegetables only) - special","LEGAL_NAME":"WILLIE DIXON","LONGITUDE":-87.70260268826716},
{"STATE":"IL","ZIP":60628,"LATTITUDE":41.69253838919618,"ADDRESS":"161 E 111TH ST  ","YEAR":2013,"DOING_BUSINESS_AS_NAME":"ELAINE SUTTON","POP_AT_RISK":24078,"BUSINESS_TYPE":"Peddler,food - (fruits and vegetables only) - special","LEGAL_NAME":"ELAINE SUTTON","LONGITUDE":-87.61855290940034},
{"STATE":"IL","ZIP":60619,"LATTITUDE":41.753533854407905,"ADDRESS":"7745 S CHAMPLAIN AVE  ","YEAR":2013,"DOING_BUSINESS_AS_NAME":"OLIVER NELSON","POP_AT_RISK":346900,"BUSINESS_TYPE":"Peddler,food - (fruits and vegetables only) - special","LEGAL_NAME":"OLIVER NELSON","LONGITUDE":-87.60877980579592},
{"STATE":"IL","ZIP":60649,"LATTITUDE":41.755313468484346,"ADDRESS":"2603 E 77TH ST  ","YEAR":2013,"DOING_BUSINESS_AS_NAME":"RONALD HOLLIS","POP_AT_RISK":65374,"BUSINESS_TYPE":"Peddler,food - (fruits and vegetables only) - special","LEGAL_NAME":"RONALD HOLLIS","LONGITUDE":-87.56130065591925},
{"STATE":"IL","ZIP":60653,"LATTITUDE":41.82562416881556,"ADDRESS":"627 E 38TH ST  ","YEAR":2013,"DOING_BUSINESS_AS_NAME":"ARMEKER WRIGHT","POP_AT_RISK":166005,"BUSINESS_TYPE":"Peddler,food - (fruits and vegetables only) - special","LEGAL_NAME":"ARMEKER WRIGHT","LONGITUDE":-87.61114223050376},
{"STATE":"IL","ZIP":60609,"LATTITUDE":41.810795194358974,"ADDRESS":"4546 S HONORE ST  ","YEAR":2013,"DOING_BUSINESS_AS_NAME":"ENRIQUE SEGURA","POP_AT_RISK":119811,"BUSINESS_TYPE":"Peddler,food - (fruits and vegetables only) - special","LEGAL_NAME":"ENRIQUE SEGURA","LONGITUDE":-87.67125400514182},
{"STATE":"IL","ZIP":60612,"LATTITUDE":41.87751188470479,"ADDRESS":"2135 W JACKSON BLVD  D","YEAR":2013,"DOING_BUSINESS_AS_NAME":"CLYDE T. PRUITT","POP_AT_RISK":22327,"BUSINESS_TYPE":"Peddler,food - (fruits and vegetables only) - special","LEGAL_NAME":"CLYDE T. PRUITT","LONGITUDE":-87.68037231903925},
{"STATE":"IL","ZIP":60613,"LATTITUDE":41.95334908655599,"ADDRESS":"3930 N CLARK ST  1308","YEAR":2013,"DOING_BUSINESS_AS_NAME":"LOUIS ARMSTRONG","POP_AT_RISK":1987848,"BUSINESS_TYPE":"Peddler,food - (fruits and vegetables only) - special","LEGAL_NAME":"LOUIS ARMSTRONG","LONGITUDE":-87.661608670445},
{"STATE":"IL","ZIP":60612,"LATTITUDE":41.882904692482,"ADDRESS":"2319 W WASHINGTON BLVD  ","YEAR":2013,"DOING_BUSINESS_AS_NAME":"NATHANIEL CURRY","POP_AT_RISK":147430,"BUSINESS_TYPE":"Peddler,food - (fruits and vegetables only) - special","LEGAL_NAME":"NATHANIEL CURRY","LONGITUDE":-87.68482350105631},
{"STATE":"IL","ZIP":60629,"LATTITUDE":41.790121041341386,"ADDRESS":"2854 W 57TH ST  ","YEAR":2013,"DOING_BUSINESS_AS_NAME":"WALFRE CISNEROS","POP_AT_RISK":391662,"BUSINESS_TYPE":"Peddler,food - (fruits and vegetables only) - special","LEGAL_NAME":"WALFRE CISNEROS","LONGITUDE":-87.69590922800393},
{"STATE":"IL","ZIP":60637,"LATTITUDE":41.767979295913754,"ADDRESS":"1516 E 70TH ST  ","YEAR":2013,"DOING_BUSINESS_AS_NAME":"DENISE R FLEMING","POP_AT_RISK":74394,"BUSINESS_TYPE":"Peddler,food - (fruits and vegetables only) - special","LEGAL_NAME":"DENISE R FLEMING","LONGITUDE":-87.58719778743317},
{"STATE":"IL","ZIP":60605,"LATTITUDE":41.86655820981653,"ADDRESS":"1231 S STATE ST  ","YEAR":2013,"DOING_BUSINESS_AS_NAME":"LAVAUGHN R. HART","POP_AT_RISK":236946,"BUSINESS_TYPE":"Peddler,food - (fruits and vegetables only) - special","LEGAL_NAME":"LAVAUGHN R. HART","LONGITUDE":-87.62724748973362},
{"STATE":"IL","ZIP":60629,"LATTITUDE":41.78753874872224,"ADDRESS":"5800 S KILBOURN AVE  ","YEAR":2013,"DOING_BUSINESS_AS_NAME":"BERNARDINO ORTEGA","POP_AT_RISK":391160,"BUSINESS_TYPE":"Peddler,food - (fruits and vegetables only) - special","LEGAL_NAME":"BERNARDINO ORTEGA","LONGITUDE":-87.73538998386198},
{"STATE":"IL","ZIP":60629,"LATTITUDE":41.77800391376346,"ADDRESS":"6339 S ROCKWELL ST  ","YEAR":2013,"DOING_BUSINESS_AS_NAME":"CYNTHIA L MCDUFFY","POP_AT_RISK":364651,"BUSINESS_TYPE":"Peddler,food - (fruits and vegetables only) - special","LEGAL_NAME":"CYNTHIA L MCDUFFY","LONGITUDE":-87.68835209660816},
{"STATE":"IL","ZIP":60609,"LATTITUDE":41.81568111366923,"ADDRESS":"4302 S WOOD ST  ","YEAR":2013,"DOING_BUSINESS_AS_NAME":"MICHELLE P FOURTE","POP_AT_RISK":182048,"BUSINESS_TYPE":"Peddler,food - (fruits and vegetables only) - special","LEGAL_NAME":"MICHELLE P FOURTE","LONGITUDE":-87.67015923208183},
{"STATE":"IL","ZIP":60641,"LATTITUDE":41.93527582414574,"ADDRESS":"4149 W WELLINGTON AVE BSMT ","YEAR":2013,"DOING_BUSINESS_AS_NAME":"ZEFERINO GONZALEZ","POP_AT_RISK":875798,"BUSINESS_TYPE":"Peddler,food - (fruits and vegetables only) - special","LEGAL_NAME":"ZEFERINO GONZALEZ","LONGITUDE":-87.73144273961461},
{"STATE":"IL","ZIP":60625,"LATTITUDE":41.967591915472944,"ADDRESS":"4734 N DRAKE AVE 1 ","YEAR":2013,"DOING_BUSINESS_AS_NAME":"JULIO RAMIREZ-MATIAS","POP_AT_RISK":1005825,"BUSINESS_TYPE":"Peddler,food - (fruits and vegetables only) - special","LEGAL_NAME":"JULIO RAMIREZ-MATIAS","LONGITUDE":-87.7171552779976},
{"STATE":"IL","ZIP":60660,"LATTITUDE":41.98520448696692,"ADDRESS":"5657 N WAYNE AVE 1 ","YEAR":2013,"DOING_BUSINESS_AS_NAME":"LEOCADIO GARCIA ALDANA","POP_AT_RISK":1404540,"BUSINESS_TYPE":"Peddler,food - (fruits and vegetables only) - special","LEGAL_NAME":"LEOCADIO GARCIA ALDANA","LONGITUDE":-87.66345032212345},
{"STATE":"IL","ZIP":60628,"LATTITUDE":41.679969431463505,"ADDRESS":"16 E 118TH ST  ","YEAR":2013,"DOING_BUSINESS_AS_NAME":"CHARLES ANDREW WILLIAMS","POP_AT_RISK":130300,"BUSINESS_TYPE":"Peddler,food - (fruits and vegetables only) - special","LEGAL_NAME":"CHARLES ANDREW WILLIAMS","LONGITUDE":-87.62207081294027},
{"STATE":"IL","ZIP":60628,"LATTITUDE":41.70439143993936,"ADDRESS":"126 E 104TH PL  ","YEAR":2013,"DOING_BUSINESS_AS_NAME":"CYPRUS ALEXANDRIA WATTS","POP_AT_RISK":112288,"BUSINESS_TYPE":"Peddler,food - (fruits and vegetables only) - special","LEGAL_NAME":"CYPRUS ALEXANDRIA WATTS","LONGITUDE":-87.61950509478314},
{"STATE":"IL","ZIP":60653,"LATTITUDE":41.82578264433403,"ADDRESS":"3757 S WABASH AVE 1 1","YEAR":2013,"DOING_BUSINESS_AS_NAME":"NASIRAH S. SHABAZZ","POP_AT_RISK":143025,"BUSINESS_TYPE":"Peddler,food - (fruits and vegetables only) - special","LEGAL_NAME":"NASIRAH  SHAKIR SHABAZZ","LONGITUDE":-87.62470307811014},
{"STATE":"IL","ZIP":60623,"LATTITUDE":41.85268214481221,"ADDRESS":"4022 W 21ST PL  ","YEAR":2013,"DOING_BUSINESS_AS_NAME":"CHARLES EDWARD SINGLETON","POP_AT_RISK":1102068,"BUSINESS_TYPE":"Peddler,food - (fruits and vegetables only) - special","LEGAL_NAME":"CHARLES EDWARD SINGLETON","LONGITUDE":-87.72573798095208},
}