{
{"STATE":"IL","ZIP":60620,"LATTITUDE":41.75365331576172,"ADDRESS":"7712 S HAMILTON AVE  ","YEAR":2005,"DOING_BUSINESS_AS_NAME":"LOUIS LACY","POP_AT_RISK":39542,"BUSINESS_TYPE":"Home Repair","LEGAL_NAME":"LOUIS LACY","LONGITUDE":-87.67694139441177},
{"STATE":"IL","ZIP":60632,"LATTITUDE":41.81008887948885,"ADDRESS":"2531 W 46TH ST  ","YEAR":2005,"DOING_BUSINESS_AS_NAME":"HANDYMAN REMODELING","POP_AT_RISK":54424,"BUSINESS_TYPE":"Home Repair","LEGAL_NAME":"SERGIO LEON","LONGITUDE":-87.68828906163351},
{"STATE":"IL","ZIP":60637,"LATTITUDE":41.78177680211597,"ADDRESS":"6215 S DREXEL AVE 1ST ","YEAR":2005,"DOING_BUSINESS_AS_NAME":"ADAMS PLUMBING & SERVICE","POP_AT_RISK":65066,"BUSINESS_TYPE":"Home Repair","LEGAL_NAME":"TYREE ADAMS","LONGITUDE":-87.60418892814225},
{"STATE":"IL","ZIP":60634,"LATTITUDE":41.943815050578166,"ADDRESS":"3529 N PLAINFIELD AVE  ","YEAR":2005,"DOING_BUSINESS_AS_NAME":"M & M SERVICE","POP_AT_RISK":12734,"BUSINESS_TYPE":"Home Repair","LEGAL_NAME":"DOROTHY BUCH","LONGITUDE":-87.83373731194884},
{"STATE":"IL","ZIP":60611,"LATTITUDE":41.898227095018186,"ADDRESS":"21 E CHESTNUT ST  1","YEAR":2005,"DOING_BUSINESS_AS_NAME":"EDDIE GORDON","POP_AT_RISK":177458,"BUSINESS_TYPE":"Home Repair","LEGAL_NAME":"EDDIE GORDON","LONGITUDE":-87.62731078276174},
{"STATE":"IL","ZIP":60649,"LATTITUDE":41.75204953006754,"ADDRESS":"3024 E 79TH ST  1","YEAR":2005,"DOING_BUSINESS_AS_NAME":"ABLE SEWERAGE CO","POP_AT_RISK":61662,"BUSINESS_TYPE":"Home Repair","LEGAL_NAME":"ABLE SEWERAGE","LONGITUDE":-87.55075410872779},
{"STATE":"IL","ZIP":60632,"LATTITUDE":41.796076026127956,"ADDRESS":"5319 S KEATING AVE  1","YEAR":2005,"DOING_BUSINESS_AS_NAME":"GEORGE'S PLUMBING & SEWER LLC","POP_AT_RISK":28658,"BUSINESS_TYPE":"Home Repair","LEGAL_NAME":"GEORGE PACIUS","LONGITUDE":-87.74148023069124},
{"STATE":"IL","ZIP":60608,"LATTITUDE":41.84579123227666,"ADDRESS":"2525 S ROCKWELL ST  ","YEAR":2005,"DOING_BUSINESS_AS_NAME":"MACIAS IRON WORK","POP_AT_RISK":47785,"BUSINESS_TYPE":"Home Repair","LEGAL_NAME":"VICTOR MACIAS","LONGITUDE":-87.69022390336474},
{"STATE":"IL","ZIP":60638,"LATTITUDE":41.77740699726516,"ADDRESS":"6811 W 63RD ST 1 ","YEAR":2005,"DOING_BUSINESS_AS_NAME":"CAROL REMODELING CO","POP_AT_RISK":11842,"BUSINESS_TYPE":"Home Repair","LEGAL_NAME":"JAMES R SOLDAT","LONGITUDE":-87.7915199043502},
{"STATE":"IL","ZIP":60632,"LATTITUDE":41.79606395179154,"ADDRESS":"3413 W 53RD PL  ","YEAR":2005,"DOING_BUSINESS_AS_NAME":"YURIRIA  TEMP \/ KONTROL","POP_AT_RISK":103130,"BUSINESS_TYPE":"Home Repair","LEGAL_NAME":"JAVIER SANTOYO","LONGITUDE":-87.70910727654166},
{"STATE":"IL","ZIP":60629,"LATTITUDE":41.77481443342291,"ADDRESS":"6517 S KEDZIE AVE 1 ","YEAR":2005,"DOING_BUSINESS_AS_NAME":"AMS REFRIGERATION","POP_AT_RISK":57681,"BUSINESS_TYPE":"Home Repair","LEGAL_NAME":"JOSE MELENDRES","LONGITUDE":-87.7028939030421},
{"STATE":"IL","ZIP":60623,"LATTITUDE":41.84940836333452,"ADDRESS":"2310 S RIDGEWAY AVE  ","YEAR":2005,"DOING_BUSINESS_AS_NAME":"ARPAD  SERVICES","POP_AT_RISK":218130,"BUSINESS_TYPE":"Home Repair","LEGAL_NAME":"ARPAD    SANDOR","LONGITUDE":-87.71873994041562},
{"STATE":"IL","ZIP":60612,"LATTITUDE":41.880039237588036,"ADDRESS":"2200 W MONROE ST  3","YEAR":2005,"DOING_BUSINESS_AS_NAME":"WORDLAW CONSTRUCTION","POP_AT_RISK":29486,"BUSINESS_TYPE":"Home Repair","LEGAL_NAME":"MICHAEL WORDLAW","LONGITUDE":-87.68157215423075},
{"STATE":"IL","ZIP":60707,"LATTITUDE":41.92040638128008,"ADDRESS":"2217 N HARLEM AVE  ","YEAR":2005,"DOING_BUSINESS_AS_NAME":"MID CITY CONSTRUCTION","POP_AT_RISK":68734,"BUSINESS_TYPE":"Home Repair","LEGAL_NAME":"ANTHONY VALENTIN","LONGITUDE":-87.8059938468437},
{"STATE":"IL","ZIP":60620,"LATTITUDE":41.72952465598586,"ADDRESS":"9026 S JUSTINE ST 1ST ","YEAR":2005,"DOING_BUSINESS_AS_NAME":"JONES HOME IMPROVEMENT","POP_AT_RISK":131084,"BUSINESS_TYPE":"Home Repair","LEGAL_NAME":"JAMES E JONES SR","LONGITUDE":-87.66181060849071},
{"STATE":"IL","ZIP":60620,"LATTITUDE":41.748494893713946,"ADDRESS":"2122 W 80TH ST  ","YEAR":2005,"DOING_BUSINESS_AS_NAME":"LINCOLN MECHANICAL","POP_AT_RISK":35650,"BUSINESS_TYPE":"Home Repair","LEGAL_NAME":"RAYMOND ZOETEMAN","LONGITUDE":-87.67603422817164},
{"STATE":"IL","ZIP":60628,"LATTITUDE":41.71958280755001,"ADDRESS":"9600 S UNION AVE  ","YEAR":2005,"DOING_BUSINESS_AS_NAME":"SPRAGGINS MANAGEMENT CO.","POP_AT_RISK":27873,"BUSINESS_TYPE":"Home Repair","LEGAL_NAME":"RONALD SPRAGGINS","LONGITUDE":-87.64088345568719},
{"STATE":"IL","ZIP":60617,"LATTITUDE":41.71258898972099,"ADDRESS":"10045 S AVENUE M   ","YEAR":2005,"DOING_BUSINESS_AS_NAME":"T & S REHAB INC.","POP_AT_RISK":39454,"BUSINESS_TYPE":"Home Repair","LEGAL_NAME":"T & S REHAB INC.","LONGITUDE":-87.53754735889139},
{"STATE":"IL","ZIP":60605,"LATTITUDE":41.86585693451557,"ADDRESS":"1254 S FEDERAL ST  #E","YEAR":2005,"DOING_BUSINESS_AS_NAME":"TRAON GROUP, LLC","POP_AT_RISK":157964,"BUSINESS_TYPE":"Home Repair","LEGAL_NAME":"TRAON GROUP, LLC","LONGITUDE":-87.62958327791142},
{"STATE":"IL","ZIP":60651,"LATTITUDE":41.89562764313267,"ADDRESS":"823 N LOCKWOOD AVE  ","YEAR":2005,"DOING_BUSINESS_AS_NAME":"T & D  CONSTRUCTION","POP_AT_RISK":52362,"BUSINESS_TYPE":"Home Repair","LEGAL_NAME":"WILLIE A. HARRIS","LONGITUDE":-87.75792201132373},
{"STATE":"IL","ZIP":60653,"LATTITUDE":41.81242880679092,"ADDRESS":"4526 S GREENWOOD AVE  ","YEAR":2005,"DOING_BUSINESS_AS_NAME":"NICHOLS & SON","POP_AT_RISK":212448,"BUSINESS_TYPE":"Home Repair","LEGAL_NAME":"HOWARD NICHOLS SR.","LONGITUDE":-87.59946995792511},
{"STATE":"IL","ZIP":60634,"LATTITUDE":41.93943106382529,"ADDRESS":"3300 N PARIS AVE  ","YEAR":2005,"DOING_BUSINESS_AS_NAME":"R & C TUCKPOINTING","POP_AT_RISK":27736,"BUSINESS_TYPE":"Home Repair","LEGAL_NAME":"RYSZARD MALINOWSKI","LONGITUDE":-87.83022174874291},
{"STATE":"IL","ZIP":60653,"LATTITUDE":41.82145019364007,"ADDRESS":"4000 S COTTAGE GROVE AVE  1","YEAR":2005,"DOING_BUSINESS_AS_NAME":"BOYLE EXTERIORS CO","POP_AT_RISK":31912,"BUSINESS_TYPE":"Home Repair","LEGAL_NAME":"BOYLE EXTERIORS CO.","LONGITUDE":-87.60697851693637},
{"STATE":"IL","ZIP":60624,"LATTITUDE":41.87139900900485,"ADDRESS":"4535 W LEXINGTON ST  ","YEAR":2005,"DOING_BUSINESS_AS_NAME":"GEOKAT","POP_AT_RISK":42097,"BUSINESS_TYPE":"Home Repair","LEGAL_NAME":"GEOKAT INCORPORATED","LONGITUDE":-87.73913170449727},
{"STATE":"IL","ZIP":60621,"LATTITUDE":41.79270131919078,"ADDRESS":"5558 S PRINCETON AVE  ","YEAR":2005,"DOING_BUSINESS_AS_NAME":"HOME REJUVENATIIONS","POP_AT_RISK":47852,"BUSINESS_TYPE":"Home Repair","LEGAL_NAME":"RODERICK M. FRAZIER","LONGITUDE":-87.63309688716983},
{"STATE":"IL","ZIP":60643,"LATTITUDE":41.68095297117558,"ADDRESS":"11706 S LAFLIN ST  ","YEAR":2005,"DOING_BUSINESS_AS_NAME":"WINFREY RESIDENTIAL SERVICES","POP_AT_RISK":16113,"BUSINESS_TYPE":"Home Repair","LEGAL_NAME":"ZANNIE WINFREY, JR.","LONGITUDE":-87.65920548790598},
{"STATE":"IL","ZIP":60652,"LATTITUDE":41.734968375869556,"ADDRESS":"4000 W 87TH ST  ","YEAR":2005,"DOING_BUSINESS_AS_NAME":"TOM'S CABINETS","POP_AT_RISK":25233,"BUSINESS_TYPE":"Home Repair","LEGAL_NAME":"TOM'S CABINETS, INC.","LONGITUDE":-87.72150249652657},
{"STATE":"IL","ZIP":60162,"LATTITUDE":41.866133099351465,"ADDRESS":"4414 W ROOSEVELT RD  ","YEAR":2005,"DOING_BUSINESS_AS_NAME":"VINYLGUARD IND. INC.","POP_AT_RISK":41120,"BUSINESS_TYPE":"Home Repair","LEGAL_NAME":"VINYLGUARD IND. INC.","LONGITUDE":-87.73561946933825},
{"STATE":"IL","ZIP":60617,"LATTITUDE":41.74933329252195,"ADDRESS":"8000 S SOUTH CHICAGO AVE  1ST","YEAR":2005,"DOING_BUSINESS_AS_NAME":"EBERSON ROOF & METAL CORP","POP_AT_RISK":108423,"BUSINESS_TYPE":"Home Repair","LEGAL_NAME":"EBERSON ROOFING CORP.","LONGITUDE":-87.58278460158635},
{"STATE":"IL","ZIP":60638,"LATTITUDE":41.807005413785056,"ADDRESS":"4719 S LA CROSSE AVE  ","YEAR":2005,"DOING_BUSINESS_AS_NAME":"CREATIVE REHABBERS","POP_AT_RISK":61434,"BUSINESS_TYPE":"Home Repair","LEGAL_NAME":"THOMAS RONALD HAMPTON","LONGITUDE":-87.74421636393045},
{"STATE":"IL","ZIP":60409,"LATTITUDE":41.93452641566724,"ADDRESS":"1070  GEORGE ST  ","YEAR":2005,"DOING_BUSINESS_AS_NAME":"J & S SERVICES","POP_AT_RISK":85223,"BUSINESS_TYPE":"Home Repair","LEGAL_NAME":"KENNETH CHARLES SLATER","LONGITUDE":-87.65622988628483},
{"STATE":"IL","ZIP":60607,"LATTITUDE":41.88566527126362,"ADDRESS":"1042 W LAKE ST  ","YEAR":2005,"DOING_BUSINESS_AS_NAME":"QUICK STOP WATERPROOFING","POP_AT_RISK":85190,"BUSINESS_TYPE":"Home Repair","LEGAL_NAME":"KONSTANTINOS KATSABANIS","LONGITUDE":-87.65380496232846},
{"STATE":"IL","ZIP":60628,"LATTITUDE":41.69622418166689,"ADDRESS":"406 W 109TH ST  ","YEAR":2005,"DOING_BUSINESS_AS_NAME":"WALMOR GENERAL MECHANICAL INC","POP_AT_RISK":28391,"BUSINESS_TYPE":"Home Repair","LEGAL_NAME":"WALMOR GENERAL MECH INC","LONGITUDE":-87.63315373521385},
{"STATE":"IL","ZIP":60638,"LATTITUDE":41.79400444462757,"ADDRESS":"5404 S NAGLE AVE  ","YEAR":2005,"DOING_BUSINESS_AS_NAME":"SKIK GENERAL CONSTRUCTION","POP_AT_RISK":24262,"BUSINESS_TYPE":"Home Repair","LEGAL_NAME":"SKIK GENERAL CONSTRUCTION","LONGITUDE":-87.78322485318995},
{"STATE":"IL","ZIP":60626,"LATTITUDE":42.001846934935145,"ADDRESS":"6604 N CLARK ST  ","YEAR":2005,"DOING_BUSINESS_AS_NAME":"SUPREME IMPROVEMENTS INC.","POP_AT_RISK":214920,"BUSINESS_TYPE":"Home Repair","LEGAL_NAME":"SUPREME IMPROVEMENTS INC.","LONGITUDE":-87.67206063707197},
{"STATE":"IL","ZIP":60649,"LATTITUDE":41.77343856600946,"ADDRESS":"6700 S SOUTH SHORE DR  ","YEAR":2005,"DOING_BUSINESS_AS_NAME":"AMERIASTAR CONTRACTORS INC","POP_AT_RISK":204384,"BUSINESS_TYPE":"Home Repair","LEGAL_NAME":"AMERIASTAR CONTRACTORS INC","LONGITUDE":-87.56689930583318},
{"STATE":"IL","ZIP":60628,"LATTITUDE":41.66687924280139,"ADDRESS":"12500 S WALLACE ST  ","YEAR":2005,"DOING_BUSINESS_AS_NAME":"UNITED MATRIX CONSTRUCTION","POP_AT_RISK":42862,"BUSINESS_TYPE":"Home Repair","LEGAL_NAME":"UNITED MATRIX CONSTRUCTION","LONGITUDE":-87.63686628419903},
{"STATE":"IL","ZIP":60653,"LATTITUDE":41.81730421719438,"ADDRESS":"4235 S MICHIGAN AVE  ","YEAR":2005,"DOING_BUSINESS_AS_NAME":"JL & ASSOCIATES, LLC","POP_AT_RISK":57702,"BUSINESS_TYPE":"Home Repair","LEGAL_NAME":"MAE-LEWIS CONSTRUCTION, LLC","LONGITUDE":-87.62290218573405},
{"STATE":"IL","ZIP":60643,"LATTITUDE":41.70561607803746,"ADDRESS":"10325 S CLAREMONT AVE  ","YEAR":2005,"DOING_BUSINESS_AS_NAME":"REYNOLDS GENERAL CONTRACTOR","POP_AT_RISK":27724,"BUSINESS_TYPE":"Home Repair","LEGAL_NAME":"REYNOLDS GENERAL CONTRACTOR","LONGITUDE":-87.68024139493191},
{"STATE":"IL","ZIP":60609,"LATTITUDE":41.82727118123325,"ADDRESS":"3655 S IRON ST  ","YEAR":2005,"DOING_BUSINESS_AS_NAME":"GEORGE E. QUILL & SONS, INC.","POP_AT_RISK":31503,"BUSINESS_TYPE":"Home Repair","LEGAL_NAME":"GEORGE E. QUILL & SONS, INC.","LONGITUDE":-87.6591782583097},
{"STATE":"IL","ZIP":60617,"LATTITUDE":41.71306567069263,"ADDRESS":"10009 S EXCHANGE AVE  ","YEAR":2005,"DOING_BUSINESS_AS_NAME":"RINCON HOME DEVELOPMENT LTD.","POP_AT_RISK":10333,"BUSINESS_TYPE":"Home Repair","LEGAL_NAME":"RINCON HOME DEVELOPMENT, LTD.","LONGITUDE":-87.55217645628375},
{"STATE":"IL","ZIP":60636,"LATTITUDE":41.78798819420961,"ADDRESS":"5812 S HOYNE AVE  ","YEAR":2005,"DOING_BUSINESS_AS_NAME":"TEAMWORK GENERAL CONTRACTORS","POP_AT_RISK":385730,"BUSINESS_TYPE":"Home Repair","LEGAL_NAME":"TEAMWORK GENERAL CONTRACTORS INC","LONGITUDE":-87.67672064561202},
{"STATE":"IL","ZIP":60633,"LATTITUDE":41.652396980350034,"ADDRESS":"13343 S BRANDON AVE  ","YEAR":2005,"DOING_BUSINESS_AS_NAME":"DISCOVERY HEATING COOLING","POP_AT_RISK":21668,"BUSINESS_TYPE":"Home Repair","LEGAL_NAME":"DISCOVERY HEATING AND COOLING, INC.","LONGITUDE":-87.54577387490205},
{"STATE":"IL","ZIP":60620,"LATTITUDE":41.75636252722522,"ADDRESS":"400 W 76TH ST  ","YEAR":2005,"DOING_BUSINESS_AS_NAME":"PREMIERE REMODELING IN CONSTRUCTION","POP_AT_RISK":185545,"BUSINESS_TYPE":"Home Repair","LEGAL_NAME":"PREMIERE REMODELING IN CONSTRUCTION","LONGITUDE":-87.63450381551364},
{"STATE":"IL","ZIP":60655,"LATTITUDE":41.677388630186435,"ADDRESS":"2446 W 119TH ST  ","YEAR":2005,"DOING_BUSINESS_AS_NAME":"UNLIMITED CONSTRUCTION","POP_AT_RISK":38986,"BUSINESS_TYPE":"Home Repair","LEGAL_NAME":"UNLIMITED CONSTRUCTION & ASSOCIATES, INC.","LONGITUDE":-87.68258917887522},
{"STATE":"IL","ZIP":60616,"LATTITUDE":41.854235513986005,"ADDRESS":"2100 S INDIANA AVE 2 218","YEAR":2005,"DOING_BUSINESS_AS_NAME":"COALITION FOR UNITED COMMUNITY ACTION - CCMC, INC.","POP_AT_RISK":167390,"BUSINESS_TYPE":"Home Repair","LEGAL_NAME":"COALITION FOR UNITED COMMUNITY ACTION-CCMC INC.","LONGITUDE":-87.62239968234888},
}