{
{"STATE":"IL","ZIP":60639,"LATTITUDE":41.92065315085151,"ADDRESS":"2215 N MOODY AVE  ","YEAR":2014,"DOING_BUSINESS_AS_NAME":"J STEWART SEWERAGE & DRAINAGE","POP_AT_RISK":38568,"BUSINESS_TYPE":"Home Repair","LEGAL_NAME":"JOE STEWART","LONGITUDE":-87.7791142627543},
{"STATE":"IL","ZIP":60707,"LATTITUDE":41.92448289040989,"ADDRESS":"2429 N OAK PARK AVE 2ND 2","YEAR":2014,"DOING_BUSINESS_AS_NAME":"NEW GENERATION HVAC","POP_AT_RISK":231650,"BUSINESS_TYPE":"Home Repair","LEGAL_NAME":"CARLOS G. LOPEZ","LONGITUDE":-87.79512405467364},
{"STATE":"IL","ZIP":60651,"LATTITUDE":41.903680328904386,"ADDRESS":"1238 N KOSTNER AVE  ","YEAR":2014,"DOING_BUSINESS_AS_NAME":"BUILDING AMERICA, LTD.","POP_AT_RISK":404984,"BUSINESS_TYPE":"Home Repair","LEGAL_NAME":"BUILDING AMERICA, LTD.","LONGITUDE":-87.73632098381371},
{"STATE":"IL","ZIP":60643,"LATTITUDE":41.716495781746325,"ADDRESS":"9756 S PROSPECT AVE 1 1","YEAR":2014,"DOING_BUSINESS_AS_NAME":"E & E CONTRACTORS INC","POP_AT_RISK":227384,"BUSINESS_TYPE":"Home Repair","LEGAL_NAME":"E & E CONTRACTORS INC.","LONGITUDE":-87.6642602421534},
{"STATE":"IL","ZIP":60614,"LATTITUDE":41.927967033811775,"ADDRESS":"2506 N CLARK ST 1ST ","YEAR":2014,"DOING_BUSINESS_AS_NAME":"JOE'S PLUMBING SERVICE","POP_AT_RISK":1504492,"BUSINESS_TYPE":"Home Repair","LEGAL_NAME":"JOE'S HANDYMAN SERVICES","LONGITUDE":-87.64205845977641},
{"STATE":"IL","ZIP":60647,"LATTITUDE":41.92501062771359,"ADDRESS":"2407 N MILWAUKEE AVE 1ST ","YEAR":2014,"DOING_BUSINESS_AS_NAME":"BIG CITY CONSTRUCTION, INC.","POP_AT_RISK":1678900,"BUSINESS_TYPE":"Home Repair","LEGAL_NAME":"BIG CITY CONSTRUCTION, INC.","LONGITUDE":-87.70055196590485},
{"STATE":"IL","ZIP":60641,"LATTITUDE":41.94559550680201,"ADDRESS":"3541 N KENTON AVE 1 ","YEAR":2014,"DOING_BUSINESS_AS_NAME":"R & R GLASS AND WINDOWS INC.","POP_AT_RISK":338198,"BUSINESS_TYPE":"Home Repair","LEGAL_NAME":"R & R GLASS AND WINDOWS INC.","LONGITUDE":-87.74195618162395},
{"STATE":"IL","ZIP":60655,"LATTITUDE":41.70546331439684,"ADDRESS":"10321 S HOMAN AVE # 1","YEAR":2014,"DOING_BUSINESS_AS_NAME":"LEONARD & SON CONSTRUCTION INC","POP_AT_RISK":21707,"BUSINESS_TYPE":"Home Repair","LEGAL_NAME":"LEONARD & SON CONSTRUCTION CO","LONGITUDE":-87.70607975704745},
{"STATE":"IL","ZIP":60641,"LATTITUDE":41.958488691641136,"ADDRESS":"4255 N MILWAUKEE AVE 1ST A","YEAR":2014,"DOING_BUSINESS_AS_NAME":"DOUGLAS ELECTRIC CONTRACTING INC.","POP_AT_RISK":75408,"BUSINESS_TYPE":"Home Repair","LEGAL_NAME":"DOUGLAS ELECTRIC CONTRACTING INC.","LONGITUDE":-87.75244686450957},
{"STATE":"IL","ZIP":60634,"LATTITUDE":41.9530543220931,"ADDRESS":"5645 W IRVING PARK RD 1ST ","YEAR":2014,"DOING_BUSINESS_AS_NAME":"CHICAGO HEATING & AIR CONDITIONING, INC.","POP_AT_RISK":295085,"BUSINESS_TYPE":"Home Repair","LEGAL_NAME":"CHICAGO HEATING & AIR CONDITIONING, INC.","LONGITUDE":-87.76883599601717},
{"STATE":"IL","ZIP":60655,"LATTITUDE":41.67788984281194,"ADDRESS":"11841 S ARTESIAN AVE  ","YEAR":2014,"DOING_BUSINESS_AS_NAME":"RESURRECTION PROPERTY SERVICE HEATING AND AIR CO.","POP_AT_RISK":58479,"BUSINESS_TYPE":"Home Repair","LEGAL_NAME":"RESURRECTION PROPERTY SERVICE HEATING AND AIR CO.","LONGITUDE":-87.68180057712748},
}