{
{"STATE":"IL","ZIP":60652,"LATTITUDE":41.74978604849284,"ADDRESS":"3724-32 W 79TH ST GROUND ","YEAR":2009,"DOING_BUSINESS_AS_NAME":"79th Street Day Care","POP_AT_RISK":28716,"BUSINESS_TYPE":"Day Care Center 2 - 6 Years","LEGAL_NAME":"M&E Day Care LLC","LONGITUDE":-87.71519804312443},
{"STATE":"IL","ZIP":60639,"LATTITUDE":41.92450052917981,"ADDRESS":"4310 W FULLERTON AVE 1ST ","YEAR":2009,"DOING_BUSINESS_AS_NAME":"A CARING WORLD INC","POP_AT_RISK":218532,"BUSINESS_TYPE":"Day Care Center 2 - 6 Years","LEGAL_NAME":"A CARING WORLD INC","LONGITUDE":-87.73457439543674},
{"STATE":"IL","ZIP":60643,"LATTITUDE":41.677685065833224,"ADDRESS":"1500 W 119TH ST  1ST F","YEAR":2009,"DOING_BUSINESS_AS_NAME":"THE LEARNING PLACE","POP_AT_RISK":25454,"BUSINESS_TYPE":"Day Care Center 2 - 6 Years","LEGAL_NAME":"THE LEARNING PLACE","LONGITUDE":-87.65901954921286},
{"STATE":"IL","ZIP":60644,"LATTITUDE":41.873773251493034,"ADDRESS":"500 S CENTRAL AVE 1ST ","YEAR":2009,"DOING_BUSINESS_AS_NAME":"COLUMBUS PARK HEAD START","POP_AT_RISK":89278,"BUSINESS_TYPE":"Day Care Center 2 - 6 Years","LEGAL_NAME":"THE SALVATION ARMY","LONGITUDE":-87.76476970436084},
{"STATE":"IL","ZIP":60631,"LATTITUDE":42.011776152755054,"ADDRESS":"7250 W TOUHY AVE  ","YEAR":2009,"DOING_BUSINESS_AS_NAME":"CHILDREN CAMPUS INC","POP_AT_RISK":38320,"BUSINESS_TYPE":"Day Care Center 2 - 6 Years","LEGAL_NAME":"CHILDREN'S CAMPUS, INC.","LONGITUDE":-87.80864354261232},
{"STATE":"IL","ZIP":60638,"LATTITUDE":41.812595077201664,"ADDRESS":"4410 S LAPORTE AVE  ","YEAR":2009,"DOING_BUSINESS_AS_NAME":"LE CLAIRE HEADSTART CENTER","POP_AT_RISK":9840,"BUSINESS_TYPE":"Day Care Center 2 - 6 Years","LEGAL_NAME":"HULL HOUSE  ASSOCIATION","LONGITUDE":-87.74721117371338},
{"STATE":"IL","ZIP":60646,"LATTITUDE":42.003175359269584,"ADDRESS":"6736 N LOLETA AVE  ","YEAR":2009,"DOING_BUSINESS_AS_NAME":"EDGEBROOK COMMUNITY CHURCH","POP_AT_RISK":11252,"BUSINESS_TYPE":"Day Care Center 2 - 6 Years","LEGAL_NAME":"EDGEBROOK COMMUNITY CHURCH","LONGITUDE":-87.77183707699314},
{"STATE":"IL","ZIP":60638,"LATTITUDE":41.7932347787373,"ADDRESS":"6287 S ARCHER AVE  1ST F","YEAR":2009,"DOING_BUSINESS_AS_NAME":"KID'Z COLONY DAYCARE, INC.","POP_AT_RISK":31161,"BUSINESS_TYPE":"Day Care Center 2 - 6 Years","LEGAL_NAME":"KID'Z COLONY DAYCARE. INC.","LONGITUDE":-87.77777643611029},
{"STATE":"IL","ZIP":60646,"LATTITUDE":41.995446645749816,"ADDRESS":"4008 W ROSEMONT AVE  1ST F","YEAR":2009,"DOING_BUSINESS_AS_NAME":"ALL ABOARD LEARNING EXPRESS","POP_AT_RISK":20014,"BUSINESS_TYPE":"Day Care Center 2 - 6 Years","LEGAL_NAME":"ALL ABOARD LEARNING EXPRESS","LONGITUDE":-87.72932153283107},
{"STATE":"IL","ZIP":60609,"LATTITUDE":41.81574158020701,"ADDRESS":"1653 W 43RD ST  ","YEAR":2009,"DOING_BUSINESS_AS_NAME":"PAULO FREIRE CENTER","POP_AT_RISK":37314,"BUSINESS_TYPE":"Day Care Center 2 - 6 Years","LEGAL_NAME":"CHICAGO COMMONS ASSOCIATION","LONGITUDE":-87.66734779620032},
{"STATE":"IL","ZIP":60656,"LATTITUDE":41.97436750072286,"ADDRESS":"7626-7630 W FOSTER AVE 1ST ","YEAR":2009,"DOING_BUSINESS_AS_NAME":"CZERWONY KAPTUREK","POP_AT_RISK":14234,"BUSINESS_TYPE":"Day Care Center 2 - 6 Years","LEGAL_NAME":"LITTLE RED RIDING HOOD, INC.","LONGITUDE":-87.81804729501805},
{"STATE":"IL","ZIP":60634,"LATTITUDE":41.93165821480086,"ADDRESS":"2820 N NARRAGANSETT AVE 1 ","YEAR":2009,"DOING_BUSINESS_AS_NAME":"Little Green Oak","POP_AT_RISK":54075,"BUSINESS_TYPE":"Day Care Center 2 - 6 Years","LEGAL_NAME":"LITTLE GREEN OAK INCORPORATED","LONGITUDE":-87.78585878124555},
{"STATE":"IL","ZIP":60609,"LATTITUDE":41.830358930906655,"ADDRESS":"1711 W 35TH ST  1ST F","YEAR":2009,"DOING_BUSINESS_AS_NAME":"LITTLE TYKES PRE-SCHOOL INC.","POP_AT_RISK":26182,"BUSINESS_TYPE":"Day Care Center 2 - 6 Years","LEGAL_NAME":"LITTLE TYKES PRE-SCHOOL, INC.","LONGITUDE":-87.66843553445109},
{"STATE":"IL","ZIP":60653,"LATTITUDE":41.82813981565901,"ADDRESS":"3641 S RHODES AVE 1ST ","YEAR":2009,"DOING_BUSINESS_AS_NAME":"IDA B. WELLS LEARNING CENTER","POP_AT_RISK":28954,"BUSINESS_TYPE":"Day Care Center 2 - 6 Years","LEGAL_NAME":"CENTERS FOR NEW HORIZONS, INC.","LONGITUDE":-87.61427624290094},
{"STATE":"IL","ZIP":60612,"LATTITUDE":41.874081965880684,"ADDRESS":"2150 W HARRISON ST  ","YEAR":2009,"DOING_BUSINESS_AS_NAME":"LAURENCE ARMOUR DAY SCHOOL","POP_AT_RISK":29569,"BUSINESS_TYPE":"Day Care Center 2 - 6 Years","LEGAL_NAME":"RUSH UNIVERSITY MEDICAL CENTER","LONGITUDE":-87.68092243741066},
{"STATE":"IL","ZIP":60656,"LATTITUDE":41.9793096533148,"ADDRESS":"8622 W CATALPA AVE 1ST ","YEAR":2009,"DOING_BUSINESS_AS_NAME":"BRICKTON MONTESSORI SCHOOL","POP_AT_RISK":63507,"BUSINESS_TYPE":"Day Care Center 2 - 6 Years","LEGAL_NAME":"THE BRICKTON MONTESSORI SCHOOL","LONGITUDE":-87.84247838940561},
{"STATE":"IL","ZIP":60638,"LATTITUDE":41.79232955875624,"ADDRESS":"6640 W ARCHER AVE 1ST ","YEAR":2009,"DOING_BUSINESS_AS_NAME":"KIDDIE CORNER NURSERY SCHOOL","POP_AT_RISK":59230,"BUSINESS_TYPE":"Day Care Center 2 - 6 Years","LEGAL_NAME":"EARLY EDUCATION UNLIMITED, INC.","LONGITUDE":-87.7883153681136},
{"STATE":"IL","ZIP":60617,"LATTITUDE":41.718354119253824,"ADDRESS":"9725 S COMMERCIAL AVE 1ST FLOOR ","YEAR":2009,"DOING_BUSINESS_AS_NAME":"MARI'S BUMBLE BEE DAY CARE CORP.","POP_AT_RISK":17749,"BUSINESS_TYPE":"Day Care Center 2 - 6 Years","LEGAL_NAME":"MARI'S BUMBLE BEE DAY CARE CORP.","LONGITUDE":-87.55087407318614},
{"STATE":"IL","ZIP":60632,"LATTITUDE":41.816195369762184,"ADDRESS":"4235 S KEDZIE AVE  ","YEAR":2009,"DOING_BUSINESS_AS_NAME":"KIDDIE GARDEN LITTLE ANGELS","POP_AT_RISK":43636,"BUSINESS_TYPE":"Day Care Center 2 - 6 Years","LEGAL_NAME":"KIDDIE GARDEN LITTLE ANGELS CORP.","LONGITUDE":-87.70414872843075},
{"STATE":"IL","ZIP":60651,"LATTITUDE":41.896679619009724,"ADDRESS":"5900 W IOWA ST 1ST ","YEAR":2009,"DOING_BUSINESS_AS_NAME":"HOPE CHILD DEVELOPMENT CENTER","POP_AT_RISK":49255,"BUSINESS_TYPE":"Day Care Center 2 - 6 Years","LEGAL_NAME":"TRINITY RESOURCES UNLIMITED, INC.","LONGITUDE":-87.77249925688668},
{"STATE":"IL","ZIP":60631,"LATTITUDE":41.98736048019242,"ADDRESS":"5849 N NINA AVE 1ST ","YEAR":2009,"DOING_BUSINESS_AS_NAME":"WHITE STEEPLE PRESCHOOL","POP_AT_RISK":20824,"BUSINESS_TYPE":"Day Care Center 2 - 6 Years","LEGAL_NAME":"PRESBYTERIAN CHURCH OF NORWOOD PARK","LONGITUDE":-87.80378597661188},
{"STATE":"IL","ZIP":60643,"LATTITUDE":41.705835153211794,"ADDRESS":"10317 S WESTERN AVE  ","YEAR":2009,"DOING_BUSINESS_AS_NAME":"SMALL STRIDE ACADEMY","POP_AT_RISK":27724,"BUSINESS_TYPE":"Day Care Center 2 - 6 Years","LEGAL_NAME":"SMALL STRIDE ON WESTERN AVENUE, INC.","LONGITUDE":-87.68145602363649},
{"STATE":"IL","ZIP":60630,"LATTITUDE":41.97038297003879,"ADDRESS":"4909 N PULASKI RD 1 ","YEAR":2009,"DOING_BUSINESS_AS_NAME":"APPLE TREE INC.","POP_AT_RISK":63203,"BUSINESS_TYPE":"Day Care Center 2 - 6 Years","LEGAL_NAME":"APPLE TREE CHILDREN'S LEARNING CENTER","LONGITUDE":-87.72794266234457},
{"STATE":"IL","ZIP":60661,"LATTITUDE":41.8806992461244,"ADDRESS":"500 W MONROE ST 1ST ","YEAR":2009,"DOING_BUSINESS_AS_NAME":"BRIGHT HORIZONS CHICAGO WEST LOOP","POP_AT_RISK":51696,"BUSINESS_TYPE":"Day Care Center 2 - 6 Years","LEGAL_NAME":"BRIGHT HORIZONS CHILDREN'S CENTERS LLC","LONGITUDE":-87.63972502663867},
{"STATE":"IL","ZIP":60617,"LATTITUDE":41.681053268167084,"ADDRESS":"3552 E 118TH ST  ","YEAR":2009,"DOING_BUSINESS_AS_NAME":"BRENDA'S KIDS CLUB DAYCARE CENTER","POP_AT_RISK":13690,"BUSINESS_TYPE":"Day Care Center 2 - 6 Years","LEGAL_NAME":"BRENDA'S KIDS CLUB DAY CARE CENTER INC.","LONGITUDE":-87.53683432709336},
{"STATE":"IL","ZIP":60634,"LATTITUDE":41.93802847798224,"ADDRESS":"7622 W BELMONT AVE  ","YEAR":2009,"DOING_BUSINESS_AS_NAME":"HAPPY KIDS PRESCHOOL & DAYCARE CENTER","POP_AT_RISK":35096,"BUSINESS_TYPE":"Day Care Center 2 - 6 Years","LEGAL_NAME":"HAPPY KIDS PRESCHOOL & DAYCARE CENTER LLC","LONGITUDE":-87.81751327838508},
{"STATE":"IL","ZIP":60623,"LATTITUDE":41.84346389123191,"ADDRESS":"2629 S LAWNDALE AVE 1ST ","YEAR":2009,"DOING_BUSINESS_AS_NAME":"A-ZMALL WORLD CHILD DEVELOPMENT CENTER","POP_AT_RISK":66506,"BUSINESS_TYPE":"Day Care Center 2 - 6 Years","LEGAL_NAME":"A-ZMALL WORLD CHILD DEVELOPMENT CENTER CORP.","LONGITUDE":-87.71705500300543},
}