{
{"STATE":"IL","ZIP":60634,"LATTITUDE":41.958857445505956,"ADDRESS":"4308 N MOODY AVE 1 ","YEAR":2011,"DOING_BUSINESS_AS_NAME":"DIANA URIBE","POP_AT_RISK":76508,"BUSINESS_TYPE":"Peddler, non-food","LEGAL_NAME":"DIANA URIBE","LONGITUDE":-87.78079177786935},
{"STATE":"IL","ZIP":60617,"LATTITUDE":41.701062728606225,"ADDRESS":"10656 S AVENUE J   ","YEAR":2011,"DOING_BUSINESS_AS_NAME":"ELISEO LEON","POP_AT_RISK":104835,"BUSINESS_TYPE":"Peddler, non-food","LEGAL_NAME":"ELISEO LEON","LONGITUDE":-87.53422470733575},
{"STATE":"IL","ZIP":60628,"LATTITUDE":41.71161366965141,"ADDRESS":"937 E 100TH ST 1ST ","YEAR":2011,"DOING_BUSINESS_AS_NAME":"EMMETT MCKEE","POP_AT_RISK":18053,"BUSINESS_TYPE":"Peddler, non-food","LEGAL_NAME":"EMMETT MCKEE","LONGITUDE":-87.60036103617287},
{"STATE":"IL","ZIP":60633,"LATTITUDE":41.64688489537353,"ADDRESS":"13673 S BRAINARD AVE 1ST ","YEAR":2011,"DOING_BUSINESS_AS_NAME":"KIZZY NELSON","POP_AT_RISK":4206,"BUSINESS_TYPE":"Peddler, non-food","LEGAL_NAME":"KIZZY NELSON","LONGITUDE":-87.54366077064283},
{"STATE":"IL","ZIP":60631,"LATTITUDE":42.00149657533695,"ADDRESS":"6640 N NORTHWEST HWY  ","YEAR":2011,"DOING_BUSINESS_AS_NAME":"TIFFANY BELL","POP_AT_RISK":18918,"BUSINESS_TYPE":"Peddler, non-food","LEGAL_NAME":"TIFFANY BELL","LONGITUDE":-87.81435623786965},
{"STATE":"IL","ZIP":60617,"LATTITUDE":41.71618166671418,"ADDRESS":"9805 S OGLESBY AVE 1 1","YEAR":2011,"DOING_BUSINESS_AS_NAME":"AARON GLASPER","POP_AT_RISK":20958,"BUSINESS_TYPE":"Peddler, non-food","LEGAL_NAME":"AARON GLASPER","LONGITUDE":-87.56571534717423},
{"STATE":"IL","ZIP":60652,"LATTITUDE":41.739831099949434,"ADDRESS":"3252 W 84TH PL  ","YEAR":2011,"DOING_BUSINESS_AS_NAME":"DIANE JOHNSON","POP_AT_RISK":24391,"BUSINESS_TYPE":"Peddler, non-food","LEGAL_NAME":"DIANE JOHNSON","LONGITUDE":-87.7042079592918},
{"STATE":"IL","ZIP":60632,"LATTITUDE":41.79502651275541,"ADDRESS":"5359 S KOSTNER AVE  ","YEAR":2011,"DOING_BUSINESS_AS_NAME":"THOMAS M BEIL","POP_AT_RISK":43596,"BUSINESS_TYPE":"Peddler, non-food","LEGAL_NAME":"THOMAS M BEIL","LONGITUDE":-87.73287150602577},
{"STATE":"IL","ZIP":60629,"LATTITUDE":41.77330873916035,"ADDRESS":"3948 W 66TH ST  ","YEAR":2011,"DOING_BUSINESS_AS_NAME":"LIDIA SULLIVAN","POP_AT_RISK":46565,"BUSINESS_TYPE":"Peddler, non-food","LEGAL_NAME":"LIDIA SULLIVAN","LONGITUDE":-87.72212358937378},
{"STATE":"IL","ZIP":60608,"LATTITUDE":41.85411128052075,"ADDRESS":"2016 W 21ST ST  ","YEAR":2011,"DOING_BUSINESS_AS_NAME":"PETER C PROBST","POP_AT_RISK":41361,"BUSINESS_TYPE":"Peddler, non-food","LEGAL_NAME":"PETER C PROBST","LONGITUDE":-87.67662823758609},
{"STATE":"IL","ZIP":60644,"LATTITUDE":41.89091016932336,"ADDRESS":"5919 W OHIO ST HSE ","YEAR":2011,"DOING_BUSINESS_AS_NAME":"DEBRA D. TAYLOR","POP_AT_RISK":47682,"BUSINESS_TYPE":"Peddler, non-food","LEGAL_NAME":"DEBRA D. TAYLOR","LONGITUDE":-87.7729787447001},
{"STATE":"IL","ZIP":60643,"LATTITUDE":41.71107457362938,"ADDRESS":"1655 W 100TH PL  ","YEAR":2011,"DOING_BUSINESS_AS_NAME":"FABIAN M BRISCO","POP_AT_RISK":22103,"BUSINESS_TYPE":"Peddler, non-food","LEGAL_NAME":"FABIAN M BRISCO","LONGITUDE":-87.66459342759305},
{"STATE":"IL","ZIP":60646,"LATTITUDE":41.99691044531468,"ADDRESS":"6333 N LEONA AVE  ","YEAR":2011,"DOING_BUSINESS_AS_NAME":"HOWARD K. KADET","POP_AT_RISK":29738,"BUSINESS_TYPE":"Peddler, non-food","LEGAL_NAME":"HOWARD K. KADET","LONGITUDE":-87.75384375298215},
{"STATE":"IL","ZIP":60655,"LATTITUDE":41.68556100263544,"ADDRESS":"11431 S ST LOUIS AVE  ","YEAR":2011,"DOING_BUSINESS_AS_NAME":"JOSHUA JAMES SOICH","POP_AT_RISK":73892,"BUSINESS_TYPE":"Peddler, non-food","LEGAL_NAME":"JOSHUA J. SOICH","LONGITUDE":-87.70778792327808},
{"STATE":"IL","ZIP":60638,"LATTITUDE":41.79105802412348,"ADDRESS":"5548 S MCVICKER AVE  ","YEAR":2011,"DOING_BUSINESS_AS_NAME":"BENJAMIN","POP_AT_RISK":31019,"BUSINESS_TYPE":"Peddler, non-food","LEGAL_NAME":"BENJAMIN G GALLO","LONGITUDE":-87.77337547404142},
{"STATE":"IL","ZIP":60617,"LATTITUDE":41.72927464299358,"ADDRESS":"9126 S BALTIMORE AVE 2 ","YEAR":2011,"DOING_BUSINESS_AS_NAME":"IGNACIO GONZALEZ","POP_AT_RISK":17702,"BUSINESS_TYPE":"Peddler, non-food","LEGAL_NAME":"IGNACIO GONZALEZ","LONGITUDE":-87.54862567200976},
{"STATE":"IL","ZIP":60645,"LATTITUDE":42.00075612303732,"ADDRESS":"6545 N WASHTENAW AVE  ","YEAR":2011,"DOING_BUSINESS_AS_NAME":"JAMES A SPURGEON","POP_AT_RISK":55311,"BUSINESS_TYPE":"Peddler, non-food","LEGAL_NAME":"JAMES A SPURGEON","LONGITUDE":-87.6971398774425},
{"STATE":"IL","ZIP":60652,"LATTITUDE":41.73571339120002,"ADDRESS":"8629 S KENNETH AVE 1 ","YEAR":2011,"DOING_BUSINESS_AS_NAME":"LAURA NICOLE ZARO","POP_AT_RISK":19810,"BUSINESS_TYPE":"Peddler, non-food","LEGAL_NAME":"LAURA NICOLE ZARO","LONGITUDE":-87.73224099889644},
{"STATE":"IL","ZIP":60655,"LATTITUDE":41.68259714093822,"ADDRESS":"2439 W 116TH ST 1ST 1W","YEAR":2011,"DOING_BUSINESS_AS_NAME":"JENNIPHER V BUCKNER","POP_AT_RISK":11475,"BUSINESS_TYPE":"Peddler, non-food","LEGAL_NAME":"JENNIPHER V BUCKNER","LONGITUDE":-87.68247206160281},
{"STATE":"IL","ZIP":60707,"LATTITUDE":41.91900397937436,"ADDRESS":"2131 N NORDICA AVE 1 1","YEAR":2011,"DOING_BUSINESS_AS_NAME":"RICHARD FRANK WELLS","POP_AT_RISK":38446,"BUSINESS_TYPE":"Peddler, non-food","LEGAL_NAME":"RICHARD FRANK WELLS","LONGITUDE":-87.80228131029853},
{"STATE":"IL","ZIP":60612,"LATTITUDE":41.87301439506084,"ADDRESS":"2704 W FLOURNOY ST 1ST ","YEAR":2011,"DOING_BUSINESS_AS_NAME":"DEREK LEVERTIS SMITH","POP_AT_RISK":32080,"BUSINESS_TYPE":"Peddler, non-food","LEGAL_NAME":"DEREK LEVERTIS SMITH","LONGITUDE":-87.69390490652857},
{"STATE":"IL","ZIP":60640,"LATTITUDE":41.98223303352748,"ADDRESS":"5511 N KENMORE AVE 4TH 408","YEAR":2011,"DOING_BUSINESS_AS_NAME":"LAKERIA LASHA HAMPTON","POP_AT_RISK":66644,"BUSINESS_TYPE":"Peddler, non-food","LEGAL_NAME":"LAKERIA LASHA HAMPTON","LONGITUDE":-87.65642983709404},
{"STATE":"IL","ZIP":60628,"LATTITUDE":41.675257063441904,"ADDRESS":"12036 S INDIANA AVE  ","YEAR":2011,"DOING_BUSINESS_AS_NAME":"MIKOS ANTONIO DANIELS","POP_AT_RISK":23839,"BUSINESS_TYPE":"Peddler, non-food","LEGAL_NAME":"MIKOS ANTONIO DANIELS","LONGITUDE":-87.6178838471479},
{"STATE":"IL","ZIP":60631,"LATTITUDE":42.01219322871207,"ADDRESS":"7715 W JARLATH ST  ","YEAR":2011,"DOING_BUSINESS_AS_NAME":"JOSE M TORRES SR.","POP_AT_RISK":19740,"BUSINESS_TYPE":"Peddler, non-food","LEGAL_NAME":"JOSE MANUEL TORRES SR.","LONGITUDE":-87.81948791220417},
{"STATE":"IL","ZIP":60623,"LATTITUDE":41.856054477094276,"ADDRESS":"1830 S KILDARE AVE 1 1","YEAR":2011,"DOING_BUSINESS_AS_NAME":"QUENCY ULYSES WILLIAMS","POP_AT_RISK":44848,"BUSINESS_TYPE":"Peddler, non-food","LEGAL_NAME":"QUENCY ULYSES WILLIAMS","LONGITUDE":-87.73269495689387},
{"STATE":"IL","ZIP":60659,"LATTITUDE":41.99479007884291,"ADDRESS":"6234 N ST LOUIS AVE  ","YEAR":2011,"DOING_BUSINESS_AS_NAME":"JOSEPH BARHOUMEH","POP_AT_RISK":30318,"BUSINESS_TYPE":"Peddler, non-food","LEGAL_NAME":"JOSEPH KHADER BARHOUMEH","LONGITUDE":-87.71670438280591},
{"STATE":"IL","ZIP":60646,"LATTITUDE":41.987990222044985,"ADDRESS":"5848 N MERRIMAC AVE 1 ","YEAR":2011,"DOING_BUSINESS_AS_NAME":"NICHOLAS JAMES FINNEGAN","POP_AT_RISK":60274,"BUSINESS_TYPE":"Peddler, non-food","LEGAL_NAME":"NICHOLAS JAMES FINNEGAN","LONGITUDE":-87.78414840420129},
{"STATE":"IL","ZIP":60638,"LATTITUDE":41.77502533729492,"ADDRESS":"6456 W 64TH PL 3S ","YEAR":2011,"DOING_BUSINESS_AS_NAME":"RICHARD  G.  LADD, JR.","POP_AT_RISK":22742,"BUSINESS_TYPE":"Peddler, non-food","LEGAL_NAME":"RICHARD   G.  LADD, JR.","LONGITUDE":-87.78340774656445},
{"STATE":"IL","ZIP":60626,"LATTITUDE":42.021261678150104,"ADDRESS":"1554 W JONQUIL TER  ","YEAR":2011,"DOING_BUSINESS_AS_NAME":"MONTRELL NATHANIEL COOPER","POP_AT_RISK":52309,"BUSINESS_TYPE":"Peddler, non-food","LEGAL_NAME":"MONTRELL NATHANIEL COOPER","LONGITUDE":-87.67049631976245},
}