{
{"STATE":"IL","ZIP":60639,"LATTITUDE":41.91892249549356,"ADDRESS":"5637-5639 W GRAND AVE  ","YEAR":2015,"DOING_BUSINESS_AS_NAME":"BOBY G","POP_AT_RISK":63384,"BUSINESS_TYPE":"Consumption on Premises - Incidental Activity","LEGAL_NAME":"BOBY G INC.","LONGITUDE":-87.76732160126718},
{"STATE":"IL","ZIP":60619,"LATTITUDE":41.7259581808161,"ADDRESS":"1200 E 93RD ST 1ST ","YEAR":2015,"DOING_BUSINESS_AS_NAME":"WOODLAWN GARDENS","POP_AT_RISK":48813,"BUSINESS_TYPE":"Consumption on Premises - Incidental Activity","LEGAL_NAME":"HARRIET WATT","LONGITUDE":-87.59481759727105},
{"STATE":"IL","ZIP":60609,"LATTITUDE":41.81266091150673,"ADDRESS":"4440 S WESTERN AVE  ","YEAR":2015,"DOING_BUSINESS_AS_NAME":"EL CHISME","POP_AT_RISK":51945,"BUSINESS_TYPE":"Consumption on Premises - Incidental Activity","LEGAL_NAME":"AL & JL, INC.","LONGITUDE":-87.6846962034421},
{"STATE":"IL","ZIP":60649,"LATTITUDE":41.75888651800864,"ADDRESS":"2419-2425 E 75TH ST 1 ","YEAR":2015,"DOING_BUSINESS_AS_NAME":"THE QUARRY EVENT CENTER","POP_AT_RISK":46738,"BUSINESS_TYPE":"Consumption on Premises - Incidental Activity","LEGAL_NAME":"UNEARTHED LLC","LONGITUDE":-87.56565795329745},
{"STATE":"IL","ZIP":60619,"LATTITUDE":41.74404480254745,"ADDRESS":"712 E 83RD ST 1 ","YEAR":2015,"DOING_BUSINESS_AS_NAME":"CITY-LIFE, LTD.","POP_AT_RISK":338337,"BUSINESS_TYPE":"Consumption on Premises - Incidental Activity","LEGAL_NAME":"CITY-LIFE, LTD.","LONGITUDE":-87.60688998764581},
{"STATE":"IL","ZIP":60641,"LATTITUDE":41.95313947805806,"ADDRESS":"5353 W IRVING PARK RD 1ST ","YEAR":2015,"DOING_BUSINESS_AS_NAME":"SUTHERLAND'S","POP_AT_RISK":51704,"BUSINESS_TYPE":"Consumption on Premises - Incidental Activity","LEGAL_NAME":"5353 PORTAGE LLC","LONGITUDE":-87.76171933389249},
{"STATE":"IL","ZIP":60656,"LATTITUDE":41.96645317297049,"ADDRESS":"8443-8445 W LAWRENCE AVE 1ST ","YEAR":2015,"DOING_BUSINESS_AS_NAME":"CAFE IL CORTILE RESTAURANTE","POP_AT_RISK":34164,"BUSINESS_TYPE":"Consumption on Premises - Incidental Activity","LEGAL_NAME":"ALBA-GR CO., INC.","LONGITUDE":-87.83838525840713},
{"STATE":"IL","ZIP":60638,"LATTITUDE":41.77793892159334,"ADDRESS":"6314 S CICERO AVE  ","YEAR":2015,"DOING_BUSINESS_AS_NAME":"GIORDANO'S RESTAURANT","POP_AT_RISK":38228,"BUSINESS_TYPE":"Consumption on Premises - Incidental Activity","LEGAL_NAME":"BUSINESS KEYS LLC","LONGITUDE":-87.74242375780888},
{"STATE":"IL","ZIP":60615,"LATTITUDE":41.802424928057164,"ADDRESS":"5048-5050 S PRAIRIE AVE 1-2 ","YEAR":2015,"DOING_BUSINESS_AS_NAME":"SWAGGER BAR  & GRILL","POP_AT_RISK":29821,"BUSINESS_TYPE":"Consumption on Premises - Incidental Activity","LEGAL_NAME":"SOS SWAGGER LTD.,","LONGITUDE":-87.61956496592906},
{"STATE":"IL","ZIP":60622,"LATTITUDE":41.90236935813602,"ADDRESS":"1143 N CALIFORNIA AVE 1 ","YEAR":2015,"DOING_BUSINESS_AS_NAME":"BULLHEAD CANTINA","POP_AT_RISK":60998,"BUSINESS_TYPE":"Consumption on Premises - Incidental Activity","LEGAL_NAME":"VIVO EVENTS CORP.","LONGITUDE":-87.69671977737406},
{"STATE":"IL","ZIP":60629,"LATTITUDE":41.786445985597574,"ADDRESS":"2948 - 2950 W 59TH ST 1ST ","YEAR":2015,"DOING_BUSINESS_AS_NAME":"LA FUENTE RESTAURANTE # 2","POP_AT_RISK":748748,"BUSINESS_TYPE":"Consumption on Premises - Incidental Activity","LEGAL_NAME":"BENARA CORPORATION","LONGITUDE":-87.69799211227327},
{"STATE":"IL","ZIP":60628,"LATTITUDE":41.69475452654066,"ADDRESS":"11001 S DOTY AVE  ","YEAR":2015,"DOING_BUSINESS_AS_NAME":"HARBORSIDE INTERNATIONAL GOLF CENTER & PIER 37 BAR & GRILLE","POP_AT_RISK":7362,"BUSINESS_TYPE":"Consumption on Premises - Incidental Activity","LEGAL_NAME":"KS HARBORSIDE, LLC","LONGITUDE":-87.5961860043188},
{"STATE":"IL","ZIP":60618,"LATTITUDE":41.96108232127343,"ADDRESS":"3910-3914 W MONTROSE AVE  ","YEAR":2015,"DOING_BUSINESS_AS_NAME":"BOEM","POP_AT_RISK":69180,"BUSINESS_TYPE":"Consumption on Premises - Incidental Activity","LEGAL_NAME":"3910 RESTAURANT INC.","LONGITUDE":-87.72586744763474},
{"STATE":"IL","ZIP":60631,"LATTITUDE":41.99148225930689,"ADDRESS":"6064-6070 N NORTHWEST HWY 1 ","YEAR":2015,"DOING_BUSINESS_AS_NAME":"MO DAILEY'S PUB & GRILLE","POP_AT_RISK":46142,"BUSINESS_TYPE":"Consumption on Premises - Incidental Activity","LEGAL_NAME":"CREAMER & DAILEY, INC.","LONGITUDE":-87.7978116394828},
{"STATE":"IL","ZIP":60638,"LATTITUDE":41.805139326234766,"ADDRESS":"4820 S CICERO AVE  ","YEAR":2015,"DOING_BUSINESS_AS_NAME":"PEPE'S MEXICAN RESTAURANT","POP_AT_RISK":52370,"BUSINESS_TYPE":"Consumption on Premises - Incidental Activity","LEGAL_NAME":"FAR-FAR RESTAURANT INC","LONGITUDE":-87.7432424761978},
{"STATE":"IL","ZIP":60632,"LATTITUDE":41.79496271461644,"ADDRESS":"5401 S PULASKI RD 1ST ","YEAR":2015,"DOING_BUSINESS_AS_NAME":"LAS ISLAS MARIAS","POP_AT_RISK":51322,"BUSINESS_TYPE":"Consumption on Premises - Incidental Activity","LEGAL_NAME":"LAS ISLAS MARIAS, INC.","LONGITUDE":-87.7230632784749},
{"STATE":"IL","ZIP":60620,"LATTITUDE":41.735691078577986,"ADDRESS":"1543 W 87TH ST  ","YEAR":2015,"DOING_BUSINESS_AS_NAME":"MR G SUPPER CLUB","POP_AT_RISK":465612,"BUSINESS_TYPE":"Consumption on Premises - Incidental Activity","LEGAL_NAME":"M. V. ONE INCORPORATED","LONGITUDE":-87.66232767688463},
{"STATE":"IL","ZIP":60655,"LATTITUDE":41.70582355306317,"ADDRESS":"3901 W 103RD ST  ","YEAR":2015,"DOING_BUSINESS_AS_NAME":"GILHOOLEY'S GRANDE SALOON","POP_AT_RISK":91208,"BUSINESS_TYPE":"Consumption on Premises - Incidental Activity","LEGAL_NAME":"COMPASS GROUP USA, INC.","LONGITUDE":-87.71853994620498},
{"STATE":"IL","ZIP":60612,"LATTITUDE":41.88123342371891,"ADDRESS":"2550 W MADISON ST 1ST - 3RD ","YEAR":2015,"DOING_BUSINESS_AS_NAME":"JOHNNY'S ICE HOUSE","POP_AT_RISK":62648,"BUSINESS_TYPE":"Consumption on Premises - Incidental Activity","LEGAL_NAME":"JOHNNY'S ICE HOUSE, INC.","LONGITUDE":-87.69038958620825},
{"STATE":"IL","ZIP":60639,"LATTITUDE":41.924025936997715,"ADDRESS":"5109 W FULLERTON AVE  ","YEAR":2015,"DOING_BUSINESS_AS_NAME":"MAMA LUNA RESTAURANT","POP_AT_RISK":71431,"BUSINESS_TYPE":"Consumption on Premises - Incidental Activity","LEGAL_NAME":"MAMA LUNA' S CORPORATION","LONGITUDE":-87.75410892303567},
{"STATE":"IL","ZIP":60615,"LATTITUDE":41.80929520397561,"ADDRESS":"4701 S DR MARTIN LUTHER KING JR DR  ","YEAR":2015,"DOING_BUSINESS_AS_NAME":"HAROLD WASHINGTON CULTURAL CENTER","POP_AT_RISK":73938,"BUSINESS_TYPE":"Consumption on Premises - Incidental Activity","LEGAL_NAME":"TOBACCO ROAD INCORPORATED","LONGITUDE":-87.61643966919897},
{"STATE":"IL","ZIP":60652,"LATTITUDE":41.75466012439374,"ADDRESS":"7601 S CICERO AVE  ","YEAR":2015,"DOING_BUSINESS_AS_NAME":"AMC THEATRES FORD CITY 14","POP_AT_RISK":129110,"BUSINESS_TYPE":"Consumption on Premises - Incidental Activity","LEGAL_NAME":"AMERICAN MULTI-CINEMA, INC.","LONGITUDE":-87.74138475860521},
{"STATE":"IL","ZIP":60631,"LATTITUDE":41.99898437284463,"ADDRESS":"6474 N MILWAUKEE AVE  ","YEAR":2015,"DOING_BUSINESS_AS_NAME":"CZERWONE JABLUSZKO RESTAURANT","POP_AT_RISK":20191,"BUSINESS_TYPE":"Consumption on Premises - Incidental Activity","LEGAL_NAME":"CZERWONE JABLUSZKO REST INC","LONGITUDE":-87.7895419514987},
{"STATE":"IL","ZIP":60641,"LATTITUDE":41.95333499661926,"ADDRESS":"4657 W IRVING PARK RD 1 ","YEAR":2015,"DOING_BUSINESS_AS_NAME":"CHIPOTLE","POP_AT_RISK":43100,"BUSINESS_TYPE":"Consumption on Premises - Incidental Activity","LEGAL_NAME":"CHIPOTLE MEXICAN GRILL, INC.","LONGITUDE":-87.74486145809504},
{"STATE":"IL","ZIP":60623,"LATTITUDE":41.85164601340353,"ADDRESS":"3219 W CERMAK RD 1ST ","YEAR":2015,"DOING_BUSINESS_AS_NAME":"EL BURRITO FELIZ RESTAURANT","POP_AT_RISK":62497,"BUSINESS_TYPE":"Consumption on Premises - Incidental Activity","LEGAL_NAME":"EL BURRITO FELIZ CORPORATION","LONGITUDE":-87.70613515053118},
{"STATE":"IL","ZIP":60637,"LATTITUDE":41.79518501605705,"ADDRESS":"5500 S SHORE DR 1ST ","YEAR":2015,"DOING_BUSINESS_AS_NAME":"BAR LOUIE","POP_AT_RISK":27340,"BUSINESS_TYPE":"Consumption on Premises - Incidental Activity","LEGAL_NAME":"BL RESTAURANT OPERATIONS, LLC","LONGITUDE":-87.58059777168157},
{"STATE":"IL","ZIP":60632,"LATTITUDE":41.8244471105655,"ADDRESS":"3752 S KEDZIE AVE  ","YEAR":2015,"DOING_BUSINESS_AS_NAME":"MARISCOS EL ABUELO Y YO SEAFOOD","POP_AT_RISK":35589,"BUSINESS_TYPE":"Consumption on Premises - Incidental Activity","LEGAL_NAME":"MARISCOS EL ABUELO Y YO, INC.","LONGITUDE":-87.704596235788},
{"STATE":"IL","ZIP":60634,"LATTITUDE":41.95304195595626,"ADDRESS":"6328-30 W IRVING PARK RD 1 ","YEAR":2015,"DOING_BUSINESS_AS_NAME":"GARDEN TERRACE","POP_AT_RISK":171156,"BUSINESS_TYPE":"Consumption on Premises - Incidental Activity","LEGAL_NAME":"SARANECKI BROS. CATERING, INC.","LONGITUDE":-87.7853004907991},
{"STATE":"IL","ZIP":60617,"LATTITUDE":41.69158354049413,"ADDRESS":"11207 S EWING AVE 1ST ","YEAR":2015,"DOING_BUSINESS_AS_NAME":"EAST SIDE COLUMBIAN ASSOCIATION","POP_AT_RISK":17150,"BUSINESS_TYPE":"Consumption on Premises - Incidental Activity","LEGAL_NAME":"EAST SIDE COLUMBIAN ASSOCIATION","LONGITUDE":-87.53513332029405},
{"STATE":"IL","ZIP":60643,"LATTITUDE":41.69534630027884,"ADDRESS":"10900 S WESTERN AVE 1ST ","YEAR":2015,"DOING_BUSINESS_AS_NAME":"HOME RUN INN PIZZA EXPRESS, INC.","POP_AT_RISK":24821,"BUSINESS_TYPE":"Consumption on Premises - Incidental Activity","LEGAL_NAME":"HOME RUN INN PIZZA EXPRESS, INC.","LONGITUDE":-87.68141535642928},
{"STATE":"IL","ZIP":60637,"LATTITUDE":41.78579095767523,"ADDRESS":"915 E 60TH ST 1ST ","YEAR":2015,"DOING_BUSINESS_AS_NAME":"ARAMARK","POP_AT_RISK":152764,"BUSINESS_TYPE":"Consumption on Premises - Incidental Activity","LEGAL_NAME":"ARAMARK EDUCATIONAL SERVICES, LLC","LONGITUDE":-87.60374468613567},
{"STATE":"IL","ZIP":60649,"LATTITUDE":41.76896052011414,"ADDRESS":"6930 S SOUTH SHORE DR  1","YEAR":2015,"DOING_BUSINESS_AS_NAME":"THE HOUSE OF BING","POP_AT_RISK":33165,"BUSINESS_TYPE":"Consumption on Premises - Incidental Activity","LEGAL_NAME":"BOB YON, INC DBA HOUSE OF OF BING","LONGITUDE":-87.56667053733712},
{"STATE":"IL","ZIP":60609,"LATTITUDE":41.80866126881855,"ADDRESS":"1812 W 47TH ST  ","YEAR":2015,"DOING_BUSINESS_AS_NAME":"BIRRIERIA Y TAQUERIA ARANDAS","POP_AT_RISK":71690,"BUSINESS_TYPE":"Consumption on Premises - Incidental Activity","LEGAL_NAME":"CHICAGO PIZZA & PUMPING STATION CO.","LONGITUDE":-87.67043677728022},
{"STATE":"IL","ZIP":60617,"LATTITUDE":41.72795237840198,"ADDRESS":"9156 S STONY ISLAND AVE  ","YEAR":2015,"DOING_BUSINESS_AS_NAME":"LEONA'S PIZZERIA","POP_AT_RISK":15322,"BUSINESS_TYPE":"Consumption on Premises - Incidental Activity","LEGAL_NAME":"ORIGINAL PIZZA, LLC SERIES STONY ISLAND","LONGITUDE":-87.58558036137349},
{"STATE":"IL","ZIP":60617,"LATTITUDE":41.744626103697605,"ADDRESS":"2544 E 83RD ST 1 ","YEAR":2015,"DOING_BUSINESS_AS_NAME":"THE NEW LOOK","POP_AT_RISK":40020,"BUSINESS_TYPE":"Consumption on Premises - Incidental Activity","LEGAL_NAME":"THE NEW LOOK SALON AND RESTAURANT, INC.","LONGITUDE":-87.56191378396936},
}