{
{"STATE":"IL","ZIP":60624,"LATTITUDE":41.88758777549686,"ADDRESS":"4255 W KINZIE ST 1ST ","YEAR":2010,"DOING_BUSINESS_AS_NAME":"H T 'S DISCOUNT GLASS CO","POP_AT_RISK":433125,"BUSINESS_TYPE":"Board-Up Work","LEGAL_NAME":"HERMON TONEY JR","LONGITUDE":-87.73296174326708},
{"STATE":"IL","ZIP":60639,"LATTITUDE":41.91547075644109,"ADDRESS":"4910 W GRAND AVE  ","YEAR":2010,"DOING_BUSINESS_AS_NAME":"ERS BOARD UP INC.","POP_AT_RISK":59030,"BUSINESS_TYPE":"Board-Up Work","LEGAL_NAME":"ERS BOARD UP,INC.","LONGITUDE":-87.74961764802936},
{"STATE":"IL","ZIP":60661,"LATTITUDE":41.88041818854342,"ADDRESS":"703 W MONROE ST 1 1","YEAR":2010,"DOING_BUSINESS_AS_NAME":"CLEANSLATE PROPERTY SERVICES, LLC","POP_AT_RISK":431874,"BUSINESS_TYPE":"Board-Up Work","LEGAL_NAME":"180 PROPERTIES LLC","LONGITUDE":-87.64423627788658},
{"STATE":"IL","ZIP":60608,"LATTITUDE":41.86406161894256,"ADDRESS":"1334 S ASHLAND AVE 1ST ","YEAR":2010,"DOING_BUSINESS_AS_NAME":"CLEANSLATE CHICAGO","POP_AT_RISK":220170,"BUSINESS_TYPE":"Board-Up Work","LEGAL_NAME":"CLEANSLATE CHICAGO, LLC","LONGITUDE":-87.66646027906991},
{"STATE":"IL","ZIP":60630,"LATTITUDE":41.980733083375114,"ADDRESS":"5460 N MILWAUKEE AVE  ","YEAR":2010,"DOING_BUSINESS_AS_NAME":"ACE BOARD-UP COMPANY","POP_AT_RISK":30761,"BUSINESS_TYPE":"Board-Up Work","LEGAL_NAME":"ACE BOARD-UP COMPANY INC","LONGITUDE":-87.77253948587003},
{"STATE":"IL","ZIP":60608,"LATTITUDE":41.8533014640748,"ADDRESS":"2150 S CANALPORT AVE  ","YEAR":2010,"DOING_BUSINESS_AS_NAME":"ALL PRO RESTORATION BOARD-UP","POP_AT_RISK":350120,"BUSINESS_TYPE":"Board-Up Work","LEGAL_NAME":"ALL PRO RESTORATION, INC.","LONGITUDE":-87.649929695282},
{"STATE":"IL","ZIP":60641,"LATTITUDE":41.95343222161391,"ADDRESS":"5112 W IRVING PARK RD 1ST ","YEAR":2010,"DOING_BUSINESS_AS_NAME":"ADVANCE GLASS SERVICE INC.","POP_AT_RISK":634776,"BUSINESS_TYPE":"Board-Up Work","LEGAL_NAME":"ADVANCE GLASS SERVICE INC.","LONGITUDE":-87.7552265374798},
{"STATE":"IL","ZIP":60639,"LATTITUDE":41.915093322076125,"ADDRESS":"4447 W CORTLAND ST 1ST ","YEAR":2010,"DOING_BUSINESS_AS_NAME":"RESTORE BOARD - UP INC.","POP_AT_RISK":60216,"BUSINESS_TYPE":"Board-Up Work","LEGAL_NAME":"RESTORE BOARD-UP CO., INC.","LONGITUDE":-87.7381484006334},
{"STATE":"IL","ZIP":60638,"LATTITUDE":41.774000947227286,"ADDRESS":"6201 W 65TH ST  ","YEAR":2010,"DOING_BUSINESS_AS_NAME":"LIGHTNING BOARDUP CORPORATION","POP_AT_RISK":113710,"BUSINESS_TYPE":"Board-Up Work","LEGAL_NAME":"LIGHTNING BOARDUP CORPORATION","LONGITUDE":-87.77635370103114},
{"STATE":"IL","ZIP":60647,"LATTITUDE":41.909826163903105,"ADDRESS":"3801 W NORTH AVE 1 ","YEAR":2010,"DOING_BUSINESS_AS_NAME":"EXPRESS BOARD UP SERVICE, INC.","POP_AT_RISK":68393,"BUSINESS_TYPE":"Board-Up Work","LEGAL_NAME":"EXPRESS BOARD UP SERVICE, INC.","LONGITUDE":-87.72172132037602},
{"STATE":"IL","ZIP":60618,"LATTITUDE":41.9376896243661,"ADDRESS":"3101 N WESTERN AVE  ","YEAR":2010,"DOING_BUSINESS_AS_NAME":"A Emergency Services and Restoration, Inc.","POP_AT_RISK":951660,"BUSINESS_TYPE":"Board-Up Work","LEGAL_NAME":"A EMERGENCY FIRE-BOARD UP, INC.","LONGITUDE":-87.68773947308173},
{"STATE":"IL","ZIP":60646,"LATTITUDE":41.985663511502565,"ADDRESS":"5738 N ELSTON AVE  ","YEAR":2010,"DOING_BUSINESS_AS_NAME":"AAA ALLIED BD - UP & GLASS","POP_AT_RISK":31977,"BUSINESS_TYPE":"Board-Up Work","LEGAL_NAME":"AAA ALLIED BOARD UP & GLASS INC.","LONGITUDE":-87.7698317730956},
{"STATE":"IL","ZIP":60647,"LATTITUDE":41.91722211533986,"ADDRESS":"3421 W ARMITAGE AVE 1 1","YEAR":2010,"DOING_BUSINESS_AS_NAME":"A Plus Board Up And Restoration Inc.","POP_AT_RISK":722100,"BUSINESS_TYPE":"Board-Up Work","LEGAL_NAME":"A Plus Board Up And Restoration Inc.","LONGITUDE":-87.71279170840764},
{"STATE":"IL","ZIP":60619,"LATTITUDE":41.74685673119854,"ADDRESS":"8125 S COTTAGE GROVE AVE 1 1","YEAR":2010,"DOING_BUSINESS_AS_NAME":"E & J CONSTRUCTION OF ILLINOIS","POP_AT_RISK":357930,"BUSINESS_TYPE":"Board-Up Work","LEGAL_NAME":"E & J CONSTRUCTION OF ILLINOIS, INC.","LONGITUDE":-87.60496649644419},
{"STATE":"IL","ZIP":60644,"LATTITUDE":41.89284740893607,"ADDRESS":"648 N CICERO AVE 1ST FL ","YEAR":2010,"DOING_BUSINESS_AS_NAME":"UNITED BOARD UP SERVICE OF CHICAGO, LTD","POP_AT_RISK":212520,"BUSINESS_TYPE":"Board-Up Work","LEGAL_NAME":"UNITED BOARD UP SERVICE OF CHICAGO, LTD","LONGITUDE":-87.74588079072211},
{"STATE":"IL","ZIP":60632,"LATTITUDE":41.806872660254946,"ADDRESS":"4732 S PULASKI RD 1ST ","YEAR":2010,"DOING_BUSINESS_AS_NAME":"M.E.G. PROPERTY PRESERVATION SERVICES","POP_AT_RISK":317370,"BUSINESS_TYPE":"Board-Up Work","LEGAL_NAME":"M.E.G. PROPERTY PRESEVATION SERVICES, INC.","LONGITUDE":-87.72370127121611},
}