{
{"STATE":"IL","ZIP":60621,"LATTITUDE":41.77885417721719,"ADDRESS":"6331 S LOWE AVE  ","YEAR":2011,"DOING_BUSINESS_AS_NAME":"TASTE DISCO & STEAK HOUSE","POP_AT_RISK":327300,"BUSINESS_TYPE":"Public Place of Amusement","LEGAL_NAME":"TASTE INC","LONGITUDE":-87.64069495645147},
{"STATE":"IL","ZIP":60619,"LATTITUDE":41.7259581808161,"ADDRESS":"1200 E 93RD ST 1ST ","YEAR":2011,"DOING_BUSINESS_AS_NAME":"WOODLAWN GARDENS","POP_AT_RISK":32542,"BUSINESS_TYPE":"Public Place of Amusement","LEGAL_NAME":"HARRIET WATT","LONGITUDE":-87.59481759727105},
{"STATE":"IL","ZIP":60659,"LATTITUDE":41.997133350542754,"ADDRESS":"3939 W DEVON AVE 1ST ","YEAR":2011,"DOING_BUSINESS_AS_NAME":"MONASTERO'S RISTORANTE","POP_AT_RISK":80056,"BUSINESS_TYPE":"Public Place of Amusement","LEGAL_NAME":"LA CANOPY INC","LONGITUDE":-87.72785031804918},
{"STATE":"IL","ZIP":60707,"LATTITUDE":41.923648647963255,"ADDRESS":"7110 W GRAND AVE 1ST ","YEAR":2011,"DOING_BUSINESS_AS_NAME":"LAILA'S GRAND GAME ROOM INC","POP_AT_RISK":42019,"BUSINESS_TYPE":"Public Place of Amusement","LEGAL_NAME":"ANWAR HADDADIN","LONGITUDE":-87.80308394347287},
{"STATE":"IL","ZIP":60633,"LATTITUDE":41.64818877792674,"ADDRESS":"13601 S CALHOUN AVE 1 ","YEAR":2011,"DOING_BUSINESS_AS_NAME":"PAPICHULO","POP_AT_RISK":2798,"BUSINESS_TYPE":"Public Place of Amusement","LEGAL_NAME":"PAPICHULO, LLC","LONGITUDE":-87.56157337119949},
{"STATE":"IL","ZIP":60623,"LATTITUDE":41.844319676878946,"ADDRESS":"4078 W 26TH ST  ","YEAR":2011,"DOING_BUSINESS_AS_NAME":"LUCKY GREEN POOL HALL","POP_AT_RISK":49934,"BUSINESS_TYPE":"Public Place of Amusement","LEGAL_NAME":"RITA JO GARCIA","LONGITUDE":-87.72775492142739},
{"STATE":"IL","ZIP":60609,"LATTITUDE":41.81432611672509,"ADDRESS":"4403 S WALLACE ST 1ST ","YEAR":2011,"DOING_BUSINESS_AS_NAME":"KELLY'S TAVERN","POP_AT_RISK":37658,"BUSINESS_TYPE":"Public Place of Amusement","LEGAL_NAME":"BILL BABS, INC.","LONGITUDE":-87.64066843784394},
{"STATE":"IL","ZIP":60655,"LATTITUDE":41.691406189233774,"ADDRESS":"3908 W 111TH ST  1","YEAR":2011,"DOING_BUSINESS_AS_NAME":"T R'S PUB","POP_AT_RISK":78644,"BUSINESS_TYPE":"Public Place of Amusement","LEGAL_NAME":"LEANN-CAOL CORP","LONGITUDE":-87.71830607808162},
{"STATE":"IL","ZIP":60631,"LATTITUDE":41.98118072487806,"ADDRESS":"8500 W BRYN MAWR AVE  ","YEAR":2011,"DOING_BUSINESS_AS_NAME":"RENAISSANCE CHICAGO O'HARE HOTEL AS OF 7\/25\/2013 Paying under account 381630","POP_AT_RISK":21169,"BUSINESS_TYPE":"Public Place of Amusement","LEGAL_NAME":"RCO Hotel, Inc.","LONGITUDE":-87.83916755770461},
{"STATE":"IL","ZIP":60632,"LATTITUDE":41.796369658416275,"ADDRESS":"5315-5317 S PULASKI RD 1ST ","YEAR":2011,"DOING_BUSINESS_AS_NAME":"TAQUERIA EL TENAMPA","POP_AT_RISK":39186,"BUSINESS_TYPE":"Public Place of Amusement","LEGAL_NAME":"RODGA S.A. INC.","LONGITUDE":-87.7231036884829},
{"STATE":"IL","ZIP":60609,"LATTITUDE":41.81135198728592,"ADDRESS":"4529-4531 S ASHLAND AVE  1ST","YEAR":2011,"DOING_BUSINESS_AS_NAME":"MEXICO POOL HALL","POP_AT_RISK":239820,"BUSINESS_TYPE":"Public Place of Amusement","LEGAL_NAME":"ANTONIO RODIGUEZ","LONGITUDE":-87.66489602696268},
{"STATE":"IL","ZIP":60634,"LATTITUDE":41.95248836107066,"ADDRESS":"7455 W IRVING PARK RD  ","YEAR":2011,"DOING_BUSINESS_AS_NAME":"BIJE'S","POP_AT_RISK":61786,"BUSINESS_TYPE":"Public Place of Amusement","LEGAL_NAME":"BIJE'S, LIMITED.","LONGITUDE":-87.81440271000294},
{"STATE":"IL","ZIP":60638,"LATTITUDE":41.77784067500845,"ADDRESS":"6250 W 63RD ST 1ST ","YEAR":2011,"DOING_BUSINESS_AS_NAME":"NEW WARSAW RESTAURANT","POP_AT_RISK":110496,"BUSINESS_TYPE":"Public Place of Amusement","LEGAL_NAME":"CHEF'S INN, LTD.","LONGITUDE":-87.77842839051569},
{"STATE":"IL","ZIP":60643,"LATTITUDE":41.68489908536175,"ADDRESS":"1640 W 115TH ST 1 ","YEAR":2011,"DOING_BUSINESS_AS_NAME":"BLACK CAT LOUNGE","POP_AT_RISK":46974,"BUSINESS_TYPE":"Public Place of Amusement","LEGAL_NAME":"TAVERN ONE, INC.","LONGITUDE":-87.66335206643785},
{"STATE":"IL","ZIP":60651,"LATTITUDE":41.898367071372185,"ADDRESS":"939-941 N PULASKI RD  ","YEAR":2011,"DOING_BUSINESS_AS_NAME":"BROTHER'S PALACE -939","POP_AT_RISK":49167,"BUSINESS_TYPE":"Public Place of Amusement","LEGAL_NAME":"R & G MILLER INC.","LONGITUDE":-87.72602784401688},
{"STATE":"IL","ZIP":60637,"LATTITUDE":41.77891251190159,"ADDRESS":"6351-6359 S COTTAGE GROVE AVE  ","YEAR":2011,"DOING_BUSINESS_AS_NAME":"THE BALLROOM","POP_AT_RISK":108309,"BUSINESS_TYPE":"Public Place of Amusement","LEGAL_NAME":"THE BALLROOM, LLC","LONGITUDE":-87.60575071895529},
{"STATE":"IL","ZIP":60623,"LATTITUDE":41.836913225394206,"ADDRESS":"4254 W 31ST ST  ","YEAR":2011,"DOING_BUSINESS_AS_NAME":"HOME RUN INN","POP_AT_RISK":38049,"BUSINESS_TYPE":"Public Place of Amusement","LEGAL_NAME":"HOME RUN INN, INC.","LONGITUDE":-87.73141129560165},
{"STATE":"IL","ZIP":60629,"LATTITUDE":41.76982954323323,"ADDRESS":"6750 S PULASKI RD  ","YEAR":2011,"DOING_BUSINESS_AS_NAME":"LAWN BOWLING","POP_AT_RISK":284235,"BUSINESS_TYPE":"Public Place of Amusement","LEGAL_NAME":"LAWN BOWLING, INC.","LONGITUDE":-87.72268098507774},
{"STATE":"IL","ZIP":60643,"LATTITUDE":41.683532137968754,"ADDRESS":"11532 S WESTERN AVE 1ST ","YEAR":2011,"DOING_BUSINESS_AS_NAME":"BEVERLY WOODS RESTAURANT","POP_AT_RISK":29404,"BUSINESS_TYPE":"Public Place of Amusement","LEGAL_NAME":"BOWLER-MCGANN CORP.","LONGITUDE":-87.68104527469114},
{"STATE":"IL","ZIP":60630,"LATTITUDE":41.97566222712531,"ADDRESS":"5242 -5250 N NORTHWEST HWY 1ST ","YEAR":2011,"DOING_BUSINESS_AS_NAME":"HABETLER BOWL INC","POP_AT_RISK":101268,"BUSINESS_TYPE":"Public Place of Amusement","LEGAL_NAME":"HABETLER BOWL, INC.","LONGITUDE":-87.76952928845782},
{"STATE":"IL","ZIP":60628,"LATTITUDE":41.67489441998742,"ADDRESS":"12050-12054 S DOTY AVE  ","YEAR":2011,"DOING_BUSINESS_AS_NAME":"THE FACTORY A GENTLEMEN'S CLUB","POP_AT_RISK":26061,"BUSINESS_TYPE":"Public Place of Amusement","LEGAL_NAME":"THE GOATEE GROUP LP","LONGITUDE":-87.60172305228825},
{"STATE":"IL","ZIP":60628,"LATTITUDE":41.66920524810207,"ADDRESS":"12345 S HALSTED ST  ","YEAR":2011,"DOING_BUSINESS_AS_NAME":"HALSTED BOWL","POP_AT_RISK":185922,"BUSINESS_TYPE":"Public Place of Amusement","LEGAL_NAME":"THE SIX GRANDS, CO.","LONGITUDE":-87.6414739367472},
{"STATE":"IL","ZIP":60652,"LATTITUDE":41.737561016836565,"ADDRESS":"3900 W COLUMBUS AVE  ","YEAR":2011,"DOING_BUSINESS_AS_NAME":"BLUE BIRD BOWL","POP_AT_RISK":100932,"BUSINESS_TYPE":"Public Place of Amusement","LEGAL_NAME":"BLUE BIRD BOWL, INC.","LONGITUDE":-87.71916759274954},
{"STATE":"IL","ZIP":60616,"LATTITUDE":41.831172304342935,"ADDRESS":"206 E 35TH ST 2ND ","YEAR":2011,"DOING_BUSINESS_AS_NAME":"NEW GRAND TERRACE","POP_AT_RISK":34354,"BUSINESS_TYPE":"Public Place of Amusement","LEGAL_NAME":"JAMES H. LEATHERWOOD","LONGITUDE":-87.62145299065104},
{"STATE":"IL","ZIP":60620,"LATTITUDE":41.735691078577986,"ADDRESS":"1543 W 87TH ST  ","YEAR":2011,"DOING_BUSINESS_AS_NAME":"MR G SUPPER CLUB","POP_AT_RISK":388010,"BUSINESS_TYPE":"Public Place of Amusement","LEGAL_NAME":"M. V. ONE INCORPORATED","LONGITUDE":-87.66232767688463},
{"STATE":"IL","ZIP":60629,"LATTITUDE":41.78652676834002,"ADDRESS":"2748 W 59TH ST  ","YEAR":2011,"DOING_BUSINESS_AS_NAME":"RITCHIE'S","POP_AT_RISK":510840,"BUSINESS_TYPE":"Public Place of Amusement","LEGAL_NAME":"RICK'S THAT'S IT, LTD.","LONGITUDE":-87.69311455891014},
{"STATE":"IL","ZIP":60620,"LATTITUDE":41.73622612155934,"ADDRESS":"208-210 W 87TH ST  ","YEAR":2011,"DOING_BUSINESS_AS_NAME":"ICE CHATHAM THEATERS","POP_AT_RISK":160769,"BUSINESS_TYPE":"Public Place of Amusement","LEGAL_NAME":"ICE DEVELOPMENT, L.L.C.","LONGITUDE":-87.62926031189662},
{"STATE":"IL","ZIP":60624,"LATTITUDE":41.86647384666724,"ADDRESS":"3330 W ROOSEVELT RD 1ST ","YEAR":2011,"DOING_BUSINESS_AS_NAME":"ICE LAWNDALE 10 THEATERS","POP_AT_RISK":188780,"BUSINESS_TYPE":"Public Place of Amusement","LEGAL_NAME":"ICE DEVELOPMENT, L.L.C.","LONGITUDE":-87.70938651305953},
{"STATE":"IL","ZIP":60619,"LATTITUDE":41.75840352958431,"ADDRESS":"100 E 75TH ST  ","YEAR":2011,"DOING_BUSINESS_AS_NAME":"THE NEW PARK MANOR INC","POP_AT_RISK":101136,"BUSINESS_TYPE":"Public Place of Amusement","LEGAL_NAME":"THE NEW PARK MANOR INC.","LONGITUDE":-87.62145859398333},
{"STATE":"IL","ZIP":60619,"LATTITUDE":41.76053016467859,"ADDRESS":"7401 S SOUTH CHICAGO AVE  ","YEAR":2011,"DOING_BUSINESS_AS_NAME":"LEE'S UNLEADED BLUES CLUB","POP_AT_RISK":34159,"BUSINESS_TYPE":"Public Place of Amusement","LEGAL_NAME":"7401 SOUTH CHICAGO CORP.","LONGITUDE":-87.59792396776683},
{"STATE":"IL","ZIP":60612,"LATTITUDE":41.88123342371891,"ADDRESS":"2550 W MADISON ST 1ST - 3RD ","YEAR":2011,"DOING_BUSINESS_AS_NAME":"JOHNNY'S ICE HOUSE","POP_AT_RISK":93972,"BUSINESS_TYPE":"Public Place of Amusement","LEGAL_NAME":"JOHNNY'S ICE HOUSE, INC.","LONGITUDE":-87.69038958620825},
{"STATE":"IL","ZIP":60619,"LATTITUDE":41.736972872974235,"ADDRESS":"1420 E 87TH ST  1ST","YEAR":2011,"DOING_BUSINESS_AS_NAME":"MIDWEST BRIDGE UNIT, INC","POP_AT_RISK":57268,"BUSINESS_TYPE":"Public Place of Amusement","LEGAL_NAME":"MIDWEST BRIDGE UNIT INC.","LONGITUDE":-87.58939464020219},
{"STATE":"IL","ZIP":60628,"LATTITUDE":41.69074200662608,"ADDRESS":"11203 S CORLISS AVE 1 ","YEAR":2011,"DOING_BUSINESS_AS_NAME":"111TH STREET OTB","POP_AT_RISK":42012,"BUSINESS_TYPE":"Public Place of Amusement","LEGAL_NAME":"POST TIME CATERING, INC.","LONGITUDE":-87.60067790215122},
{"STATE":"IL","ZIP":60620,"LATTITUDE":41.75594978114761,"ADDRESS":"1219 W 76TH ST  ","YEAR":2011,"DOING_BUSINESS_AS_NAME":"DR. MLK, JR. PARK AND FAMILY ENTERTAINMENT CENTER","POP_AT_RISK":363447,"BUSINESS_TYPE":"Public Place of Amusement","LEGAL_NAME":"CHICAGO CITY SKATING, LLC","LONGITUDE":-87.65466615567901},
{"STATE":"IL","ZIP":60623,"LATTITUDE":41.859528939715666,"ADDRESS":"1539 S PULASKI RD  ","YEAR":2011,"DOING_BUSINESS_AS_NAME":"Livin' Clean Entertainment","POP_AT_RISK":40407,"BUSINESS_TYPE":"Public Place of Amusement","LEGAL_NAME":"CLEAN CUT BARBERSHOP P.C.","LONGITUDE":-87.72482717905926},
{"STATE":"IL","ZIP":60617,"LATTITUDE":41.67851714188012,"ADDRESS":"11919 S AVENUE O  1ST ","YEAR":2011,"DOING_BUSINESS_AS_NAME":"EASTSIDE SOCCER DOME, INC.","POP_AT_RISK":2544,"BUSINESS_TYPE":"Public Place of Amusement","LEGAL_NAME":"EASTSIDE SOCCER DOME, INC.","LONGITUDE":-87.53989365304756},
{"STATE":"IL","ZIP":60652,"LATTITUDE":41.75466012439374,"ADDRESS":"7601 S CICERO AVE  ","YEAR":2011,"DOING_BUSINESS_AS_NAME":"AMC THEATRES FORD CITY 14","POP_AT_RISK":77466,"BUSINESS_TYPE":"Public Place of Amusement","LEGAL_NAME":"AMERICAN MULTI-CINEMA, INC.","LONGITUDE":-87.74138475860521},
{"STATE":"IL","ZIP":60639,"LATTITUDE":41.91515826039369,"ADDRESS":"5530 W HOMER ST 1ST FLOORS ","YEAR":2011,"DOING_BUSINESS_AS_NAME":"AMC SHOWPLACE AT GALEWOOD CROSSINGS","POP_AT_RISK":116744,"BUSINESS_TYPE":"Public Place of Amusement","LEGAL_NAME":"AMC SHOWPLACE THEATRES, INC.","LONGITUDE":-87.7644691324168},
{"STATE":"IL","ZIP":60646,"LATTITUDE":42.01209195019808,"ADDRESS":"6000 W TOUHY AVE  ","YEAR":2011,"DOING_BUSINESS_AS_NAME":"FROZEN ROPES OF  CHICAGO, INC","POP_AT_RISK":32259,"BUSINESS_TYPE":"Public Place of Amusement","LEGAL_NAME":"FROZEN ROPES  OF CHICAGO, INC","LONGITUDE":-87.77702766484066},
{"STATE":"IL","ZIP":60666,"LATTITUDE":42.008058189255244,"ADDRESS":"12521 W TOUHY AVE ADULTWORLD ","YEAR":2011,"DOING_BUSINESS_AS_NAME":"TOUHY AVENUE VIDEO STORE","POP_AT_RISK":15272,"BUSINESS_TYPE":"Public Place of Amusement","LEGAL_NAME":"TOUHY AVENUE OPERATING COMPANY","LONGITUDE":-87.93397650361851},
{"STATE":"IL","ZIP":60624,"LATTITUDE":41.880709192327906,"ADDRESS":"4422 W MADISON ST 1 ","YEAR":2011,"DOING_BUSINESS_AS_NAME":"BRICKS SPORTS BAR & GRILL","POP_AT_RISK":257360,"BUSINESS_TYPE":"Public Place of Amusement","LEGAL_NAME":"B & B MADISON ENTERTAIMENT CORP.","LONGITUDE":-87.73643717633821},
{"STATE":"IL","ZIP":60632,"LATTITUDE":41.807649252190316,"ADDRESS":"4335 W 47TH ST  ","YEAR":2011,"DOING_BUSINESS_AS_NAME":"CHICAGO SPORTS BAR & GRILL, INC.","POP_AT_RISK":55604,"BUSINESS_TYPE":"Public Place of Amusement","LEGAL_NAME":"CHICAGO SPORTS BAR & GRILL, INC.","LONGITUDE":-87.73242906054888},
{"STATE":"IL","ZIP":60649,"LATTITUDE":41.77866211331481,"ADDRESS":"6401 S RICHARDS DR 1ST ","YEAR":2011,"DOING_BUSINESS_AS_NAME":"JACKSON PARK GOLF COURSE","POP_AT_RISK":60438,"BUSINESS_TYPE":"Public Place of Amusement","LEGAL_NAME":"JACKSON PARK GOLF MANAGEMENT, LLC","LONGITUDE":-87.57939999096837},
{"STATE":"IL","ZIP":60651,"LATTITUDE":41.895044142418,"ADDRESS":"5200 W CHICAGO AVE  ","YEAR":2011,"DOING_BUSINESS_AS_NAME":"LANDMARK DELI & RESTAURANT \/ CHEZ ROUE","POP_AT_RISK":287640,"BUSINESS_TYPE":"Public Place of Amusement","LEGAL_NAME":"POTPOURRI FURNITURE LIQUIDATORS, INC.","LONGITUDE":-87.75566532904773},
}