{
{"STATE":"IL","ZIP":60656,"LATTITUDE":41.97609709532233,"ADDRESS":"8718 W SUMMERDALE AVE  2N","YEAR":2013,"DOING_BUSINESS_AS_NAME":"RUTH M REYES","POP_AT_RISK":41412,"BUSINESS_TYPE":"Peddler License","LEGAL_NAME":"RUTH M REYES","LONGITUDE":-87.84480162731042},
{"STATE":"IL","ZIP":60635,"LATTITUDE":41.80367870154325,"ADDRESS":"4913 S KOLIN  2ND ","YEAR":2013,"DOING_BUSINESS_AS_NAME":"CARMEN ZAPATA","POP_AT_RISK":105012,"BUSINESS_TYPE":"Peddler License","LEGAL_NAME":"CARMEN ZAPATA","LONGITUDE":-87.73188810177032},
{"STATE":"IL","ZIP":60645,"LATTITUDE":42.015060035775996,"ADDRESS":"7344 N ALBANY AVE 1 ","YEAR":2013,"DOING_BUSINESS_AS_NAME":"ERICK G. MATEO","POP_AT_RISK":31488,"BUSINESS_TYPE":"Peddler License","LEGAL_NAME":"ERICK G. MATEO","LONGITUDE":-87.70689724240283},
{"STATE":"IL","ZIP":60646,"LATTITUDE":41.99691044531468,"ADDRESS":"6333 N LEONA AVE  ","YEAR":2013,"DOING_BUSINESS_AS_NAME":"HOWARD K. KADET","POP_AT_RISK":29738,"BUSINESS_TYPE":"Peddler License","LEGAL_NAME":"HOWARD K. KADET","LONGITUDE":-87.75384375298215},
{"STATE":"IL","ZIP":60655,"LATTITUDE":41.68556100263544,"ADDRESS":"11431 S ST LOUIS AVE  ","YEAR":2013,"DOING_BUSINESS_AS_NAME":"JOSHUA JAMES SOICH","POP_AT_RISK":73892,"BUSINESS_TYPE":"Peddler License","LEGAL_NAME":"JOSHUA J. SOICH","LONGITUDE":-87.70778792327808},
{"STATE":"IL","ZIP":60644,"LATTITUDE":41.89293424018102,"ADDRESS":"703 N AUSTIN BLVD  2A","YEAR":2013,"DOING_BUSINESS_AS_NAME":"RUTHIE M DUNCAN","POP_AT_RISK":52104,"BUSINESS_TYPE":"Peddler License","LEGAL_NAME":"RUTHIE M DUNCAN","LONGITUDE":-87.77492356425344},
{"STATE":"IL","ZIP":60646,"LATTITUDE":41.987234552868365,"ADDRESS":"5823 N MULLIGAN AVE  ","YEAR":2013,"DOING_BUSINESS_AS_NAME":"SCOTT A. MARVEL","POP_AT_RISK":36314,"BUSINESS_TYPE":"Peddler License","LEGAL_NAME":"SCOTT A. MARVEL","LONGITUDE":-87.7862944557037},
{"STATE":"IL","ZIP":60634,"LATTITUDE":41.948743327529854,"ADDRESS":"3750 N NEW ENGLAND AVE  ","YEAR":2013,"DOING_BUSINESS_AS_NAME":"KIMBERLY A. COOK","POP_AT_RISK":36971,"BUSINESS_TYPE":"Peddler License","LEGAL_NAME":"KIMBERLY A. COOK","LONGITUDE":-87.7986904335735},
{"STATE":"IL","ZIP":60638,"LATTITUDE":41.798900444532265,"ADDRESS":"5122 S NASHVILLE AVE  ","YEAR":2013,"DOING_BUSINESS_AS_NAME":"PAMELA M. STARON","POP_AT_RISK":57873,"BUSINESS_TYPE":"Peddler License","LEGAL_NAME":"PAMELA M. STARON","LONGITUDE":-87.78703221954771},
{"STATE":"IL","ZIP":60827,"LATTITUDE":41.65558269273145,"ADDRESS":"13201 S DR MARTIN LUTHER KING JR DR  ","YEAR":2013,"DOING_BUSINESS_AS_NAME":"TIFFANY M CONWAY","POP_AT_RISK":8149,"BUSINESS_TYPE":"Peddler License","LEGAL_NAME":"TIFFANY M CONWAY","LONGITUDE":-87.61301880788268},
{"STATE":"IL","ZIP":60624,"LATTITUDE":41.86699618215448,"ADDRESS":"4528 W GRENSHAW ST  ","YEAR":2013,"DOING_BUSINESS_AS_NAME":"CATHERINE BURNETT","POP_AT_RISK":48000,"BUSINESS_TYPE":"Peddler License","LEGAL_NAME":"CATHERINE BURNETT","LONGITUDE":-87.73865305959102},
{"STATE":"IL","ZIP":60707,"LATTITUDE":41.91900397937436,"ADDRESS":"2131 N NORDICA AVE  ","YEAR":2013,"DOING_BUSINESS_AS_NAME":"RICHARD FRANK WELLS","POP_AT_RISK":38446,"BUSINESS_TYPE":"Peddler License","LEGAL_NAME":"RICHARD FRANK WELLS","LONGITUDE":-87.80228131029853},
{"STATE":"IL","ZIP":60638,"LATTITUDE":41.778430578549994,"ADDRESS":"6242 S MASON AVE  ","YEAR":2013,"DOING_BUSINESS_AS_NAME":"FELIPE RODRIGUEZ SR.","POP_AT_RISK":18938,"BUSINESS_TYPE":"Peddler License","LEGAL_NAME":"FELIPE RODRIGUEZ SR.","LONGITUDE":-87.77044084281081},
{"STATE":"IL","ZIP":60634,"LATTITUDE":41.95725462149749,"ADDRESS":"4215 N MOBILE AVE  ","YEAR":2013,"DOING_BUSINESS_AS_NAME":"KENNETH STRINGER III","POP_AT_RISK":36185,"BUSINESS_TYPE":"Peddler License","LEGAL_NAME":"KENNETH STRINGER III","LONGITUDE":-87.7841114173544},
{"STATE":"IL","ZIP":60643,"LATTITUDE":41.674052619031144,"ADDRESS":"12056 S JUSTINE ST 1 ","YEAR":2013,"DOING_BUSINESS_AS_NAME":"ROBERT L. JOHNSON JR.","POP_AT_RISK":50720,"BUSINESS_TYPE":"Peddler License","LEGAL_NAME":"ROBERT L. JOHNSON, JR","LONGITUDE":-87.66020570250922},
{"STATE":"IL","ZIP":60631,"LATTITUDE":42.01219322871207,"ADDRESS":"7715 W JARLATH ST  ","YEAR":2013,"DOING_BUSINESS_AS_NAME":"JOSE M TORRES SR.","POP_AT_RISK":19740,"BUSINESS_TYPE":"Peddler License","LEGAL_NAME":"JOSE MANUEL TORRES SR.","LONGITUDE":-87.81948791220417},
{"STATE":"IL","ZIP":60652,"LATTITUDE":41.73711825613592,"ADDRESS":"8538 S KOLMAR AVE  ","YEAR":2013,"DOING_BUSINESS_AS_NAME":"MARIA PASCUALA ALMARAZ","POP_AT_RISK":38886,"BUSINESS_TYPE":"Peddler License","LEGAL_NAME":"MARIA PASCUALA ALMARAZ","LONGITUDE":-87.73501123834968},
{"STATE":"IL","ZIP":60631,"LATTITUDE":41.997447676366924,"ADDRESS":"6502 W DEVON AVE  ","YEAR":2013,"DOING_BUSINESS_AS_NAME":"SHARON DAWN MIDDLETON","POP_AT_RISK":26368,"BUSINESS_TYPE":"Peddler License","LEGAL_NAME":"SHARON DAWN  MIDDLETON","LONGITUDE":-87.79002110020325},
{"STATE":"IL","ZIP":60634,"LATTITUDE":41.93945406332852,"ADDRESS":"3300 N PANAMA AVE  ","YEAR":2013,"DOING_BUSINESS_AS_NAME":"ALLISON VICTORIA PINCSAK","POP_AT_RISK":27736,"BUSINESS_TYPE":"Peddler License","LEGAL_NAME":"ALLISON VICTORIA PINCSAK","LONGITUDE":-87.82898482892645},
}