{
{"STATE":"IL","ZIP":60609,"LATTITUDE":41.80865270371698,"ADDRESS":"1836 W 47TH ST 1ST ","YEAR":2013,"DOING_BUSINESS_AS_NAME":"PARADISE DE AVES","POP_AT_RISK":465985,"BUSINESS_TYPE":"Pet Shop","LEGAL_NAME":"JOSE M PEREZ","LONGITUDE":-87.67127397220543},
{"STATE":"IL","ZIP":60623,"LATTITUDE":41.84432191601632,"ADDRESS":"3435 1\/2 W 26TH ST 1ST ","YEAR":2013,"DOING_BUSINESS_AS_NAME":"EL ARCA DE NOE","POP_AT_RISK":281264,"BUSINESS_TYPE":"Pet Shop","LEGAL_NAME":"AGUSTIN MARIN","LONGITUDE":-87.7112736592086},
{"STATE":"IL","ZIP":60623,"LATTITUDE":41.84442530840473,"ADDRESS":"3121 W 26TH ST  ","YEAR":2013,"DOING_BUSINESS_AS_NAME":"EL ARCA DE NOE II","POP_AT_RISK":206808,"BUSINESS_TYPE":"Pet Shop","LEGAL_NAME":"AGUSTIN MARIN","LONGITUDE":-87.70349185835146},
{"STATE":"IL","ZIP":60607,"LATTITUDE":41.86888971111206,"ADDRESS":"1101 S CANAL ST  ","YEAR":2013,"DOING_BUSINESS_AS_NAME":"PETSMART","POP_AT_RISK":259824,"BUSINESS_TYPE":"Pet Shop","LEGAL_NAME":"PETSMART, INC.","LONGITUDE":-87.63909892808796},
{"STATE":"IL","ZIP":60647,"LATTITUDE":41.93014937988974,"ADDRESS":"2665 N ELSTON AVE  ","YEAR":2013,"DOING_BUSINESS_AS_NAME":"PETSMART #428","POP_AT_RISK":886407,"BUSINESS_TYPE":"Pet Shop","LEGAL_NAME":"PETSMART, INC.","LONGITUDE":-87.68464688578122},
{"STATE":"IL","ZIP":60642,"LATTITUDE":41.90651211514793,"ADDRESS":"1415 N KINGSBURY ST  ","YEAR":2013,"DOING_BUSINESS_AS_NAME":"PETSMART, INC. (#2262)","POP_AT_RISK":207240,"BUSINESS_TYPE":"Pet Shop","LEGAL_NAME":"PETSMART, INC.","LONGITUDE":-87.6502973995951},
{"STATE":"IL","ZIP":60641,"LATTITUDE":41.953598545339084,"ADDRESS":"4512 W IRVING PARK RD 1ST A","YEAR":2013,"DOING_BUSINESS_AS_NAME":"CHUBBROCKS PET SHOP","POP_AT_RISK":708988,"BUSINESS_TYPE":"Pet Shop","LEGAL_NAME":"CHUBBROCKS INC.","LONGITUDE":-87.7411646259312},
{"STATE":"IL","ZIP":60610,"LATTITUDE":41.910293711213754,"ADDRESS":"1538 N WELLS ST  ","YEAR":2013,"DOING_BUSINESS_AS_NAME":"OLD TOWN AQUARIUM","POP_AT_RISK":667950,"BUSINESS_TYPE":"Pet Shop","LEGAL_NAME":"AQUTIC REALM INC","LONGITUDE":-87.63483038036856},
{"STATE":"IL","ZIP":60707,"LATTITUDE":41.92345973283187,"ADDRESS":"6919 W GRAND AVE  ","YEAR":2013,"DOING_BUSINESS_AS_NAME":"TOP DOGS","POP_AT_RISK":351736,"BUSINESS_TYPE":"Pet Shop","LEGAL_NAME":"DARRELL B LINDSEY","LONGITUDE":-87.79884307511517},
{"STATE":"IL","ZIP":60625,"LATTITUDE":41.98151130262692,"ADDRESS":"5505 1\/2 N LINCOLN AVE 1ST ","YEAR":2013,"DOING_BUSINESS_AS_NAME":"BIRDMAN'S EXOTICS","POP_AT_RISK":562716,"BUSINESS_TYPE":"Pet Shop","LEGAL_NAME":"EDWARD BANNO ICHO","LONGITUDE":-87.69265480197147},
{"STATE":"IL","ZIP":60649,"LATTITUDE":41.75196502179656,"ADDRESS":"2734 E 79TH ST 1ST ","YEAR":2013,"DOING_BUSINESS_AS_NAME":"BLUE MAGIC PET SHOP","POP_AT_RISK":524052,"BUSINESS_TYPE":"Pet Shop","LEGAL_NAME":"JACQUELINE R WILSON","LONGITUDE":-87.55701855522801},
{"STATE":"IL","ZIP":60707,"LATTITUDE":41.90913139554721,"ADDRESS":"6804 W NORTH AVE  ","YEAR":2013,"DOING_BUSINESS_AS_NAME":"ONE LUCKY PUPPY, INC.","POP_AT_RISK":115112,"BUSINESS_TYPE":"Pet Shop","LEGAL_NAME":"ONE LUCKY PUPPY, INC.","LONGITUDE":-87.79516676645979},
}