{
{"STATE":"IL","ZIP":60652,"LATTITUDE":41.75504427973339,"ADDRESS":"7600 S PULASKI RD 1ST 2N","YEAR":2013,"DOING_BUSINESS_AS_NAME":"JAWDAT SALEM","POP_AT_RISK":88272,"BUSINESS_TYPE":"Expediter - Class B","LEGAL_NAME":"JAWDAT SALEM","LONGITUDE":-87.72231551402173},
{"STATE":"IL","ZIP":60647,"LATTITUDE":41.921483071021285,"ADDRESS":"2026 W WEBSTER AVE 3RD ","YEAR":2013,"DOING_BUSINESS_AS_NAME":"ANTHONY ORTIZ","POP_AT_RISK":331324,"BUSINESS_TYPE":"Expediter - Class B","LEGAL_NAME":"ANTHONY ORTIZ","LONGITUDE":-87.6788476457194},
{"STATE":"IL","ZIP":60634,"LATTITUDE":41.93394574208832,"ADDRESS":"2942 N NEW ENGLAND AVE  ","YEAR":2013,"DOING_BUSINESS_AS_NAME":"LUCYNA RUSZAJ","POP_AT_RISK":275793,"BUSINESS_TYPE":"Expediter - Class B","LEGAL_NAME":"LUCYNA RUSZAJ","LONGITUDE":-87.79816306586932},
{"STATE":"IL","ZIP":60640,"LATTITUDE":41.97348332585818,"ADDRESS":"5027 N BROADWAY   ","YEAR":2013,"DOING_BUSINESS_AS_NAME":"GIANG T NGUYEN","POP_AT_RISK":1383371,"BUSINESS_TYPE":"Expediter - Class B","LEGAL_NAME":"GIANG T NGUYEN","LONGITUDE":-87.65964293319709},
{"STATE":"IL","ZIP":60629,"LATTITUDE":41.781968095273925,"ADDRESS":"6128 S MAPLEWOOD AVE 1ST ","YEAR":2013,"DOING_BUSINESS_AS_NAME":"CHIICAGO CITY EXPEDITERS","POP_AT_RISK":518419,"BUSINESS_TYPE":"Expediter - Class B","LEGAL_NAME":"SHARON D BURCH","LONGITUDE":-87.68752911519721},
{"STATE":"IL","ZIP":60618,"LATTITUDE":41.94058303002447,"ADDRESS":"2022 W MELROSE ST 1ST ","YEAR":2013,"DOING_BUSINESS_AS_NAME":"GSJ DESIGN","POP_AT_RISK":1161741,"BUSINESS_TYPE":"Expediter - Class B","LEGAL_NAME":"JOANNA DRUZGALA","LONGITUDE":-87.67933140636097},
{"STATE":"IL","ZIP":60601,"LATTITUDE":41.885822047853026,"ADDRESS":"203 N LA SALLE ST 1 ","YEAR":2013,"DOING_BUSINESS_AS_NAME":"PAPA CTO CONSULTING","POP_AT_RISK":127944,"BUSINESS_TYPE":"Expediter - Class B","LEGAL_NAME":"JULIO A. GARCIA","LONGITUDE":-87.63230373508567},
{"STATE":"IL","ZIP":60015,"LATTITUDE":42.01742202676385,"ADDRESS":"2739  BIRCHWOOD LN  ","YEAR":2013,"DOING_BUSINESS_AS_NAME":"EXPEDITER","POP_AT_RISK":392850,"BUSINESS_TYPE":"Expediter - Class B","LEGAL_NAME":"KASIA KRASOWSKA","LONGITUDE":-87.6988139454781},
{"STATE":"IL","ZIP":60632,"LATTITUDE":41.794674163871,"ADDRESS":"5413 S ELSDON AVE 2N ","YEAR":2013,"DOING_BUSINESS_AS_NAME":"MARIA G. ORTEGA","POP_AT_RISK":522324,"BUSINESS_TYPE":"Expediter - Class B","LEGAL_NAME":"MARIA G. ORTEGA","LONGITUDE":-87.71381571801867},
{"STATE":"IL","ZIP":60641,"LATTITUDE":41.94807916723761,"ADDRESS":"4700 W WAVELAND AVE 3RD 3","YEAR":2013,"DOING_BUSINESS_AS_NAME":"PERMIT EXPRESS","POP_AT_RISK":314425,"BUSINESS_TYPE":"Expediter - Class B","LEGAL_NAME":"THOMAS  WASSMER","LONGITUDE":-87.74471700316647},
{"STATE":"IL","ZIP":60642,"LATTITUDE":41.91193925669855,"ADDRESS":"1642 N BOSWORTH AVE 1 1C","YEAR":2013,"DOING_BUSINESS_AS_NAME":"NICOLAE GARNEATA","POP_AT_RISK":331194,"BUSINESS_TYPE":"Expediter - Class B","LEGAL_NAME":"NICOLAE GARNEATA","LONGITUDE":-87.66672362410895},
{"STATE":"IL","ZIP":60707,"LATTITUDE":41.91513575400795,"ADDRESS":"1925 N HARLEM AVE 1 ","YEAR":2013,"DOING_BUSINESS_AS_NAME":"REGINALD SANDERS","POP_AT_RISK":166965,"BUSINESS_TYPE":"Expediter - Class B","LEGAL_NAME":"REGINALD SANDERS","LONGITUDE":-87.80582621181154},
{"STATE":"IL","ZIP":60632,"LATTITUDE":41.81003268687499,"ADDRESS":"4542 S KNOX AVE 1ST ","YEAR":2013,"DOING_BUSINESS_AS_NAME":"JESUS ELIZONDO JR","POP_AT_RISK":122868,"BUSINESS_TYPE":"Expediter - Class B","LEGAL_NAME":"JESUS ELIZONDO JR","LONGITUDE":-87.7397143711772},
{"STATE":"IL","ZIP":60638,"LATTITUDE":41.777007321473675,"ADDRESS":"5649 W 63RD PL 2 ","YEAR":2013,"DOING_BUSINESS_AS_NAME":"DCPS","POP_AT_RISK":18938,"BUSINESS_TYPE":"Expediter - Class B","LEGAL_NAME":"KARRIE ANN MCEVOY","LONGITUDE":-87.76363040725518},
{"STATE":"IL","ZIP":60612,"LATTITUDE":41.893271864900484,"ADDRESS":"641 N WESTERN AVE  ","YEAR":2013,"DOING_BUSINESS_AS_NAME":"Windy City Contracting\/Consulting","POP_AT_RISK":748125,"BUSINESS_TYPE":"Expediter - Class B","LEGAL_NAME":"Joseph M. Glorioso","LONGITUDE":-87.68662305904685},
{"STATE":"IL","ZIP":60625,"LATTITUDE":41.966190225563025,"ADDRESS":"4650 N ST LOUIS AVE 3-C 3RD","YEAR":2013,"DOING_BUSINESS_AS_NAME":"AC DESIGN AND CONSTRUCTION","POP_AT_RISK":283360,"BUSINESS_TYPE":"Expediter - Class B","LEGAL_NAME":"MARTHA-RUTH GARCIA","LONGITUDE":-87.715889483878},
{"STATE":"IL","ZIP":60641,"LATTITUDE":41.936004575344256,"ADDRESS":"3024 N KNOX AVE 1 ","YEAR":2013,"DOING_BUSINESS_AS_NAME":"PERMITEX","POP_AT_RISK":324756,"BUSINESS_TYPE":"Expediter - Class B","LEGAL_NAME":"PATRICIA E POLLARD","LONGITUDE":-87.74327754453236},
{"STATE":"IL","ZIP":60643,"LATTITUDE":41.69945191236182,"ADDRESS":"1710 W 107TH ST 1ST ","YEAR":2013,"DOING_BUSINESS_AS_NAME":"ROBERT STACKER, JR","POP_AT_RISK":111756,"BUSINESS_TYPE":"Expediter - Class B","LEGAL_NAME":"ROBERT STACKER, JR","LONGITUDE":-87.66497423262838},
{"STATE":"IL","ZIP":60601,"LATTITUDE":41.88463624920333,"ADDRESS":"155 N MICHIGAN AVE  730","YEAR":2013,"DOING_BUSINESS_AS_NAME":"ADVANTAGE PERMIT EXPEDITING SERVICES","POP_AT_RISK":116230,"BUSINESS_TYPE":"Expediter - Class B","LEGAL_NAME":"RENESE JOSEPH-JOHNSON","LONGITUDE":-87.62431388722874},
{"STATE":"IL","ZIP":60656,"LATTITUDE":41.97734070250861,"ADDRESS":"8503 W CATHERINE AVE 2ND 204","YEAR":2013,"DOING_BUSINESS_AS_NAME":"BIVRIC PERMIT EXPEDITING","POP_AT_RISK":76616,"BUSINESS_TYPE":"Expediter - Class B","LEGAL_NAME":"RICHARD D. BIVINS JR.","LONGITUDE":-87.83926767247684},
{"STATE":"IL","ZIP":60625,"LATTITUDE":41.962726430955236,"ADDRESS":"3749 W SUNNYSIDE AVE 3RD ","YEAR":2013,"DOING_BUSINESS_AS_NAME":"JMJ EXPRESS","POP_AT_RISK":126354,"BUSINESS_TYPE":"Expediter - Class B","LEGAL_NAME":"JELISIJE MATUGA JOSIFOVIC","LONGITUDE":-87.72248225434865},
{"STATE":"IL","ZIP":60629,"LATTITUDE":41.775118403343754,"ADDRESS":"6457 S KEDVALE AVE 1ST ","YEAR":2013,"DOING_BUSINESS_AS_NAME":"JAIME JONATHAN ENCARNACION","POP_AT_RISK":250896,"BUSINESS_TYPE":"Expediter - Class B","LEGAL_NAME":"JAIME JONATHAN ENCARNACION","LONGITUDE":-87.72618354057356},
}