{
{"STATE":"IL","ZIP":60637,"LATTITUDE":41.78478381220476,"ADDRESS":"6040 S HARPER AVE 6 502","YEAR":2015,"DOING_BUSINESS_AS_NAME":"DARREN MCCOY","POP_AT_RISK":32763,"BUSINESS_TYPE":"Peddler License","LEGAL_NAME":"DARREN MCCOY","LONGITUDE":-87.58828902988566},
{"STATE":"IL","ZIP":60638,"LATTITUDE":41.795909665974435,"ADDRESS":"5310 S MAYFIELD AVE 1 ","YEAR":2015,"DOING_BUSINESS_AS_NAME":"RICARDO ROMO","POP_AT_RISK":48782,"BUSINESS_TYPE":"Peddler License","LEGAL_NAME":"RICARDO ROMO","LONGITUDE":-87.76986847304248},
{"STATE":"IL","ZIP":60608,"LATTITUDE":41.835557250055146,"ADDRESS":"3233 S GREEN ST 1 ","YEAR":2015,"DOING_BUSINESS_AS_NAME":"PETER G. MACK","POP_AT_RISK":76228,"BUSINESS_TYPE":"Peddler License","LEGAL_NAME":"PETER G. MACK","LONGITUDE":-87.64704473461025},
{"STATE":"IL","ZIP":60804,"LATTITUDE":41.86545291278558,"ADDRESS":"5701 W ROOSEVELT   2A","YEAR":2015,"DOING_BUSINESS_AS_NAME":"THERESA JETT","POP_AT_RISK":96388,"BUSINESS_TYPE":"Peddler License","LEGAL_NAME":"THERESA  JETT","LONGITUDE":-87.76681660684827},
{"STATE":"IL","ZIP":60645,"LATTITUDE":42.01663303446951,"ADDRESS":"2523 W FARGO AVE  ","YEAR":2015,"DOING_BUSINESS_AS_NAME":"MATTHEW FARMER","POP_AT_RISK":95028,"BUSINESS_TYPE":"Peddler License","LEGAL_NAME":"MATTHEW FARMER","LONGITUDE":-87.69344667517494},
{"STATE":"IL","ZIP":60628,"LATTITUDE":41.66030706909066,"ADDRESS":"12839 S LOWE AVE 1 ","YEAR":2015,"DOING_BUSINESS_AS_NAME":"SHAWNTELL J. LEE","POP_AT_RISK":12940,"BUSINESS_TYPE":"Peddler License","LEGAL_NAME":"SHAWNTELL J. LEE","LONGITUDE":-87.63757404295332},
{"STATE":"IL","ZIP":60652,"LATTITUDE":41.74074924918932,"ADDRESS":"3244 W 84TH ST  ","YEAR":2015,"DOING_BUSINESS_AS_NAME":"LORRAINE MCGREGOR","POP_AT_RISK":27818,"BUSINESS_TYPE":"Peddler License","LEGAL_NAME":"LORRAINE MCGREGOR","LONGITUDE":-87.70393323120948},
{"STATE":"IL","ZIP":60655,"LATTITUDE":41.69691968234274,"ADDRESS":"3227 W 108TH ST 1ST ","YEAR":2015,"DOING_BUSINESS_AS_NAME":"PAUL RYAN O'GRADY","POP_AT_RISK":38008,"BUSINESS_TYPE":"Peddler License","LEGAL_NAME":"PAUL RYAN O'GRADY","LONGITUDE":-87.70210158951616},
{"STATE":"IL","ZIP":60623,"LATTITUDE":41.85580664952533,"ADDRESS":"1840 S KARLOV AVE 2 204","YEAR":2015,"DOING_BUSINESS_AS_NAME":"RONALD GARRETT JR","POP_AT_RISK":52282,"BUSINESS_TYPE":"Peddler License","LEGAL_NAME":"RONALD GARRETT JR","LONGITUDE":-87.72741965945279},
{"STATE":"IL","ZIP":60616,"LATTITUDE":41.840590090033814,"ADDRESS":"2951 S DR MARTIN LUTHER KING JR DR 1 ","YEAR":2015,"DOING_BUSINESS_AS_NAME":"KEVIN ANTHONY CRUZ","POP_AT_RISK":24062,"BUSINESS_TYPE":"Peddler License","LEGAL_NAME":"KEVIN ANTHONY CRUZ","LONGITUDE":-87.61701727569529},
{"STATE":"IL","ZIP":60643,"LATTITUDE":41.71487939013476,"ADDRESS":"9854 S CHARLES ST  ","YEAR":2015,"DOING_BUSINESS_AS_NAME":"MALEKE J. CLEMMONS","POP_AT_RISK":25123,"BUSINESS_TYPE":"Peddler License","LEGAL_NAME":"MALEKE J. CLEMMONS","LONGITUDE":-87.66207382289417},
{"STATE":"IL","ZIP":60629,"LATTITUDE":41.773665178487775,"ADDRESS":"6540 S KENNETH AVE  ","YEAR":2015,"DOING_BUSINESS_AS_NAME":"ARMANDO SERNA-LARA","POP_AT_RISK":27879,"BUSINESS_TYPE":"Peddler License","LEGAL_NAME":"ARMANDO SERNA- LARA","LONGITUDE":-87.7337546390289},
{"STATE":"IL","ZIP":60632,"LATTITUDE":41.80455125560236,"ADDRESS":"4843 S KILPATRICK AVE  ","YEAR":2015,"DOING_BUSINESS_AS_NAME":"DAWN M. RADOVANOVIC","POP_AT_RISK":22701,"BUSINESS_TYPE":"Peddler License","LEGAL_NAME":"DAWN M. RADOVANOVIC","LONGITUDE":-87.74047872789968},
{"STATE":"IL","ZIP":60643,"LATTITUDE":41.69122711362856,"ADDRESS":"11121 S LONGWOOD DR  ","YEAR":2015,"DOING_BUSINESS_AS_NAME":"JAMES ROBERT CRAVEN","POP_AT_RISK":19607,"BUSINESS_TYPE":"Peddler License","LEGAL_NAME":"JAMES ROBERT CRAVEN","LONGITUDE":-87.67192990135744},
{"STATE":"IL","ZIP":60632,"LATTITUDE":41.810052057737316,"ADDRESS":"4559 S TROY ST  ","YEAR":2015,"DOING_BUSINESS_AS_NAME":"MARIA JACINTA SERRANO","POP_AT_RISK":53845,"BUSINESS_TYPE":"Peddler License","LEGAL_NAME":"MARIA JACINTA SERRANO","LONGITUDE":-87.70267078516676},
{"STATE":"IL","ZIP":60634,"LATTITUDE":41.93886562434502,"ADDRESS":"3231 N ORIOLE AVE  ","YEAR":2015,"DOING_BUSINESS_AS_NAME":"DOUGLAS EDWARD BRAMMER","POP_AT_RISK":35096,"BUSINESS_TYPE":"Peddler License","LEGAL_NAME":"DOUGLAS EDWARD BRAMMER","LONGITUDE":-87.8164039110251},
{"STATE":"IL","ZIP":60652,"LATTITUDE":41.737033807788194,"ADDRESS":"8545 S KOLIN AVE  ","YEAR":2015,"DOING_BUSINESS_AS_NAME":"JOSEFINA CASTRO VARGAS","POP_AT_RISK":19310,"BUSINESS_TYPE":"Peddler License","LEGAL_NAME":"JOSEFINA CASTRO VARGAS","LONGITUDE":-87.72985902397937},
{"STATE":"IL","ZIP":60638,"LATTITUDE":41.779596736587074,"ADDRESS":"6158 S NARRAGANSETT AVE  ","YEAR":2015,"DOING_BUSINESS_AS_NAME":"MATTHEW GRANT BALZEKAS","POP_AT_RISK":55248,"BUSINESS_TYPE":"Peddler License","LEGAL_NAME":"MATTHEW GRANT BALZEKAS","LONGITUDE":-87.78148025635566},
{"STATE":"IL","ZIP":60617,"LATTITUDE":41.69663956776719,"ADDRESS":"10921 S EWING AVE  ","YEAR":2015,"DOING_BUSINESS_AS_NAME":"LEONARDO JIMENEZ-RAMIREZ","POP_AT_RISK":17150,"BUSINESS_TYPE":"Peddler License","LEGAL_NAME":"LEONARDO JIMENEZ-RAMIREZ","LONGITUDE":-87.53513612221471},
{"STATE":"IL","ZIP":60646,"LATTITUDE":42.00935494983697,"ADDRESS":"7041 N IONIA AVE 1 ","YEAR":2015,"DOING_BUSINESS_AS_NAME":"SEAN THOMAS GOEBELBECKER","POP_AT_RISK":21506,"BUSINESS_TYPE":"Peddler License","LEGAL_NAME":"SEAN THOMAS GOEBELBECKER","LONGITUDE":-87.77532344294809},
{"STATE":"IL","ZIP":60634,"LATTITUDE":41.95079505489929,"ADDRESS":"3900 N OCONTO AVE  ","YEAR":2015,"DOING_BUSINESS_AS_NAME":"JERZY MIROSLAW UMYSZKIEWICZ","POP_AT_RISK":59806,"BUSINESS_TYPE":"Peddler License","LEGAL_NAME":"JERZY MIROSLAW UMYSZKIEWICZ","LONGITUDE":-87.80855566703643},
{"STATE":"IL","ZIP":60630,"LATTITUDE":41.96834122814656,"ADDRESS":"6241 W GUNNISON ST  ","YEAR":2015,"DOING_BUSINESS_AS_NAME":"YAZMIN ALEJANDRA RODRIGUEZ VERTIZ","POP_AT_RISK":39362,"BUSINESS_TYPE":"Peddler License","LEGAL_NAME":"YAZMIN ALEJANDRA RODRIGUEZ VERTIZ","LONGITUDE":-87.78475711254994},
}