{
{"STATE":"IL","ZIP":60655,"LATTITUDE":41.69151197333339,"ADDRESS":"3001 W 111TH ST 1 1","YEAR":2011,"DOING_BUSINESS_AS_NAME":"MYATT INC.","POP_AT_RISK":128358,"BUSINESS_TYPE":"Automatic Amusement Device Operator","LEGAL_NAME":"MYATT INC.","LONGITUDE":-87.69620755883692},
{"STATE":"IL","ZIP":60619,"LATTITUDE":41.765626134481124,"ADDRESS":"437 E 71ST ST 1ST ","YEAR":2011,"DOING_BUSINESS_AS_NAME":"A & C AMUSEMENTS","POP_AT_RISK":104037,"BUSINESS_TYPE":"Automatic Amusement Device Operator","LEGAL_NAME":"ANTHONY MCCOY","LONGITUDE":-87.61382457634382},
{"STATE":"IL","ZIP":60625,"LATTITUDE":41.9778812680018,"ADDRESS":"2214 W BERWYN AVE  1","YEAR":2011,"DOING_BUSINESS_AS_NAME":"COMPACT DISC JUKE BOX AMUSE\/CO","POP_AT_RISK":305130,"BUSINESS_TYPE":"Automatic Amusement Device Operator","LEGAL_NAME":"DIXON WHITSON","LONGITUDE":-87.68496640858088},
{"STATE":"IL","ZIP":60630,"LATTITUDE":41.971416396429284,"ADDRESS":"4939 N MASON AVE  1ST","YEAR":2011,"DOING_BUSINESS_AS_NAME":"FRANK SCHMIDT","POP_AT_RISK":200445,"BUSINESS_TYPE":"Automatic Amusement Device Operator","LEGAL_NAME":"FRANK SCHMIDT","LONGITUDE":-87.77690509797485},
{"STATE":"IL","ZIP":60619,"LATTITUDE":41.758699772371656,"ADDRESS":"810 E 75TH ST 1 ","YEAR":2011,"DOING_BUSINESS_AS_NAME":"NEW ERA AMUSEMENT","POP_AT_RISK":94383,"BUSINESS_TYPE":"Automatic Amusement Device Operator","LEGAL_NAME":"HENRY W HAZEL","LONGITUDE":-87.60490128312843},
{"STATE":"IL","ZIP":60637,"LATTITUDE":41.772310687917496,"ADDRESS":"1547 E 67TH PL  ","YEAR":2011,"DOING_BUSINESS_AS_NAME":"SOUTHWAY MUSIC CO","POP_AT_RISK":383550,"BUSINESS_TYPE":"Automatic Amusement Device Operator","LEGAL_NAME":"JAMES FLEMING","LONGITUDE":-87.58687277808008},
{"STATE":"IL","ZIP":60653,"LATTITUDE":41.82371315852375,"ADDRESS":"337 1\/2 E PERSHING RD 2 ","YEAR":2011,"DOING_BUSINESS_AS_NAME":"SNIPE & SONS","POP_AT_RISK":508968,"BUSINESS_TYPE":"Automatic Amusement Device Operator","LEGAL_NAME":"ROBERTA SNIPE","LONGITUDE":-87.61773403140582},
{"STATE":"IL","ZIP":60618,"LATTITUDE":41.93739494901925,"ADDRESS":"3057 N ROCKWELL ST 1 ","YEAR":2011,"DOING_BUSINESS_AS_NAME":"DENNIS GEORGES","POP_AT_RISK":478829,"BUSINESS_TYPE":"Automatic Amusement Device Operator","LEGAL_NAME":"DENNIS GEORGES","LONGITUDE":-87.69273768966114},
{"STATE":"IL","ZIP":60607,"LATTITUDE":41.887132363404234,"ADDRESS":"312 N MAY ST  ","YEAR":2011,"DOING_BUSINESS_AS_NAME":"AMUSEMENT VIDEO GAMES","POP_AT_RISK":76032,"BUSINESS_TYPE":"Automatic Amusement Device Operator","LEGAL_NAME":"PAVEL STRUGACH","LONGITUDE":-87.65583233136104},
{"STATE":"IL","ZIP":60611,"LATTITUDE":41.890971229645146,"ADDRESS":"500 N MICHIGAN AVE 3 300","YEAR":2011,"DOING_BUSINESS_AS_NAME":"GLOBAL LOGISTICS GROUP","POP_AT_RISK":896545,"BUSINESS_TYPE":"Automatic Amusement Device Operator","LEGAL_NAME":"STEVE J TAYLOR","LONGITUDE":-87.6242769455621},
{"STATE":"IL","ZIP":60651,"LATTITUDE":41.905842919754804,"ADDRESS":"1404 N MASON AVE  ","YEAR":2011,"DOING_BUSINESS_AS_NAME":"EARNEST THOMPSON","POP_AT_RISK":174045,"BUSINESS_TYPE":"Automatic Amusement Device Operator","LEGAL_NAME":"EARNEST THOMPSON","LONGITUDE":-87.77442138793354},
{"STATE":"IL","ZIP":60657,"LATTITUDE":41.94574570576034,"ADDRESS":"3470 N LAKE SHORE DR  ","YEAR":2011,"DOING_BUSINESS_AS_NAME":"INTER CITY AMUSEMENT","POP_AT_RISK":1089920,"BUSINESS_TYPE":"Automatic Amusement Device Operator","LEGAL_NAME":"EDWARD CZYZOWICZ","LONGITUDE":-87.64195455215297},
{"STATE":"IL","ZIP":60191,"LATTITUDE":41.962586980460735,"ADDRESS":"393 E MONTROSE DR HOUSE ","YEAR":2011,"DOING_BUSINESS_AS_NAME":"FRONTERA AMUSEMENT","POP_AT_RISK":128148,"BUSINESS_TYPE":"Automatic Amusement Device Operator","LEGAL_NAME":"MIKE A. FRONTIER","LONGITUDE":-87.64056884251521},
{"STATE":"IL","ZIP":60620,"LATTITUDE":41.75636252722522,"ADDRESS":"400 W 76TH ST 3RD 305","YEAR":2011,"DOING_BUSINESS_AS_NAME":"SAVVY AFFAIRS","POP_AT_RISK":296872,"BUSINESS_TYPE":"Automatic Amusement Device Operator","LEGAL_NAME":"PATRICIA A PRATT","LONGITUDE":-87.63450381551364},
{"STATE":"IL","ZIP":60616,"LATTITUDE":41.8554319990211,"ADDRESS":"2001 S MICHIGAN AVE  18-A","YEAR":2011,"DOING_BUSINESS_AS_NAME":"SOULFUL STRUT MUSIC","POP_AT_RISK":189468,"BUSINESS_TYPE":"Automatic Amusement Device Operator","LEGAL_NAME":"WAYNE LEE STEELS","LONGITUDE":-87.62372821557055},
{"STATE":"IL","ZIP":60622,"LATTITUDE":41.895793652136916,"ADDRESS":"2622 W CHICAGO AVE 1 ","YEAR":2011,"DOING_BUSINESS_AS_NAME":"BLUE BIRD MUSIC LLC","POP_AT_RISK":97834,"BUSINESS_TYPE":"Automatic Amusement Device Operator","LEGAL_NAME":"BLUE BIRD MUSIC LLC","LONGITUDE":-87.6927387191534},
{"STATE":"IL","ZIP":60626,"LATTITUDE":41.998144211866624,"ADDRESS":"6402 N CLARK ST 1ST ","YEAR":2011,"DOING_BUSINESS_AS_NAME":"DINOS GAMES","POP_AT_RISK":969960,"BUSINESS_TYPE":"Automatic Amusement Device Operator","LEGAL_NAME":"DSG AMUSEMENT, LTD.","LONGITUDE":-87.67076765338122},
{"STATE":"IL","ZIP":60651,"LATTITUDE":41.90115137738562,"ADDRESS":"1120 N CICERO AVE  1ST","YEAR":2011,"DOING_BUSINESS_AS_NAME":"DEARBORN MUSIC","POP_AT_RISK":444770,"BUSINESS_TYPE":"Automatic Amusement Device Operator","LEGAL_NAME":"LEGACY AMUSEMENT CO","LONGITUDE":-87.7460885362502},
{"STATE":"IL","ZIP":60609,"LATTITUDE":41.811016654761566,"ADDRESS":"4541 S ASHLAND AVE  ","YEAR":2011,"DOING_BUSINESS_AS_NAME":"VELASQUEZ AUTOMATIC","POP_AT_RISK":435000,"BUSINESS_TYPE":"Automatic Amusement Device Operator","LEGAL_NAME":"VELASQUEZ AUTOMATIC","LONGITUDE":-87.66488779685228},
{"STATE":"IL","ZIP":60642,"LATTITUDE":41.89683169596937,"ADDRESS":"816 N MAY ST  ","YEAR":2011,"DOING_BUSINESS_AS_NAME":"B & O PHONOGRAPH INC","POP_AT_RISK":121047,"BUSINESS_TYPE":"Automatic Amusement Device Operator","LEGAL_NAME":"B&O PHONOGRAPH, INC.","LONGITUDE":-87.65539343607945},
{"STATE":"IL","ZIP":60617,"LATTITUDE":41.74641081851707,"ADDRESS":"8159 S SOUTH CHICAGO AVE 1 ","YEAR":2011,"DOING_BUSINESS_AS_NAME":"KING AMUSEMENTS, INC","POP_AT_RISK":262216,"BUSINESS_TYPE":"Automatic Amusement Device Operator","LEGAL_NAME":"KING AMUSEMENTS, INC","LONGITUDE":-87.57829415717804},
{"STATE":"IL","ZIP":60707,"LATTITUDE":41.92346911894463,"ADDRESS":"6869 W GRAND AVE  ","YEAR":2011,"DOING_BUSINESS_AS_NAME":"WM J HONQUEST & CO INC","POP_AT_RISK":452232,"BUSINESS_TYPE":"Automatic Amusement Device Operator","LEGAL_NAME":"WM. J. HONQUEST & CO.","LONGITUDE":-87.797818415272},
{"STATE":"IL","ZIP":60632,"LATTITUDE":41.801670034831716,"ADDRESS":"5030 S KEDZIE AVE  ","YEAR":2011,"DOING_BUSINESS_AS_NAME":"CHUCK 'E' CHEESE'S","POP_AT_RISK":512235,"BUSINESS_TYPE":"Automatic Amusement Device Operator","LEGAL_NAME":"CEC ENTERTAINMENT, INC.","LONGITUDE":-87.70393836191948},
{"STATE":"IL","ZIP":60634,"LATTITUDE":41.94501011178035,"ADDRESS":"7545 W ADDISON ST 1ST ","YEAR":2011,"DOING_BUSINESS_AS_NAME":"G & A AMUSEMENT LTD","POP_AT_RISK":175602,"BUSINESS_TYPE":"Automatic Amusement Device Operator","LEGAL_NAME":"G & A AMUSEMENT LIMITED","LONGITUDE":-87.81613951887287},
{"STATE":"IL","ZIP":60639,"LATTITUDE":41.927941876789994,"ADDRESS":"4201 W WRIGHTWOOD AVE  100","YEAR":2011,"DOING_BUSINESS_AS_NAME":"MARATHAN AMUSEMENT","POP_AT_RISK":813449,"BUSINESS_TYPE":"Automatic Amusement Device Operator","LEGAL_NAME":"Marathon Amusement Inc.","LONGITUDE":-87.73183685132257},
{"STATE":"IL","ZIP":60617,"LATTITUDE":41.71765142743601,"ADDRESS":"9801 S EWING AVE  ","YEAR":2011,"DOING_BUSINESS_AS_NAME":"T'S VENDING","POP_AT_RISK":43672,"BUSINESS_TYPE":"Automatic Amusement Device Operator","LEGAL_NAME":"THEODORE J. CATTONI JR.","LONGITUDE":-87.53513484814188},
{"STATE":"IL","ZIP":60612,"LATTITUDE":41.89379308914981,"ADDRESS":"700 N SACRAMENTO BLVD  ","YEAR":2011,"DOING_BUSINESS_AS_NAME":"DIAL AMUSEMENT COMPANY","POP_AT_RISK":211700,"BUSINESS_TYPE":"Automatic Amusement Device Operator","LEGAL_NAME":"DIAL AMUSEMENT CO., INC.","LONGITUDE":-87.70229798303369},
{"STATE":"IL","ZIP":60607,"LATTITUDE":41.86921677973378,"ADDRESS":"1421 W TAYLOR ST  ","YEAR":2011,"DOING_BUSINESS_AS_NAME":"ILLINOIS OPERATOR","POP_AT_RISK":371480,"BUSINESS_TYPE":"Automatic Amusement Device Operator","LEGAL_NAME":"ILLINOIS BAR & GRILL INC","LONGITUDE":-87.66249389074504},
{"STATE":"IL","ZIP":60016,"LATTITUDE":41.92162970911281,"ADDRESS":"997  WEBSTER LN  ","YEAR":2011,"DOING_BUSINESS_AS_NAME":"STAR MUSIC CHICAGO, INC.","POP_AT_RISK":914515,"BUSINESS_TYPE":"Automatic Amusement Device Operator","LEGAL_NAME":"STAR MUSIC CHICAGO, INC.","LONGITUDE":-87.65342397353342},
{"STATE":"IL","ZIP":60618,"LATTITUDE":41.95369115107353,"ADDRESS":"3535 W IRVING PARK RD  ","YEAR":2011,"DOING_BUSINESS_AS_NAME":"C CAPPS JUKE BOX SERVICE","POP_AT_RISK":506232,"BUSINESS_TYPE":"Automatic Amusement Device Operator","LEGAL_NAME":"C CAPPS JUKEBOX SERV, INC","LONGITUDE":-87.71680418417465},
{"STATE":"IL","ZIP":60646,"LATTITUDE":41.98863254695654,"ADDRESS":"5906 N KNOX AVE  ","YEAR":2011,"DOING_BUSINESS_AS_NAME":"J NOMDEN & SONS CORP","POP_AT_RISK":62888,"BUSINESS_TYPE":"Automatic Amusement Device Operator","LEGAL_NAME":"J NOMDEN & SONS CORPORATION","LONGITUDE":-87.74550717849543},
{"STATE":"IL","ZIP":60641,"LATTITUDE":41.93507535769654,"ADDRESS":"2957 N CICERO AVE # 1ST","YEAR":2011,"DOING_BUSINESS_AS_NAME":"A & J AMUSEMENT","POP_AT_RISK":443366,"BUSINESS_TYPE":"Automatic Amusement Device Operator","LEGAL_NAME":"JANUSZ WNUK & ANDRZEJ OSEKA","LONGITUDE":-87.74658937829236},
{"STATE":"IL","ZIP":60618,"LATTITUDE":41.95790093498501,"ADDRESS":"4206 N WESTERN AVE  ","YEAR":2011,"DOING_BUSINESS_AS_NAME":"WESTERN AUTOMATIC MUSIC INC","POP_AT_RISK":517734,"BUSINESS_TYPE":"Automatic Amusement Device Operator","LEGAL_NAME":"WESTERN AUTOMATIC MUSIC INC","LONGITUDE":-87.68872829293957},
{"STATE":"IL","ZIP":60628,"LATTITUDE":41.68529437668452,"ADDRESS":"313 E 115TH ST 1ST ","YEAR":2011,"DOING_BUSINESS_AS_NAME":"VALCO VENDING,INC","POP_AT_RISK":113382,"BUSINESS_TYPE":"Automatic Amusement Device Operator","LEGAL_NAME":"ANGELO VALENTE VALCO VEND CO","LONGITUDE":-87.61509232324005},
{"STATE":"IL","ZIP":60632,"LATTITUDE":41.800034054151446,"ADDRESS":"5210 S ARCHER AVE  ","YEAR":2011,"DOING_BUSINESS_AS_NAME":"SIDNEY VANCHIERS & JOS RIGGIO","POP_AT_RISK":209069,"BUSINESS_TYPE":"Automatic Amusement Device Operator","LEGAL_NAME":"SIDNEY VANCHIERS & JOS RIGGIO","LONGITUDE":-87.7349688737846},
{"STATE":"IL","ZIP":60660,"LATTITUDE":41.98374554788806,"ADDRESS":"1130 W BRYN MAWR AVE 1ST ","YEAR":2011,"DOING_BUSINESS_AS_NAME":"CHICAGO AMUSEMENT, INCORPORATED","POP_AT_RISK":739810,"BUSINESS_TYPE":"Automatic Amusement Device Operator","LEGAL_NAME":"CHICAGO AMUSEMENT, INCORPORATED","LONGITUDE":-87.65932157772598},
}