{
{"STATE":"IL","ZIP":60637,"LATTITUDE":41.77527503998271,"ADDRESS":"6550 S COTTAGE GROVE AVE  1","YEAR":2000,"DOING_BUSINESS_AS_NAME":"LITTLE JOHNNY DOLLAR STORE","POP_AT_RISK":438493,"BUSINESS_TYPE":"Limited Business License","LEGAL_NAME":"JOHN EPPS","LONGITUDE":-87.605963353554},
{"STATE":"IL","ZIP":60611,"LATTITUDE":41.90089862165083,"ADDRESS":"72 E OAK ST  LOWER","YEAR":2000,"DOING_BUSINESS_AS_NAME":"HANA IL","POP_AT_RISK":387100,"BUSINESS_TYPE":"Limited Business License","LEGAL_NAME":"HANA K INC","LONGITUDE":-87.6257985377992},
{"STATE":"IL","ZIP":60639,"LATTITUDE":41.913700315408356,"ADDRESS":"1802 N KARLOV AVE 1ST ","YEAR":2000,"DOING_BUSINESS_AS_NAME":"A R CONSTRUCTION","POP_AT_RISK":970496,"BUSINESS_TYPE":"Limited Business License","LEGAL_NAME":"ARTHUR ROSA","LONGITUDE":-87.72904325756264},
{"STATE":"IL","ZIP":60629,"LATTITUDE":41.77935694027923,"ADDRESS":"2410 W 63RD ST  ","YEAR":2000,"DOING_BUSINESS_AS_NAME":"KIM'S HALLMARK","POP_AT_RISK":136359,"BUSINESS_TYPE":"Limited Business License","LEGAL_NAME":"GILBERT KIM","LONGITUDE":-87.68415897793568},
{"STATE":"IL","ZIP":60651,"LATTITUDE":41.902219350908794,"ADDRESS":"5656 W DIVISION ST  ","YEAR":2000,"DOING_BUSINESS_AS_NAME":"FAITH HAIR CREATIONS","POP_AT_RISK":107482,"BUSINESS_TYPE":"Limited Business License","LEGAL_NAME":"SANDRA BELL","LONGITUDE":-87.76793941689144},
{"STATE":"IL","ZIP":60623,"LATTITUDE":41.86101527355532,"ADDRESS":"1451 S PULASKI RD  1","YEAR":2000,"DOING_BUSINESS_AS_NAME":"RICARDO'S BEAUTY SALON","POP_AT_RISK":668864,"BUSINESS_TYPE":"Limited Business License","LEGAL_NAME":"BOBBY WATSON","LONGITUDE":-87.72487213081288},
{"STATE":"IL","ZIP":60636,"LATTITUDE":41.79355547568549,"ADDRESS":"1605 W 55TH BLVD 1ST ","YEAR":2000,"DOING_BUSINESS_AS_NAME":"TNT","POP_AT_RISK":503808,"BUSINESS_TYPE":"Limited Business License","LEGAL_NAME":"TESS DANIELS","LONGITUDE":-87.66481672636839},
{"STATE":"IL","ZIP":60626,"LATTITUDE":42.02108767559389,"ADDRESS":"7658 N PAULINA ST 1ST ","YEAR":2000,"DOING_BUSINESS_AS_NAME":"LA REYNA","POP_AT_RISK":52309,"BUSINESS_TYPE":"Limited Business License","LEGAL_NAME":"ROSARIO ANAYA","LONGITUDE":-87.67322635241626},
{"STATE":"IL","ZIP":60607,"LATTITUDE":41.878043475002826,"ADDRESS":"820 W JACKSON BLVD 6 650","YEAR":2000,"DOING_BUSINESS_AS_NAME":"ACCESS ONE,INC","POP_AT_RISK":84118,"BUSINESS_TYPE":"Limited Business License","LEGAL_NAME":"ACCESS ONE INC","LONGITUDE":-87.64818021093538},
{"STATE":"IL","ZIP":60651,"LATTITUDE":41.89529443648523,"ADDRESS":"3819 W CHICAGO AVE  STREE","YEAR":2000,"DOING_BUSINESS_AS_NAME":"W & S HARDWARE","POP_AT_RISK":297612,"BUSINESS_TYPE":"Limited Business License","LEGAL_NAME":"BYRON WILLIAMS","LONGITUDE":-87.72207424450892},
{"STATE":"IL","ZIP":60651,"LATTITUDE":41.89488681369428,"ADDRESS":"5812 W CHICAGO AVE 1ST ","YEAR":2000,"DOING_BUSINESS_AS_NAME":"D\/C VARIATY STORE","POP_AT_RISK":154485,"BUSINESS_TYPE":"Limited Business License","LEGAL_NAME":"DOROTHY SUTTON","LONGITUDE":-87.77084292979197},
{"STATE":"IL","ZIP":60647,"LATTITUDE":41.91183354063022,"ADDRESS":"1655 N WESTERN AVE  ","YEAR":2000,"DOING_BUSINESS_AS_NAME":"AMERICAN CAR CO","POP_AT_RISK":500843,"BUSINESS_TYPE":"Limited Business License","LEGAL_NAME":"AMERICAN CAR CO","LONGITUDE":-87.6871137768073},
{"STATE":"IL","ZIP":60657,"LATTITUDE":41.93948895973408,"ADDRESS":"1905 W BELMONT AVE  ","YEAR":2000,"DOING_BUSINESS_AS_NAME":"BARRY SIGNS INC","POP_AT_RISK":1444584,"BUSINESS_TYPE":"Limited Business License","LEGAL_NAME":"BARRY SIGNS INC","LONGITUDE":-87.67620086143725},
{"STATE":"IL","ZIP":60621,"LATTITUDE":41.76876505281918,"ADDRESS":"6909 S WENTWORTH AVE 1ST ","YEAR":2000,"DOING_BUSINESS_AS_NAME":"THE HAIR NET","POP_AT_RISK":73236,"BUSINESS_TYPE":"Limited Business License","LEGAL_NAME":"CHARLOTTE DAVIS","LONGITUDE":-87.62971184540363},
{"STATE":"IL","ZIP":60621,"LATTITUDE":41.77979825295811,"ADDRESS":"6259 S HALSTED ST 1ST ","YEAR":2000,"DOING_BUSINESS_AS_NAME":"C'S & E'S CARDS, GIFT &BALLONS","POP_AT_RISK":227528,"BUSINESS_TYPE":"Limited Business License","LEGAL_NAME":"EVLYNE TRIPLETT","LONGITUDE":-87.6446409358004},
{"STATE":"IL","ZIP":60640,"LATTITUDE":41.97547539863465,"ADDRESS":"5129 N BROADWAY  1ST ","YEAR":2000,"DOING_BUSINESS_AS_NAME":"THE WARM UP INC","POP_AT_RISK":868236,"BUSINESS_TYPE":"Limited Business License","LEGAL_NAME":"THE WARM UP INC","LONGITUDE":-87.65969701169435},
{"STATE":"IL","ZIP":60619,"LATTITUDE":41.75393323701399,"ADDRESS":"7732 S COTTAGE GROVE AVE 1ST ","YEAR":2000,"DOING_BUSINESS_AS_NAME":"DAVIS RUSSELL MANAGEMENT","POP_AT_RISK":377100,"BUSINESS_TYPE":"Limited Business License","LEGAL_NAME":"CHIAKA PATTERSON","LONGITUDE":-87.60541842597218},
{"STATE":"IL","ZIP":60616,"LATTITUDE":41.856443768568624,"ADDRESS":"1904 S MICHIGAN AVE  ","YEAR":2000,"DOING_BUSINESS_AS_NAME":"SOME LIKE IT BLACK","POP_AT_RISK":28644,"BUSINESS_TYPE":"Limited Business License","LEGAL_NAME":"KELLY RICHARDSON","LONGITUDE":-87.62404717585251},
{"STATE":"IL","ZIP":60642,"LATTITUDE":41.89119801569379,"ADDRESS":"1150 W GRAND AVE 1ST ","YEAR":2000,"DOING_BUSINESS_AS_NAME":"MASTER GAUGE CO.","POP_AT_RISK":134307,"BUSINESS_TYPE":"Limited Business License","LEGAL_NAME":"MASTER GAUGE CO.","LONGITUDE":-87.65663264663672},
{"STATE":"IL","ZIP":60656,"LATTITUDE":41.97926005682032,"ADDRESS":"6835 W HIGGINS AVE  203","YEAR":2000,"DOING_BUSINESS_AS_NAME":"DIVERSIFIED FOOD BROKERS","POP_AT_RISK":83984,"BUSINESS_TYPE":"Limited Business License","LEGAL_NAME":"S M & R T LAMICK","LONGITUDE":-87.79889338785712},
{"STATE":"IL","ZIP":60625,"LATTITUDE":41.967940961692236,"ADDRESS":"2006 W GIDDINGS ST 1ST ","YEAR":2000,"DOING_BUSINESS_AS_NAME":"CHICAGO PAINTING SERVICES","POP_AT_RISK":794846,"BUSINESS_TYPE":"Limited Business License","LEGAL_NAME":"DONACIANO SALDANA","LONGITUDE":-87.67948531158788},
{"STATE":"IL","ZIP":60660,"LATTITUDE":41.99081369448628,"ADDRESS":"1920 W PETERSON AVE 1ST ","YEAR":2000,"DOING_BUSINESS_AS_NAME":"CARR'S HONDA","POP_AT_RISK":579300,"BUSINESS_TYPE":"Limited Business License","LEGAL_NAME":"D.B.C. CORPORATION","LONGITUDE":-87.67801110195823},
{"STATE":"IL","ZIP":60628,"LATTITUDE":41.706376092441424,"ADDRESS":"10317 S HALSTED ST 1ST ","YEAR":2000,"DOING_BUSINESS_AS_NAME":"CLOUD NINE GIFTS","POP_AT_RISK":246720,"BUSINESS_TYPE":"Limited Business License","LEGAL_NAME":"JACQUELINE LEONARD","LONGITUDE":-87.64267056346134},
{"STATE":"IL","ZIP":60616,"LATTITUDE":41.85180999820332,"ADDRESS":"2237 S WENTWORTH AVE  1","YEAR":2000,"DOING_BUSINESS_AS_NAME":"CHICAGO FUNWEAR COMPANY","POP_AT_RISK":354192,"BUSINESS_TYPE":"Limited Business License","LEGAL_NAME":"RONALD & TERRY HOY","LONGITUDE":-87.63184266453938},
{"STATE":"IL","ZIP":60625,"LATTITUDE":41.9681333106261,"ADDRESS":"3959 W LAWRENCE AVE 1ST ","YEAR":2000,"DOING_BUSINESS_AS_NAME":"LAWRENCE DOLLAR PLUS","POP_AT_RISK":67391,"BUSINESS_TYPE":"Limited Business License","LEGAL_NAME":"ABDULLA SALEH SAEED","LONGITUDE":-87.72796442844874},
{"STATE":"IL","ZIP":60629,"LATTITUDE":41.78635470765776,"ADDRESS":"2635 W 59TH ST 1ST ","YEAR":2000,"DOING_BUSINESS_AS_NAME":"CENTRAL CREDIT","POP_AT_RISK":354915,"BUSINESS_TYPE":"Limited Business License","LEGAL_NAME":"CENTRAL CREDIT CORP","LONGITUDE":-87.6900788077558},
{"STATE":"IL","ZIP":60622,"LATTITUDE":41.91695917231451,"ADDRESS":"1907 N MENDELL ST 1ST ","YEAR":2000,"DOING_BUSINESS_AS_NAME":"ROMMEL GRAPHICS INC","POP_AT_RISK":105820,"BUSINESS_TYPE":"Limited Business License","LEGAL_NAME":"ROMMEL GRAPHICS INC","LONGITUDE":-87.6653508467249},
{"STATE":"IL","ZIP":60608,"LATTITUDE":41.857359616989356,"ADDRESS":"1818 S PAULINA ST  1ST","YEAR":2000,"DOING_BUSINESS_AS_NAME":"DURANGO CONSTRUCTION","POP_AT_RISK":482964,"BUSINESS_TYPE":"Limited Business License","LEGAL_NAME":"DURANGO CONSTRUCTION","LONGITUDE":-87.66878702544355},
{"STATE":"IL","ZIP":60638,"LATTITUDE":41.79624915577635,"ADDRESS":"5333 S LARAMIE AVE 2 203","YEAR":2000,"DOING_BUSINESS_AS_NAME":"MARCA MED MGMT","POP_AT_RISK":40988,"BUSINESS_TYPE":"Limited Business License","LEGAL_NAME":"MARCA INDUSTRIES INC","LONGITUDE":-87.75245264211209},
{"STATE":"IL","ZIP":60618,"LATTITUDE":41.96111627753211,"ADDRESS":"3802 W MONTROSE AVE 1ST ","YEAR":2000,"DOING_BUSINESS_AS_NAME":"KOEHLER BINDERY INC","POP_AT_RISK":252708,"BUSINESS_TYPE":"Limited Business License","LEGAL_NAME":"KOEHLER BINDERY, INC.","LONGITUDE":-87.72307865691988},
{"STATE":"IL","ZIP":60634,"LATTITUDE":41.95300313037018,"ADDRESS":"4118 N NASHVILLE AVE  1ST","YEAR":2000,"DOING_BUSINESS_AS_NAME":"COMMERCIAL COSMETICS INC","POP_AT_RISK":277920,"BUSINESS_TYPE":"Limited Business License","LEGAL_NAME":"COMMERCIAL COSMETICS INC","LONGITUDE":-87.79150420345749},
{"STATE":"IL","ZIP":60622,"LATTITUDE":41.895833732299465,"ADDRESS":"2444  -02448 W CHICAGO AVE 1ST ","YEAR":2000,"DOING_BUSINESS_AS_NAME":"MICHAEL GOSS PHOTOGRAPHY INC","POP_AT_RISK":50515,"BUSINESS_TYPE":"Limited Business License","LEGAL_NAME":"MICHAEL GOSS PHOTOGRAPHY INC","LONGITUDE":-87.68859479049021},
{"STATE":"IL","ZIP":60656,"LATTITUDE":41.979968022314495,"ADDRESS":"5521 N CUMBERLAND AVE  ","YEAR":2000,"DOING_BUSINESS_AS_NAME":"NOKIA TELECOMMUNICATIONS","POP_AT_RISK":26948,"BUSINESS_TYPE":"Limited Business License","LEGAL_NAME":"NOKIA TELECOMMUNICATIONS INC","LONGITUDE":-87.83643446265243},
{"STATE":"IL","ZIP":60651,"LATTITUDE":41.89969525822016,"ADDRESS":"1033 N CICERO AVE  ","YEAR":2000,"DOING_BUSINESS_AS_NAME":"EASTERN-SHELNOR, INC","POP_AT_RISK":182764,"BUSINESS_TYPE":"Limited Business License","LEGAL_NAME":"SHEL-NOR MILLS CONSUMER PROD","LONGITUDE":-87.74576749777188},
{"STATE":"IL","ZIP":60614,"LATTITUDE":41.911230777637876,"ADDRESS":"1611 N SHEFFIELD AVE 1ST ","YEAR":2000,"DOING_BUSINESS_AS_NAME":"GAL-CARR","POP_AT_RISK":193996,"BUSINESS_TYPE":"Limited Business License","LEGAL_NAME":"CESAR GALVAN\/RICARDO CARRILLO","LONGITUDE":-87.65297533893204},
{"STATE":"IL","ZIP":60630,"LATTITUDE":41.97234928256036,"ADDRESS":"5033 N ELSTON AVE  1ST F","YEAR":2000,"DOING_BUSINESS_AS_NAME":"CHGO. IL. PULASKI RD. MELDISCO","POP_AT_RISK":133156,"BUSINESS_TYPE":"Limited Business License","LEGAL_NAME":"CHICAGO, IL., PULASKI ROAD.MELDISCO K-M, INC.","LONGITUDE":-87.74682508578468},
}