{
{"STATE":"IL","ZIP":60630,"LATTITUDE":41.9679174064144,"ADDRESS":"5510 W LAWRENCE AVE  1","YEAR":2007,"DOING_BUSINESS_AS_NAME":"PINK POODLE DOG BOUTIQUE","POP_AT_RISK":456130,"BUSINESS_TYPE":"Kennels and Catteries","LEGAL_NAME":"DORIS GRGIN","LONGITUDE":-87.76548452271193},
{"STATE":"IL","ZIP":60657,"LATTITUDE":41.93586261644908,"ADDRESS":"2935 N CLARK ST 1ST ","YEAR":2007,"DOING_BUSINESS_AS_NAME":"SCRUB YOUR PUP","POP_AT_RISK":81987,"BUSINESS_TYPE":"Kennels and Catteries","LEGAL_NAME":"SHEINER INC","LONGITUDE":-87.64719566986746},
{"STATE":"IL","ZIP":60618,"LATTITUDE":41.95383032223158,"ADDRESS":"3806 W IRVING PARK RD  ","YEAR":2007,"DOING_BUSINESS_AS_NAME":"THE DOG HOUSE","POP_AT_RISK":181422,"BUSINESS_TYPE":"Kennels and Catteries","LEGAL_NAME":"BRANDY PRATT","LONGITUDE":-87.72301289914448},
{"STATE":"IL","ZIP":60638,"LATTITUDE":41.7920723897783,"ADDRESS":"6725 W ARCHER AVE  ","YEAR":2007,"DOING_BUSINESS_AS_NAME":"VIP POODLE SALON","POP_AT_RISK":29615,"BUSINESS_TYPE":"Kennels and Catteries","LEGAL_NAME":"MARY JO KRUK","LONGITUDE":-87.79020446550868},
{"STATE":"IL","ZIP":60610,"LATTITUDE":41.911053246073564,"ADDRESS":"109 W NORTH AVE  ","YEAR":2007,"DOING_BUSINESS_AS_NAME":"PAWS-A-TIVELY","POP_AT_RISK":63836,"BUSINESS_TYPE":"Kennels and Catteries","LEGAL_NAME":"BARSHUVAL INC","LONGITUDE":-87.63207656730064},
{"STATE":"IL","ZIP":60657,"LATTITUDE":41.9429740069716,"ADDRESS":"3335 N BROADWAY  1ST ","YEAR":2007,"DOING_BUSINESS_AS_NAME":"HAPPY TAILS","POP_AT_RISK":155796,"BUSINESS_TYPE":"Kennels and Catteries","LEGAL_NAME":"RAY LISKOWSKI","LONGITUDE":-87.64444482980407},
{"STATE":"IL","ZIP":60654,"LATTITUDE":41.89067865972561,"ADDRESS":"457 N UNION AVE 1ST ","YEAR":2007,"DOING_BUSINESS_AS_NAME":"GOOD DOG","POP_AT_RISK":116798,"BUSINESS_TYPE":"Kennels and Catteries","LEGAL_NAME":"H&M DOGS, INC.","LONGITUDE":-87.64567270626955},
{"STATE":"IL","ZIP":60638,"LATTITUDE":41.777771632322505,"ADDRESS":"5935 W 63RD ST  1","YEAR":2007,"DOING_BUSINESS_AS_NAME":"FEE FEE'S","POP_AT_RISK":37876,"BUSINESS_TYPE":"Kennels and Catteries","LEGAL_NAME":"LAURIE BENNETT","LONGITUDE":-87.77048696136391},
{"STATE":"IL","ZIP":60659,"LATTITUDE":41.98327650698798,"ADDRESS":"2406 W BRYN MAWR AVE  ","YEAR":2007,"DOING_BUSINESS_AS_NAME":"4 PAW PALACE","POP_AT_RISK":344550,"BUSINESS_TYPE":"Kennels and Catteries","LEGAL_NAME":"CLAUDIA D. MEDE","LONGITUDE":-87.68976093525394},
{"STATE":"IL","ZIP":60610,"LATTITUDE":41.90377467794377,"ADDRESS":"1166 N LA SALLE DR 1 ","YEAR":2007,"DOING_BUSINESS_AS_NAME":"YOU DIRTY DOG","POP_AT_RISK":81861,"BUSINESS_TYPE":"Kennels and Catteries","LEGAL_NAME":"EDWARD LISCINSKI","LONGITUDE":-87.63306392693494},
{"STATE":"IL","ZIP":60614,"LATTITUDE":41.922245035796124,"ADDRESS":"2228 N CLYBOURN AVE  ","YEAR":2007,"DOING_BUSINESS_AS_NAME":"POOCH CHICAGO","POP_AT_RISK":56655,"BUSINESS_TYPE":"Kennels and Catteries","LEGAL_NAME":"POOCH HOTEL,INC.","LONGITUDE":-87.66548643819107},
{"STATE":"IL","ZIP":60707,"LATTITUDE":41.90909396170177,"ADDRESS":"6916 W NORTH AVE  ","YEAR":2007,"DOING_BUSINESS_AS_NAME":"LE POOCH SALON","POP_AT_RISK":72654,"BUSINESS_TYPE":"Kennels and Catteries","LEGAL_NAME":"SANDRA S PORRATA","LONGITUDE":-87.79796341179787},
{"STATE":"IL","ZIP":60655,"LATTITUDE":41.69137086814189,"ADDRESS":"11104 S KEDZIE AVE  ","YEAR":2007,"DOING_BUSINESS_AS_NAME":"POSH PET DAY SPA","POP_AT_RISK":24012,"BUSINESS_TYPE":"Kennels and Catteries","LEGAL_NAME":"MELISSA A. HICKEY","LONGITUDE":-87.70096676099419},
{"STATE":"IL","ZIP":60655,"LATTITUDE":41.703470270354465,"ADDRESS":"10429 S KEDZIE AVE 1ST ","YEAR":2007,"DOING_BUSINESS_AS_NAME":"PARK PET SHOP INC","POP_AT_RISK":104644,"BUSINESS_TYPE":"Kennels and Catteries","LEGAL_NAME":"PARK PET SHOP INC.","LONGITUDE":-87.70110404556713},
{"STATE":"IL","ZIP":60659,"LATTITUDE":41.99037818039852,"ADDRESS":"2449 W PETERSON AVE  ","YEAR":2007,"DOING_BUSINESS_AS_NAME":"COMPANIONABILITY","POP_AT_RISK":235868,"BUSINESS_TYPE":"Kennels and Catteries","LEGAL_NAME":"COMPANIONABLITY LLC","LONGITUDE":-87.69164556774892},
{"STATE":"IL","ZIP":60618,"LATTITUDE":41.95409737229995,"ADDRESS":"2442 W IRVING PARK RD  ","YEAR":2007,"DOING_BUSINESS_AS_NAME":"BARKING LOT INC","POP_AT_RISK":61831,"BUSINESS_TYPE":"Kennels and Catteries","LEGAL_NAME":"THE BARKING LOT INC.","LONGITUDE":-87.69015918396562},
{"STATE":"IL","ZIP":60618,"LATTITUDE":41.93503163276348,"ADDRESS":"2945 N ELSTON AVE  ","YEAR":2007,"DOING_BUSINESS_AS_NAME":"LUCKY DOG PET SERVICE","POP_AT_RISK":170728,"BUSINESS_TYPE":"Kennels and Catteries","LEGAL_NAME":"LUCKY DOG PET SERVICES","LONGITUDE":-87.69175414089078},
{"STATE":"IL","ZIP":60617,"LATTITUDE":41.74520313210401,"ADDRESS":"8227 S STONY ISLAND AVE  ","YEAR":2007,"DOING_BUSINESS_AS_NAME":"PET SALON","POP_AT_RISK":248424,"BUSINESS_TYPE":"Kennels and Catteries","LEGAL_NAME":"CECELIA S BROADUS-JONES","LONGITUDE":-87.5852403134437},
{"STATE":"IL","ZIP":60639,"LATTITUDE":41.91316403773453,"ADDRESS":"1760 N KILBOURN AVE  ","YEAR":2007,"DOING_BUSINESS_AS_NAME":"ALL FOR DOGGIES","POP_AT_RISK":691292,"BUSINESS_TYPE":"Kennels and Catteries","LEGAL_NAME":"BEST FRIENDS PET CARE INC","LONGITUDE":-87.73883770160896},
{"STATE":"IL","ZIP":60622,"LATTITUDE":41.91138058978088,"ADDRESS":"1628 N ELSTON AVE  ","YEAR":2007,"DOING_BUSINESS_AS_NAME":"WINDY CITY K-9 CLUB","POP_AT_RISK":204012,"BUSINESS_TYPE":"Kennels and Catteries","LEGAL_NAME":"BEST FRIENDS PET CARE INC","LONGITUDE":-87.66281673422567},
{"STATE":"IL","ZIP":60657,"LATTITUDE":41.94354549152354,"ADDRESS":"3404 N ASHLAND AVE  1","YEAR":2007,"DOING_BUSINESS_AS_NAME":"LET'S PET","POP_AT_RISK":64651,"BUSINESS_TYPE":"Kennels and Catteries","LEGAL_NAME":"MARY SOPIARZ & TARA ADLIN","LONGITUDE":-87.6689158099772},
{"STATE":"IL","ZIP":60607,"LATTITUDE":41.88035142248382,"ADDRESS":"843 W MONROE ST 1 1-A","YEAR":2007,"DOING_BUSINESS_AS_NAME":"MONROE ST GROOMING STUDIO","POP_AT_RISK":150740,"BUSINESS_TYPE":"Kennels and Catteries","LEGAL_NAME":"LOGAN SQUARE GROOMING STUDIO INC.","LONGITUDE":-87.64903114992849},
{"STATE":"IL","ZIP":60610,"LATTITUDE":41.890341971280506,"ADDRESS":"440 N ORLEANS ST  ","YEAR":2007,"DOING_BUSINESS_AS_NAME":"PETCO #1965","POP_AT_RISK":65951,"BUSINESS_TYPE":"Kennels and Catteries","LEGAL_NAME":"PETCO ANIMAL SUPPLIES STORES, INC.","LONGITUDE":-87.63714472645873},
}