{
{"STATE":"IL","ZIP":60628,"LATTITUDE":41.67810462150491,"ADDRESS":"106 W 119TH ST  ","YEAR":2007,"DOING_BUSINESS_AS_NAME":"CHILDFIRST LLC","POP_AT_RISK":78180,"BUSINESS_TYPE":"Day Care Center Under 2 and 2 - 6 Years","LEGAL_NAME":"CHILDFIRST LLC","LONGITUDE":-87.62543873888082},
{"STATE":"IL","ZIP":60652,"LATTITUDE":41.74299303153854,"ADDRESS":"8233 S PULASKI RD 1ST ","YEAR":2007,"DOING_BUSINESS_AS_NAME":"THE LEARNING TREE II","POP_AT_RISK":127368,"BUSINESS_TYPE":"Day Care Center Under 2 and 2 - 6 Years","LEGAL_NAME":"GIA GROUP INC.","LONGITUDE":-87.72155821260196},
{"STATE":"IL","ZIP":60649,"LATTITUDE":41.75957929907675,"ADDRESS":"2671-73 E 75TH ST  ","YEAR":2007,"DOING_BUSINESS_AS_NAME":"KIDS COUNT TOO DAYCARE","POP_AT_RISK":29611,"BUSINESS_TYPE":"Day Care Center Under 2 and 2 - 6 Years","LEGAL_NAME":"VERONICA CLARK","LONGITUDE":-87.55891723791517},
{"STATE":"IL","ZIP":60637,"LATTITUDE":41.783980381245314,"ADDRESS":"362-364 E 61ST ST  ","YEAR":2007,"DOING_BUSINESS_AS_NAME":"KIDS COUNT TOO DAYCARE","POP_AT_RISK":132912,"BUSINESS_TYPE":"Day Care Center Under 2 and 2 - 6 Years","LEGAL_NAME":"VERONICA CLARK","LONGITUDE":-87.61646586717478},
{"STATE":"IL","ZIP":60618,"LATTITUDE":41.934280416256804,"ADDRESS":"2905 N LEAVITT ST  ","YEAR":2007,"DOING_BUSINESS_AS_NAME":"MARY CRANE LEAGUE","POP_AT_RISK":1107832,"BUSINESS_TYPE":"Day Care Center Under 2 and 2 - 6 Years","LEGAL_NAME":"MARY CRANE LEAGUE","LONGITUDE":-87.68290782429251},
{"STATE":"IL","ZIP":60607,"LATTITUDE":41.869219246745565,"ADDRESS":"1417 W TAYLOR ST 1 & 2 ","YEAR":2007,"DOING_BUSINESS_AS_NAME":"TAYLOR TOTS CHILD DEVELOPMENT","POP_AT_RISK":37148,"BUSINESS_TYPE":"Day Care Center Under 2 and 2 - 6 Years","LEGAL_NAME":"TAYLOR TOTS, INC.","LONGITUDE":-87.6623354074544},
{"STATE":"IL","ZIP":60620,"LATTITUDE":41.74040790067068,"ADDRESS":"8422 S DAMEN AVE 1ST ","YEAR":2007,"DOING_BUSINESS_AS_NAME":"ALPHA LEARNING CENTER","POP_AT_RISK":39428,"BUSINESS_TYPE":"Day Care Center Under 2 and 2 - 6 Years","LEGAL_NAME":"ALPHA LEARNING CENTER","LONGITUDE":-87.67304765547495},
{"STATE":"IL","ZIP":60641,"LATTITUDE":41.959526803588645,"ADDRESS":"4328-4332 N MILWAUKEE AVE  ","YEAR":2007,"DOING_BUSINESS_AS_NAME":"KIDS IN HARMONY DAYSCHOOL","POP_AT_RISK":317832,"BUSINESS_TYPE":"Day Care Center Under 2 and 2 - 6 Years","LEGAL_NAME":"KIDS IN HARMONY, INC.","LONGITUDE":-87.75369469746808},
{"STATE":"IL","ZIP":60608,"LATTITUDE":41.83244831660045,"ADDRESS":"3356 S ASHLAND AVE  ","YEAR":2007,"DOING_BUSINESS_AS_NAME":"CHILDREN'S   WORLD","POP_AT_RISK":33000,"BUSINESS_TYPE":"Day Care Center Under 2 and 2 - 6 Years","LEGAL_NAME":"MONTILLA  CORPORATION","LONGITUDE":-87.66575382270032},
{"STATE":"IL","ZIP":60612,"LATTITUDE":41.87786014089072,"ADDRESS":"212 S FRANCISCO AVE  ","YEAR":2007,"DOING_BUSINESS_AS_NAME":"MARILLAC SOCIAL CENTER INC.","POP_AT_RISK":71312,"BUSINESS_TYPE":"Day Care Center Under 2 and 2 - 6 Years","LEGAL_NAME":"MARILLAC SOCIAL CENTER","LONGITUDE":-87.69877543162723},
{"STATE":"IL","ZIP":60620,"LATTITUDE":41.73446701163011,"ADDRESS":"8748 S ABERDEEN ST  ","YEAR":2007,"DOING_BUSINESS_AS_NAME":"LITTLE ELITE CHILD CARE","POP_AT_RISK":184470,"BUSINESS_TYPE":"Day Care Center Under 2 and 2 - 6 Years","LEGAL_NAME":"LITTLE ELITE CHILD CARE","LONGITUDE":-87.6510242176779},
{"STATE":"IL","ZIP":60637,"LATTITUDE":41.780145279240806,"ADDRESS":"22 E 63RD ST  ","YEAR":2007,"DOING_BUSINESS_AS_NAME":"DISNEI LEARNING ACADEMY","POP_AT_RISK":67926,"BUSINESS_TYPE":"Day Care Center Under 2 and 2 - 6 Years","LEGAL_NAME":"RAYMOND DEMOND CURINGTON","LONGITUDE":-87.62448620771251},
{"STATE":"IL","ZIP":60659,"LATTITUDE":41.98538950526786,"ADDRESS":"5715 N LINCOLN AVE  ","YEAR":2007,"DOING_BUSINESS_AS_NAME":"BLOOMING BUD DAYCARE","POP_AT_RISK":364875,"BUSINESS_TYPE":"Day Care Center Under 2 and 2 - 6 Years","LEGAL_NAME":"BLOOMING BUD  DAYCARE INC","LONGITUDE":-87.69873407149943},
{"STATE":"IL","ZIP":60618,"LATTITUDE":41.961124962789185,"ADDRESS":"3748 W MONTROSE AVE 1 ","YEAR":2007,"DOING_BUSINESS_AS_NAME":"GATEWAY MONTESSORI SCHOOL, INC","POP_AT_RISK":379062,"BUSINESS_TYPE":"Day Care Center Under 2 and 2 - 6 Years","LEGAL_NAME":"GATEWAY MONTESSORI SCHOOL","LONGITUDE":-87.72247677282148},
{"STATE":"IL","ZIP":60640,"LATTITUDE":41.96915695630021,"ADDRESS":"1108 W LAWRENCE AVE 1ST ","YEAR":2007,"DOING_BUSINESS_AS_NAME":"ABC & ME TODDLER CENTER,INC","POP_AT_RISK":771166,"BUSINESS_TYPE":"Day Care Center Under 2 and 2 - 6 Years","LEGAL_NAME":"ABC & ME TODDLER CENTER,INC","LONGITUDE":-87.65802546439097},
{"STATE":"IL","ZIP":60649,"LATTITUDE":41.76603438608735,"ADDRESS":"2255-2257 E 71ST ST  ","YEAR":2007,"DOING_BUSINESS_AS_NAME":"AHADI EARLY LEARNING CENTER","POP_AT_RISK":183550,"BUSINESS_TYPE":"Day Care Center Under 2 and 2 - 6 Years","LEGAL_NAME":"AHADI EARLY LEARNING CENTER","LONGITUDE":-87.5691774287933},
{"STATE":"IL","ZIP":60636,"LATTITUDE":41.793071779047345,"ADDRESS":"5522 S RACINE AVE  ","YEAR":2007,"DOING_BUSINESS_AS_NAME":"ALLISON'S INFANT & TODDLER CENTER","POP_AT_RISK":214956,"BUSINESS_TYPE":"Day Care Center Under 2 and 2 - 6 Years","LEGAL_NAME":"ALLISON  R PERKINS-CALDWELL","LONGITUDE":-87.65499418422684},
{"STATE":"IL","ZIP":60651,"LATTITUDE":41.894872435106244,"ADDRESS":"5836-5838 W CHICAGO AVE 1 ","YEAR":2007,"DOING_BUSINESS_AS_NAME":"KIDDIE KORRAL ACADEMY","POP_AT_RISK":494874,"BUSINESS_TYPE":"Day Care Center Under 2 and 2 - 6 Years","LEGAL_NAME":"KIDDIE KORRAL ACADEMY, INC.","LONGITUDE":-87.77179591291225},
{"STATE":"IL","ZIP":60626,"LATTITUDE":42.018266967047175,"ADDRESS":"7510 N ASHLAND AVE  ","YEAR":2007,"DOING_BUSINESS_AS_NAME":"HOWARD AREA COMMUNITY CENTER","POP_AT_RISK":595683,"BUSINESS_TYPE":"Day Care Center Under 2 and 2 - 6 Years","LEGAL_NAME":"HOWARD AREA COMMUNITY CENTER","LONGITUDE":-87.67146123134698},
{"STATE":"IL","ZIP":60639,"LATTITUDE":41.924235040980825,"ADDRESS":"4447-4455 W FULLERTON AVE  ","YEAR":2007,"DOING_BUSINESS_AS_NAME":"KIDSLIFE DAYCARE CENTER","POP_AT_RISK":402684,"BUSINESS_TYPE":"Day Care Center Under 2 and 2 - 6 Years","LEGAL_NAME":"KIDSLIFE DAYCARE CENTER INC.","LONGITUDE":-87.73846463841794},
{"STATE":"IL","ZIP":60629,"LATTITUDE":41.7788532281178,"ADDRESS":"3215 W 63RD ST  ","YEAR":2007,"DOING_BUSINESS_AS_NAME":"METROPOLITAN FAMILY SERVICES MIDWAY CHILDCARE CENTER","POP_AT_RISK":62644,"BUSINESS_TYPE":"Day Care Center Under 2 and 2 - 6 Years","LEGAL_NAME":"METROPOLITAN FAMILY SERVICES","LONGITUDE":-87.70378111914683},
{"STATE":"IL","ZIP":60628,"LATTITUDE":41.72165071815577,"ADDRESS":"532 W 95TH ST  ","YEAR":2007,"DOING_BUSINESS_AS_NAME":"TRINITY UNITED CH. OF CHRIST","POP_AT_RISK":26292,"BUSINESS_TYPE":"Day Care Center Under 2 and 2 - 6 Years","LEGAL_NAME":"TRINITY UNITED CHURCH\/CHRIST","LONGITUDE":-87.63721721335074},
{"STATE":"IL","ZIP":60639,"LATTITUDE":41.92551454275905,"ADDRESS":"2445 N LARAMIE AVE  ","YEAR":2007,"DOING_BUSINESS_AS_NAME":"MEMITO'S ACADEMY FOR CHILDREN","POP_AT_RISK":499208,"BUSINESS_TYPE":"Day Care Center Under 2 and 2 - 6 Years","LEGAL_NAME":"BETANCOURT URBINA CORPORATION","LONGITUDE":-87.75605099694621},
{"STATE":"IL","ZIP":60628,"LATTITUDE":41.70738723875958,"ADDRESS":"300 E 103RD ST 1 ","YEAR":2007,"DOING_BUSINESS_AS_NAME":"CHILD DAY CARE CENTER CORP","POP_AT_RISK":81405,"BUSINESS_TYPE":"Day Care Center Under 2 and 2 - 6 Years","LEGAL_NAME":"TREE OF KNOWLEDGE CORPORATION","LONGITUDE":-87.6161491869261},
{"STATE":"IL","ZIP":60628,"LATTITUDE":41.70711049427704,"ADDRESS":"518 W 103RD ST  ","YEAR":2007,"DOING_BUSINESS_AS_NAME":"WHIZ KIDS NURSERY CENTER INC.","POP_AT_RISK":24741,"BUSINESS_TYPE":"Day Care Center Under 2 and 2 - 6 Years","LEGAL_NAME":"WHIZ KIDS NURSERY CENTER INC.","LONGITUDE":-87.63637125601682},
{"STATE":"IL","ZIP":60616,"LATTITUDE":41.835954885922824,"ADDRESS":"501 E 32ND ST  1ST","YEAR":2007,"DOING_BUSINESS_AS_NAME":"THE CHILDREN'S HOUSE-LK MEADOW","POP_AT_RISK":88104,"BUSINESS_TYPE":"Day Care Center Under 2 and 2 - 6 Years","LEGAL_NAME":"THE CHILDREN'S HOUSE LAKE MEAD","LONGITUDE":-87.61335015397036},
{"STATE":"IL","ZIP":60605,"LATTITUDE":41.86189504867573,"ADDRESS":"1501 S STATE ST  ","YEAR":2007,"DOING_BUSINESS_AS_NAME":"KINDERCARE LEARNING CENTERS","POP_AT_RISK":45563,"BUSINESS_TYPE":"Day Care Center Under 2 and 2 - 6 Years","LEGAL_NAME":"KINDERCARE LEARNING CENTERS LLC","LONGITUDE":-87.62714188742741},
{"STATE":"IL","ZIP":60614,"LATTITUDE":41.91387373080662,"ADDRESS":"1733 N MARCEY ST  ","YEAR":2007,"DOING_BUSINESS_AS_NAME":"KINDERCARE LEARNING CENTERS","POP_AT_RISK":736864,"BUSINESS_TYPE":"Day Care Center Under 2 and 2 - 6 Years","LEGAL_NAME":"KINDERCARE LEARNING CENTERS LLC","LONGITUDE":-87.65509573166496},
{"STATE":"IL","ZIP":60647,"LATTITUDE":41.913925247245835,"ADDRESS":"1800 N HUMBOLDT BLVD 1ST ","YEAR":2007,"DOING_BUSINESS_AS_NAME":"THE CHILDREN'S PLACE ASSN","POP_AT_RISK":1247106,"BUSINESS_TYPE":"Day Care Center Under 2 and 2 - 6 Years","LEGAL_NAME":"THE CHILDREN'S PLACE ASSOCIATION","LONGITUDE":-87.70212764503852},
{"STATE":"IL","ZIP":60619,"LATTITUDE":41.73185210877984,"ADDRESS":"8938-8940 S COTTAGE GROVE AVE  ","YEAR":2007,"DOING_BUSINESS_AS_NAME":"TOTS EXPRESS  LEARNING CENTER","POP_AT_RISK":160062,"BUSINESS_TYPE":"Day Care Center Under 2 and 2 - 6 Years","LEGAL_NAME":"TOTS EXPRESS LEARNING CENTER NFP","LONGITUDE":-87.60485274319225},
{"STATE":"IL","ZIP":60617,"LATTITUDE":41.71321088719611,"ADDRESS":"10009 S YATES AVE  ","YEAR":2007,"DOING_BUSINESS_AS_NAME":"A-ILLINOIS INSTITUTE FOR CHILDREN","POP_AT_RISK":35628,"BUSINESS_TYPE":"Day Care Center Under 2 and 2 - 6 Years","LEGAL_NAME":"A-ILLINOIS INSTITUTE FOR CHILDREN","LONGITUDE":-87.56443615534658},
{"STATE":"IL","ZIP":60656,"LATTITUDE":41.977374595498965,"ADDRESS":"6514-6516 W HIGGINS AVE  ","YEAR":2007,"DOING_BUSINESS_AS_NAME":"MT ARARAT DAYCARE CENTER","POP_AT_RISK":224203,"BUSINESS_TYPE":"Day Care Center Under 2 and 2 - 6 Years","LEGAL_NAME":"MT. ARARAT DAYCARE CENTER, L.L.C.","LONGITUDE":-87.79085428202548},
{"STATE":"IL","ZIP":60644,"LATTITUDE":41.865605626722484,"ADDRESS":"5858 W ROOSEVELT RD 1 ","YEAR":2007,"DOING_BUSINESS_AS_NAME":"CHILDREN INTERNATIONAL ACADEMY","POP_AT_RISK":471762,"BUSINESS_TYPE":"Day Care Center Under 2 and 2 - 6 Years","LEGAL_NAME":"CHILDREN INTERNATIONAL ACADEMY,LLC","LONGITUDE":-87.77161387921645},
{"STATE":"IL","ZIP":60632,"LATTITUDE":41.80943923636859,"ADDRESS":"4606-4610 S PULASKI RD 1ST ","YEAR":2007,"DOING_BUSINESS_AS_NAME":"LIZ-NEY-LAND LEARNING CENTER, INC.","POP_AT_RISK":191944,"BUSINESS_TYPE":"Day Care Center Under 2 and 2 - 6 Years","LEGAL_NAME":"LIZ-NEY-LAND LEARNING CENTER, INC.","LONGITUDE":-87.723789019846},
{"STATE":"IL","ZIP":60625,"LATTITUDE":41.970888597492355,"ADDRESS":"4908 N DAMEN AVE  ","YEAR":2007,"DOING_BUSINESS_AS_NAME":"RAVENSWOOD COMMUNITY DAYCARE, INC.","POP_AT_RISK":203349,"BUSINESS_TYPE":"Day Care Center Under 2 and 2 - 6 Years","LEGAL_NAME":"RAVENSWOOD COMMUNITY DAYCARE, INC.","LONGITUDE":-87.67939623289391},
{"STATE":"IL","ZIP":60629,"LATTITUDE":41.784667360966026,"ADDRESS":"5954 S ALBANY AVE 1ST ","YEAR":2007,"DOING_BUSINESS_AS_NAME":"ALBANY CHILD CARE CENTER","POP_AT_RISK":71718,"BUSINESS_TYPE":"Day Care Center Under 2 and 2 - 6 Years","LEGAL_NAME":"IMPROVED CHILD CARE MANAGEMENT SERV","LONGITUDE":-87.7010111792713},
{"STATE":"IL","ZIP":60643,"LATTITUDE":41.70921709772374,"ADDRESS":"10126 S WESTERN AVE  ","YEAR":2007,"DOING_BUSINESS_AS_NAME":"LITTLE LAMB  SCHOLASTIC ACADEMY","POP_AT_RISK":97988,"BUSINESS_TYPE":"Day Care Center Under 2 and 2 - 6 Years","LEGAL_NAME":"LITTLE LAMB SCHOLASTIC ACADEMY INC.","LONGITUDE":-87.68185356852545},
{"STATE":"IL","ZIP":60623,"LATTITUDE":41.853475323255154,"ADDRESS":"3701 W OGDEN AVE  ","YEAR":2007,"DOING_BUSINESS_AS_NAME":"Carole Robertson Center for Learning","POP_AT_RISK":1299420,"BUSINESS_TYPE":"Day Care Center Under 2 and 2 - 6 Years","LEGAL_NAME":"CAROLE ROBERTSON CENTER FOR LEARNING","LONGITUDE":-87.71749061210578},
{"STATE":"IL","ZIP":60617,"LATTITUDE":41.74007573456715,"ADDRESS":"8515 S STONY ISLAND AVE  ","YEAR":2007,"DOING_BUSINESS_AS_NAME":"CREATIVE LEARNING ACADEMY","POP_AT_RISK":89121,"BUSINESS_TYPE":"Day Care Center Under 2 and 2 - 6 Years","LEGAL_NAME":"INSTITUTE FOR CREATIVE LEARNING INC.","LONGITUDE":-87.58512838435209},
{"STATE":"IL","ZIP":60639,"LATTITUDE":41.909687088617126,"ADDRESS":"4243 W NORTH AVE 1ST ","YEAR":2007,"DOING_BUSINESS_AS_NAME":"JOYFUL NOISE CHRISTIAN DAY CARE","POP_AT_RISK":64673,"BUSINESS_TYPE":"Day Care Center Under 2 and 2 - 6 Years","LEGAL_NAME":"JOYFUL NOISE CHRISTIAN DAYCARE, INC.","LONGITUDE":-87.73302403097847},
{"STATE":"IL","ZIP":60707,"LATTITUDE":41.915192484218764,"ADDRESS":"1927-1929 N HARLEM AVE  ","YEAR":2007,"DOING_BUSINESS_AS_NAME":"LOVING TOUCH DAYCARE PROVIDERS INC","POP_AT_RISK":66786,"BUSINESS_TYPE":"Day Care Center Under 2 and 2 - 6 Years","LEGAL_NAME":"LOVING TOUCH DAYCARE PROVIDERS, INC.","LONGITUDE":-87.80582794273202},
{"STATE":"IL","ZIP":60601,"LATTITUDE":41.88637740620821,"ADDRESS":"225 N MICHIGAN AVE  GROUND","YEAR":2007,"DOING_BUSINESS_AS_NAME":"BRIGHT HORIZONS CHICAGO EAST LOOP","POP_AT_RISK":131628,"BUSINESS_TYPE":"Day Care Center Under 2 and 2 - 6 Years","LEGAL_NAME":"BRIGHT HORIZONS CHILDREN'S CENTERS LLC","LONGITUDE":-87.62438167043969},
{"STATE":"IL","ZIP":60609,"LATTITUDE":41.82814608618307,"ADDRESS":"3630 S WELLS ST  105","YEAR":2007,"DOING_BUSINESS_AS_NAME":"NEAR SOUTH SIDE CHILD DEVELOPMENT CENTER","POP_AT_RISK":89514,"BUSINESS_TYPE":"Day Care Center Under 2 and 2 - 6 Years","LEGAL_NAME":"EASTER SEALS METROPOLITAN CHICAGO, INC.","LONGITUDE":-87.63279369197866},
{"STATE":"IL","ZIP":60644,"LATTITUDE":41.88064378804554,"ADDRESS":"4650 W MADISON ST  ","YEAR":2007,"DOING_BUSINESS_AS_NAME":"HLCDC DEVELOPMENT #2","POP_AT_RISK":85442,"BUSINESS_TYPE":"Day Care Center Under 2 and 2 - 6 Years","LEGAL_NAME":"HOME OF LIFE COMMUNITY DEVELOPMENT CORP.","LONGITUDE":-87.7421719266432},
{"STATE":"IL","ZIP":60636,"LATTITUDE":41.77930752464901,"ADDRESS":"1701 W 63RD ST 1&2 ND ","YEAR":2007,"DOING_BUSINESS_AS_NAME":"CHILDREN'S HOME AND AID SOCIETY OF ILLINOIS","POP_AT_RISK":290120,"BUSINESS_TYPE":"Day Care Center Under 2 and 2 - 6 Years","LEGAL_NAME":"CHILDREN'S HOME & AID SOCIETY OF ILLINOIS","LONGITUDE":-87.66672450555792},
{"STATE":"IL","ZIP":60609,"LATTITUDE":41.80113414357615,"ADDRESS":"1935 W 51ST ST 1ST & LOWER LEVEL ","YEAR":2007,"DOING_BUSINESS_AS_NAME":"VIREVA NURSERY SCHOOL","POP_AT_RISK":289086,"BUSINESS_TYPE":"Day Care Center Under 2 and 2 - 6 Years","LEGAL_NAME":"VIREVA NURSERY SCHOOL & KINDERGARTEN, INC.","LONGITUDE":-87.6734440144631},
{"STATE":"IL","ZIP":60620,"LATTITUDE":41.75199654639111,"ADDRESS":"7801 S WOLCOTT AVE  ","YEAR":2007,"DOING_BUSINESS_AS_NAME":"LITTLE HANDS AND FEET LEARNING CENTER","POP_AT_RISK":113156,"BUSINESS_TYPE":"Day Care Center Under 2 and 2 - 6 Years","LEGAL_NAME":"LITTLE HANDS AND FEET LEARNING CENTER, INC.","LONGITUDE":-87.67060879151809},
{"STATE":"IL","ZIP":60653,"LATTITUDE":41.809588233119534,"ADDRESS":"624 - 626 E 47TH ST  ","YEAR":2007,"DOING_BUSINESS_AS_NAME":"PRECIOUS INFANTS & TOTS LEARNING CENTER INC","POP_AT_RISK":332272,"BUSINESS_TYPE":"Day Care Center Under 2 and 2 - 6 Years","LEGAL_NAME":"PRECIOUS INFANTS & TOTS LEARNING CENTER INC.","LONGITUDE":-87.61036179915281},
{"STATE":"IL","ZIP":60617,"LATTITUDE":41.7337610651301,"ADDRESS":"2710 E 89TH ST 1ST ","YEAR":2007,"DOING_BUSINESS_AS_NAME":"YMCA BOWEN FAMILY DEV CENTER","POP_AT_RISK":264952,"BUSINESS_TYPE":"Day Care Center Under 2 and 2 - 6 Years","LEGAL_NAME":"YOUNG MEN'S CHRISTIAN ASSOCIATION OF CHICAGO","LONGITUDE":-87.55775262945247},
{"STATE":"IL","ZIP":60624,"LATTITUDE":41.87847194167412,"ADDRESS":"3250 W ADAMS ST 1ST ","YEAR":2007,"DOING_BUSINESS_AS_NAME":"YMCA MARSHALL FAMILY DEV CENT","POP_AT_RISK":61168,"BUSINESS_TYPE":"Day Care Center Under 2 and 2 - 6 Years","LEGAL_NAME":"YOUNG MEN'S CHRISTIAN ASSOCIATION OF CHICAGO","LONGITUDE":-87.70801612307142},
{"STATE":"IL","ZIP":60643,"LATTITUDE":41.68482697688007,"ADDRESS":"1223-1225 W 115TH ST  ","YEAR":2007,"DOING_BUSINESS_AS_NAME":"GREAT BEGINNING DAYCARE","POP_AT_RISK":45408,"BUSINESS_TYPE":"Day Care Center Under 2 and 2 - 6 Years","LEGAL_NAME":"GREAT BEGINNINGS INFANT & TODDLER DAYCARE, INC.","LONGITUDE":-87.65293805791092},
{"STATE":"IL","ZIP":60608,"LATTITUDE":41.86505135416893,"ADDRESS":"1960 W 13TH ST  ","YEAR":2007,"DOING_BUSINESS_AS_NAME":"NEW ZION CHILD CARE ACADEMY","POP_AT_RISK":150752,"BUSINESS_TYPE":"Day Care Center Under 2 and 2 - 6 Years","LEGAL_NAME":"NEW ZION HUMAN RESOURCE DEVELOPMENT & COUNSELING NETWORK","LONGITUDE":-87.67600728666591},
}