{
{"STATE":"IL","ZIP":60641,"LATTITUDE":41.94169157081146,"ADDRESS":"3336-3342 N MILWAUKEE AVE 1ST ","YEAR":2004,"DOING_BUSINESS_AS_NAME":"MAMBO CAFE","POP_AT_RISK":904470,"BUSINESS_TYPE":"Public Place of Amusement","LEGAL_NAME":"AR & IR, INC.","LONGITUDE":-87.72833822192297},
{"STATE":"IL","ZIP":60647,"LATTITUDE":41.93210985510181,"ADDRESS":"2211 W DIVERSEY PKWY  1ST","YEAR":2004,"DOING_BUSINESS_AS_NAME":"DIVERSEY-RIVER BOWL","POP_AT_RISK":675415,"BUSINESS_TYPE":"Public Place of Amusement","LEGAL_NAME":"IVERCREST INC","LONGITUDE":-87.68361585249846},
{"STATE":"IL","ZIP":60613,"LATTITUDE":41.94852457422423,"ADDRESS":"3641 N HALSTED ST  ","YEAR":2004,"DOING_BUSINESS_AS_NAME":"CIRCUIT","POP_AT_RISK":152890,"BUSINESS_TYPE":"Public Place of Amusement","LEGAL_NAME":"MIKE MACHARELLO","LONGITUDE":-87.6493761225899},
{"STATE":"IL","ZIP":60657,"LATTITUDE":41.939709631139095,"ADDRESS":"1229 W BELMONT AVE 1ST ","YEAR":2004,"DOING_BUSINESS_AS_NAME":"BAILIWICK REPERTORY","POP_AT_RISK":320316,"BUSINESS_TYPE":"Public Place of Amusement","LEGAL_NAME":"BAILIWICK REPERTORY","LONGITUDE":-87.66013484396599},
{"STATE":"IL","ZIP":60623,"LATTITUDE":41.85906468430445,"ADDRESS":"3638 W 16TH ST  ","YEAR":2004,"DOING_BUSINESS_AS_NAME":"Touch II","POP_AT_RISK":921096,"BUSINESS_TYPE":"Public Place of Amusement","LEGAL_NAME":"DENNIS E. QUINNEY SR.","LONGITUDE":-87.71667499753184},
{"STATE":"IL","ZIP":60613,"LATTITUDE":41.94987957621978,"ADDRESS":"3730 N CLARK ST  ","YEAR":2004,"DOING_BUSINESS_AS_NAME":"Metro","POP_AT_RISK":235371,"BUSINESS_TYPE":"Public Place of Amusement","LEGAL_NAME":"STAGES-MUSIC HALL, INC.","LONGITUDE":-87.6588429827861},
{"STATE":"IL","ZIP":60656,"LATTITUDE":41.974588221046915,"ADDRESS":"7300 W FOSTER AVE  ","YEAR":2004,"DOING_BUSINESS_AS_NAME":"LITTLE CAESARS","POP_AT_RISK":125440,"BUSINESS_TYPE":"Public Place of Amusement","LEGAL_NAME":"LITTLE CAESARS EAST, INC.","LONGITUDE":-87.80958568966135},
{"STATE":"IL","ZIP":60622,"LATTITUDE":41.91058512655577,"ADDRESS":"1958 W NORTH AVE  1","YEAR":2004,"DOING_BUSINESS_AS_NAME":"THE TAVERN","POP_AT_RISK":70566,"BUSINESS_TYPE":"Public Place of Amusement","LEGAL_NAME":"MENETTI NORTH AVENUE, LLC","LONGITUDE":-87.67753276477028},
{"STATE":"IL","ZIP":60605,"LATTITUDE":41.87225870806733,"ADDRESS":"754 S WABASH AVE  ","YEAR":2004,"DOING_BUSINESS_AS_NAME":"BUDDY GUY'S LEGENDS","POP_AT_RISK":128394,"BUSINESS_TYPE":"Public Place of Amusement","LEGAL_NAME":"CHECKERBOARD PRODUCTIONS INC","LONGITUDE":-87.62609460974379},
{"STATE":"IL","ZIP":60642,"LATTITUDE":41.89324923448882,"ADDRESS":"825 W ERIE ST  TENT","YEAR":2004,"DOING_BUSINESS_AS_NAME":"MARCHETTI SPECIAL EVENTS, LTD.","POP_AT_RISK":216650,"BUSINESS_TYPE":"Public Place of Amusement","LEGAL_NAME":"MARCHETTI SPECIAL EVENTS, LTD.","LONGITUDE":-87.64879205703046},
{"STATE":"IL","ZIP":60626,"LATTITUDE":42.0103014159201,"ADDRESS":"1770 W GREENLEAF AVE 1ST #","YEAR":2004,"DOING_BUSINESS_AS_NAME":"GALLAGHERS","POP_AT_RISK":1201232,"BUSINESS_TYPE":"Public Place of Amusement","LEGAL_NAME":"1770 WEST GREENLEAF CORPORATION","LONGITUDE":-87.67504930323366},
}